{"type":"FeatureCollection","crs":{"type":"name","properties":{"name":"urn:ogc:def:crs:OGC:1.3:CRS84"}},"features":[{"type":"Feature","properties":{"height":2.9,"gml_id":"bldg_3747c596-64a6-488a-80f0-4ddee6920286"},"geometry":{"type":"Polygon","coordinates":[[[139.8184382533817,35.539174473616384],[139.8184191719803,35.539188172433484],[139.8183819028935,35.53915373460179],[139.81839679302666,35.53914291972944],[139.81841322230198,35.53915806516752],[139.81841730330277,35.53915509107505],[139.8184382533817,35.539174473616384]]]}},{"type":"Feature","properties":{"height":2.9,"gml_id":"bldg_48502f7f-70e2-4bad-819e-083ee85a306f"},"geometry":{"type":"Polygon","coordinates":[[[139.81846736913124,35.53916807731781],[139.81845148627752,35.53917988360872],[139.81840308036038,35.5391362501989],[139.81841907349494,35.539124443927925],[139.81846736913124,35.53916807731781]]]}}]}