{"type":"FeatureCollection","crs":{"type":"name","properties":{"name":"urn:ogc:def:crs:OGC:1.3:CRS84"}},"features":[{"type":"Feature","properties":{"height":3.0,"gml_id":"bldg_a32ffaf4-a813-4550-a497-1ff786b7cc2a"},"geometry":{"type":"Polygon","coordinates":[[[139.80932297098397,35.531019176101736],[139.80931635320226,35.53102422259233],[139.80932340871237,35.53103044361786],[139.80931116583002,35.53103972554154],[139.80928801493118,35.531019349416745],[139.8092849266357,35.53102169242624],[139.8092913206767,35.53102737248518],[139.80927080561247,35.531042782236895],[139.80924115044115,35.53101663588165],[139.80924479022883,35.53101384228624],[139.80923398647332,35.53100437548766],[139.8092495382511,35.530992570328436],[139.80926012149126,35.5310019469422],[139.80926254799758,35.53100014463786],[139.8092708161624,35.53100744758169],[139.80927434562355,35.531004834242246],[139.8092504230878,35.5309836467013],[139.80926189385463,35.530975085745084],[139.8092679571842,35.53098040518157],[139.8092739131765,35.530975899398186],[139.80932297098397,35.531019176101736]]]}},{"type":"Feature","properties":{"height":2.9,"gml_id":"bldg_a6f7bb4b-cb12-4213-8212-ac8ea969110c"},"geometry":{"type":"Polygon","coordinates":[[[139.80727739581877,35.531150986081386],[139.8072326383305,35.531111675612564],[139.80726120565478,35.53108995818857],[139.80730596317403,35.5311291785075],[139.80727739581877,35.531150986081386]]]}},{"type":"Feature","properties":{"height":2.8,"gml_id":"bldg_47b58d4a-7e22-4449-b0ee-3ef5401a8bf6"},"geometry":{"type":"Polygon","coordinates":[[[139.80067454051454,35.52575741619863],[139.80065159838554,35.525775167467785],[139.80062448296158,35.525751633706065],[139.80064742505328,35.52573397258149],[139.80067454051454,35.52575741619863]]]}}]}