{"type":"FeatureCollection","crs":{"type":"name","properties":{"name":"urn:ogc:def:crs:OGC:1.3:CRS84"}},"features":[{"type":"Feature","properties":{"height":7.8,"gml_id":"bldg_5af9f4b4-436a-4d92-9b0f-a49f5998d1ac"},"geometry":{"type":"Polygon","coordinates":[[[139.77519352091636,35.5917193007307],[139.77522008955813,35.591756360471756],[139.77522936252532,35.59175194815558],[139.77524270200146,35.591770523118676],[139.77518507701078,35.591798077714415],[139.7751451689163,35.591742442993485],[139.77519352091636,35.5917193007307]]]}},{"type":"Feature","properties":{"height":2.7,"gml_id":"bldg_cecbaff5-e7ab-4e52-9d64-efcfaeabbf85"},"geometry":{"type":"Polygon","coordinates":[[[139.7754650755924,35.59191106588981],[139.77547877377634,35.5918913321329],[139.7755160612718,35.591908566480996],[139.77550236309403,35.59192830024209],[139.7754650755924,35.59191106588981]]]}}]}