{"type":"FeatureCollection","crs":{"type":"name","properties":{"name":"urn:ogc:def:crs:OGC:1.3:CRS84"}},"features":[{"type":"Feature","properties":{"height":12.8,"gml_id":"bldg_a9576a16-47c4-455a-8643-e64002949c4d"},"geometry":{"type":"Polygon","coordinates":[[[139.69938579008092,35.55737589730916],[139.69927361152884,35.557373519161146],[139.69927490610294,35.55732475542337],[139.69938708443718,35.55732722370883],[139.69938579008092,35.55737589730916]]]}},{"type":"Feature","properties":{"height":3.0,"gml_id":"bldg_57eeb42c-3875-41e2-9283-f27b2ec8d47c"},"geometry":{"type":"Polygon","coordinates":[[[139.6957982235943,35.558304886673746],[139.6957443980536,35.55830194081731],[139.6957459757973,35.55828238246748],[139.69579991163332,35.55828532844902],[139.6957982235943,35.558304886673746]]]}},{"type":"Feature","properties":{"height":23.9,"gml_id":"bldg_55e8a001-55cc-4d96-9ebc-2c3fab554d55"},"geometry":{"type":"Polygon","coordinates":[[[139.69656522261496,35.55829097635651],[139.69658830155066,35.558276580302625],[139.69664226691907,35.55832711930231],[139.69661127194956,35.558326092631255],[139.69661015325224,35.55833528553476],[139.69656522261496,35.55829097635651]]]}},{"type":"Feature","properties":{"height":10.4,"gml_id":"bldg_43d9d5e2-2750-4b6e-8563-0bb9b50f008d"},"geometry":{"type":"Polygon","coordinates":[[[139.69986621775044,35.55728556999838],[139.69984777702464,35.55716422254118],[139.6999058082585,35.55715833760142],[139.69992314809195,35.557278421886416],[139.69986621775044,35.55728556999838]]]}},{"type":"Feature","properties":{"height":15.9,"gml_id":"bldg_6051fa9d-f02f-497c-816b-9d011266400e"},"geometry":{"type":"Polygon","coordinates":[[[139.6996627399232,35.558325187553834],[139.69956491016356,35.55831678627323],[139.6995632351695,35.55832904331145],[139.69942911950616,35.55831726651632],[139.69943057180484,35.55830627117788],[139.69913686256544,35.55828079587125],[139.6991396560311,35.55825934591129],[139.69910954592441,35.55825687864412],[139.69912586805614,35.55812664603512],[139.69968207391202,35.55817422625115],[139.6996627399232,35.558325187553834]]]}},{"type":"Feature","properties":{"height":41.1,"gml_id":"bldg_663628ac-a91a-4fe6-b3e1-d432337572e4"},"geometry":{"type":"Polygon","coordinates":[[[139.69656522261496,35.55829097635651],[139.69647831818358,35.558344870973016],[139.69639030572733,35.5583367486765],[139.69641446682422,35.55814009294258],[139.6964482165106,35.55814283543159],[139.69646475511024,35.55801756107279],[139.6965889430315,35.55802878907226],[139.6965874741216,35.558049339086],[139.69659960585778,35.55805061478975],[139.6966327215942,35.55816684143992],[139.6966343329044,35.5581923525879],[139.69661822163303,35.55819603001729],[139.6965994709238,35.55819501722624],[139.69659813099824,35.558204570434725],[139.69660993014955,35.55820683728863],[139.6966398094417,35.558215254088516],[139.69663856345335,35.55823445227083],[139.696603919928,35.55823837910329],[139.6965976329699,35.55823801141789],[139.6965930497068,35.55827370124145],[139.69658830155066,35.558276580302625],[139.69656522261496,35.55829097635651]]]}},{"type":"Feature","properties":{"height":17.6,"gml_id":"bldg_3edd712b-3b17-4b77-894c-f552fa2b75fa"},"geometry":{"type":"Polygon","coordinates":[[[139.69969737237187,35.557065173492845],[139.69968752407203,35.55701738892592],[139.69947904595858,35.55701634641436],[139.69948290455804,35.55688492808574],[139.69967020856586,35.55681644997544],[139.6997148894735,35.556945308082575],[139.69997261740642,35.55691422505795],[139.70000072016566,35.55706280605491],[139.69992238451707,35.5570735351787],[139.69993115528513,35.55710599491011],[139.69996756396716,35.557101528238874],[139.69997742438724,35.557142101678764],[139.69986377703881,35.55716090511192],[139.6998561003935,35.55713385492497],[139.69970605478343,35.5571508151311],[139.69970612958417,35.55710574573229],[139.69969737237187,35.557065173492845]]]}},{"type":"Feature","properties":{"height":17.5,"gml_id":"bldg_aa454de1-ce42-4758-9ccf-0b8b4f508599"},"geometry":{"type":"Polygon","coordinates":[[[139.69958557582288,35.557961932160154],[139.6993429239731,35.55794633912682],[139.69937060346112,35.55768586831012],[139.6996121514563,35.55770146006337],[139.69958557582288,35.557961932160154]]]}},{"type":"Feature","properties":{"height":17.7,"gml_id":"bldg_38c7115f-ce8a-419b-9319-1df13887696e"},"geometry":{"type":"Polygon","coordinates":[[[139.69627406828639,35.55838520148932],[139.69627193667117,35.55840620143927],[139.696208737127,35.558401893049606],[139.69620694179324,35.5584197385179],[139.69620230929684,35.55841946283243],[139.69616381608424,35.558416805017124],[139.69619017433982,35.55816102068422],[139.69629638881005,35.55816835256534],[139.69627406828639,35.55838520148932]]]}},{"type":"Feature","properties":{"height":29.2,"gml_id":"bldg_39ea002b-12be-4650-8a9e-9ffddc17357a"},"geometry":{"type":"Polygon","coordinates":[[[139.69861983103505,35.5574330033039],[139.69860261135284,35.55744001490221],[139.698594802171,35.557426485332186],[139.69858952206056,35.557417735952725],[139.6985685513325,35.55742510391004],[139.6984901855529,35.557453500205455],[139.698507901085,35.557479750452835],[139.6984779865398,35.55749242659136],[139.69846104241014,35.55746662789732],[139.6984075107878,35.557486038019874],[139.6983884788525,35.55745545961458],[139.69833438918516,35.55747874505527],[139.69832680081024,35.557465125576286],[139.6983038430044,35.55747339265207],[139.69826248756058,35.55740177599916],[139.69860359100963,35.55725009321059],[139.69868108932198,35.55721259183645],[139.69900632823007,35.55704818059015],[139.6990687990627,35.55702589570759],[139.69907309034824,35.55703230035252],[139.6991088609466,35.55701359127366],[139.6991216333714,35.55702748689197],[139.69911881560287,35.55706353934104],[139.69910964722737,35.55707128108592],[139.69911900376036,35.5570830095666],[139.6991088435241,35.55709020937354],[139.69911853398443,35.557100135446696],[139.69909291487534,35.55711687277351],[139.69911239964622,35.55714060101249],[139.69908821421052,35.55715752021205],[139.69909581095126,35.55716618201029],[139.6989552544012,35.55724751106414],[139.6989836592847,35.557280082882585],[139.69896212761614,35.557293129038065],[139.69893085475675,35.557260554017724],[139.69888569030564,35.55728979882673],[139.69885952045618,35.55730599465544],[139.69884792527424,35.557313733673446],[139.69868312823994,35.55737853993822],[139.69869060937478,35.5573903564961],[139.69863960904107,35.55741328496807],[139.69864521902255,35.55742266568654],[139.69861983103505,35.5574330033039]]]}},{"type":"Feature","properties":{"height":12.5,"gml_id":"bldg_711c450f-dc27-4b64-a027-59dc09994d71"},"geometry":{"type":"Polygon","coordinates":[[[139.6980867865743,35.55785038089581],[139.69796767089878,35.557840331939886],[139.69797886381681,35.55774389582756],[139.6980990824271,35.557753946009484],[139.6980867865743,35.55785038089581]]]}},{"type":"Feature","properties":{"height":11.4,"gml_id":"bldg_29f37596-e604-4a55-95c6-f9a462ce19ce"},"geometry":{"type":"Polygon","coordinates":[[[139.69853051145907,35.55827191683354],[139.6986055123599,35.558277228722226],[139.69861347547317,35.55819881673744],[139.69862345578846,35.55810147782586],[139.6986653683338,35.55810422881406],[139.69866648950708,35.55809341339257],[139.6986995789116,35.55809525312452],[139.69869734561777,35.55811147564132],[139.6987425674137,35.55811423029789],[139.69873584947058,35.55817371450373],[139.69885717491252,35.558181962386506],[139.69886390782167,35.55811346429583],[139.6989069234627,35.5581162164303],[139.6989080461087,35.55810449961874],[139.6989400324427,35.55810633805488],[139.69893890378268,35.55812166041797],[139.69897530094426,35.55812440515063],[139.69895850348632,35.558274918472044],[139.698640853245,35.558252029302594],[139.69862851573478,35.55837370309448],[139.6983097621163,35.55835081182009],[139.698341127422,35.55806519662214],[139.69856282105135,35.55808067810813],[139.69855162576647,35.558178917046234],[139.6984479481583,35.558171589989655],[139.69843786335466,35.558265323210634],[139.69853051145907,35.55827191683354]]]}},{"type":"Feature","properties":{"height":6.8,"gml_id":"bldg_781e4e91-ff17-470e-9004-a1d05c0c6f25"},"geometry":{"type":"Polygon","coordinates":[[[139.69938579008092,35.55737589730916],[139.69942605081746,35.557376753279684],[139.69942477042625,35.5574170439724],[139.69926416878369,35.557413530359575],[139.6992655594122,35.55737332993018],[139.69927361152884,35.557373519161146],[139.69938579008092,35.55737589730916]]]}},{"type":"Feature","properties":{"height":7.5,"gml_id":"bldg_bfda5ad8-2efb-4c53-9f20-4968e10aade4"},"geometry":{"type":"Polygon","coordinates":[[[139.69986621775044,35.55728556999838],[139.69986817369042,35.55730341967778],[139.69983772283436,35.5573070816646],[139.69984142201042,35.55733800342368],[139.69982773810898,35.557341503692314],[139.69967840108293,35.55733007087515],[139.699691445663,35.55718009410237],[139.69984777702464,35.55716422254118],[139.69986621775044,35.55728556999838]]]}},{"type":"Feature","properties":{"height":12.2,"gml_id":"bldg_e9342dc4-abc9-4bf3-910c-f232a2f02dc1"},"geometry":{"type":"Polygon","coordinates":[[[139.6980867865743,35.55785038089581],[139.69807787412756,35.557902651489485],[139.69790140439247,35.55788893255794],[139.69792151255749,35.55773932448392],[139.69797886381681,35.55774389582756],[139.69796767089878,35.557840331939886],[139.6980867865743,35.55785038089581]]]}},{"type":"Feature","properties":{"height":8.2,"gml_id":"bldg_8d8e19d8-61cd-4026-91f0-01c5d7528de6"},"geometry":{"type":"Polygon","coordinates":[[[139.69853051145907,35.55827191683354],[139.69853613628965,35.55820657238674],[139.6985562117818,35.55820695538489],[139.69855589866276,35.55819631863926],[139.69861347547317,35.55819881673744],[139.6986055123599,35.558277228722226],[139.69853051145907,35.55827191683354]]]}},{"type":"Feature","properties":{"height":17.2,"gml_id":"bldg_42f11a34-7661-43a7-a643-cb13e1ef436c"},"geometry":{"type":"Polygon","coordinates":[[[139.69888569030564,35.55728979882673],[139.6989803180378,35.557299278758045],[139.69898753672314,35.5572700817784],[139.6989775237612,35.55725510755383],[139.6990647595744,35.55719922843498],[139.69909162003867,35.55723188864741],[139.69907977765638,35.55732174400554],[139.69885952045618,35.55730599465544],[139.69888569030564,35.55728979882673]]]}},{"type":"Feature","properties":{"height":12.9,"gml_id":"bldg_df1b611a-cb58-4188-aeba-19850e7e9464"},"geometry":{"type":"Polygon","coordinates":[[[139.69958557582288,35.557961932160154],[139.69958112607085,35.55798446196172],[139.69934178189084,35.55796977398477],[139.6993429239731,35.55794633912682],[139.69958557582288,35.557961932160154]]]}},{"type":"Feature","properties":{"height":10.2,"gml_id":"bldg_87e130f8-8e03-487c-a885-3ec33b6991f2"},"geometry":{"type":"Polygon","coordinates":[[[139.69969737237187,35.557065173492845],[139.69947565733563,35.557064116303614],[139.69947904595858,35.55701634641436],[139.69968752407203,35.55701738892592],[139.69969737237187,35.557065173492845]]]}},{"type":"Feature","properties":{"height":8.2,"gml_id":"bldg_742ef0d8-9738-42ae-bb5c-6fb01d6c5d47"},"geometry":{"type":"Polygon","coordinates":[[[139.69861983103505,35.5574330033039],[139.69861725973377,35.55745346197437],[139.69856630671532,35.557448086835365],[139.6985686593765,35.557426456115174],[139.698594802171,35.557426485332186],[139.69860261135284,35.55744001490221],[139.69861983103505,35.5574330033039]]]}},{"type":"Feature","properties":{"height":7.5,"gml_id":"bldg_b68fc6a7-85c4-4a34-a7da-f6691fbe5a3f"},"geometry":{"type":"Polygon","coordinates":[[[139.69907125305218,35.55734030313909],[139.69904853373671,35.5575363300719],[139.6987506301782,35.557514184294334],[139.69875678928585,35.557459026127304],[139.6987010892771,35.55745589922078],[139.69871137665018,35.557372712449066],[139.69875696209934,35.557355636935235],[139.69881376481035,35.5573589453241],[139.6988175571164,35.557333890924376],[139.69884170291135,35.55734076842078],[139.69884525998742,35.557324458138176],[139.69907125305218,35.55734030313909]]]}},{"type":"Feature","properties":{"height":3.7,"gml_id":"bldg_c56539cf-1d99-4ba2-b7b9-68c74b068b67"},"geometry":{"type":"Polygon","coordinates":[[[139.69861108087218,35.55745444659909],[139.69860928820424,35.557471030164145],[139.6985245820766,35.5574650764545],[139.69852626445467,35.55744849276739],[139.69861108087218,35.55745444659909]]]}},{"type":"Feature","properties":{"height":2.1,"gml_id":"bldg_82ada80c-44e8-46f7-805d-e01951a88095"},"geometry":{"type":"Polygon","coordinates":[[[139.69860761866357,35.55747995205539],[139.6986057126704,35.55749833827281],[139.69851383729838,35.55749192584974],[139.6985157433124,35.557473539633776],[139.69860761866357,35.55747995205539]]]}},{"type":"Feature","properties":{"height":2.0,"gml_id":"bldg_bb56add9-18bc-4a10-81b2-2f9221cc34a6"},"geometry":{"type":"Polygon","coordinates":[[[139.69826380299835,35.55747244641508],[139.69826526345497,35.55745667373372],[139.698282910791,35.55745777516879],[139.6982815607962,35.55747345783515],[139.69826380299835,35.55747244641508]]]}},{"type":"Feature","properties":{"height":2.2,"gml_id":"bldg_eb740c8f-1f85-4112-b5dc-bf5fd97eec6b"},"geometry":{"type":"Polygon","coordinates":[[[139.69823865154416,35.55740751818801],[139.69826214408803,35.55740925714786],[139.69825497690917,35.557473337917095],[139.69823137403952,35.557471598832194],[139.69823865154416,35.55740751818801]]]}},{"type":"Feature","properties":{"height":2.3,"gml_id":"bldg_78d7b844-07d7-4381-80be-20bc32be5246"},"geometry":{"type":"Polygon","coordinates":[[[139.69821802989253,35.55746978110023],[139.69819332501177,35.55746740980028],[139.69820158547662,35.55740918929225],[139.69822629033976,35.55741156059049],[139.69821802989253,35.55746978110023]]]}},{"type":"Feature","properties":{"height":3.3,"gml_id":"bldg_ffd086d9-f6ff-413f-867c-2f0759252996"},"geometry":{"type":"Polygon","coordinates":[[[139.69722545905142,35.557875912515954],[139.69724703427397,35.55783735739878],[139.69730766528778,35.55786005069223],[139.69728609008814,35.55789860582017],[139.69722545905142,35.557875912515954]]]}},{"type":"Feature","properties":{"height":2.3,"gml_id":"bldg_25ae8606-0393-41f8-9bf7-4276edde0bae"},"geometry":{"type":"Polygon","coordinates":[[[139.69813607890285,35.557465362567335],[139.69810552501934,35.55746460719205],[139.69810643790717,35.55744649028562],[139.69813732225126,35.55744751644807],[139.69813607890285,35.557465362567335]]]}},{"type":"Feature","properties":{"height":3.2,"gml_id":"bldg_16cfdc3e-9e2d-4db8-a4bb-a9d6e878f3e6"},"geometry":{"type":"Polygon","coordinates":[[[139.69580485769916,35.55771457428705],[139.6958027485525,35.55765778434258],[139.69590313156704,35.55765600588417],[139.6959041377091,35.55771279456978],[139.69580485769916,35.55771457428705]]]}},{"type":"Feature","properties":{"height":4.8,"gml_id":"bldg_99a51625-2300-4b76-ba17-8b3b18d99bdb"},"geometry":{"type":"Polygon","coordinates":[[[139.69525756024137,35.55845750492846],[139.69522354998978,35.55834938938819],[139.69510327204986,35.55837358906853],[139.69503196951084,35.558141850224345],[139.69519859507798,35.55810688704828],[139.69530390683036,35.55844764271141],[139.69525756024137,35.55845750492846]]]}},{"type":"Feature","properties":{"height":16.1,"gml_id":"bldg_22f50abc-f6dd-4939-9af0-6e86df5a7524"},"geometry":{"type":"Polygon","coordinates":[[[139.69700988616253,35.55828517020549],[139.69699814865473,35.55824648732741],[139.69701779039386,35.55824245328301],[139.69702952791053,35.55828113615922],[139.69700988616253,35.55828517020549]]]}},{"type":"Feature","properties":{"height":3.8,"gml_id":"bldg_7583a2ad-f28d-424f-9b36-da6b159cba47"},"geometry":{"type":"Polygon","coordinates":[[[139.6998345054051,35.55738477788609],[139.69983442050608,35.55736945416892],[139.69987766088045,35.55736950203705],[139.69987210126172,35.557329654462826],[139.6998922913312,35.55732733319635],[139.6999010171497,35.5573869247058],[139.6998345054051,35.55738477788609]]]}},{"type":"Feature","properties":{"height":8.2,"gml_id":"bldg_d45007ea-a429-4e32-99af-9993146f02a4"},"geometry":{"type":"Polygon","coordinates":[[[139.6971201815818,35.55777132258483],[139.69714113758914,35.557772788480634],[139.69713440553127,35.557839934394146],[139.6971134495066,35.55783846849714],[139.6971201815818,35.55777132258483]]]}},{"type":"Feature","properties":{"height":10.8,"gml_id":"bldg_64523f96-4a17-4878-aba8-72da87c6b95c"},"geometry":{"type":"Polygon","coordinates":[[[139.6985095126099,35.557637225010154],[139.6985106413445,35.55762190265005],[139.69847424442636,35.5576191577774],[139.69847885761712,35.55756507956411],[139.6984798733316,35.557551379578896],[139.6985301689422,35.55755413998969],[139.6985290430798,35.55756774971323],[139.69854933797106,35.55756876393036],[139.69854370489767,35.55763906601806],[139.6985095126099,35.557637225010154]]]}},{"type":"Feature","properties":{"height":16.8,"gml_id":"bldg_d0fad4da-893f-40d3-bf15-df04d4b67cb1"},"geometry":{"type":"Polygon","coordinates":[[[139.69974126929958,35.5576666292779],[139.69997420824936,35.5576852754914],[139.69996613277166,35.5577657606459],[139.69998179481155,35.55776676949743],[139.69997517961102,35.55783139181073],[139.69994462795924,35.55782919468057],[139.69994294392365,35.557846950191276],[139.699876326122,35.55784200896952],[139.69985536682375,35.558042094240804],[139.69964690865444,35.55802744105749],[139.69967346854907,35.55777634338358],[139.6996456741684,35.55777441965107],[139.69965845262377,35.557651934979496],[139.69974205566052,35.5576580669484],[139.69974126929958,35.5576666292779]]]}},{"type":"Feature","properties":{"height":15.7,"gml_id":"bldg_f22708a8-a2a9-4545-a462-5423c184d041"},"geometry":{"type":"Polygon","coordinates":[[[139.69948754331935,35.55754493071398],[139.6994989558599,35.557381611590124],[139.69958774618175,35.557385856505526],[139.699585368939,35.55742245028596],[139.69979835545018,35.55743269178172],[139.6997901133,35.55754706899106],[139.69976088410326,35.55754568452971],[139.69975998115726,35.557558032566526],[139.69948754331935,35.55754493071398]]]}},{"type":"Feature","properties":{"height":21.9,"gml_id":"bldg_2d764e7c-0b32-402c-a9a0-c092863c0541"},"geometry":{"type":"Polygon","coordinates":[[[139.6971790239603,35.55780798545975],[139.69718624121074,35.557780050534866],[139.69716936688772,35.55777840897855],[139.69716981787465,35.55777264059502],[139.6971323169444,35.55777043490426],[139.69713400449524,35.55775096679716],[139.6971262834216,35.55775068765831],[139.69713981849225,35.55763965175903],[139.69730354046467,35.55762460309781],[139.69733706889454,35.55762761550526],[139.6973161618207,35.55779308703752],[139.69728043862284,35.55784857142498],[139.6971790239603,35.55780798545975]]]}},{"type":"Feature","properties":{"height":8.3,"gml_id":"bldg_d38a9a40-8dce-4e1e-b858-9ba0cfb73c3d"},"geometry":{"type":"Polygon","coordinates":[[[139.69868632567426,35.55757729990901],[139.69877202439727,35.55758343489073],[139.69875555247555,35.55773701328482],[139.69866985359042,35.557730878291196],[139.69868632567426,35.55757729990901]]]}},{"type":"Feature","properties":{"height":10.1,"gml_id":"bldg_a75c29d0-215e-4b63-9189-87fd7ff691e7"},"geometry":{"type":"Polygon","coordinates":[[[139.69981564812534,35.558312827663485],[139.69970634464943,35.558305405319814],[139.69971688581975,35.55820166707437],[139.69978350465644,35.55820615769065],[139.69978686952342,35.55817262972912],[139.69982944384648,35.55817547118467],[139.69981564812534,35.558312827663485]]]}},{"type":"Feature","properties":{"height":7.3,"gml_id":"bldg_234a04c8-35f3-44aa-bbbb-0b11da97293d"},"geometry":{"type":"Polygon","coordinates":[[[139.69833291057262,35.55796585430107],[139.6983379592158,35.55791529200302],[139.69851067258088,35.557932611653456],[139.69850540810864,35.557980379409926],[139.69833291057262,35.55796585430107]]]}},{"type":"Feature","properties":{"height":13.8,"gml_id":"bldg_dff02005-f4ac-4f39-8c13-9e65ebde10c6"},"geometry":{"type":"Polygon","coordinates":[[[139.6962375874483,35.55765422330232],[139.6962336793586,35.557746791560945],[139.69620941276614,35.55774613299298],[139.69620907309277,35.55775127052683],[139.69615414467708,35.5577484137381],[139.69615571370952,35.55773390315229],[139.6961349769635,35.557733248585286],[139.69613919857812,35.55765095652699],[139.6962375874483,35.55765422330232]]]}},{"type":"Feature","properties":{"height":12.9,"gml_id":"bldg_3288b079-646e-44a6-b77a-de5b15ebd710"},"geometry":{"type":"Polygon","coordinates":[[[139.6960772790416,35.55773732930927],[139.69608073578542,35.557650799851736],[139.69613103459827,35.5576516683489],[139.69612757790844,35.55773819780798],[139.6960772790416,35.55773732930927]]]}},{"type":"Feature","properties":{"height":14.5,"gml_id":"bldg_2ee99804-73ca-4a62-ba80-b3a82889d7a0"},"geometry":{"type":"Polygon","coordinates":[[[139.69941731470695,35.55732356159086],[139.69922053420456,35.55731901620363],[139.69922227379115,35.557267999486974],[139.69941916447593,35.55727254499367],[139.69941731470695,35.55732356159086]]]}},{"type":"Feature","properties":{"height":11.6,"gml_id":"bldg_d60dd472-55c6-4996-98d0-0b104824a48f"},"geometry":{"type":"Polygon","coordinates":[[[139.69893720155116,35.55788585502896],[139.69893664158613,35.557890902186045],[139.69891061195815,35.55788907039014],[139.69891296378762,35.55786789035857],[139.69888230184412,35.5578656928363],[139.69888891160275,35.55780485641421],[139.6989267426191,35.55780760276035],[139.69893021617708,35.55777524674843],[139.6989547016123,35.557776986680146],[139.69895700724064,35.55778347925435],[139.6990293606327,35.55778860765081],[139.69901826829658,35.55789162411678],[139.69893720155116,35.55788585502896]]]}},{"type":"Feature","properties":{"height":12.9,"gml_id":"bldg_9ff59205-efdc-46a9-8442-99935458c334"},"geometry":{"type":"Polygon","coordinates":[[[139.69774213456301,35.55820757501073],[139.69773922525724,35.55823208953192],[139.69772510762317,35.5582309919872],[139.6977322680059,35.5581712379198],[139.69768583434268,35.55816758013151],[139.69770574935197,35.55800129617826],[139.6979036155545,35.55801711262693],[139.6978795604026,35.558218546150385],[139.69774213456301,35.55820757501073]]]}},{"type":"Feature","properties":{"height":14.1,"gml_id":"bldg_f5b96ba3-cb11-424b-96e8-fd5fec0eb545"},"geometry":{"type":"Polygon","coordinates":[[[139.69753341172674,35.55815361729596],[139.6975469232593,35.55799084157551],[139.6976637285608,35.55799737292841],[139.69765032772327,35.558160058647665],[139.69753341172674,35.55815361729596]]]}},{"type":"Feature","properties":{"height":23.4,"gml_id":"bldg_460b8ffd-c36b-4ac8-92d8-cb788f71b7f8"},"geometry":{"type":"Polygon","coordinates":[[[139.69810576295544,35.5577169965317],[139.69784767060372,35.55770048178191],[139.6978420566281,35.55775906579235],[139.69744940568694,35.55773248362247],[139.69746060985844,35.55762973784315],[139.6976293604659,35.557641645953105],[139.69763271982453,35.55761190387934],[139.6978455903538,35.557625664113196],[139.6978523149746,35.55756257440153],[139.69811922996007,35.55758000042515],[139.69810576295544,35.5577169965317]]]}},{"type":"Feature","properties":{"height":12.5,"gml_id":"bldg_a6bbe360-3f11-40f4-9f4e-c439fde7ddbd"},"geometry":{"type":"Polygon","coordinates":[[[139.6983119754197,35.55762303242533],[139.6982212036087,35.55761626045925],[139.69821672324017,35.55765681796784],[139.69815109832064,35.5576519670446],[139.69816173824483,35.55755625140365],[139.69817862585762,35.55754996060795],[139.69821634642202,35.55755270705313],[139.6982175782575,35.557541711480994],[139.69832015150652,35.55754930791579],[139.6983119754197,35.55762303242533]]]}},{"type":"Feature","properties":{"height":24.8,"gml_id":"bldg_25f145ce-d1f4-4686-b2d6-c8862c49919c"},"geometry":{"type":"Polygon","coordinates":[[[139.69706915113474,35.55794198809396],[139.69706702950288,35.557957219178384],[139.69707011766556,35.55795749308531],[139.69706833214414,35.55796965982535],[139.6970859786604,35.55797130226837],[139.69708564392323,35.55797355536381],[139.69710340074855,35.557975197928926],[139.6970936888008,35.558043241860425],[139.69705784450247,35.5580397760731],[139.69705371428276,35.55806861586773],[139.6969850033758,35.55806204818181],[139.6969886871978,35.55803627260894],[139.69697236421243,35.558034721787486],[139.69697303338828,35.55803039587485],[139.69695329131542,35.558028570767135],[139.69696311475658,35.557959896000376],[139.6969776729533,35.557961354688345],[139.69697878931342,35.5579535138624],[139.69698926688142,35.55795451723938],[139.69699038247708,35.55794712710718],[139.69700174235464,35.55794822161976],[139.69700352849617,35.55793569432557],[139.69706915113474,35.55794198809396]]]}},{"type":"Feature","properties":{"height":15.0,"gml_id":"bldg_a053894a-5667-4bff-8ca1-253c3eaef8dd"},"geometry":{"type":"Polygon","coordinates":[[[139.69650361257393,35.557740878604655],[139.69651971428624,35.55780768983819],[139.69641803284804,35.55779450426971],[139.6964212071471,35.55774412020126],[139.69650361257393,35.557740878604655]]]}},{"type":"Feature","properties":{"height":10.8,"gml_id":"bldg_39c9f1c0-2f91-452a-8cf1-4b4dc1043144"},"geometry":{"type":"Polygon","coordinates":[[[139.69641012422738,35.55796936484826],[139.69633920530748,35.55796396609322],[139.69634558825146,35.55790790692014],[139.6963311397704,35.557906808836336],[139.69633629000475,35.557862105770035],[139.69635173124752,35.5578632049811],[139.69635307472373,35.557851578583076],[139.69642300092934,35.557856886063796],[139.69641012422738,35.55796936484826]]]}},{"type":"Feature","properties":{"height":13.0,"gml_id":"bldg_5d46eb94-6aa7-4539-8951-1b5b07e3e0ba"},"geometry":{"type":"Polygon","coordinates":[[[139.6935678520332,35.558011894213756],[139.69360456957494,35.55808413806328],[139.69351053156265,35.55811602837182],[139.69352482058397,35.55814543023613],[139.69342625309883,35.55818119120071],[139.69338052143675,35.55809108932511],[139.69340038863328,35.55808435196353],[139.69339357272335,35.55807100348963],[139.6935678520332,35.558011894213756]]]}},{"type":"Feature","properties":{"height":11.6,"gml_id":"bldg_6865b13d-5b75-4824-9b53-46636680a6ee"},"geometry":{"type":"Polygon","coordinates":[[[139.6935898652825,35.558103320616375],[139.6936307735004,35.55817620028641],[139.69344577597067,35.55824566319447],[139.69341674466628,35.55819379961869],[139.6935379428669,35.55814796934162],[139.6935265072934,35.55812695370908],[139.6935898652825,35.558103320616375]]]}},{"type":"Feature","properties":{"height":9.8,"gml_id":"bldg_065880db-bb6d-4715-8ddb-57d2145391d8"},"geometry":{"type":"Polygon","coordinates":[[[139.69728877729608,35.55800560378372],[139.6972793795174,35.55808365350751],[139.69718816695905,35.558076339432745],[139.6971872726055,35.55808336926066],[139.6971132669247,35.558077426641674],[139.69711438491535,35.5580679633154],[139.6971054511857,35.558067232110425],[139.69711362003557,35.5579984653233],[139.6971939133847,35.558004955875425],[139.6971958159022,35.55798882315198],[139.6972499699273,35.55799312081542],[139.6972488511553,35.55800240386429],[139.69728877729608,35.55800560378372]]]}},{"type":"Feature","properties":{"height":10.4,"gml_id":"bldg_cf139e0f-32d9-46bd-8e15-6ea02145d05c"},"geometry":{"type":"Polygon","coordinates":[[[139.69450773378023,35.55836307969522],[139.69450782879213,35.55824400626556],[139.6945574706126,35.558242260633754],[139.69455793110617,35.558295082582646],[139.6945742568931,35.55829501123321],[139.69457402929268,35.55836306587037],[139.69450773378023,35.55836307969522]]]}},{"type":"Feature","properties":{"height":16.7,"gml_id":"bldg_e01c3d22-e08f-43ba-b53e-e7d22c502424"},"geometry":{"type":"Polygon","coordinates":[[[139.69943433434236,35.55737045275185],[139.69943328151598,35.55727391275629],[139.6996527938338,35.5572732549416],[139.69965384542675,35.55737069632377],[139.69943433434236,35.55737045275185]]]}},{"type":"Feature","properties":{"height":14.4,"gml_id":"bldg_a65d6c25-5562-4ace-a490-6c3b95f99d7b"},"geometry":{"type":"Polygon","coordinates":[[[139.69920134121915,35.557782218951274],[139.6993425214978,35.5577904884317],[139.69933759160213,35.557836363679996],[139.69919641124355,35.557828094193695],[139.69920134121915,35.557782218951274]]]}},{"type":"Feature","properties":{"height":10.9,"gml_id":"bldg_a7086473-c86b-43ff-94ed-88f1f9172da3"},"geometry":{"type":"Polygon","coordinates":[[[139.69435926445757,35.55797612245988],[139.6943694311414,35.55796549778236],[139.69442275338807,35.5579403203219],[139.69443949934163,35.55795241823225],[139.69438813027762,35.55799634685125],[139.69435926445757,35.55797612245988]]]}},{"type":"Feature","properties":{"height":9.4,"gml_id":"bldg_22efc8f8-ff9b-4a73-96d9-d055b3364779"},"geometry":{"type":"Polygon","coordinates":[[[139.69322063542532,35.558246213026436],[139.6931965056788,35.558166862717044],[139.69329471598357,35.55814624486743],[139.69330458413947,35.55818050912565],[139.6932361679852,35.55819485188003],[139.6932504296308,35.558239937919936],[139.69322063542532,35.558246213026436]]]}},{"type":"Feature","properties":{"height":8.4,"gml_id":"bldg_7fb0cf84-4d51-4140-8a94-3a5077ecbb9a"},"geometry":{"type":"Polygon","coordinates":[[[139.69468635896155,35.558342463136114],[139.69467763209042,35.55828566556874],[139.69473169247254,35.55828031938884],[139.69473386915539,35.55829744828959],[139.69479786039247,35.558290310716515],[139.69480766871996,35.5583597289692],[139.69474808976534,35.558366871618894],[139.69474372863266,35.558337120756256],[139.69468635896155,35.558342463136114]]]}},{"type":"Feature","properties":{"height":10.2,"gml_id":"bldg_f11b535e-4f0b-4771-9c63-62aed0b7e081"},"geometry":{"type":"Polygon","coordinates":[[[139.69445211735137,35.55792755441819],[139.69442679320832,35.55790048356235],[139.69449745858,35.55786090381623],[139.69451947660983,35.55788616807226],[139.69445211735137,35.55792755441819]]]}},{"type":"Feature","properties":{"height":13.8,"gml_id":"bldg_f6464ab3-7263-4948-97d8-46b7ed5bb99d"},"geometry":{"type":"Polygon","coordinates":[[[139.6945581713328,35.55783573480509],[139.6945328969098,35.55777981956524],[139.69461676175817,35.55776188828994],[139.6946266568301,35.557780828852636],[139.6945581713328,35.55783573480509]]]}},{"type":"Feature","properties":{"height":10.3,"gml_id":"bldg_db56d3d0-19b7-4c82-a7c6-84a3978a1c01"},"geometry":{"type":"Polygon","coordinates":[[[139.69555987780484,35.557771082145244],[139.69555234292102,35.55766200540623],[139.69562735815984,35.5576584855464],[139.69563599776265,35.55776666215304],[139.69555987780484,35.557771082145244]]]}},{"type":"Feature","properties":{"height":11.4,"gml_id":"bldg_a9d44cde-a028-4e1f-ad12-cc54f330a60c"},"geometry":{"type":"Polygon","coordinates":[[[139.69883181244546,35.55791277919605],[139.69883517588752,35.557880333827086],[139.69877164674725,35.55787539453901],[139.69877388604536,35.55785556646884],[139.69871322417438,35.55785108194598],[139.69872329805466,35.55776365840961],[139.69877182737815,35.55776731813725],[139.69878078605782,35.55768710446651],[139.69889108001942,35.55769534000402],[139.69886534210772,35.5579151602073],[139.69883181244546,35.55791277919605]]]}},{"type":"Feature","properties":{"height":8.8,"gml_id":"bldg_f0175aaa-13fd-434c-928f-0feecfedf401"},"geometry":{"type":"Polygon","coordinates":[[[139.69878194637576,35.55765285295877],[139.69878867478425,35.55758705902992],[139.69893536854127,35.557596236528745],[139.69892864025184,35.557662030465934],[139.69878194637576,35.55765285295877]]]}},{"type":"Feature","properties":{"height":10.4,"gml_id":"bldg_99808b04-24dd-4553-8192-93b136325014"},"geometry":{"type":"Polygon","coordinates":[[[139.6959921069598,35.557875144913545],[139.69600216842196,35.55779673548887],[139.69610363762845,35.55780496352425],[139.69609357626402,35.55788337295751],[139.6959921069598,35.557875144913545]]]}},{"type":"Feature","properties":{"height":17.7,"gml_id":"bldg_9ffbe8e9-74c2-4136-8f81-a266e521c466"},"geometry":{"type":"Polygon","coordinates":[[[139.69935207188044,35.55708921794872],[139.6996752706383,35.55708948651499],[139.6996751823531,35.55714266840563],[139.69935198338177,35.557142399838646],[139.69935207188044,35.55708921794872]]]}},{"type":"Feature","properties":{"height":11.9,"gml_id":"bldg_904cdc71-e14a-4fb9-9d96-50a2c5779316"},"geometry":{"type":"Polygon","coordinates":[[[139.69891411382156,35.55777369643572],[139.6989208541712,35.557700691397734],[139.69894511881802,35.55770252122422],[139.69894624596617,35.55768810024786],[139.69904330755438,35.55769361672834],[139.69903544018322,35.55778104275055],[139.69891411382156,35.55777369643572]]]}},{"type":"Feature","properties":{"height":12.3,"gml_id":"bldg_8b5d9d00-dbc8-4627-ad8c-bdcc1242dda5"},"geometry":{"type":"Polygon","coordinates":[[[139.69895287946156,35.55767909374578],[139.69896294538728,35.55759626726447],[139.69906000250649,35.55760439775621],[139.69904993803257,35.55768641299663],[139.69895287946156,35.55767909374578]]]}},{"type":"Feature","properties":{"height":9.6,"gml_id":"bldg_8d442ae4-84e9-4ca8-b5a1-f18d05bc4f11"},"geometry":{"type":"Polygon","coordinates":[[[139.69620051768248,35.557917026323125],[139.69614105409264,35.557921465624965],[139.69613583489001,35.557877111324025],[139.69611818411286,35.557877992627674],[139.69611529352363,35.55782651999861],[139.69619141503995,35.557821198268115],[139.69620051768248,35.557917026323125]]]}},{"type":"Feature","properties":{"height":8.8,"gml_id":"bldg_f9bb3fac-1fd4-4266-9590-05203f20b8ea"},"geometry":{"type":"Polygon","coordinates":[[[139.6992378667098,35.55777405693412],[139.6992538988916,35.55761903576183],[139.699359120168,35.55762636384066],[139.6993431969948,35.55778228653764],[139.6992378667098,35.55777405693412]]]}},{"type":"Feature","properties":{"height":9.7,"gml_id":"bldg_4db6a7d0-d271-48bf-9f72-d023ba8c7f62"},"geometry":{"type":"Polygon","coordinates":[[[139.69916049790083,35.55773367875095],[139.69917338439083,35.55761299703006],[139.69925136317204,35.557618221691435],[139.69923737222095,35.557739803581875],[139.69916049790083,35.55773367875095]]]}},{"type":"Feature","properties":{"height":10.4,"gml_id":"bldg_5802fd28-cebf-4a8b-91b3-0d436b24219c"},"geometry":{"type":"Polygon","coordinates":[[[139.6985021900137,35.55772834730402],[139.69850611462945,35.55769022291544],[139.69851582048292,35.55769095488001],[139.69851772680323,35.55767238838705],[139.69854860942874,35.557674496109755],[139.69855903913273,35.55757229019382],[139.69864308398402,35.557577972723706],[139.69862693399313,35.557736779519004],[139.6985021900137,35.55772834730402]]]}},{"type":"Feature","properties":{"height":7.0,"gml_id":"bldg_c30758f9-7c4f-4090-b29d-c3b9e4d8a3a4"},"geometry":{"type":"Polygon","coordinates":[[[139.69309296675868,35.55808020894988],[139.6930545976727,35.55794315312386],[139.69312411358354,35.55793061452945],[139.69312630404258,35.55793963097096],[139.69314031737454,35.55793721351403],[139.6931586231191,35.5580036671981],[139.6931685428283,35.558008275816185],[139.69318765513032,35.55805499000459],[139.69317407924515,35.55805957131006],[139.6931753946244,35.558064350203004],[139.69309296675868,35.55808020894988]]]}},{"type":"Feature","properties":{"height":6.8,"gml_id":"bldg_0dd603cc-ece0-4bab-b1c1-d3410dd672a2"},"geometry":{"type":"Polygon","coordinates":[[[139.69297459146193,35.55827837687325],[139.69286033041308,35.55820451015518],[139.69286420975726,35.55819387827998],[139.6929492067774,35.55815972447658],[139.69299887185534,35.55827119402081],[139.69297459146193,35.55827837687325]]]}},{"type":"Feature","properties":{"height":5.8,"gml_id":"bldg_c87a60bd-94d6-48ac-875d-81875e0ba00e"},"geometry":{"type":"Polygon","coordinates":[[[139.69287738650087,35.55835488177351],[139.69284875035805,35.5583296095091],[139.69290895598508,35.55827947225471],[139.69292966643496,35.55829527068753],[139.69290027945638,35.55832101619944],[139.69290953293753,35.5583281479529],[139.69287738650087,35.55835488177351]]]}},{"type":"Feature","properties":{"height":7.2,"gml_id":"bldg_9c6482af-d0eb-47b5-b484-19c754153e7f"},"geometry":{"type":"Polygon","coordinates":[[[139.69489445730858,35.558309711399644],[139.69489270430986,35.55830276868849],[139.69488266377138,35.558304199382555],[139.69487784973307,35.558281208424845],[139.69488171129876,35.55828076216442],[139.69487645556396,35.55825804111618],[139.69488274453056,35.558257237087396],[139.69488219748445,35.55825462242996],[139.69493913096036,35.558246304871034],[139.69495148997555,35.55830788395257],[139.6949040454553,35.55831477018888],[139.69489445730858,35.558309711399644]]]}},{"type":"Feature","properties":{"height":6.4,"gml_id":"bldg_6a298c38-e9e4-4aca-8d23-e0e52e7db071"},"geometry":{"type":"Polygon","coordinates":[[[139.69500092867378,35.5582317732791],[139.6949822789697,35.55817198976254],[139.69499121718283,35.55817010710062],[139.6949869413414,35.5581548687133],[139.69502203248953,35.55814724716229],[139.6950416691078,35.558210457084726],[139.69503284104474,35.55821243001563],[139.6950361301624,35.558224151850716],[139.69500092867378,35.5582317732791]]]}},{"type":"Feature","properties":{"height":6.8,"gml_id":"bldg_3d8ca331-7017-443e-a894-dd03f899cf0f"},"geometry":{"type":"Polygon","coordinates":[[[139.69494113758114,35.558234048278266],[139.6949208376376,35.55817173896773],[139.69496585978538,35.55816223591537],[139.6949724383079,35.55818549931169],[139.6949811566809,35.55818316570356],[139.6949932238247,35.55822202943341],[139.69494113758114,35.558234048278266]]]}},{"type":"Feature","properties":{"height":9.1,"gml_id":"bldg_de33fda7-7da2-41f8-96fa-14f35ffd55b1"},"geometry":{"type":"Polygon","coordinates":[[[139.69466562121534,35.558278260362755],[139.6946522816049,35.558209739425514],[139.69470855120568,35.55820259301805],[139.69472398951368,35.55826949386094],[139.69466562121534,35.558278260362755]]]}},{"type":"Feature","properties":{"height":13.5,"gml_id":"bldg_dcb66fcb-5f5c-4bbb-b752-ad419866d9f2"},"geometry":{"type":"Polygon","coordinates":[[[139.69643825779548,35.55796642220854],[139.69645375640414,35.55786890946295],[139.69655224345797,35.557879477347996],[139.69654009141894,35.55795509013891],[139.69656832517938,35.55795809675299],[139.69656230470102,35.55799567786469],[139.69647782400298,35.55798665824874],[139.69648027759007,35.55797088671797],[139.69643825779548,35.55796642220854]]]}},{"type":"Feature","properties":{"height":11.4,"gml_id":"bldg_1e944a48-769e-488b-9f4c-7144887cfe07"},"geometry":{"type":"Polygon","coordinates":[[[139.69607411733867,35.55765079231752],[139.6960695575121,35.55773732051907],[139.69601462836928,35.557735545333365],[139.69601808407728,35.55764901587651],[139.69607411733867,35.55765079231752]]]}},{"type":"Feature","properties":{"height":14.8,"gml_id":"bldg_7537222e-8177-4daa-a128-f4da916ea000"},"geometry":{"type":"Polygon","coordinates":[[[139.6971004953578,35.55767133624621],[139.69709512515718,35.55784628988196],[139.6969399272375,35.55784313983419],[139.69694518746763,35.557668186081244],[139.6971004953578,35.55767133624621]]]}},{"type":"Feature","properties":{"height":17.1,"gml_id":"bldg_8ad082a2-5b4e-4ef7-9d85-395ff42c3289"},"geometry":{"type":"Polygon","coordinates":[[[139.6976823950946,35.55824473519897],[139.6979426907739,35.55826395694541],[139.6979381450454,35.558343274111344],[139.69767453682192,35.558325851406934],[139.6976823950946,35.55824473519897]]]}},{"type":"Feature","properties":{"height":11.3,"gml_id":"bldg_5e3f2b94-ab89-49a8-b9ae-ad7451d7f004"},"geometry":{"type":"Polygon","coordinates":[[[139.6985189663472,35.557920271891],[139.69857995812657,35.55792538785295],[139.6985732340446,35.55798847760258],[139.69851224221787,35.55798336163719],[139.6985189663472,35.557920271891]]]}},{"type":"Feature","properties":{"height":13.8,"gml_id":"bldg_6d51969b-cbe0-4242-aee9-b6aee36cd7e8"},"geometry":{"type":"Polygon","coordinates":[[[139.6989469036946,35.55795491227928],[139.6990142930846,35.55796021542986],[139.69900758287486,35.55801519271374],[139.6988651930658,35.55800439760155],[139.69887639095393,35.55790435585491],[139.69895249431318,35.557909849035056],[139.6989469036946,35.55795491227928]]]}},{"type":"Feature","properties":{"height":12.0,"gml_id":"bldg_2f30ec48-dac5-47be-a1ab-6e8e4379570f"},"geometry":{"type":"Polygon","coordinates":[[[139.69945449495816,35.55692149296496],[139.6994537993884,35.55700811573854],[139.69935110231216,35.5570089931932],[139.69935105281272,35.557038738996496],[139.6992572921842,35.55703863477251],[139.69925741676977,35.55696381957029],[139.699318083855,35.55696478840546],[139.6993183251728,35.55695234949642],[139.6993455708792,35.55695237977634],[139.6993456043301,35.55693227882417],[139.6993693202225,35.55693230517615],[139.69936933851972,35.556921308242615],[139.69945449495816,35.55692149296496]]]}},{"type":"Feature","properties":{"height":10.3,"gml_id":"bldg_419ce66c-950c-458a-b689-c8ff5ba1b5e2"},"geometry":{"type":"Polygon","coordinates":[[[139.69585356647548,35.55800064071724],[139.69586855727218,35.55800714781332],[139.69587279002744,35.55804771516441],[139.69586705293472,35.55804833959621],[139.6958689070859,35.55806069074559],[139.69586283906818,35.5580613147999],[139.69586510520878,35.55809079281849],[139.69585615409562,35.55810024720185],[139.69585875777744,35.55812584963066],[139.69563611858032,35.55814749933815],[139.69563064341244,35.55812396682098],[139.69540656320606,35.558149670711195],[139.6953935915919,35.55805915637246],[139.69540166260714,35.55804834893246],[139.69585356647548,35.55800064071724]]]}},{"type":"Feature","properties":{"height":9.5,"gml_id":"bldg_9f26fdb2-c05f-4630-a2bb-03b9273561d3"},"geometry":{"type":"Polygon","coordinates":[[[139.69331549774867,35.558374771212094],[139.69329212482015,35.55830416527924],[139.6933837161436,35.55828390022555],[139.69339545787255,35.5583191581786],[139.69341134838436,35.5583156612018],[139.69342308997338,35.55835100929077],[139.69331549774867,35.558374771212094]]]}},{"type":"Feature","properties":{"height":1.4,"gml_id":"bldg_355faa4d-ff8a-4158-b68e-71153276d1c6"},"geometry":{"type":"Polygon","coordinates":[[[139.69326953937207,35.557146845109486],[139.6932988866094,35.55714363419466],[139.69330314342244,35.557169599157554],[139.6932737961758,35.55717281007336],[139.69326953937207,35.557146845109486]]]}},{"type":"Feature","properties":{"height":7.8,"gml_id":"bldg_d0b717af-59d4-478d-88b2-c1213867065d"},"geometry":{"type":"Polygon","coordinates":[[[139.69622383026876,35.55802449845975],[139.69616150304734,35.55802632048565],[139.69615916672925,35.55797322598842],[139.69613798653958,35.55797383286264],[139.6961368158542,35.5579487729034],[139.69622032335178,35.55794625386634],[139.69622383026876,35.55802449845975]]]}},{"type":"Feature","properties":{"height":7.3,"gml_id":"bldg_a259384c-0ae1-470a-8a53-ef9ed0f955d2"},"geometry":{"type":"Polygon","coordinates":[[[139.69802052572823,35.55835508465465],[139.69796659006406,35.55835195938867],[139.69797333859714,35.558274627751516],[139.69802716390146,35.5582777528906],[139.69802052572823,35.55835508465465]]]}},{"type":"Feature","properties":{"height":5.2,"gml_id":"bldg_737ae681-e2b3-42b4-b4c7-e145f0401168"},"geometry":{"type":"Polygon","coordinates":[[[139.69513309115325,35.55790291769219],[139.69517090214808,35.55798156218596],[139.69498437818402,35.55804165125967],[139.69494634672782,35.557963006455324],[139.69513309115325,35.55790291769219]]]}},{"type":"Feature","properties":{"height":4.9,"gml_id":"bldg_00415dab-81d7-4548-b36f-5d8aa3b1e98b"},"geometry":{"type":"Polygon","coordinates":[[[139.69767389873456,35.55818081712791],[139.69765702072704,35.55831222071738],[139.69751375054543,35.55829998079561],[139.69753062878414,35.55816857722644],[139.69767389873456,35.55818081712791]]]}},{"type":"Feature","properties":{"height":7.2,"gml_id":"bldg_2fadbbd9-52cb-4ae8-852c-01a21e9b4c01"},"geometry":{"type":"Polygon","coordinates":[[[139.69919398522498,35.55782764079997],[139.6991482109839,35.557825516670576],[139.69915181609338,35.55778036106738],[139.69919759030887,35.557782485195354],[139.69919398522498,35.55782764079997]]]}},{"type":"Feature","properties":{"height":8.8,"gml_id":"bldg_6375cb45-b7f0-4753-9c45-4ad11cfa47e8"},"geometry":{"type":"Polygon","coordinates":[[[139.69432687238012,35.557953820800485],[139.69432269593378,35.55794498236886],[139.69428892320977,35.55795566996116],[139.69425188493227,35.55787720636066],[139.69435872133474,35.55784343730654],[139.69438224115495,35.55789331125081],[139.69439758233466,35.55788846142639],[139.69441527733997,35.55792588947739],[139.69432687238012,35.557953820800485]]]}},{"type":"Feature","properties":{"height":9.1,"gml_id":"bldg_f1d7693d-13ec-43bf-a3f6-370f287fbccb"},"geometry":{"type":"Polygon","coordinates":[[[139.69990199719035,35.55752772284391],[139.69994050011115,35.55752434016641],[139.69994997514087,35.557597813898646],[139.6999114721853,35.557601196579036],[139.69990199719035,35.55752772284391]]]}},{"type":"Feature","properties":{"height":9.3,"gml_id":"bldg_a276b69a-50f5-48f2-9a77-f032b51db733"},"geometry":{"type":"Polygon","coordinates":[[[139.69985291163988,35.55752694740199],[139.69989229612426,35.55752410654957],[139.69990055713112,35.557597939497875],[139.69986117246148,35.55760087049166],[139.69985291163988,35.55752694740199]]]}},{"type":"Feature","properties":{"height":9.3,"gml_id":"bldg_092d7e1e-3ac1-4d20-9eed-625fa83044b2"},"geometry":{"type":"Polygon","coordinates":[[[139.69985554992255,35.55759897134938],[139.69982079860984,35.557601637042296],[139.69981253662937,35.55752843506028],[139.69984717760343,35.55752576924752],[139.69985554992255,35.55759897134938]]]}},{"type":"Feature","properties":{"height":8.0,"gml_id":"bldg_ed3212d5-e5ce-4d1f-956f-556d0e6026e5"},"geometry":{"type":"Polygon","coordinates":[[[139.69965922216613,35.55725487372048],[139.69958686427094,35.557252720282726],[139.69959018714937,35.55717808890809],[139.6996625449776,35.55718024234369],[139.69965922216613,35.55725487372048]]]}},{"type":"Feature","properties":{"height":9.4,"gml_id":"bldg_31876c49-e8a6-420e-800a-406cb4ec08d8"},"geometry":{"type":"Polygon","coordinates":[[[139.69979220224474,35.556886172433835],[139.6997806444791,35.55680494442257],[139.69993818697057,35.55678997547353],[139.69994974504243,35.55687111333143],[139.69979220224474,35.556886172433835]]]}},{"type":"Feature","properties":{"height":4.2,"gml_id":"bldg_7723e567-ff02-4d9e-a546-02cd1301cca4"},"geometry":{"type":"Polygon","coordinates":[[[139.69850827479016,35.557915302293836],[139.69847584821687,35.55791292241706],[139.69847887348257,35.55788489258715],[139.69851130004463,35.55788727246307],[139.69850827479016,35.557915302293836]]]}},{"type":"Feature","properties":{"height":9.1,"gml_id":"bldg_7c98ac0e-052a-4e09-8f37-2ea26a78f19d"},"geometry":{"type":"Polygon","coordinates":[[[139.69558863543523,35.55830599950038],[139.6955242056439,35.55831160462995],[139.69551843413512,35.55826788064683],[139.69558297420016,35.55826227564625],[139.69558863543523,35.55830599950038]]]}},{"type":"Feature","properties":{"height":7.6,"gml_id":"bldg_4895d7b3-b038-4e5b-840b-98204c3ac781"},"geometry":{"type":"Polygon","coordinates":[[[139.69319272570496,35.558183804444305],[139.69320074385578,35.5582669218653],[139.6931159064304,35.558272772404486],[139.69310788679667,35.558190556365695],[139.69319272570496,35.558183804444305]]]}},{"type":"Feature","properties":{"height":9.8,"gml_id":"bldg_2e7c7498-80bc-4e60-85ea-033cdb34e3d6"},"geometry":{"type":"Polygon","coordinates":[[[139.6986260841447,35.55791507341595],[139.69868564298062,35.557919556750846],[139.69867792259257,35.55798480872864],[139.69861836536788,35.557979333863294],[139.6986260841447,35.55791507341595]]]}},{"type":"Feature","properties":{"height":7.7,"gml_id":"bldg_53344b33-4602-4073-969c-2a06fba54d0a"},"geometry":{"type":"Polygon","coordinates":[[[139.69990853864653,35.55737449385277],[139.6998930041164,35.557296596599535],[139.70000510093388,35.55728166740024],[139.70002337399336,35.55737119559308],[139.69998376509253,35.557376379853224],[139.6999810265251,35.55736483903755],[139.69990853864653,35.55737449385277]]]}},{"type":"Feature","properties":{"height":9.2,"gml_id":"bldg_1decac82-5c8b-48c3-a068-73f7654e6e3c"},"geometry":{"type":"Polygon","coordinates":[[[139.69551338217332,35.55825489486472],[139.69550225881036,35.55818006682777],[139.69554208684698,35.55817614623688],[139.69555332070894,35.558250884257596],[139.69551338217332,35.55825489486472]]]}},{"type":"Feature","properties":{"height":9.9,"gml_id":"bldg_ddae397a-040b-4652-9152-4b33d381e1dd"},"geometry":{"type":"Polygon","coordinates":[[[139.69459214781116,35.55828286306464],[139.6945832327077,35.55820731637366],[139.6946429176743,35.55820260767848],[139.69465172252495,35.55827815423834],[139.69459214781116,35.55828286306464]]]}},{"type":"Feature","properties":{"height":7.3,"gml_id":"bldg_6aedb6fb-a66d-4060-b3a0-ba32b671ddfc"},"geometry":{"type":"Polygon","coordinates":[[[139.69434273417906,35.55835027015124],[139.69432145103977,35.558346549918454],[139.69431834186034,35.55835844467361],[139.69422923929923,35.55834292815002],[139.69423778957503,35.55831021757943],[139.694247827634,35.55831022915925],[139.694256267279,35.5582776987374],[139.6943003773664,35.55828541141928],[139.69429837842995,35.558293161063055],[139.69435505994494,35.55830305155529],[139.69434273417906,35.55835027015124]]]}},{"type":"Feature","properties":{"height":9.3,"gml_id":"bldg_0141b050-b0fa-4567-9043-333664af370a"},"geometry":{"type":"Polygon","coordinates":[[[139.69448856466843,35.558029002706895],[139.69454078180232,35.55806899437809],[139.6945110630975,35.55809555115285],[139.6944997152024,35.55808751572087],[139.69449153499784,35.558097601863],[139.6944659713599,35.55808143755238],[139.69447061160412,35.55807720636631],[139.6944606949211,35.55807079507995],[139.69446854062693,35.558062781750294],[139.6944585137934,35.55805628019791],[139.69448856466843,35.558029002706895]]]}},{"type":"Feature","properties":{"height":9.2,"gml_id":"bldg_161e99c0-7133-4e3f-8f3a-dd3929f80186"},"geometry":{"type":"Polygon","coordinates":[[[139.69443974153012,35.55806779635929],[139.69447081232025,35.55808874438217],[139.69441401771456,35.55814447496378],[139.69440476256383,35.55813824561434],[139.69439813287946,35.55814472707753],[139.69437631723136,35.55813000928987],[139.69443974153012,35.55806779635929]]]}},{"type":"Feature","properties":{"height":6.0,"gml_id":"bldg_ca54ec87-31fe-4bd3-9f8f-2ae0b9284d9a"},"geometry":{"type":"Polygon","coordinates":[[[139.6925311155276,35.55810957040474],[139.69264260715627,35.55806363955292],[139.6926627365072,35.558096293335836],[139.69265169782798,35.558100787403596],[139.6926681972615,35.55812757791894],[139.69256774441078,35.55816892459603],[139.6925311155276,35.55810957040474]]]}},{"type":"Feature","properties":{"height":8.2,"gml_id":"bldg_8cd58ad6-daa9-4697-91bb-7a73a6ee1201"},"geometry":{"type":"Polygon","coordinates":[[[139.70002128624083,35.557499551162664],[139.69999094965533,35.557500779562474],[139.69999148596466,35.55750997432931],[139.6999363285958,35.55751216679198],[139.69993343483094,35.55746114493997],[139.7000188182782,35.557457814096104],[139.70002128624083,35.557499551162664]]]}},{"type":"Feature","properties":{"height":6.7,"gml_id":"bldg_72c34129-a4e9-40e0-9582-15bdd76c4720"},"geometry":{"type":"Polygon","coordinates":[[[139.69273517682254,35.55830423822258],[139.69268120290488,35.55826000719239],[139.69270772412125,35.55823299644617],[139.69272204372535,35.55824473120857],[139.6927651237443,35.55821052864433],[139.69280698107323,35.55824483023288],[139.69273517682254,35.55830423822258]]]}},{"type":"Feature","properties":{"height":6.5,"gml_id":"bldg_316e510c-b2a3-42e3-8aa6-3719f8c3c0c5"},"geometry":{"type":"Polygon","coordinates":[[[139.69278804771562,35.55834846794263],[139.69274508568364,35.55831506644933],[139.69277601922894,35.55828806083309],[139.6928189828326,35.558320560927974],[139.69278804771562,35.55834846794263]]]}},{"type":"Feature","properties":{"height":7.3,"gml_id":"bldg_8cb7ef19-310f-49fb-98a4-738962c6d465"},"geometry":{"type":"Polygon","coordinates":[[[139.69267441275537,35.55835825071264],[139.69260171320315,35.55829867418119],[139.69266136631668,35.558249167377994],[139.6927340658686,35.558308743873965],[139.69267441275537,35.55835825071264]]]}},{"type":"Feature","properties":{"height":3.0,"gml_id":"bldg_e8117cab-cc4a-4077-a1a1-286d371d1b47"},"geometry":{"type":"Polygon","coordinates":[[[139.69919880989482,35.557447710471294],[139.69922726584466,35.55744972518158],[139.69922144053427,35.55750335138208],[139.6991929845656,35.5575013366704],[139.69919880989482,35.557447710471294]]]}},{"type":"Feature","properties":{"height":7.1,"gml_id":"bldg_30cb2ddd-8f94-4c3c-83ff-361a3e4e02de"},"geometry":{"type":"Polygon","coordinates":[[[139.6983629443978,35.5576189430994],[139.69837078981777,35.55754503793828],[139.69841777529479,35.55754833552446],[139.69841732923206,35.557551219471904],[139.6984659693245,35.55755451889074],[139.69846327876408,35.557580295622415],[139.69847044798755,35.5575807543363],[139.6984657392801,35.557625998824754],[139.6983629443978,35.5576189430994]]]}},{"type":"Feature","properties":{"height":7.6,"gml_id":"bldg_0dafc038-e9bb-4e70-be98-9ce4659c8ff4"},"geometry":{"type":"Polygon","coordinates":[[[139.6988367660579,35.55791891417047],[139.6988570586328,35.557921370556485],[139.69884946645803,35.55797598629234],[139.6988285108175,35.55797425027698],[139.6988257213451,35.55799326648349],[139.69875888573984,35.55798661176138],[139.69877439103365,35.55788341996832],[139.69882997862388,35.557887988938894],[139.69882595769803,35.55791782044601],[139.6988367660579,35.55791891417047]]]}},{"type":"Feature","properties":{"height":4.2,"gml_id":"bldg_23a811cd-90fb-4ed5-aa5e-a95ecb1036a5"},"geometry":{"type":"Polygon","coordinates":[[[139.69869939063884,35.55787801804634],[139.6987645740935,35.55788313859534],[139.69875260090063,35.557984982245415],[139.69868741736434,35.55797986168982],[139.69869939063884,35.55787801804634]]]}},{"type":"Feature","properties":{"height":9.6,"gml_id":"bldg_8c84c2cc-f907-4321-9e05-4729f34fb9fc"},"geometry":{"type":"Polygon","coordinates":[[[139.69869880008903,35.55783538166295],[139.69869096217653,35.557904960180906],[139.69867927105665,35.55790404573542],[139.69867882349368,35.5579078310715],[139.6986365808807,35.55790462902453],[139.69863803524035,35.55789246189093],[139.69863119691152,35.557892003556645],[139.69863813838836,35.557830806963565],[139.69869880008903,35.55783538166295]]]}},{"type":"Feature","properties":{"height":6.8,"gml_id":"bldg_1994aa3c-205f-44e5-8d06-55fc4721b45f"},"geometry":{"type":"Polygon","coordinates":[[[139.6958924779992,35.55782275079746],[139.6958928470628,35.55786502638482],[139.69569550390037,35.55786633363392],[139.69569541562834,35.55785344366363],[139.69564268776674,35.55785383415601],[139.69564202012998,35.5577927191868],[139.69569232102944,35.5577924160631],[139.69569204943465,35.557757712257754],[139.69579871841464,35.557756932590564],[139.69579937708536,35.557823365747126],[139.6958924779992,35.55782275079746]]]}},{"type":"Feature","properties":{"height":4.8,"gml_id":"bldg_8d7ecd17-e472-4f30-84e8-6599125fccc5"},"geometry":{"type":"Polygon","coordinates":[[[139.69424661780366,35.55811660931944],[139.69416962463893,35.55805162044036],[139.69425125746872,35.55798501181478],[139.69433057021615,35.558048200537776],[139.69424661780366,35.55811660931944]]]}},{"type":"Feature","properties":{"height":7.2,"gml_id":"bldg_cb74ca10-959d-4fcc-9e78-ef0591ceaf20"},"geometry":{"type":"Polygon","coordinates":[[[139.6998228197284,35.557380618554966],[139.69967358695206,35.55737279140567],[139.69967629178225,35.55733818104342],[139.69982552449474,35.55734600818926],[139.6998228197284,35.557380618554966]]]}},{"type":"Feature","properties":{"height":6.6,"gml_id":"bldg_c1e060a3-2fa3-4619-b991-68bc55702bc1"},"geometry":{"type":"Polygon","coordinates":[[[139.69293300283948,35.558089938069266],[139.69292537402413,35.55803674721039],[139.69304894092778,35.55802427159064],[139.69305656982363,35.558077462441986],[139.69293300283948,35.558089938069266]]]}},{"type":"Feature","properties":{"height":4.1,"gml_id":"bldg_3f0abb20-1829-4d0e-9a28-888539fd862c"},"geometry":{"type":"Polygon","coordinates":[[[139.6942178629434,35.558159842837604],[139.69414306968824,35.55809846203791],[139.69417621195856,35.55806965583177],[139.69425210517906,35.55813284065886],[139.6942178629434,35.558159842837604]]]}},{"type":"Feature","properties":{"height":6.9,"gml_id":"bldg_3106fee6-6233-4ec3-af2f-975c4ca63363"},"geometry":{"type":"Polygon","coordinates":[[[139.69341845531034,35.55803461623406],[139.6933799807102,35.55795795347978],[139.69342743971546,35.55794268493775],[139.69343623301705,35.557960722929415],[139.69346382831003,35.55795083966065],[139.69343634578726,35.55789582302074],[139.69348601090022,35.55788055701513],[139.69354317999262,35.557990592821255],[139.69341845531034,35.55803461623406]]]}},{"type":"Feature","properties":{"height":7.1,"gml_id":"bldg_83824e7d-45b7-40cf-bd61-ab2733cc7243"},"geometry":{"type":"Polygon","coordinates":[[[139.69980969795373,35.55744424212979],[139.69990964223382,35.55744074720921],[139.6999124180577,35.55749636601829],[139.69981258416541,35.55749977092434],[139.69980969795373,35.55744424212979]]]}},{"type":"Feature","properties":{"height":6.0,"gml_id":"bldg_274d53a7-2811-4b85-8bbd-115b9f408633"},"geometry":{"type":"Polygon","coordinates":[[[139.69851154949032,35.557870056202404],[139.69847338738492,35.55786739949464],[139.69847013636877,35.55789849379631],[139.69845964489704,35.55790578331585],[139.6983368865165,35.55789717287303],[139.6983439481975,35.55783020753887],[139.69851446428328,35.557842116386794],[139.69851154949032,35.557870056202404]]]}},{"type":"Feature","properties":{"height":3.3,"gml_id":"bldg_0501c04c-63f9-4b6d-8973-1a03d507bd60"},"geometry":{"type":"Polygon","coordinates":[[[139.69819945329408,35.557890889471686],[139.69820619036838,35.557820228084836],[139.69822957317803,35.55782169651121],[139.69822283612413,35.55789235789939],[139.69819945329408,35.557890889471686]]]}},{"type":"Feature","properties":{"height":8.5,"gml_id":"bldg_e028dd54-3f2e-4e51-8d6e-7266c9a202d3"},"geometry":{"type":"Polygon","coordinates":[[[139.69845249444967,35.55782825581934],[139.69845915179306,35.55773920598183],[139.69852499998373,35.557742524624885],[139.69851834271284,35.55783157446612],[139.69845249444967,35.55782825581934]]]}},{"type":"Feature","properties":{"height":4.8,"gml_id":"bldg_fd49cc2f-4c7c-4565-9aad-0c0e8f4d2992"},"geometry":{"type":"Polygon","coordinates":[[[139.69870916709874,35.55717683802189],[139.69862768888922,35.55721965316672],[139.6986017116755,35.557186633282214],[139.6986831898653,35.557143818154664],[139.69870916709874,35.55717683802189]]]}},{"type":"Feature","properties":{"height":8.2,"gml_id":"bldg_f2781ef4-0577-4165-b967-645c896ef02a"},"geometry":{"type":"Polygon","coordinates":[[[139.69774850405315,35.55822443815614],[139.69789994392292,35.55823254058452],[139.6978987062712,35.55824696142544],[139.69774737668268,35.558238859119506],[139.69774850405315,35.55822443815614]]]}},{"type":"Feature","properties":{"height":9.2,"gml_id":"bldg_75dc1bc8-af85-4c17-8755-6d0b3ccaf0db"},"geometry":{"type":"Polygon","coordinates":[[[139.69641948305656,35.55765524123796],[139.6964653675861,35.557657276389385],[139.69646457597327,35.557668723137624],[139.69647582641608,35.557669276741805],[139.6964711887368,35.55773696582978],[139.69641405371007,35.55773437707157],[139.69641948305656,35.55765524123796]]]}},{"type":"Feature","properties":{"height":7.2,"gml_id":"bldg_61cc1803-64c3-4b74-bf4b-43e993f22aa7"},"geometry":{"type":"Polygon","coordinates":[[[139.69633212584236,35.5576514463126],[139.6963924609501,35.557653317632536],[139.6963925533198,35.55766386399476],[139.69639917192103,35.557663781372725],[139.6963991642557,35.557668288311596],[139.6964120709963,35.55766785227429],[139.6964113636234,35.55769462273951],[139.6963991190302,35.557694879250796],[139.69640017895358,35.55778510954375],[139.69633046499095,35.55778475993321],[139.69633212584236,35.5576514463126]]]}},{"type":"Feature","properties":{"height":4.0,"gml_id":"bldg_f5329dfc-0c49-4aca-8412-a6f8e3080efc"},"geometry":{"type":"Polygon","coordinates":[[[139.6981234474464,35.55789305773642],[139.69813063005665,35.55781987296287],[139.69819272647592,35.557823998830884],[139.6981854336139,35.55789718348455],[139.6981234474464,35.55789305773642]]]}},{"type":"Feature","properties":{"height":8.1,"gml_id":"bldg_a5bf86d7-1fa6-4fda-8a3c-560b5b609a95"},"geometry":{"type":"Polygon","coordinates":[[[139.69820885104207,35.55774658754303],[139.6981340661312,35.55774434037428],[139.69813681916358,35.557681426472215],[139.69821160401614,35.557683673639154],[139.69820885104207,35.55774658754303]]]}},{"type":"Feature","properties":{"height":7.0,"gml_id":"bldg_93df0b5a-c740-4227-a3ae-a76fed7faaba"},"geometry":{"type":"Polygon","coordinates":[[[139.6961271333685,35.55806377918052],[139.69629631471415,35.55808226978925],[139.69628383055854,35.5581584230077],[139.69611464905583,35.558139932381316],[139.6961271333685,35.55806377918052]]]}},{"type":"Feature","properties":{"height":7.1,"gml_id":"bldg_dfd7672d-e627-4568-8713-c0b4a82063d2"},"geometry":{"type":"Polygon","coordinates":[[[139.69422091142707,35.55773619331602],[139.69430356929763,35.557714565169015],[139.69433794413973,35.55780230999687],[139.69425528618814,35.55782393816693],[139.69422091142707,35.55773619331602]]]}},{"type":"Feature","properties":{"height":7.6,"gml_id":"bldg_afc50ac0-6ae9-476b-8683-8d2ec635d7be"},"geometry":{"type":"Polygon","coordinates":[[[139.69573443825462,35.558256138869204],[139.69574560309817,35.5581777307304],[139.69576655856937,35.55817955742027],[139.69576767705274,35.55817054480211],[139.69584818969292,35.55817784775095],[139.6958580851057,35.55819678821203],[139.69584803884467,35.55826618374246],[139.69573443825462,35.558256138869204]]]}},{"type":"Feature","properties":{"height":8.1,"gml_id":"bldg_9b7e88a8-d9a3-4d8b-92ca-616fee4f7497"},"geometry":{"type":"Polygon","coordinates":[[[139.693253793769,35.55820839319974],[139.69335088065438,35.55819949206153],[139.693357847603,35.558252862401886],[139.69326076222225,35.5582608621579],[139.693253793769,35.55820839319974]]]}},{"type":"Feature","properties":{"height":3.8,"gml_id":"bldg_bf7228b8-a2ca-4a1f-9650-fc6fbf8e6882"},"geometry":{"type":"Polygon","coordinates":[[[139.69304678816994,35.5579936218456],[139.6930004447113,35.558001680420574],[139.69298685169403,35.5579528092922],[139.69303429977498,35.557943850618294],[139.69304678816994,35.5579936218456]]]}},{"type":"Feature","properties":{"height":6.2,"gml_id":"bldg_904571cc-c7be-4a57-8d5c-bef5f8ff809d"},"geometry":{"type":"Polygon","coordinates":[[[139.69449290282503,35.558263909784785],[139.69448412955393,35.55829806234007],[139.69433955782355,35.55827328783557],[139.69435410592618,35.55821669735116],[139.69438277766096,35.55822159789952],[139.69439010716013,35.55819312244074],[139.694465204954,35.55820600868728],[139.6944642056502,35.558209793371844],[139.6944928772339,35.55821478403277],[139.69448077248995,35.55826182262026],[139.69449290282503,35.558263909784785]]]}},{"type":"Feature","properties":{"height":8.6,"gml_id":"bldg_b8cd90cf-03d0-4ded-870b-2bf130929550"},"geometry":{"type":"Polygon","coordinates":[[[139.69597971783594,35.55802476145209],[139.69598992469594,35.55792580051616],[139.69612668949833,35.55793587151101],[139.69611648434133,35.558033931071],[139.69597971783594,35.55802476145209]]]}},{"type":"Feature","properties":{"height":6.9,"gml_id":"bldg_c9da3366-6eea-402a-8c99-5e090fe5c526"},"geometry":{"type":"Polygon","coordinates":[[[139.69620636829518,35.55791450908665],[139.69619646247824,35.55783688818615],[139.69625460277072,35.557832176935555],[139.6962585383973,35.55785300350702],[139.69631579470217,35.55784919261146],[139.69632065546756,35.5579097715082],[139.69620636829518,35.55791450908665]]]}},{"type":"Feature","properties":{"height":7.3,"gml_id":"bldg_87580d2f-651d-4beb-a04f-c724cffbc07d"},"geometry":{"type":"Polygon","coordinates":[[[139.69835922098105,35.55780020836601],[139.69836474331524,35.557730266720846],[139.6984517684338,35.55773487105274],[139.69844635497236,35.55780571421323],[139.69835922098105,35.55780020836601]]]}},{"type":"Feature","properties":{"height":8.6,"gml_id":"bldg_d068ad21-1dad-4abb-a323-8bafba6c94c9"},"geometry":{"type":"Polygon","coordinates":[[[139.69564291423038,35.55830191510657],[139.69564088558536,35.55826261221151],[139.69571667184334,35.55826008470595],[139.6957178467162,35.558282620782265],[139.69570744013842,35.558304602805826],[139.6956541579734,35.55830643489321],[139.69565383537218,35.55830156702202],[139.69564291423038,35.55830191510657]]]}},{"type":"Feature","properties":{"height":10.1,"gml_id":"bldg_dbf7d6ba-3862-4967-bad5-22cb9018c0e5"},"geometry":{"type":"Polygon","coordinates":[[[139.69463243345575,35.55769322044037],[139.69464427679318,35.557733796590604],[139.69459484238965,35.557743384585805],[139.69458299907572,35.55770280843083],[139.69463243345575,35.55769322044037]]]}},{"type":"Feature","properties":{"height":9.6,"gml_id":"bldg_e5118a10-b979-40d8-9cfa-5d088ac1784b"},"geometry":{"type":"Polygon","coordinates":[[[139.6945130588303,35.55770579265024],[139.6945620515243,35.557696474596966],[139.69457849745172,35.55775463314564],[139.6945396564414,35.55776197983487],[139.69453647647913,35.55775097922269],[139.6945264352263,35.557752860581196],[139.6945130588303,35.55770579265024]]]}},{"type":"Feature","properties":{"height":10.4,"gml_id":"bldg_8cb8c49b-6eed-40e3-9ce9-3122356388a9"},"geometry":{"type":"Polygon","coordinates":[[[139.69424274038894,35.557806977573016],[139.6941967198229,35.55781981434493],[139.6941687075977,35.55775253836217],[139.69421472812968,35.55773970160074],[139.69424274038894,35.557806977573016]]]}},{"type":"Feature","properties":{"height":8.9,"gml_id":"bldg_31363c2b-8923-45e2-818e-47eaafc961d4"},"geometry":{"type":"Polygon","coordinates":[[[139.69568702326535,35.55824580890961],[139.69568715302344,35.55816991206827],[139.69572344456054,35.55816986335466],[139.6957233148367,35.55824576019612],[139.69568702326535,35.55824580890961]]]}},{"type":"Feature","properties":{"height":9.9,"gml_id":"bldg_98299180-be7d-4681-9064-403b4811f73e"},"geometry":{"type":"Polygon","coordinates":[[[139.6961785968984,35.55815812306883],[139.69616103755894,35.55829953109422],[139.6960593475677,35.558291032438916],[139.69605778173425,35.55830365010797],[139.69598421683583,35.558297256603204],[139.69598622683563,35.558282926801176],[139.69599648397096,35.55828383987438],[139.6960014001152,35.55824715892464],[139.6959919151423,35.558246246731414],[139.69599503975402,35.55822515777806],[139.69600375256684,35.55822606909157],[139.69600542456413,35.55821588529543],[139.69599119649527,35.55821487756085],[139.69599589755666,35.55817495136396],[139.69601255193695,35.558176232278186],[139.69601602314617,35.55814594954653],[139.6961785968984,35.55815812306883]]]}},{"type":"Feature","properties":{"height":4.7,"gml_id":"bldg_85c1ba8c-9ce9-4944-8b27-18d5a3d696a1"},"geometry":{"type":"Polygon","coordinates":[[[139.69869729891752,35.557413800095176],[139.69868853306386,35.55751059954664],[139.69862588472043,35.557506833873205],[139.69863262847517,35.557431935934034],[139.6986599819363,35.55743358899067],[139.69866189379565,35.55741168735936],[139.69869729891752,35.557413800095176]]]}},{"type":"Feature","properties":{"height":8.2,"gml_id":"bldg_dd76d091-9676-4f90-bf9a-b61c93a9b87a"},"geometry":{"type":"Polygon","coordinates":[[[139.6927421479076,35.558102335128495],[139.69272564735266,35.55807617559443],[139.6927135055995,35.558080668381486],[139.69267721087945,35.55801942170557],[139.6927158454202,35.5580041431493],[139.69274806855242,35.557996609054165],[139.69275884520417,35.558015821213665],[139.69279734126746,35.55807986473811],[139.6927421479076,35.558102335128495]]]}},{"type":"Feature","properties":{"height":7.0,"gml_id":"bldg_fb7b9180-9140-40f2-a5b3-02c05a10128a"},"geometry":{"type":"Polygon","coordinates":[[[139.6928253852788,35.55831795436003],[139.69278242010034,35.55828635565495],[139.69284042429032,35.558233511700045],[139.69288449411866,35.55826421028212],[139.6928253852788,35.55831795436003]]]}},{"type":"Feature","properties":{"height":6.7,"gml_id":"bldg_038746a6-d43b-49ff-bc54-19925dbccb24"},"geometry":{"type":"Polygon","coordinates":[[[139.69298794316117,35.55821259099029],[139.6929681866901,35.5581557804604],[139.693061213501,35.55813461593283],[139.69308097003264,35.55819142644781],[139.69298794316117,35.55821259099029]]]}},{"type":"Feature","properties":{"height":9.0,"gml_id":"bldg_5c573bfe-f0d7-49d7-bfe0-60a1ea392fc8"},"geometry":{"type":"Polygon","coordinates":[[[139.69283164658924,35.558080175135544],[139.69280344076023,35.557998025688676],[139.69288907460248,35.557978114621505],[139.69291738924792,35.55806116556481],[139.69283164658924,35.558080175135544]]]}},{"type":"Feature","properties":{"height":6.5,"gml_id":"bldg_4c3a1205-1d53-4144-ba89-cc43d3f340d5"},"geometry":{"type":"Polygon","coordinates":[[[139.69282608450138,35.55817012731611],[139.69279550537715,35.558120515260335],[139.69290876195637,35.55807449608061],[139.6929393442768,35.55812230533302],[139.69282608450138,35.55817012731611]]]}},{"type":"Feature","properties":{"height":9.9,"gml_id":"bldg_a9408855-c21f-4764-be5d-ced2817f4263"},"geometry":{"type":"Polygon","coordinates":[[[139.6931818514868,35.558030465466494],[139.6931433959486,35.55794298598592],[139.6932278233218,35.557919017022556],[139.69326628050865,35.55800559508915],[139.6931818514868,35.558030465466494]]]}},{"type":"Feature","properties":{"height":7.6,"gml_id":"bldg_903505d8-b82d-4275-9865-f6e8b6b299c9"},"geometry":{"type":"Polygon","coordinates":[[[139.6930032621909,35.55828381858199],[139.6929945585108,35.55821440146914],[139.6930717882295,35.5582064689698],[139.69308049197537,35.55827588607732],[139.6930032621909,35.55828381858199]]]}},{"type":"Feature","properties":{"height":6.8,"gml_id":"bldg_8d17c9f2-f39f-4a99-8e70-f92eaa5d1c2a"},"geometry":{"type":"Polygon","coordinates":[[[139.69633699304384,35.55803237903987],[139.69633928509364,35.55798190383426],[139.69641318832132,35.55798379055933],[139.6964108963178,35.55803426576642],[139.69633699304384,35.55803237903987]]]}},{"type":"Feature","properties":{"height":7.8,"gml_id":"bldg_473246ec-bc74-4317-830c-b37fcbd6867d"},"geometry":{"type":"Polygon","coordinates":[[[139.6962426882047,35.55776816473541],[139.69624840617314,35.55764918782188],[139.6963223090931,35.557651074602056],[139.6963164793921,35.5577709527817],[139.6962426882047,35.55776816473541]]]}},{"type":"Feature","properties":{"height":7.7,"gml_id":"bldg_5d931c58-2c5c-4f81-a19c-416bcc64833d"},"geometry":{"type":"Polygon","coordinates":[[[139.69599092392448,35.5579220158186],[139.695995394666,35.55788776811112],[139.69613325787418,35.55790054451807],[139.69612878872667,35.55793389084299],[139.69599092392448,35.5579220158186]]]}},{"type":"Feature","properties":{"height":7.0,"gml_id":"bldg_da8d6e85-07c7-41f5-92c2-db63cac744e1"},"geometry":{"type":"Polygon","coordinates":[[[139.69797803034456,35.55823965910816],[139.69798252905116,35.55818828495968],[139.69805863564494,35.5581919759287],[139.69805524006932,35.55824335131772],[139.69797803034456,35.55823965910816]]]}},{"type":"Feature","properties":{"height":7.6,"gml_id":"bldg_0301fcc2-bdbc-4e3f-8340-b3632337702f"},"geometry":{"type":"Polygon","coordinates":[[[139.6980651602411,35.5582478693947],[139.69806966192138,35.558194692467396],[139.6981467597857,35.558199285882296],[139.69814225966965,35.55825156142481],[139.6980651602411,35.5582478693947]]]}},{"type":"Feature","properties":{"height":7.3,"gml_id":"bldg_0aeaf9c4-d770-4f3d-96fd-30d4358fad10"},"geometry":{"type":"Polygon","coordinates":[[[139.69317555340908,35.558163232805484],[139.6931518450317,35.558095330621434],[139.69327941538108,35.55806429079825],[139.69330422709476,35.5581321041001],[139.69317555340908,35.558163232805484]]]}},{"type":"Feature","properties":{"height":8.3,"gml_id":"bldg_04bbf172-edc7-401f-8a0c-3c4f45e733db"},"geometry":{"type":"Polygon","coordinates":[[[139.69488374815546,35.55825092851399],[139.69487083750482,35.55818943893045],[139.6949215916639,35.558182286089526],[139.6949345023522,35.5582437756678],[139.69488374815546,35.55825092851399]]]}},{"type":"Feature","properties":{"height":7.1,"gml_id":"bldg_08284054-eb2a-4cd4-ab8d-66990916ec40"},"geometry":{"type":"Polygon","coordinates":[[[139.69335001265736,35.55806428264289],[139.69329835760192,35.55795515454043],[139.69334581975542,35.55793808325533],[139.69339747329772,35.55804811272549],[139.69335001265736,35.55806428264289]]]}},{"type":"Feature","properties":{"height":6.6,"gml_id":"bldg_9150c21c-0a38-445b-9efe-2c399df5be53"},"geometry":{"type":"Polygon","coordinates":[[[139.69502923831007,35.55831906024994],[139.69500862671063,35.55824548322987],[139.6950516593158,35.55823832147559],[139.69507227250077,35.55831099710086],[139.69502923831007,35.55831906024994]]]}},{"type":"Feature","properties":{"height":7.3,"gml_id":"bldg_4ab87a50-f91e-41d1-aac8-0a168acf86c1"},"geometry":{"type":"Polygon","coordinates":[[[139.69852907365032,35.557813017840125],[139.69853690233685,35.557749027936524],[139.69861190094116,35.55775542148605],[139.69860407382197,35.557818510006754],[139.69852907365032,35.557813017840125]]]}},{"type":"Feature","properties":{"height":7.1,"gml_id":"bldg_4e22a659-2ae8-4aac-94d0-38fbdc25106d"},"geometry":{"type":"Polygon","coordinates":[[[139.69912657030306,35.558036237451496],[139.69913440905435,35.557965937795665],[139.69929654214704,35.55797783620704],[139.6992898261256,35.55803641905818],[139.69925784131215,35.558033679327025],[139.69925671721697,35.55804629752993],[139.69912657030306,35.558036237451496]]]}},{"type":"Feature","properties":{"height":13.3,"gml_id":"bldg_481a43a5-120f-4d92-b98f-cf1d60721e29"},"geometry":{"type":"Polygon","coordinates":[[[139.6992425710179,35.55726757136663],[139.69924279169524,35.55713506733825],[139.69931007881505,35.55713514214994],[139.69931004880607,35.55715316990913],[139.6995306655105,35.557151522015396],[139.69953064453878,35.55716414144692],[139.69958248723495,35.55716510035626],[139.69958231653092,35.557267858583536],[139.6992425710179,35.55726757136663]]]}},{"type":"Feature","properties":{"height":7.7,"gml_id":"bldg_e2fbaeb2-ab03-4f68-8004-577a8bd7548b"},"geometry":{"type":"Polygon","coordinates":[[[139.69914325021165,35.55795603235117],[139.69915332213634,35.55786951016725],[139.6993319982038,35.55788322971882],[139.69932192646928,35.557969751917874],[139.69914325021165,35.55795603235117]]]}},{"type":"Feature","properties":{"height":7.1,"gml_id":"bldg_6c6925bc-2eef-4874-b3de-8e5977a94549"},"geometry":{"type":"Polygon","coordinates":[[[139.6997928325381,35.55690519245394],[139.6997326936905,35.55691828612177],[139.69969516023576,35.55680295678802],[139.69975540915993,35.55678995339947],[139.6997928325381,35.55690519245394]]]}},{"type":"Feature","properties":{"height":6.7,"gml_id":"bldg_231b6620-d8d6-4bb0-8953-85606143a887"},"geometry":{"type":"Polygon","coordinates":[[[139.6957413768236,35.557875219607666],[139.69588897228897,35.557873224612145],[139.695883332562,35.55794605045234],[139.6957498406564,35.55795725570756],[139.6957413768236,35.557875219607666]]]}},{"type":"Feature","properties":{"height":8.6,"gml_id":"bldg_cef8cade-4597-4c07-9b07-5184b30252cf"},"geometry":{"type":"Polygon","coordinates":[[[139.69459790473255,35.55807870498663],[139.69459412181936,35.558161538321784],[139.69455992816088,35.55816041730383],[139.69456371095382,35.55807767410857],[139.69459790473255,35.55807870498663]]]}},{"type":"Feature","properties":{"height":8.5,"gml_id":"bldg_0f4cdcd9-16a7-4974-997b-080df15446e5"},"geometry":{"type":"Polygon","coordinates":[[[139.69455230944135,35.558164735203945],[139.6945073055843,35.55816360172779],[139.69450973162972,35.55810005656697],[139.69455495606738,35.55810119029607],[139.69455230944135,35.558164735203945]]]}},{"type":"Feature","properties":{"height":7.6,"gml_id":"bldg_928d9af2-1e60-4934-b6e2-ff172e04e7e2"},"geometry":{"type":"Polygon","coordinates":[[[139.6952198365821,35.55794195711347],[139.69518563187157,35.55794732626444],[139.69517358462926,35.55789683465074],[139.69531150798446,35.55787445787687],[139.69534261430846,35.558003482312635],[139.69523779394996,35.558019587313815],[139.6952198365821,35.55794195711347]]]}},{"type":"Feature","properties":{"height":8.0,"gml_id":"bldg_6bc0fab6-24de-420b-bdd9-56c74189cf2f"},"geometry":{"type":"Polygon","coordinates":[[[139.6936465550732,35.55817189190183],[139.69360696146651,35.55810424181913],[139.69367098548418,35.55807817570408],[139.693710579132,35.55814582576613],[139.6936465550732,35.55817189190183]]]}},{"type":"Feature","properties":{"height":7.1,"gml_id":"bldg_19e23083-e6b1-4492-a38d-562b351caf4b"},"geometry":{"type":"Polygon","coordinates":[[[139.69434437326032,35.55778419947983],[139.6943246159355,35.55772738916624],[139.69444147671797,35.557701383543986],[139.69446013119864,35.5577581024296],[139.69434437326032,35.55778419947983]]]}},{"type":"Feature","properties":{"height":7.3,"gml_id":"bldg_72941086-cf86-4fbb-80f3-2160d9b80562"},"geometry":{"type":"Polygon","coordinates":[[[139.69439153049655,35.55787971097496],[139.6943684529943,35.55782920656957],[139.69448102745793,35.55779418207465],[139.69450189731248,35.557845585306374],[139.69439153049655,35.55787971097496]]]}},{"type":"Feature","properties":{"height":10.0,"gml_id":"bldg_2e897a72-f74c-4a23-83b9-aaeab150f496"},"geometry":{"type":"Polygon","coordinates":[[[139.69550992460273,35.557954908507874],[139.69548808372002,35.55782598484603],[139.69562378838043,35.55781081629375],[139.695639075753,35.55790187409002],[139.6956192172676,35.55790365418882],[139.69562577098193,35.55794152003166],[139.69550992460273,35.557954908507874]]]}},{"type":"Feature","properties":{"height":9.3,"gml_id":"bldg_2ec4e7ae-8167-4dac-801b-42024c86511d"},"geometry":{"type":"Polygon","coordinates":[[[139.6956599172436,35.55797031334963],[139.6956490234931,35.55789016738687],[139.69571852832834,35.557883846870745],[139.69572942199315,35.557964082966244],[139.6956599172436,35.55797031334963]]]}},{"type":"Feature","properties":{"height":6.4,"gml_id":"bldg_d08e334a-4305-4db9-9ad5-5a16e249c84e"},"geometry":{"type":"Polygon","coordinates":[[[139.69495778421268,35.55830401520196],[139.6949468478902,35.55824901789662],[139.69500201286152,35.55824277147381],[139.69501184768623,35.558296866121196],[139.69495778421268,35.55830401520196]]]}},{"type":"Feature","properties":{"height":7.2,"gml_id":"bldg_e5df86f2-33a3-49e9-bac5-a94d9c5aaf31"},"geometry":{"type":"Polygon","coordinates":[[[139.6947382985571,35.55828753809781],[139.69472516242945,35.55822893268607],[139.69478363665053,35.558222690167376],[139.69479677281976,35.55828129557289],[139.6947382985571,35.55828753809781]]]}},{"type":"Feature","properties":{"height":8.4,"gml_id":"bldg_516690cb-8340-4cda-a04b-c2100fe37a3f"},"geometry":{"type":"Polygon","coordinates":[[[139.6953653348047,35.558005221854664],[139.69535332760728,35.55793129327777],[139.69548682631398,35.55791612235566],[139.69549993671245,35.55799005127934],[139.6953653348047,35.558005221854664]]]}},{"type":"Feature","properties":{"height":7.9,"gml_id":"bldg_83e41473-0595-4504-9269-031f72b07c0c"},"geometry":{"type":"Polygon","coordinates":[[[139.69528093060498,35.558337646900505],[139.69527336343435,35.558247589434345],[139.69548958938475,35.558235127237765],[139.69549715664186,35.55832527482985],[139.69528093060498,35.558337646900505]]]}},{"type":"Feature","properties":{"height":6.3,"gml_id":"bldg_536d589d-b465-4702-8a28-c8ff2e62c582"},"geometry":{"type":"Polygon","coordinates":[[[139.69642434113527,35.55752283263305],[139.69633949567177,35.557534003631396],[139.6963330435255,35.55750109558232],[139.6964426032913,35.55748670764763],[139.6964430406888,35.55748896161808],[139.69645230848792,35.55748780033335],[139.69645777680444,35.5575154792],[139.69642379450383,35.55751994756584],[139.69642434113527,35.55752283263305]]]}},{"type":"Feature","properties":{"height":7.2,"gml_id":"bldg_54b13617-2c8c-4475-bc59-30f9b13ef47d"},"geometry":{"type":"Polygon","coordinates":[[[139.69826937104543,35.55776982106274],[139.6982669860845,35.557810651336275],[139.69813186781138,35.55780536197965],[139.69813459602403,35.55775723083862],[139.698230226664,35.55776094359001],[139.69822977303045,35.55776833447576],[139.69826937104543,35.55776982106274]]]}},{"type":"Feature","properties":{"height":10.1,"gml_id":"bldg_5bc98cde-9819-4e91-a10d-87e1c99e8fbc"},"geometry":{"type":"Polygon","coordinates":[[[139.69823722016108,35.557668919555226],[139.69829236966814,35.557671505225784],[139.6982879635048,35.557733606029515],[139.69823281395537,35.557731020356876],[139.69823722016108,35.557668919555226]]]}},{"type":"Feature","properties":{"height":9.5,"gml_id":"bldg_c594c241-f565-47d8-be74-2c597df49bff"},"geometry":{"type":"Polygon","coordinates":[[[139.69828299250733,35.557935151156464],[139.6982354555736,35.55793167262196],[139.69824408131205,35.557852990983],[139.69829172850743,35.55785646963761],[139.69828299250733,35.557935151156464]]]}},{"type":"Feature","properties":{"height":8.3,"gml_id":"bldg_4b166e19-686b-46e0-88b7-2c1fec6aac02"},"geometry":{"type":"Polygon","coordinates":[[[139.69921994527462,35.557738792670584],[139.69921669455206,35.55776988699368],[139.69915614227676,35.55776585351033],[139.69915928286514,35.55773466892734],[139.69921994527462,35.557738792670584]]]}},{"type":"Feature","properties":{"height":4.1,"gml_id":"bldg_1b22be2d-bc48-4031-8111-bbbdd53023b4"},"geometry":{"type":"Polygon","coordinates":[[[139.69985195965097,35.55743581586122],[139.6998131343679,35.55743406023289],[139.6998163011464,35.557386921063944],[139.69988248077567,35.55738978863779],[139.69988089837736,35.557412772321065],[139.69985354415013,35.557411570235324],[139.69985195965097,35.55743581586122]]]}},{"type":"Feature","properties":{"height":9.0,"gml_id":"bldg_13d8ecf0-bcbd-466e-ae78-77a69074494a"},"geometry":{"type":"Polygon","coordinates":[[[139.6944221823813,35.55814340270328],[139.6944748888983,35.558091543384286],[139.6945069493708,35.55811429531642],[139.6944835267503,35.55813590169148],[139.6944888156322,35.5581393330618],[139.69448538924098,35.55814329522954],[139.6944917810492,35.558146818008765],[139.69447708224192,35.55816293595239],[139.6944569177756,35.55815020313759],[139.69445426540506,35.558153084528676],[139.6944510698902,35.55815109779121],[139.69444488143947,35.55815758066661],[139.6944221823813,35.55814340270328]]]}},{"type":"Feature","properties":{"height":2.2,"gml_id":"bldg_fc5402f2-e340-424d-a929-d3e4601458f0"},"geometry":{"type":"Polygon","coordinates":[[[139.69717731050488,35.557842777159514],[139.69715370739846,35.55784112800239],[139.69715572632614,35.55782138985263],[139.69717932942683,35.557823039009364],[139.69717731050488,35.557842777159514]]]}},{"type":"Feature","properties":{"height":6.3,"gml_id":"bldg_e5d3fb0d-711b-42f9-8a24-993bcf55d9a5"},"geometry":{"type":"Polygon","coordinates":[[[139.69382506024746,35.55822041304609],[139.69384824329927,35.55827353170329],[139.6937638147996,35.558298041931785],[139.6937407421048,35.5582449233864],[139.69382506024746,35.55822041304609]]]}},{"type":"Feature","properties":{"height":6.3,"gml_id":"bldg_98cae486-1d7c-4f1f-bcc7-53359e5ee764"},"geometry":{"type":"Polygon","coordinates":[[[139.69394846863366,35.55817215116222],[139.69397615894405,35.55823419876083],[139.69388168607065,35.55826239315892],[139.6938539958235,35.558200345539035],[139.69394846863366,35.55817215116222]]]}},{"type":"Feature","properties":{"height":6.4,"gml_id":"bldg_01918ece-77ca-4541-8ebd-7221f3dd4d37"},"geometry":{"type":"Polygon","coordinates":[[[139.69396718326604,35.55813025818786],[139.69402766235805,35.558112841124284],[139.69403117817984,35.558120957691074],[139.69405578920043,35.55811386514637],[139.69406161182738,35.5581275729913],[139.69409350676614,35.558118415656615],[139.6941127335244,35.55816305663466],[139.6941255356585,35.55815937571962],[139.6941666257427,35.558254970430575],[139.69413506183875,35.55826403802759],[139.6941453895209,35.55828793676925],[139.69411503961666,35.55829664520663],[139.69412657538987,35.558323610068605],[139.69404711376228,35.5583464135899],[139.6940152525445,35.55827228257147],[139.6940268406854,35.558268960819994],[139.69396718326604,35.55813025818786]]]}},{"type":"Feature","properties":{"height":7.4,"gml_id":"bldg_800e3730-7a07-4aea-8f02-ff858130a363"},"geometry":{"type":"Polygon","coordinates":[[[139.69862900600896,35.557751023788455],[139.69869815500348,35.557759393805924],[139.69869648561738,35.557768225559194],[139.6987077347336,35.55776959020422],[139.69869704647078,35.55782861928341],[139.698616648295,35.55781888461277],[139.69862900600896,35.557751023788455]]]}},{"type":"Feature","properties":{"height":9.8,"gml_id":"bldg_caf5be60-ad24-4f9b-9747-ddea2bcfa301"},"geometry":{"type":"Polygon","coordinates":[[[139.6985297225171,35.557820770515434],[139.69858233249633,35.557824885576295],[139.69857338009078,35.55790122326237],[139.69852088036993,35.557897108320866],[139.6985297225171,35.557820770515434]]]}},{"type":"Feature","properties":{"height":8.9,"gml_id":"bldg_a89ce753-7d07-4d5c-a68f-940b8dc36629"},"geometry":{"type":"Polygon","coordinates":[[[139.6970145339529,35.55821126152679],[139.69698927688196,35.558209159772744],[139.69695476615448,35.558069585655886],[139.6972878465818,35.558099437377045],[139.6972642007688,35.558253548289926],[139.69701317545636,35.55823181167005],[139.6970145339529,35.55821126152679]]]}},{"type":"Feature","properties":{"height":7.4,"gml_id":"bldg_146a86ff-4f91-438b-8621-7057c4c601d0"},"geometry":{"type":"Polygon","coordinates":[[[139.69462557574911,35.55789611532165],[139.6946676602249,35.557926991248124],[139.69466655528373,35.5579280716447],[139.69469156349382,35.55794648874818],[139.6946416260891,35.55799186134468],[139.69463413462384,35.55798635425157],[139.6945722655705,35.55804234948826],[139.69451266433518,35.55799856349341],[139.69462557574911,35.55789611532165]]]}},{"type":"Feature","properties":{"height":8.2,"gml_id":"bldg_1f72a40c-4f28-4a19-813d-d5779b7e9148"},"geometry":{"type":"Polygon","coordinates":[[[139.69461077663988,35.558162549013296],[139.69460862980705,35.558128113467426],[139.6946059831894,35.558127659727596],[139.69460201579577,35.55806149317879],[139.6946888334708,35.55805852831664],[139.6946891546157,35.55806420743936],[139.69469511186887,35.558063853733586],[139.6946976858448,35.558106492413245],[139.69469062550783,35.55810684485071],[139.694693844723,35.55815912913889],[139.69461077663988,35.558162549013296]]]}},{"type":"Feature","properties":{"height":6.2,"gml_id":"bldg_1bb40b11-81c7-46b2-8e61-f09b4a7190d3"},"geometry":{"type":"Polygon","coordinates":[[[139.69489535395937,35.557980705289665],[139.6948966607601,35.55799053193507],[139.6949061486348,35.557989731577834],[139.69491289396646,35.558044273383146],[139.6949006480759,35.55804525085225],[139.69490119279644,35.55804921759118],[139.69490306834214,35.558049039466646],[139.69490709440998,35.5580812236918],[139.69484917432194,35.55808602468399],[139.69484493045195,35.5580522177058],[139.69484835061982,35.55805186107837],[139.6948476990049,35.55804591115967],[139.6948376595831,35.55804671087875],[139.69483113181678,35.55799397209812],[139.69484392939492,35.55799290513077],[139.69484295011318,35.55798506191779],[139.69489535395937,35.557980705289665]]]}},{"type":"Feature","properties":{"height":4.5,"gml_id":"bldg_80616410-9283-45e6-ba45-827c5cf8ee1a"},"geometry":{"type":"Polygon","coordinates":[[[139.6947532067961,35.558085644004585],[139.6948018540356,35.55808488865724],[139.69480225975056,35.55810553094132],[139.69484230266275,35.55810494596933],[139.6948432264375,35.55814505885982],[139.6947546465373,35.558146399306665],[139.6947532067961,35.558085644004585]]]}},{"type":"Feature","properties":{"height":2.0,"gml_id":"bldg_3737e3a4-f696-41a2-be21-d2c935050ab0"},"geometry":{"type":"Polygon","coordinates":[[[139.69488899113017,35.557767879931454],[139.69491425203563,35.557767638517156],[139.6949144280196,35.55779359873616],[139.69488927756862,35.557793750138366],[139.69488899113017,35.557767879931454]]]}},{"type":"Feature","properties":{"height":7.7,"gml_id":"bldg_0f4d2814-5b49-415e-9b37-5932d8c94681"},"geometry":{"type":"Polygon","coordinates":[[[139.69458195030288,35.55805534064144],[139.69455632062696,35.558077485324716],[139.69449011364318,35.55802630032229],[139.69451585362884,35.558004155779905],[139.69458195030288,35.55805534064144]]]}},{"type":"Feature","properties":{"height":4.2,"gml_id":"bldg_df4bf406-fb96-4432-8413-c0062c2eaef5"},"geometry":{"type":"Polygon","coordinates":[[[139.69479295051775,35.55793840264287],[139.6947964813289,35.55800195465592],[139.69475103151763,35.55800361506568],[139.69474750074232,35.557940063051404],[139.69479295051775,35.55793840264287]]]}},{"type":"Feature","properties":{"height":8.8,"gml_id":"bldg_c5103bf8-b7a5-4184-9284-90a8fc66fb56"},"geometry":{"type":"Polygon","coordinates":[[[139.6956798674453,35.55817296847481],[139.69568030941068,35.558237057767435],[139.6956616671628,35.55823712662168],[139.69566156841472,35.558230366088274],[139.6956205331336,35.558230679782035],[139.69562018117196,35.558178488932406],[139.6956501849933,35.558178523198016],[139.69564997362585,35.55817311462009],[139.6956798674453,35.55817296847481]]]}},{"type":"Feature","properties":{"height":8.7,"gml_id":"bldg_9993f8ba-9636-48c6-9344-2f2423d0fc6f"},"geometry":{"type":"Polygon","coordinates":[[[139.69561477314224,35.558180195395344],[139.69561567710412,35.558232116458626],[139.69555577865015,35.55823267900009],[139.6955550956517,35.558180577911],[139.69561477314224,35.558180195395344]]]}},{"type":"Feature","properties":{"height":8.2,"gml_id":"bldg_464a2b46-ffda-4edc-9347-d4e4f61022e6"},"geometry":{"type":"Polygon","coordinates":[[[139.6959711528074,35.558131205788314],[139.69598078554677,35.55804549462582],[139.6961075125232,35.558055554207186],[139.69609898453513,35.558140365247795],[139.6959711528074,35.558131205788314]]]}},{"type":"Feature","properties":{"height":12.6,"gml_id":"bldg_1bd89967-7b4f-4449-97c5-1024b9133a96"},"geometry":{"type":"Polygon","coordinates":[[[139.6939426883409,35.558070287476],[139.69391477546725,35.55800941141702],[139.69389093630957,35.55801668510364],[139.6938410451627,35.55790773954987],[139.6939876117528,35.55786292969271],[139.6940006890784,35.55789142871218],[139.69402585266198,35.557883705839146],[139.6940520073563,35.557940703868155],[139.6941599457577,35.55790765737526],[139.69419862845265,35.557991981932446],[139.6939426883409,35.558070287476]]]}},{"type":"Feature","properties":{"height":9.8,"gml_id":"bldg_9250eddc-fc3f-400b-a084-2fe279e99c45"},"geometry":{"type":"Polygon","coordinates":[[[139.69263898476845,35.558242831537555],[139.69260257326437,35.558185280401034],[139.69267322277173,35.55815543671417],[139.69267960300564,35.55816553971845],[139.6927219926574,35.558147651511874],[139.69275202398308,35.558195099612796],[139.69263898476845,35.558242831537555]]]}},{"type":"Feature","properties":{"height":9.5,"gml_id":"bldg_edf96bbe-9575-4813-ae0a-9e91d19d74de"},"geometry":{"type":"Polygon","coordinates":[[[139.6983923363716,35.55772065273732],[139.69839323212656,35.55771272151195],[139.6983880664061,35.557701538500375],[139.69839097821406,35.55767540146274],[139.69837079546406,35.55767393664969],[139.69837605753258,35.55762698014462],[139.6984947336776,35.55763585639922],[139.6984845421624,35.55772751631733],[139.6983923363716,35.55772065273732]]]}}]}