{"type":"FeatureCollection","crs":{"type":"name","properties":{"name":"urn:ogc:def:crs:OGC:1.3:CRS84"}},"features":[{"type":"Feature","properties":{"height":2.0,"gml_id":"bldg_aacb65a0-a777-4df4-98f9-d6884155a960"},"geometry":{"type":"Polygon","coordinates":[[[139.79021285335725,35.563142889824086],[139.7901962000047,35.563134950738245],[139.7902133118567,35.563110709483205],[139.79023007552163,35.56311864770477],[139.79021285335725,35.563142889824086]]]}},{"type":"Feature","properties":{"height":3.1,"gml_id":"bldg_a3ef1b67-79d3-4e93-b75c-dd181b7ac5aa"},"geometry":{"type":"Polygon","coordinates":[[[139.78925089135703,35.559741597692124],[139.7892136871461,35.559795487203026],[139.7892090552837,35.55979332217213],[139.78920343082325,35.559790796221804],[139.7892013332406,35.55979386017988],[139.78918644505725,35.55978700416585],[139.78920245280125,35.5597638443043],[139.78919131424522,35.55975870230413],[139.78920235405286,35.55974275174323],[139.78920908131954,35.559745818931205],[139.78921580858673,35.5597488861188],[139.78923247872126,35.559724734966544],[139.78924670518165,35.55973132031601],[139.78924228930273,35.559737628430945],[139.78925089135703,35.559741597692124]]]}},{"type":"Feature","properties":{"height":1.8,"gml_id":"bldg_20c7b1b2-c670-40be-9c28-587af9c523f3"},"geometry":{"type":"Polygon","coordinates":[[[139.7902330563493,35.56311432210102],[139.7902157412055,35.563106203404764],[139.79023285323854,35.5630816015911],[139.79025027869397,35.56308972032435],[139.7902330563493,35.56311432210102]]]}},{"type":"Feature","properties":{"height":2.2,"gml_id":"bldg_15915b33-b755-4898-a317-d3bfd3631dc3"},"geometry":{"type":"Polygon","coordinates":[[[139.79025336930405,35.56308638628773],[139.79022745180143,35.56307411812751],[139.79032603692545,35.56293624074537],[139.79035184403565,35.56294859898424],[139.79025336930405,35.56308638628773]]]}}]}