{"type":"FeatureCollection","crs":{"type":"name","properties":{"name":"urn:ogc:def:crs:OGC:1.3:CRS84"}},"features":[{"type":"Feature","properties":{"height":32.7,"gml_id":"bldg_1ef85eef-02b7-49ab-8a04-63074fdd7b36"},"geometry":{"type":"Polygon","coordinates":[[[139.7869232770499,35.54768584658095],[139.7865105148216,35.54826792386278],[139.78663913509476,35.548327111339184],[139.78664538363844,35.5483360501555],[139.78664352045163,35.54834608823295],[139.7866111571625,35.54839262987235],[139.78657134600542,35.548449880752955],[139.78656242575423,35.54845485477805],[139.78655137902018,35.548454116760134],[139.78654153453664,35.548449524857084],[139.78650805359763,35.54843390786996],[139.78642145353928,35.548393514400054],[139.7859219261038,35.549097923318065],[139.78590743154444,35.549110108037404],[139.7858877352588,35.549115074167766],[139.78586280564045,35.5491140566006],[139.78530850488244,35.54884989164174],[139.78529640150768,35.54883430176051],[139.78529405406957,35.54882193823989],[139.7852969534969,35.54880755588955],[139.78556475692147,35.54842988093905],[139.78555802747636,35.548426735120444],[139.78555071583415,35.548423318653285],[139.7855473770536,35.54842170834616],[139.78557653732597,35.54838002512658],[139.78556787845295,35.548375645440586],[139.78560433852832,35.548323799210245],[139.78561288937223,35.54832807158529],[139.7856382146817,35.54829187540624],[139.785641565597,35.54829347580038],[139.78564886509886,35.5482968922573],[139.78565652186347,35.54830046659859],[139.78596466357078,35.547865905415215],[139.78595771032062,35.54786265587066],[139.7859503987094,35.547859244835784],[139.78594706546372,35.54785762642924],[139.78597318085286,35.54782028932543],[139.78596364980237,35.54781554966962],[139.7859991676057,35.54776532635124],[139.78600843073437,35.54776990094446],[139.7860378907833,35.547727789565194],[139.7860412405823,35.54772938634235],[139.78604855769234,35.54773281089482],[139.78605643274588,35.547736483548334],[139.78629871916831,35.547394788564155],[139.78631561414838,35.54738123641742],[139.78633605998726,35.54737625878958],[139.78635751396632,35.547378745075115],[139.7869110157984,35.54764158442753],[139.786923539375,35.547657438419364],[139.78692672905532,35.54767279395408],[139.7869232770499,35.54768584658095]]]}},{"type":"Feature","properties":{"height":4.4,"gml_id":"bldg_531609df-e3ef-490b-bb1f-0d0b72e85d35"},"geometry":{"type":"Polygon","coordinates":[[[139.78658868225827,35.54619398591997],[139.7866456331042,35.54611331266834],[139.78671231286302,35.54614474656815],[139.78665533779207,35.54622542885539],[139.78658868225827,35.54619398591997]]]}},{"type":"Feature","properties":{"height":4.9,"gml_id":"bldg_6c1aa243-0dde-4314-b71b-2812b6bedb95"},"geometry":{"type":"Polygon","coordinates":[[[139.78731934756013,35.54715111337568],[139.78741441119698,35.54719441912474],[139.7873595262349,35.547274949289886],[139.7872644415763,35.54723164439148],[139.78731934756013,35.54715111337568]]]}},{"type":"Feature","properties":{"height":9.4,"gml_id":"bldg_dc64decc-1bcd-42c5-a0d0-de0121ad6add"},"geometry":{"type":"Polygon","coordinates":[[[139.7852729608637,35.5485395878464],[139.78530326254864,35.54849660444059],[139.7853401183793,35.54851396279107],[139.7853398446146,35.5485143529847],[139.7853625061385,35.54852501915504],[139.78534515969227,35.548549607624814],[139.78534410446204,35.54854911143949],[139.78533141308833,35.54856710627723],[139.78532823526857,35.54856561140629],[139.78530306185036,35.5486019599142],[139.78530520098306,35.548602961310884],[139.78526170741475,35.54866528242051],[139.7852193591873,35.54864546285885],[139.78521003855448,35.54864104682763],[139.78525435125482,35.54857752991635],[139.78526033090515,35.548580319403214],[139.785284713933,35.54854512527183],[139.7852729608637,35.5485395878464]]]}},{"type":"Feature","properties":{"height":7.6,"gml_id":"bldg_15667a96-e0a9-43dc-bb59-3523e4ce7c4a"},"geometry":{"type":"Polygon","coordinates":[[[139.78439098682455,35.54981753788016],[139.78442462075208,35.5497703916287],[139.7844646568923,35.549789477697686],[139.78444152006148,35.5498219057907],[139.7844587400778,35.54983026055743],[139.784430096261,35.54986968842435],[139.7844146371592,35.54986219699956],[139.78441121724236,35.549866992817215],[139.7843693297185,35.54984703523486],[139.78439051930062,35.54981731504673],[139.78439098682455,35.54981753788016]]]}},{"type":"Feature","properties":{"height":11.6,"gml_id":"bldg_1f777abd-54d2-4c45-9c80-3d48d95d13c6"},"geometry":{"type":"Polygon","coordinates":[[[139.7864953548344,35.54730247244102],[139.78643093365923,35.547271824417734],[139.78640567352033,35.547259798135926],[139.78647225363474,35.54716634338607],[139.78658713218533,35.54722099879749],[139.78657446016854,35.547238787359],[139.78653299460095,35.54729698856494],[139.78652055215895,35.54731445361],[139.7864953548344,35.54730247244102]]]}},{"type":"Feature","properties":{"height":39.4,"gml_id":"bldg_85660669-ad73-413e-b750-b1c28309955a"},"geometry":{"type":"Polygon","coordinates":[[[139.78567201347698,35.54480822444084],[139.78569913012754,35.544801426038596],[139.78573548129066,35.544813421696865],[139.78572150405762,35.544841681133654],[139.78567942222062,35.544827795691546],[139.78567798410396,35.54482395338979],[139.78566274939493,35.544828231685365],[139.7856629088137,35.54482907995842],[139.78566088228246,35.54482992556456],[139.78565981739428,35.54482905530013],[139.78546370083782,35.544884132895085],[139.78546479245452,35.544888277028214],[139.78544649737245,35.544895919879906],[139.78545135677328,35.5449107443022],[139.78547361266283,35.544908198591706],[139.78547518062973,35.54491066271876],[139.78557647629538,35.54488167714762],[139.78557742912244,35.54487995316176],[139.78557967335985,35.544880238890414],[139.78557978661303,35.54488082213599],[139.78558746962833,35.544878631189654],[139.78558732208202,35.54487822189919],[139.78561506391742,35.54486988508704],[139.78565111492318,35.54488405841531],[139.78563595428878,35.544914086806706],[139.78560348806081,35.544901176841904],[139.78559826707814,35.544910213034555],[139.78558652654343,35.54491415738564],[139.78558545988787,35.544914407550344],[139.78551354274273,35.544931372098404],[139.7855124705706,35.54493162496444],[139.78551200343097,35.544930797301184],[139.785506397761,35.544920857229506],[139.78548553273646,35.5449269369552],[139.78546406612566,35.54493757117305],[139.7854468959821,35.544928536913574],[139.78544632364517,35.54493027457038],[139.78543809639928,35.54493700019549],[139.78546057086908,35.54518278991163],[139.78607863589252,35.54547521903916],[139.78599961400278,35.545232148400366],[139.7859951147195,35.54523116321544],[139.7859795028462,35.54521840328887],[139.78597379010907,35.54520097262882],[139.7859795090055,35.54518353744405],[139.7859951259465,35.5451707726519],[139.78601645338833,35.54516610279703],[139.78602843713173,35.54516872784548],[139.7860304385998,35.54515610463386],[139.78604597218066,35.54514253215502],[139.78604825527603,35.54514427544125],[139.7861706506016,35.54505333234254],[139.78616828834774,35.54505116086638],[139.78616364650912,35.54504690177568],[139.78615690807365,35.54504071739238],[139.7861663926837,35.54503381734004],[139.7861792789512,35.545033938659174],[139.78618709876,35.54504110958701],[139.7861907255846,35.54503841584237],[139.7861899628194,35.5450376556706],[139.78620812265189,35.54502170993034],[139.78625197064014,35.545023917440474],[139.78624929462222,35.545056628818045],[139.7862053978288,35.54505297996184],[139.78620425257535,35.545051843760156],[139.7861881782245,35.545064199168806],[139.78618823319147,35.545064503860836],[139.78618723812647,35.54506492171776],[139.7860661760833,35.54515797010637],[139.7860681295529,35.54515947078853],[139.7860485202197,35.54517955332883],[139.78605339052496,35.545183533983256],[139.78605673626896,35.54519373905382],[139.78608078867052,35.545185864004075],[139.78608172520833,35.54518745442674],[139.78619581704143,35.54514696076977],[139.7861966394792,35.54514564055179],[139.78619877234107,35.5451459118031],[139.78621981905872,35.54513844117715],[139.7862294115518,35.54513001059828],[139.78627325629034,35.54513221900076],[139.7862705681286,35.54516495921802],[139.7862266757079,35.54516127431563],[139.78622238678824,35.54515701806933],[139.78621966202647,35.5451580148459],[139.7862238806395,35.54516556475168],[139.78621882475662,35.545175265361316],[139.7862072714925,35.54517957761382],[139.7862062257626,35.54517987556595],[139.78612895866362,35.54520188167828],[139.78612790852046,35.545202181430774],[139.78612740496752,35.545201369980745],[139.78612254684327,35.54519353407997],[139.78609190703236,35.545204739905664],[139.78609366881997,35.545207742231604],[139.78607068753956,35.5452171500703],[139.78605628361083,35.54520956642061],[139.78605338550057,35.54521839982854],[139.7860479279018,35.54522286228383],[139.78613934312375,35.54550394133372],[139.786279965133,35.545570473950626],[139.7866270713609,35.54549637474507],[139.78662941588112,35.5454892294167],[139.78664503167508,35.54547646544197],[139.78666635695504,35.54547179457017],[139.7866876834395,35.54547646662402],[139.78670329437264,35.545489225556665],[139.7867090072886,35.54550665528008],[139.78670491929952,35.545519123557455],[139.7867144953792,35.54552951490213],[139.78695323438788,35.545448057116616],[139.7869537885605,35.545447168557146],[139.78695527296645,35.545447362025946],[139.78697931892853,35.54543915688534],[139.78697865273813,35.54543729705737],[139.78700481537865,35.54543066295031],[139.78704072303316,35.545445651566794],[139.78702331088866,35.54547529437121],[139.7869865149247,35.54545918227365],[139.78698557564735,35.54545656607282],[139.7869769117349,35.545459439084766],[139.78698145268544,35.54546855660845],[139.7869758973693,35.545478060553904],[139.78696413809035,35.54548196897585],[139.78696308355111,35.545482240790776],[139.78688613194214,35.54550208957579],[139.7868850729897,35.54550236319111],[139.7868846135525,35.545501536437605],[139.7868792181916,35.54549183538053],[139.78672645445883,35.545542494162284],[139.78672711799376,35.545543216433785],[139.78670428509986,35.54555727202756],[139.78668583284303,35.54553725759272],[139.7866663474381,35.545541523553474],[139.78664502203955,35.54553685329912],[139.78664110745422,35.545533655447166],[139.78634002748203,35.54559889122158],[139.78673836763684,35.545787357410724],[139.7871832841237,35.54575364427401],[139.78718386968828,35.54575186424882],[139.78719948103324,35.54573910110253],[139.7872208030404,35.54573443283583],[139.78724212521658,35.54573910208562],[139.78725773298075,35.545751859141994],[139.78725920611032,35.54575635224279],[139.78729142855607,35.545754960181014],[139.7872916591992,35.54575858476648],[139.78756753212988,35.54573177691795],[139.78756823974308,35.54573064143251],[139.78757048070048,35.5457309307284],[139.78757058737074,35.545731480618045],[139.7875811737263,35.545730451639706],[139.78758796694996,35.54572979169373],[139.7875876908007,35.54572664843489],[139.7876137778042,35.545725103426875],[139.78765653147093,35.54574207571441],[139.78764008123795,35.545769761147305],[139.78758972468069,35.54574976630688],[139.7875896359159,35.54574876031968],[139.78758883515872,35.54574883302868],[139.7875902972597,35.5457572417683],[139.7875820836529,35.54576536380026],[139.78756952834456,35.54576682469965],[139.78756842429232,35.54576688557531],[139.7874889909339,35.54577135064561],[139.78748788357177,35.54577141332206],[139.78748768334924,35.54577052086782],[139.78748521685532,35.545759556298655],[139.78748631871812,35.54575946657838],[139.78756712523352,35.54575299012394],[139.78756674816722,35.54575081942878],[139.7874210578268,35.54576391355514],[139.78729459774723,35.545775280570396],[139.7872927348276,35.54577544932086],[139.78729295125453,35.54577886117236],[139.78725984425085,35.54578027182581],[139.7872577295844,35.54578671777371],[139.7872421171365,35.545799480927016],[139.78722079511334,35.54580414919742],[139.7871994729217,35.545799479042515],[139.78719026348043,35.54579195159959],[139.7868050669444,35.545818912956335],[139.78684559022292,35.54583809398235],[139.78683754119217,35.54584947455908],[139.78684398039073,35.54585264543465],[139.78687301313005,35.54586675709922],[139.78670086070935,35.5461056667975],[139.78667396689968,35.546092725025076],[139.78667034084378,35.54609784533128],[139.7866071201121,35.54606793610086],[139.78659367242574,35.54608659240781],[139.78646807519607,35.54602612155353],[139.78648095334017,35.54600824834878],[139.7863746040211,35.54595793544868],[139.78636149642102,35.54597586624192],[139.7862221031795,35.545907806344864],[139.78617649964872,35.545970200001605],[139.78619111139446,35.545977234769545],[139.78608593537948,35.546123186660054],[139.78607021218485,35.546115621425436],[139.78601762242127,35.54618757244478],[139.78634605236527,35.5463387011442],[139.78602021708343,35.54681180900544],[139.786002678634,35.54680374277812],[139.78599154831784,35.54681987783058],[139.7859121699158,35.54693515359064],[139.7859116097789,35.5469348955723],[139.78590895281687,35.54693864521895],[139.78573679043433,35.54685720333671],[139.7857040019599,35.54690294954875],[139.78580144415523,35.546952547422556],[139.78579980924133,35.54695504363355],[139.78587492996297,35.5469904546544],[139.78586517439302,35.547005665407674],[139.78587955039671,35.54701248829233],[139.78584295896758,35.547063950572834],[139.7858971970843,35.54708964536326],[139.78523375715773,35.5480249154378],[139.78567011205737,35.548232097808025],[139.7856681195746,35.5482349039541],[139.7856672563494,35.548236119590236],[139.78569262914255,35.548248217279294],[139.7856642411003,35.548287939404915],[139.78563900392803,35.548275898551275],[139.78563547154772,35.5482808683291],[139.78563373957576,35.548283307711216],[139.7851974186731,35.54807614325249],[139.78490721135574,35.54848533098065],[139.78465672711962,35.54883843141188],[139.78467217185403,35.5488456830309],[139.78436489904811,35.54928293995558],[139.78434721477785,35.549274639971024],[139.7841100576813,35.54960890284622],[139.78380606560637,35.55003745489165],[139.78424371523238,35.550244093941465],[139.7842404211086,35.55024875820205],[139.7842639750024,35.550259883747415],[139.78423454978812,35.55030151695161],[139.78421099918964,35.550290400415854],[139.7842084446963,35.550294015757274],[139.78377067578973,35.550087342279205],[139.78310663556837,35.55102338142489],[139.78305149372105,35.550997255956325],[139.78301732844346,35.55104536157462],[139.78305296200958,35.55106227842534],[139.78303163023722,35.55109229667312],[139.78266318468317,35.550917392395704],[139.78252947131378,35.55110553941251],[139.78252374724028,35.55111359363542],[139.78254331610714,35.55112288530773],[139.78247884321783,35.551213597581814],[139.7824359451131,35.551273953763456],[139.782427485375,35.551285857570015],[139.7824236194494,35.551284025212375],[139.78240790875358,35.551276577593974],[139.7822958122772,35.55143429889609],[139.78228732490217,35.5514462414406],[139.78228344905028,35.551444400961785],[139.7822666467096,35.55143642374639],[139.78216772909428,35.55157555390485],[139.78219414021132,35.55158783935208],[139.78212612483296,35.551685496047895],[139.78209864741038,35.551672718874705],[139.78197412221695,35.551847865686604],[139.78243374172257,35.552065619429584],[139.7822609010546,35.55230975662002],[139.78225296948173,35.55230607197928],[139.78224624985697,35.552316697434286],[139.78220104909155,35.552295291871516],[139.78226175211876,35.55252961165942],[139.782266055456,35.55253055363284],[139.78228166815586,35.55254331492675],[139.7822873817156,35.55256074574069],[139.7822816581807,35.55257818793762],[139.7822660359003,35.55259095944118],[139.78226426091427,35.55259134718895],[139.78227074452593,35.55260853765829],[139.78226166483694,35.55262027623341],[139.782244706451,35.55262316882434],[139.78201567747016,35.55275860111184],[139.78201589623046,35.552759760393734],[139.78201386835488,35.55276061134516],[139.7820132024837,35.552760066621595],[139.7820034338475,35.55276584668942],[139.7820075604724,35.55277062671956],[139.78199329918996,35.552778265345104],[139.78199372354095,35.55277874867134],[139.78199463274683,35.552778238871156],[139.78205613872717,35.552743758894806],[139.78205678241832,35.55274449199939],[139.78206238937543,35.552750862710845],[139.7820630330673,35.55275159491401],[139.78206214700703,35.552752133569065],[139.78200305134206,35.55278796666097],[139.78200216528157,35.552788504414174],[139.78199172584394,35.552794545598836],[139.78197891294226,35.5527933277717],[139.78197284966842,35.55278644577337],[139.78196268787616,35.55278778812267],[139.78194419814105,35.55278081790024],[139.78192590462362,35.552763671054585],[139.7819556389502,35.55273872871863],[139.78197378509094,35.552755207566385],[139.7819873593959,35.552747254966526],[139.78198925958515,35.55274945156408],[139.78200057191395,35.55274275814412],[139.78199942759355,35.552741810295046],[139.78200046327527,35.552740150373786],[139.782002704407,35.55274044067435],[139.78200288800636,35.55274138721304],[139.78223084780734,35.55260648631697],[139.78223357516023,35.55259319015284],[139.7822233770615,35.55259095578929],[139.78220776325927,35.55257819358609],[139.78220205081794,35.552560763670286],[139.7822077743683,35.552543322378504],[139.7822132172284,35.55253886911039],[139.7821411949428,35.552266948374424],[139.78172097548136,35.55206795211759],[139.78172397527143,35.5522750624194],[139.78173418594537,35.552283408261914],[139.7817399004724,35.55230083730013],[139.7817341757356,35.55231827766848],[139.78171855452484,35.55233104459515],[139.78169722714227,35.55233571458488],[139.78169337599087,35.552334871036415],[139.7816942965423,35.552335584430956],[139.781668067934,35.552358339628896],[139.78166583986155,35.55235662422846],[139.78157350733844,35.552437244703924],[139.7815795136839,35.55244165057715],[139.78163052657166,35.55239705000032],[139.78163127924427,35.55239639140621],[139.78163207631596,35.552397016411966],[139.78163901405188,35.55240243404233],[139.78163981222727,35.55240305814712],[139.78163908711477,35.552403740189256],[139.78159077275419,35.55244916489765],[139.78159004874442,35.55244984603858],[139.7815814260618,35.552457462697745],[139.78156857324618,35.55245837389541],[139.78156087138265,35.55245255841952],[139.78155741542233,35.552456365312665],[139.78151344495896,35.55246013406923],[139.78150934817063,35.55242962923656],[139.781551785751,35.552423660429106],[139.78155423521923,35.55242585456532],[139.78156428030678,35.55241725600252],[139.78156397713903,35.55241700889122],[139.78156501282612,35.55241534807222],[139.78156632088746,35.55241550908141],[139.78161049739433,35.55237769305213],[139.78164966125814,35.55234416818349],[139.78164665375166,35.55234184581246],[139.7816672483917,35.55232397104046],[139.7816602898771,35.55231828298541],[139.7816575883924,35.55231004221226],[139.7816287569029,35.552315288568145],[139.7816277182708,35.55231295081581],[139.7814470251012,35.55236788329002],[139.78144363931497,35.552368913024395],[139.78144416680337,35.55237023378925],[139.78141721105172,35.55237787139066],[139.7813802953322,35.55236643035961],[139.78139493924485,35.552333290717215],[139.78143512339082,35.55234778796482],[139.78143549010576,35.55234869672481],[139.781437427339,35.552348143203105],[139.78143569081297,35.55234362378249],[139.7814345929596,35.552340764999016],[139.78144109553457,35.55233164481896],[139.7814532195537,35.55232854294106],[139.78151553897803,35.55231020659993],[139.78151657710202,35.552309900573086],[139.78151692289313,35.552310758845934],[139.78151993702343,35.55231820743389],[139.78152028502117,35.552319064806305],[139.7815192601105,35.55231940599309],[139.78145879591273,35.55233948732594],[139.78145777431172,35.55233982671085],[139.78145860340905,35.552342101277105],[139.78146407752507,35.55234053881717],[139.78162019123036,35.55229599061975],[139.78161976939697,35.55229502955598],[139.7816306299107,35.55228763559561],[139.78164342004703,35.552286381835806],[139.78165772398214,35.55229125908389],[139.7816603012207,35.55228341538214],[139.781675149926,35.55227127640153],[139.78167093760084,35.55204425565286],[139.78149372286973,35.55196033399998],[139.78122165373117,35.5520642543834],[139.7812181746262,35.552074851436],[139.7812025511738,35.55208762009814],[139.78118122162047,35.552092289094475],[139.78115989260158,35.552087616971626],[139.78115206874608,35.552081220920655],[139.7811192631514,35.55209503586137],[139.78111787039114,35.55209282504737],[139.78089019594944,35.552183552207794],[139.78088728547272,35.552184712835],[139.78088963588897,35.552189920291994],[139.7809548297014,35.55216828008933],[139.78095585240533,35.55216794070915],[139.78095622466716,35.552168790882625],[139.78095947151948,35.55217616927731],[139.7809598459868,35.55217702035311],[139.7809588364983,35.552177391287756],[139.78088944111178,35.552202772240875],[139.78088843162377,35.55220314137214],[139.7808765554028,35.5522068183886],[139.78086455504229,35.552202955213744],[139.78086272993193,35.55219901804483],[139.78084772504414,35.55220353920178],[139.78080792466463,35.55219112594143],[139.78082173697862,35.55216158165444],[139.78085194428215,35.552170995412936],[139.7808776029499,35.552163261825896],[139.78087876383944,35.5521658330982],[139.78088592308,35.552162979704114],[139.78090868171483,35.552153911691676],[139.78110665117273,35.55207502943304],[139.78110444193499,35.55207151485374],[139.7811386696724,35.55205711102287],[139.78114429173775,35.552039983420315],[139.78115991519127,35.55202721296286],[139.78118124472863,35.55202254397022],[139.7812025737315,35.552027216089314],[139.78120353393695,35.55202800071467],[139.78144142025334,35.55193556561336],[139.78089142490035,35.55167510777408],[139.78065121179665,35.55178716856932],[139.7806459587824,35.55180316957192],[139.78063033418798,35.551815939962765],[139.78062754871996,35.55181654988845],[139.78062892714678,35.551833892354395],[139.7806064924914,35.55185193470604],[139.78060380288443,35.551849325805456],[139.7804454420062,35.55196375204892],[139.7804454925494,35.551964048628754],[139.7804443870381,35.55196451416305],[139.78044128282698,35.551966757265255],[139.78044327768984,35.551969142319685],[139.78043524899653,35.55197411718077],[139.78043747453486,35.55197627608732],[139.7804465406042,35.55198556980052],[139.7804367063452,35.551992152852804],[139.7804238137466,35.551991592840864],[139.78041738305623,35.551985183832585],[139.7804059347723,35.551992274558636],[139.7803658461511,35.55198737682431],[139.78037228392236,35.551954501412354],[139.78040664561124,35.551959616570386],[139.78041847168683,35.5519550147508],[139.78041814430517,35.551954696416075],[139.78043270506743,35.55194452069127],[139.78058919964056,35.55183516667695],[139.78058850078355,35.55183448942655],[139.78058947338747,35.55181633132817],[139.78058767355395,35.551815936632984],[139.7805843828679,35.55181324724522],[139.78055423985055,35.55182212177151],[139.78055302945307,35.55181938011135],[139.78044920513614,35.5518516828436],[139.78044929524572,35.55185219487327],[139.78044726627348,35.55185304579797],[139.78044659270296,35.55185249565399],[139.78043633272512,35.55185568658498],[139.7804374504431,35.55185846516267],[139.78040988249415,35.5518679474186],[139.78037356370578,35.55184669830397],[139.78039883305067,35.55182036534337],[139.78042976065666,35.551839514548185],[139.78043176854268,35.55183886011777],[139.78042799612788,35.55182903329966],[139.78043449987067,35.55181992489174],[139.78044663378722,35.55181680959826],[139.7805068425794,35.551797448870765],[139.78050786968717,35.55179711760881],[139.78050821877488,35.55179797498468],[139.78051124824296,35.55180541098567],[139.78051159843199,35.5518062710662],[139.78051058453642,35.55180663838961],[139.78045218682115,35.55182773869666],[139.78045117623583,35.55182810331686],[139.78045261526145,35.55183205113958],[139.78054526484777,35.55180179417751],[139.7805441833166,35.55179933470908],[139.7805684550526,35.55179217386486],[139.78056634702648,35.55178574331962],[139.78057207308228,35.551768301203055],[139.78058769767668,35.551755530819655],[139.7806090282781,35.55175086192849],[139.78062871946025,35.55175517558083],[139.7808451883599,35.55165321089382],[139.78079649623228,35.5516301528355],[139.78080467040144,35.55161851042321],[139.7805114513007,35.55167744869029],[139.7805066014459,35.55168414840869],[139.78048615831688,35.55169454691274],[139.780463133685,35.55169392657775],[139.78044785578913,35.55168766512503],[139.78043899414533,35.5516795360985],[139.78040905491062,35.551687197405634],[139.78040681746387,35.55168135360631],[139.78033073242733,35.55169703323655],[139.7801987840364,35.55172423233135],[139.7801111886829,35.55174228822564],[139.78011265561227,35.551747379930106],[139.78011374216788,35.551747222666236],[139.78018585081603,35.55173682357246],[139.78018606862446,35.55173770973593],[139.78018796401798,35.551745391325014],[139.7801881829307,35.551746275686185],[139.7801871029712,35.55174646630512],[139.78011663647416,35.551758841072306],[139.78011555872152,35.55175902988878],[139.78010315184946,35.5517612499471],[139.78009197093954,35.55175598990062],[139.78008948316503,35.551746762162715],[139.78008070983694,35.55174857098597],[139.78008127025174,35.55175009909141],[139.7800517581215,35.55175896655965],[139.7800264214772,35.551720197346285],[139.7800654607437,35.55170713270922],[139.78007342109944,35.55172876330261],[139.78010801885478,35.551721983892996],[139.7801248417262,35.55171868681771],[139.78040043545772,35.55166468408298],[139.78039980894482,35.55166302344549],[139.7804332993182,35.551654441575444],[139.78043336534134,35.55164964259802],[139.78046868602078,35.55160005543559],[139.78044213028684,35.55158331667488],[139.78044359277337,35.551581765120815],[139.78029126390234,35.55147601821026],[139.7802832213779,35.55148363142746],[139.78027359625165,35.5514926230762],[139.78026393967477,35.551485734000984],[139.78026241121808,35.55147524924776],[139.78027414886967,35.55146413575329],[139.7802644414207,35.55145745577846],[139.7802404834902,35.55144046392398],[139.7802410144198,35.55140808438439],[139.78028023801335,35.55140626371162],[139.78028012806152,35.551440896013126],[139.780279009952,35.551442077244985],[139.78029651305766,35.55145422758516],[139.78029688576402,35.55145438729532],[139.78045808628468,35.55156639374425],[139.78046195386827,35.55156229320904],[139.7804851678124,35.55157691583724],[139.78048634247926,35.55157526860906],[139.78049662903317,35.55156849916245],[139.78048125337486,35.551544848033004],[139.78048328257972,35.55154363024159],[139.78041874083056,35.55148665655021],[139.780415734712,35.55148400333823],[139.78041427064028,35.551484612036134],[139.7804126666472,35.55148330070944],[139.78041347378485,35.55148200756736],[139.780404193072,35.551473814355326],[139.78040355846622,35.55147439998101],[139.78038361439692,35.55145389268853],[139.78038679236894,35.55142331438883],[139.78042498942952,35.551424320882326],[139.78042184173472,35.55145752314598],[139.78041972491022,35.551459478235905],[139.78042456976516,35.55146373673086],[139.7804347466449,35.55145600185135],[139.78044760917342,35.55145687192752],[139.78045625936,35.551464481659664],[139.78045694385074,35.55146519405884],[139.78049262553895,35.55150236955075],[139.78049182545564,35.55150299927256],[139.78048411817178,35.55150906225727],[139.78048339726277,35.55150837868679],[139.78044647107455,35.551473378604626],[139.78044575016617,35.551472695033944],[139.78043977787254,35.55147710472403],[139.78050241822024,35.551532164819164],[139.78050610918402,35.551529954422364],[139.78052540989327,35.55154597158331],[139.78052638265245,35.551562916360055],[139.78053287046416,35.55156291559557],[139.7805445790147,35.551569236769694],[139.78055957712982,35.55158162844899],[139.78056262004668,35.551593784138866],[139.7805616770437,35.55160716217345],[139.78085258374864,35.55155026623073],[139.78097218625473,35.55137991293135],[139.7810704140558,35.55135815269578],[139.78080892067467,35.551250871775856],[139.78080755554882,35.551251987103505],[139.78078622509048,35.55125665693171],[139.78076489631647,35.55125198383717],[139.78074928300435,35.55123922234407],[139.7807435698716,35.5512217905524],[139.78074564431358,35.551215464592296],[139.78072564437693,35.55120615170842],[139.78071755947678,35.55118925340562],[139.78072003179435,35.55118845855594],[139.78067146556086,35.55101215858548],[139.78066685499306,35.550995421342286],[139.78065812465596,35.55099741411041],[139.7806583336455,35.55099829756511],[139.78067241960417,35.55105776218691],[139.7806713517567,35.55105800058922],[139.78066125023634,35.55106024334548],[139.7806610070522,35.55105936258001],[139.7806448379357,35.551001010264855],[139.7806445936484,35.551000130400276],[139.78064135965195,35.55099007757353],[139.78064733401817,35.5509807417709],[139.78066194402484,35.55097759418564],[139.780661640323,35.550976489848736],[139.78065785229262,35.5509770650844],[139.78065354488638,35.5509588929582],[139.7806680168457,35.55092395955265],[139.78070561042463,35.550936651329685],[139.78068825986057,35.55097131757251],[139.78069091836633,35.55098096812629],[139.7807458063026,35.55118022387261],[139.78074778658078,35.55117959105821],[139.78075672403315,35.551198276288105],[139.7807649203044,35.5511915798208],[139.78077499203295,35.55118937490139],[139.78077136705068,35.55116150500948],[139.7807726355619,35.55116139108572],[139.7807547427814,35.55107031663239],[139.7807506609556,35.551049539587645],[139.78074844489515,35.551049783799655],[139.78074383834397,35.55103193514588],[139.7807619415535,35.55099831573875],[139.78079541518835,35.55101321770546],[139.78077694261006,35.551046651269935],[139.7807743768765,35.551046935892636],[139.78077492324135,35.55104972413382],[139.78078604466293,35.55104802895698],[139.7807963490417,35.55105437203006],[139.78079868072618,35.551064563273684],[139.7807818617973,35.55106714113493],[139.78077843998753,35.551067666957465],[139.780796400802,35.55115932013016],[139.78079845137415,35.55115914164673],[139.7808025296398,35.55119047668306],[139.7808075795047,35.55119158308712],[139.78082319281688,35.55120434457276],[139.78082621120652,35.55121355720381],[139.7811404088969,35.55134265474699],[139.7811755188285,35.55133488101774],[139.78111588074898,35.551148474549194],[139.78110538179064,35.55114617506022],[139.7810897706498,35.5511334154147],[139.7810840585526,35.55111598544204],[139.78108978334436,35.55109854510111],[139.78110540552012,35.55108577554946],[139.7811074375108,35.55108533204369],[139.78109932839843,35.551076749089624],[139.78109875312705,35.55105899143341],[139.7811017257223,35.551058922412544],[139.78109396481523,35.550959046705145],[139.78109366619694,35.550955197635176],[139.78109183726968,35.550931666024546],[139.78109173664117,35.550930361667824],[139.7810858254311,35.550930841350976],[139.78107193613707,35.55093161413408],[139.78107086964505,35.55092127020737],[139.7810787283323,35.550912898787146],[139.78109031681527,35.550912096161944],[139.78108977645857,35.55090513177907],[139.78108891278174,35.55090519269947],[139.78108658873816,35.55088317430994],[139.78110915851025,35.5508534922592],[139.78114229338365,35.55087032656607],[139.78111739434067,35.55090306242922],[139.78111866539038,35.550919440357134],[139.78112944970226,35.55105830975418],[139.7811305427786,35.551058284988464],[139.78112889084431,35.551081580729374],[139.78114717688428,35.551085586314734],[139.78116172153977,35.551064134089174],[139.78116759212682,35.55106678491643],[139.78122924055603,35.550982843372324],[139.78122277569818,35.55097982993194],[139.78122214651566,35.55098057240642],[139.78119202412196,35.55101610484669],[139.7811913938353,35.55101684822192],[139.78119043894387,35.551016392606435],[139.7811813950394,35.551012081847986],[139.78118198342545,35.5510113186241],[139.7812103219534,35.550974607296865],[139.78121091033896,35.55097384407282],[139.78121738622283,35.550964931211176],[139.78122971519826,35.550961832147735],[139.78124075042703,35.550967171348866],[139.78124190627156,35.55096559711771],[139.78124000318837,35.55096456059704],[139.7812546205887,35.55094652826962],[139.7812929094805,35.5509314014274],[139.7813097590252,35.55095990257656],[139.78126473798483,35.550977685621376],[139.78120440109268,35.55105985471418],[139.78119140085212,35.551077559628055],[139.78119210766027,35.55107787902619],[139.78117997313774,35.55109577180248],[139.7811639036643,35.55109924782682],[139.7811693846085,35.551115970103645],[139.78116365983277,35.551133410448315],[139.78116209717209,35.55113469064914],[139.78122279538297,35.5513244128702],[139.78153055931875,35.551256266900545],[139.7818095421985,35.551390207867364],[139.78183299444413,35.55135675644277],[139.78180848564136,35.55134521537661],[139.78180759028217,35.551344794044326],[139.78225615362024,35.55070827006208],[139.78227554936726,35.55068074708237],[139.78210924173536,35.55060098634778],[139.782090019615,35.55060519488911],[139.78206869314292,35.550600522927084],[139.78205308195496,35.55058776340508],[139.78204736858535,35.550570332574466],[139.78204907268886,35.55056513858119],[139.78203185987243,35.55055601639047],[139.7820224072702,35.5505405318743],[139.78202639889108,35.55053890115311],[139.78195907672026,35.550422392901204],[139.78195780360744,35.55042282502663],[139.78195674672492,35.55042318423146],[139.78195604128928,35.550422446592805],[139.7819135079082,35.55037804124999],[139.78191280908547,35.550377312627795],[139.78190745241892,35.550367898015175],[139.781911328088,35.550357838337966],[139.78191990029546,35.55035459337886],[139.78191932076933,35.55035359078462],[139.78191856284963,35.55035386358302],[139.78190996104763,35.550330906886145],[139.78192959659518,35.55029925839447],[139.78196526897705,35.55031496772063],[139.78194730324591,35.55033294642869],[139.78194590755163,35.550343988779126],[139.78194504813172,35.550344302998454],[139.7819469000593,35.55034771555386],[139.78195332947453,35.55035956708262],[139.78204624113883,35.550530812396076],[139.78204818399055,35.55053002089946],[139.78205346614942,35.550538700839994],[139.78206377332967,35.55054416314718],[139.78206871394156,35.55054012611329],[139.78207911759586,35.55053784911445],[139.7820701181332,35.55051571342814],[139.78207611055944,35.55051407904893],[139.7820287986767,35.5504199059014],[139.78202189506638,35.55040616395737],[139.78201313969984,35.55038873813989],[139.78201221630184,35.55038906044497],[139.78200394350168,35.55037075417282],[139.78202036725145,35.55033721858867],[139.7820563593731,35.55034971185958],[139.78204119024406,35.55037896366929],[139.78203832958593,35.5503799629968],[139.78203977353823,35.550383184282246],[139.78205176423177,35.550379373792744],[139.7820633325982,35.55038404611627],[139.7820679479143,35.55039372541582],[139.78206829260063,35.550394582785515],[139.78209056953085,35.55044992506199],[139.78208954574768,35.55045026895841],[139.78207963447437,35.550453586373045],[139.7820792136666,35.55045275330861],[139.78205241752968,35.550399633742025],[139.78205199672252,35.55039880067748],[139.7820474272595,35.55040025718528],[139.7820960283071,35.550508658434026],[139.7820992175738,35.55050778994652],[139.78210638568393,35.55052537282662],[139.78209827121836,35.55053726143459],[139.78211136838553,35.55054012891619],[139.78212697957295,35.55055288933214],[139.78213168348162,35.55056724328189],[139.78229898785563,35.550647486652146],[139.7827052993702,35.55007091891098],[139.78254228567053,35.549991755067175],[139.7825409250042,35.54999286681102],[139.78251959718608,35.5499975360467],[139.78249826974687,35.549992864159854],[139.78248265860904,35.54998010379081],[139.7824769451894,35.54996267297876],[139.78248048150894,35.54995189022353],[139.7824673402676,35.54995257514667],[139.7824472961732,35.54993652192295],[139.78245112232702,35.54993311808084],[139.78235001679488,35.54985553858842],[139.7823466323192,35.54985294115014],[139.78234609543344,35.54985252898726],[139.78234307146948,35.54985541035831],[139.78239307543635,35.549889037167034],[139.78239392766966,35.549889611713375],[139.78238462998615,35.54989775456082],[139.78238387292834,35.54989841766502],[139.7823829920018,35.54989786834543],[139.78233281338944,35.54986657516105],[139.78233193577194,35.54986602674389],[139.7823222890536,35.549859274847314],[139.78232070628826,35.54984883065689],[139.78232987530754,35.54984008382766],[139.78232797140282,35.54983862276826],[139.7823277076548,35.54983884079342],[139.78230995640232,35.5498249852073],[139.78231219275693,35.54978742337052],[139.7823510033697,35.5497885097373],[139.78234687633108,35.549822920412396],[139.7823464812595,35.54982324925321],[139.7823589263758,35.54983322660795],[139.78236226337367,35.54983590244689],[139.7824664865309,35.549919453159674],[139.78246770268785,35.5499183729044],[139.78249239731463,35.5499372809894],[139.78249829022317,35.54993246643823],[139.7825075542598,35.54993043860713],[139.78250340399387,35.5499038818671],[139.78250893386596,35.54990280973946],[139.78248452737628,35.549810127399304],[139.78247916325918,35.54978975819816],[139.78247420846682,35.54977094497093],[139.78247193619248,35.549771193697936],[139.78246684186982,35.54975326557787],[139.78248025282934,35.54972189379877],[139.7825178815777,35.5497343488635],[139.78250569194608,35.5497512195763],[139.78250041572892,35.54976807968156],[139.78249998223015,35.54976812997674],[139.78250030229697,35.54976955160593],[139.7825114831695,35.549767692241325],[139.78252190561741,35.549773909924625],[139.78252444265337,35.54978407328052],[139.78252462959748,35.549784962131234],[139.78253635754612,35.549840807369044],[139.78253528421848,35.549841025053624],[139.78252200496715,35.549843707407966],[139.78252178272507,35.54984282304935],[139.78250789358268,35.54978774758887],[139.78250767133918,35.5497868659344],[139.78250432016347,35.5497874260887],[139.78252937000525,35.54989885944022],[139.78253140854528,35.549898464588246],[139.78253921395574,35.54991995344184],[139.78253101456076,35.54993029255259],[139.78254094544852,35.549932469089356],[139.78255655658697,35.54994522854957],[139.78256110862,35.549959117302116],[139.782727221769,35.55003981028008],[139.7832576000006,35.54928717244301],[139.78332444220248,35.54919231700837],[139.78334771230706,35.549203269549615],[139.78340817216764,35.54911801394527],[139.78314064115858,35.548990896817344],[139.78313482637122,35.54897318205303],[139.78292167361258,35.549016253560865],[139.7829183263672,35.549026448702534],[139.7829027070861,35.54903921579073],[139.78288138064502,35.54904388419044],[139.78286005564314,35.549039212367944],[139.78284588215493,35.54902762715887],[139.7828142761259,35.54903230476325],[139.78281372862426,35.54902947957281],[139.7827558354503,35.54903465002377],[139.78266257057666,35.54904297668407],[139.7826639478806,35.549050454305544],[139.78272555141456,35.549040039357266],[139.782726636842,35.54903985592892],[139.78272675539634,35.549040755567425],[139.7827280990303,35.549050922926384],[139.7827282186842,35.549051827973706],[139.78272713764636,35.54905204655816],[139.78266753386836,35.5490640578105],[139.7826664583461,35.54906427459395],[139.78265392003178,35.54906581521147],[139.782643197439,35.54905994895541],[139.78264044175808,35.5490449522475],[139.7826396166974,35.54904502671614],[139.78264016979008,35.54904772120794],[139.78261048569107,35.54904970440615],[139.78257804722088,35.549018877588765],[139.78260992389548,35.54899953542125],[139.78263505772648,35.54902294611527],[139.7826359791963,35.549027410193574],[139.7826724892028,35.54902414897965],[139.7828103083845,35.54901183790751],[139.78281005113692,35.54901049112077],[139.78283887375215,35.54900859314487],[139.78284445545899,35.5489915880265],[139.78284813902482,35.548988574414054],[139.7828365898362,35.54898874444819],[139.78282194238835,35.54898019762862],[139.7828247575508,35.548976023562204],[139.78270976216805,35.5489248330881],[139.78269089142785,35.54891643230767],[139.78269022679726,35.54891746592467],[139.78266739036735,35.54890820264606],[139.78265356395767,35.54887447307368],[139.78269075422708,35.54886450037846],[139.78270257185517,35.54889696805644],[139.78271000041804,35.5488862112643],[139.78272258223356,35.54888385129423],[139.7827336427967,35.54888894879821],[139.7827345811148,35.54888942422528],[139.7827940590399,35.54891955925151],[139.7827949995641,35.548920035580444],[139.7827944950068,35.548920841213025],[139.78278877374026,35.54892998523508],[139.78278827028637,35.548930789966704],[139.78278731320077,35.54893034067253],[139.78272618879868,35.54890157236302],[139.7827252328167,35.54890112306883],[139.78272171559473,35.54890621355352],[139.78283560641282,35.54895993556268],[139.78283633725044,35.54895885239609],[139.78286410401034,35.54896976184443],[139.7828662069275,35.54897748043894],[139.7828814000622,35.54897415254926],[139.7829027250481,35.548978824368035],[139.7829055141061,35.548981104252256],[139.78312300745785,35.54893717104705],[139.78305775923525,35.5487383599793],[139.7827942343537,35.54868060673008],[139.7827873671457,35.54868621771854],[139.78276603637906,35.54869088699774],[139.78274470706552,35.54868621515279],[139.78272909283388,35.54867345300891],[139.78272382969934,35.548657394311746],[139.78269811282934,35.54865274765876],[139.78269908880608,35.54864945798927],[139.78261826619192,35.54863072555742],[139.78248482718794,35.54859979940487],[139.78248298588784,35.54860578567139],[139.7824840224579,35.548606112412266],[139.7825432326501,35.548624821410776],[139.78254296187052,35.54862570285773],[139.78253990813212,35.54863565563881],[139.78253963845714,35.54863653438202],[139.782538590837,35.54863623918568],[139.78247983592732,35.54861964143601],[139.7824787905141,35.5486193453387],[139.7824664699186,35.54861680542896],[139.78245934266837,35.548608016558376],[139.78246341648025,35.5485948363263],[139.78245713387403,35.54859338063253],[139.782457261295,35.54859246036546],[139.78243827644022,35.548590268282275],[139.782429132974,35.54858326061007],[139.7824274312536,35.54854814437907],[139.78246784102248,35.54854673993694],[139.7824653192476,35.54857535354958],[139.78249070661818,35.548581237723994],[139.7824912630698,35.54858034558094],[139.78249351070923,35.54858062956553],[139.78249376576304,35.548581946606205],[139.78249543428737,35.54858233310525],[139.78270462302277,35.54863080601399],[139.78270508834933,35.54862924229496],[139.78273283803156,35.54863552492384],[139.7827447262565,35.54862581110767],[139.78274793739706,35.54862510756656],[139.78273525752928,35.54861857887575],[139.78273664414087,35.548614751247456],[139.78260626325346,35.5485756310599],[139.7825809486468,35.54856803519776],[139.78256700214607,35.54856399469832],[139.78255568264848,35.548555074267966],[139.78255157722992,35.54852045008755],[139.7825937995725,35.54851659818687],[139.7825948295062,35.5485484673205],[139.78259416699194,35.54854964606195],[139.78259537558483,35.548550032366094],[139.7826018592373,35.5485369883519],[139.78261396864204,35.548533346415375],[139.78262572806813,35.54853725438657],[139.7826192896934,35.54855021459168],[139.78261607714595,35.54855665819052],[139.78261775881043,35.5485571961272],[139.78274297284074,35.54859726960995],[139.7827436004047,35.54859554010276],[139.78276122056488,35.54860004724058],[139.78276937675176,35.548609077196346],[139.78276771782703,35.54862150578942],[139.78278738630465,35.54862581367336],[139.7828029994334,35.548638575809356],[139.78280426871072,35.54864244691672],[139.78304390269736,35.54869614113216],[139.78299105269662,35.548535109808725],[139.7831000896731,35.54838273626697],[139.78290517989623,35.548292363415825],[139.7828879362283,35.54829613844279],[139.78286660591036,35.54829146481593],[139.78285099063345,35.54827870178518],[139.78284527615304,35.54826126828104],[139.7828481482067,35.54825251066084],[139.78282808819114,35.54824832881742],[139.78281681292157,35.54823398205189],[139.78281744956973,35.54823358841044],[139.78271276474487,35.548097781405296],[139.7827068820135,35.54809014865515],[139.78270559151622,35.54808847332762],[139.78270253969717,35.548090173873774],[139.78270306309514,35.548090971825154],[139.7827327348236,35.54813620169143],[139.7827317959151,35.54813667993643],[139.78272021788146,35.548142577390024],[139.7827196613821,35.54814179925544],[139.7826889536811,35.54809881792312],[139.78268839608052,35.54809803798514],[139.78268124445157,35.5480894645493],[139.7826830642566,35.54807903170505],[139.78269301300872,35.54807348962047],[139.78268161752914,35.54805920228326],[139.78268179260778,35.54802458711348],[139.78272185972645,35.54802393059714],[139.78271872799934,35.54806152632968],[139.78271749004148,35.548062246022006],[139.78272124471758,35.548067117817205],[139.7827271274492,35.5480747496653],[139.78283922796933,35.54822018662683],[139.78283998598735,35.54821972002336],[139.7828617485853,35.54823504197551],[139.78286662390818,35.5482310580621],[139.78286698131254,35.5482309797906],[139.78286796984318,35.5482023547095],[139.78287196576878,35.54820244291531],[139.7828722968238,35.54811591035548],[139.7828724208807,35.54808338188607],[139.78287246050488,35.54807295009679],[139.78287133549992,35.54807294962601],[139.782869903192,35.5480581977518],[139.7828927313428,35.54802573827307],[139.7829255813195,35.54804361128294],[139.7829003495977,35.548072961764085],[139.78290821482926,35.54807276764854],[139.78291720572125,35.54808033678822],[139.78291760732142,35.54809070476317],[139.78291746668077,35.54809160970162],[139.7829096562213,35.548141728319756],[139.78290853337955,35.54814179455321],[139.78289879840398,35.54814237458382],[139.78289857180394,35.54820305166879],[139.78290226111235,35.548203136139804],[139.78290135684176,35.548229322992015],[139.78290928705616,35.548231060585884],[139.78292490233306,35.54824382360919],[139.78293009722833,35.54825967404868],[139.7831238469684,35.54834953709075],[139.78320011502865,35.54824295762757],[139.7833948257724,35.54820106962492],[139.78322183967924,35.548058804227416],[139.7832144015003,35.54806043265509],[139.7831930734305,35.54805576088953],[139.78317746035225,35.548042999704265],[139.78317174691966,35.54802556801811],[139.7831774710389,35.54800812756856],[139.7831792399614,35.548006680669246],[139.78316591593125,35.54800209064869],[139.78316088961952,35.5479917721296],[139.7831690966157,35.54797586507924],[139.78317284362123,35.54797715202251],[139.78325065513488,35.54782130940133],[139.78325578579629,35.547811033863745],[139.78324973844045,35.54780913302128],[139.78324924492242,35.54780994136467],[139.7832217425972,35.54785498059535],[139.7832207281117,35.547854623222634],[139.78320820253575,35.5478501930848],[139.78320865856222,35.54784937210651],[139.78323331272452,35.5478049284168],[139.78323376985458,35.54780410563609],[139.7832383277245,35.54779441756864],[139.78324986633126,35.54778970357587],[139.78326418965332,35.54779420296166],[139.78326467444847,35.54779323236407],[139.78326225286432,35.54779246427424],[139.7832753675589,35.54777002867078],[139.78330988512138,35.547756007424184],[139.78332568658524,35.547786827152834],[139.7832876629559,35.54780052965896],[139.78328677967275,35.547800249860934],[139.7832771422935,35.54781955727697],[139.78327741932304,35.5478210248577],[139.78327614178167,35.54782156155684],[139.78319470922796,35.54798468503243],[139.78319730610693,35.54798557939132],[139.78319165551613,35.547996535260644],[139.78319309117816,35.547995362245615],[139.78320612425287,35.54799250754827],[139.78320392667555,35.5479915556665],[139.78322272564273,35.54796259815932],[139.78323078048177,35.54796609079356],[139.78330994017477,35.54789644878334],[139.7833104579687,35.547895622421954],[139.78331083404782,35.5478956622392],[139.78331769590145,35.547889625761044],[139.78331563876384,35.54788808713353],[139.78336034735523,35.54785663357819],[139.7833815912223,35.54788674435625],[139.7833370744674,35.54790409212008],[139.78333545389052,35.54790288268187],[139.7833323320355,35.547905502634535],[139.78333679453593,35.54790907399597],[139.78333632916795,35.54791961467758],[139.7833274469687,35.5479270258427],[139.7833265730878,35.54792758794873],[139.78327528221905,35.547960575631734],[139.78327440282047,35.547961141340664],[139.78327357047777,35.54796052895017],[139.78326994675552,35.54795786293194],[139.78325013414508,35.5479744925927],[139.78325332300125,35.54797587665195],[139.7832389599339,35.5479979890354],[139.783251361765,35.54800812582935],[139.78325707521418,35.54802555661038],[139.78325548064092,35.54803041805495],[139.78344652452714,35.54818994892154],[139.78375861296965,35.54812282209266],[139.78402893412022,35.548250950369415],[139.78408891904232,35.54816624586718],[139.78406856454447,35.54815657643731],[139.7843694555525,35.5477333207143],[139.78420218826858,35.54765305044862],[139.78418093286774,35.547657702883335],[139.78415960815659,35.5476530321912],[139.78414399720782,35.54764027293383],[139.78413828469573,35.5476228439968],[139.78414161958042,35.547612674052736],[139.78413132032375,35.54761267886478],[139.7841190444531,35.547605701590165],[139.7841190644327,35.547587443908334],[139.78412217361995,35.54758744337443],[139.78407596764254,35.54737549558561],[139.78407148025033,35.54735491137243],[139.784070903703,35.547354439709],[139.78407125478074,35.54735387738394],[139.78407057177432,35.54735074296566],[139.78406500369667,35.54735148614186],[139.7840651090294,35.54735238397111],[139.7840708593911,35.5474016428746],[139.78406976410702,35.54740175329832],[139.78405620928734,35.54740310255186],[139.78405606314323,35.54740220921289],[139.78404825920535,35.547354617945636],[139.78404811195907,35.547353723704795],[139.78404607669304,35.54734347855524],[139.7840531210324,35.54733465320303],[139.78406666950255,35.547332846941565],[139.78406641873724,35.54733169576181],[139.78406453153897,35.54733181758004],[139.78405981052552,35.547310913276746],[139.78407942699218,35.547280825621286],[139.7841159426301,35.54729764157227],[139.7840932178289,35.547329975134154],[139.78409122474335,35.547330105923486],[139.78409437826545,35.547345970805345],[139.78414237836483,35.54758745432239],[139.78414853386897,35.54758745773463],[139.7841485373025,35.54760170242992],[139.78415962407055,35.54759264255598],[139.78416723537185,35.54759097628198],[139.78416723260037,35.54756480076563],[139.78416988737635,35.547564799143814],[139.78417253213408,35.54738244055391],[139.7841715708526,35.547381655049755],[139.78417256667578,35.54738005909089],[139.78417267950937,35.54737228373132],[139.7841698097029,35.54737222667505],[139.78416901686356,35.54735387581776],[139.78418247514858,35.54732454100117],[139.78421972436726,35.54733578842115],[139.7842018113079,35.547372396560014],[139.78420849725197,35.54737249212727],[139.78421702032594,35.54738041703012],[139.78421679562533,35.54739077933858],[139.7842166108869,35.54739167795094],[139.78420653212424,35.54744070505127],[139.78420540821622,35.54744072893098],[139.78419852028435,35.547440870347295],[139.78419670856684,35.54756494438322],[139.78419669792729,35.54759142366315],[139.78420227474862,35.54759264461709],[139.78421788459394,35.547605404767964],[139.7842222661449,35.54761877058661],[139.7843927099969,35.54770061143714],[139.78486670314965,35.54703384506254],[139.7846923189521,35.54695100814733],[139.78467832752588,35.54695407084073],[139.78465698643024,35.54694939662388],[139.78464136451493,35.546936628411096],[139.78463564643843,35.54691918597243],[139.78463797460458,35.54691208755033],[139.78462146222844,35.546910933409414],[139.78460732015694,35.546896840743884],[139.78461266435428,35.54689236659121],[139.7845071743123,35.546794594116655],[139.7845030296284,35.54679075341039],[139.78450103685046,35.54679221916803],[139.78450169265025,35.546792949560995],[139.78453984039675,35.54683540884184],[139.784538988586,35.54683598538795],[139.7845284854923,35.546843096724984],[139.78452780210498,35.54684238885578],[139.78448902426064,35.54680229006131],[139.7844883386687,35.546801581289586],[139.78447983093952,35.54679387184405],[139.7844798946918,35.54678332017656],[139.78448753808772,35.54677769858754],[139.78448188458154,35.54677206890788],[139.78448972286887,35.5467378840917],[139.7845266649048,35.54674605304017],[139.78451824343847,35.54677617685223],[139.78451797088678,35.54677638856898],[139.78451832252262,35.54677671591658],[139.78452298418873,35.54678103727344],[139.78452463624595,35.54678125157201],[139.78452494740182,35.546782857076884],[139.78462867376706,35.54687896755855],[139.7846504153543,35.5468943450691],[139.78465699979077,35.54688896371356],[139.7846696090525,35.546886203332484],[139.7846591132331,35.54686668486392],[139.7846650946514,35.54686447886805],[139.78461572937994,35.54679028069334],[139.78461513144165,35.546790530137315],[139.78461352637055,35.54678921886505],[139.78461425059444,35.54678805726353],[139.78460970294302,35.54678122107291],[139.78460872217798,35.54678165334473],[139.78459556201818,35.546763451628685],[139.78460443287562,35.54673062922544],[139.78464251958454,35.546737262629186],[139.7846314673848,35.546769695654355],[139.78463907973259,35.54676615355425],[139.78465134122715,35.54676940712122],[139.78465762467087,35.546778432590415],[139.78464276955899,35.54678534477588],[139.78463879900303,35.54678719012456],[139.78468195006735,35.546858266967064],[139.78468580345833,35.54685684702668],[139.78469703722286,35.54687075372482],[139.7846996225308,35.54688895296786],[139.78471530509907,35.546901734718524],[139.78472102208866,35.546919177153036],[139.78472054805948,35.546920621893086],[139.78488997043652,35.54700111676146],[139.7851347361278,35.54665679931663],[139.78536513978966,35.54633266592067],[139.7851957541895,35.546251245095064],[139.7851772513642,35.54625529667557],[139.78515592586388,35.546250625256945],[139.7851403150292,35.546237865224285],[139.7851346024,35.54622043723169],[139.7851376277166,35.54621121359546],[139.78512476122526,35.54621275073409],[139.7851109342501,35.54620296600419],[139.78511046007168,35.546193625590995],[139.78489235073948,35.54599034458964],[139.78488742513568,35.545993967108146],[139.7848747039602,35.54600333467082],[139.78486619738928,35.545995611731115],[139.78486627542216,35.545985069983075],[139.78487768243664,35.54597667359377],[139.78487674658314,35.54597580337444],[139.78487511347916,35.545977109736604],[139.78485717722126,35.545961632838164],[139.78485426675854,35.54592842168252],[139.78489075214648,35.54592326505878],[139.78489594438025,35.54596044325494],[139.78489265279342,35.545963077602984],[139.78490298244446,35.545972704111556],[139.78490793618064,35.54597732032659],[139.78490810398557,35.54597705177917],[139.7849103493546,35.5459773366193],[139.78491070008138,35.54597917289563],[139.78491016613336,35.54597939893061],[139.78512707067864,35.54618152743957],[139.78512801960426,35.54618083554986],[139.78514742562848,35.546197194556164],[139.78515593882184,35.54619023831022],[139.78516257375784,35.54618878521278],[139.78515707009734,35.546170491066874],[139.7851573558404,35.54617034605693],[139.78501447437097,35.546018339441105],[139.7850127766409,35.54601706599533],[139.78501302834792,35.54601666317397],[139.78500218149122,35.54600506241912],[139.78498967842498,35.54599284534859],[139.78498673480655,35.54595965491501],[139.78502576953522,35.545957353980974],[139.785025739634,35.54599617692247],[139.78502452931224,35.545996878621985],[139.78502538683506,35.54599779117421],[139.7850327614656,35.54599324300005],[139.78504543834393,35.54599518156279],[139.78505307329146,35.54600346390531],[139.78509828533566,35.546049294344996],[139.7850989775479,35.54604999680625],[139.78508843712478,35.546057078432156],[139.7850875842265,35.546057649573456],[139.78508686553295,35.5460569660308],[139.78504014604266,35.54601257360483],[139.7850394251446,35.54601188915959],[139.78503891982126,35.54601220083885],[139.7851777550032,35.5461600305625],[139.7851782327114,35.54615979008161],[139.7851924619946,35.546171852782],[139.7851898680043,35.54618832919165],[139.78519858986067,35.54619024001881],[139.785214199593,35.5462029991422],[139.78521990671064,35.54622044876229],[139.7853889707396,35.54629913911029],[139.78559395427706,35.54601076418519],[139.78561596122842,35.54602121371889],[139.78563877210726,35.545989001584594],[139.78536233417728,35.545858209922486],[139.78532904583872,35.54575479078507],[139.78504846740333,35.54569085930856],[139.78504273275158,35.54569554515224],[139.78502140621617,35.545700214834795],[139.78500007976896,35.54569554338786],[139.78498446906644,35.54568278333396],[139.78497875540788,35.54566535443058],[139.7849794062152,35.54566336982627],[139.78496217974347,35.54566532074113],[139.78494836518834,35.545657081884066],[139.78495053407508,35.5456543145793],[139.78469429340032,35.54552604797059],[139.78469009458448,35.545531579922866],[139.78475447057775,35.54556424618147],[139.7847554077662,35.54556472159262],[139.78475480401795,35.54556547671595],[139.78474794203765,35.545574058809464],[139.7847473371858,35.5455748148337],[139.78474638123308,35.545574363752515],[139.7846822762375,35.545544043021145],[139.7846813224919,35.545543591038935],[139.7846704134967,35.54553827293098],[139.78466668072585,35.54552817763626],[139.78467520777502,35.545516493627694],[139.7846732231347,35.545515500394195],[139.7846728577308,35.54551606361679],[139.784647922372,35.545502690414885],[139.78464746300259,35.545465295077896],[139.78468395291182,35.54546510969538],[139.78468498558877,35.54549739617328],[139.78468474824192,35.545497762042714],[139.78470548539428,35.54550836086215],[139.7847068305315,35.54550904736394],[139.78470851785355,35.5455092661812],[139.7847086563888,35.545509981040965],[139.78496213016598,35.54563951927521],[139.7849630286255,35.54563837306492],[139.78498436295723,35.54564825456765],[139.78498447565616,35.5456479183936],[139.7850000939477,35.545635153731936],[139.78500050097603,35.54563506465727],[139.78498691755868,35.54562026736864],[139.78499079690283,35.54561776305397],[139.78486010705572,35.54548615242009],[139.78485436547288,35.545480370386045],[139.784843927236,35.54546985776047],[139.78484307211522,35.545470464053494],[139.78482402334842,35.54545280893825],[139.78482747056566,35.545418808914214],[139.78486882933507,35.54542306388871],[139.78486240219465,35.54545502557009],[139.7848665168033,35.545459273681935],[139.7848722586894,35.545455384679954],[139.78488502069064,35.54545684555608],[139.78489311896598,35.54546484055153],[139.78489372510916,35.54546560156993],[139.78493612536985,35.54551889176703],[139.78493529561354,35.54551950257783],[139.78492920815395,35.5455239917712],[139.78500879017207,35.54560614681527],[139.78500912448322,35.54560593241792],[139.78502370212476,35.54561806017912],[139.78502428986943,35.54563111257151],[139.785042745796,35.54563515459447],[139.78505835760035,35.54564791644416],[139.78506095682647,35.54565584522774],[139.7853143678645,35.54570918892631],[139.7852153940733,35.54540170086609],[139.7852410649843,35.54536545260973],[139.78504778915047,35.54527498828241],[139.7850291751338,35.54527906413398],[139.78500784879756,35.54527439268818],[139.78499223707246,35.54526163263401],[139.78498652344305,35.54524420192702],[139.784992244762,35.54522676679026],[139.78500786297056,35.54521400212664],[139.78500859870684,35.545213840170895],[139.78499425135746,35.54519300775572],[139.78499633871508,35.54519191159822],[139.7849639282294,35.54515595198622],[139.7848926596496,35.54507688030327],[139.78483929592915,35.545017673447695],[139.7848335734719,35.54501132444426],[139.78483216490102,35.545009761765165],[139.7848268237594,35.54501305240237],[139.78481316694825,35.545021453291405],[139.78480551889817,35.54501314658952],[139.7848067295877,35.5450026593791],[139.78481896644055,35.54499511874903],[139.78481607986427,35.54499191494141],[139.78481557674576,35.54499223743736],[139.7848003234745,35.5449722798857],[139.78481634591316,35.54493656866895],[139.78485431244408,35.544950920580135],[139.78483734103244,35.54497828543032],[139.78483703540982,35.5449784818109],[139.7848469613172,35.544989854160015],[139.78485260870383,35.5449963239192],[139.78501485352723,35.54518219389862],[139.78501666396716,35.54518124365533],[139.78503121561596,35.54519428902319],[139.78503107289637,35.54520974423527],[139.78505051680114,35.54521400388851],[139.78506612742333,35.545226763934814],[139.78507133135378,35.54524264043409],[139.78526412970893,35.54533288369276],[139.78535492142396,35.54520467879431],[139.78521210595656,35.545007199885575],[139.78519879012978,35.54500428307458],[139.7851831784267,35.54499152304458],[139.78517746477505,35.54497409234584],[139.78518318493056,35.544956657198746],[139.7851887429718,35.544952113697235],[139.78517046681011,35.5449262003887],[139.78517296779822,35.54492501876104],[139.7851282742954,35.54486697378305],[139.78505979434195,35.544778036671],[139.78505326914353,35.544769561873636],[139.78505167889492,35.54476749704885],[139.78504663936306,35.544769965747015],[139.7850851687613,35.54482227543585],[139.78508573739524,35.54482304905784],[139.78507375778057,35.544828396731035],[139.7850727880703,35.544828829912596],[139.78507218744363,35.54482807070001],[139.78503256929898,35.54477791489831],[139.78503197087835,35.5447771565878],[139.78502544152815,35.54476825362599],[139.7850280031478,35.54475791838796],[139.78503983854577,35.54475211906402],[139.7850391001774,35.54475115968704],[139.7850370383585,35.54475198904351],[139.78500987788308,35.54471411428259],[139.78504713844856,35.54469725334331],[139.7850629506381,35.54474157301507],[139.78506172281337,35.5447420673879],[139.7850665045434,35.54474833578037],[139.78507300324597,35.54475685383326],[139.78519380089838,35.54491518658113],[139.7851945808699,35.54491482002588],[139.78521290000748,35.544940804557925],[139.7852201304842,35.544939222795534],[139.78523105000517,35.544941614939525],[139.7852344075516,35.544924475405466],[139.78523821409266,35.544923768429456],[139.78520858121814,35.54473190159298],[139.78520476450535,35.54470719200845],[139.78520218487603,35.54469048908295],[139.78519886513976,35.544690501278794],[139.7851987694126,35.544673513603264],[139.78521419110297,35.54465900644214],[139.78523673803548,35.54464547923018],[139.7852601667743,35.544671607312566],[139.785229542615,35.54468997899434],[139.7852297149397,35.54469136991124],[139.78523752831637,35.544690644702825],[139.78524722306952,35.54469759559866],[139.78524866392272,35.54470790088874],[139.78524866889592,35.544708807691265],[139.7852490332542,35.54477095341949],[139.78524793026995,35.54477109269547],[139.78523972627139,35.54477213143323],[139.78525806744653,35.54492008334222],[139.7852602393033,35.54491968038435],[139.78526596447273,35.54493816390997],[139.78525053141763,35.544951311773126],[139.78525706844715,35.54495665422655],[139.7852627821148,35.54497408492159],[139.7852579812596,35.544988725221856],[139.78538313544527,35.54516483676644],[139.78539304566675,35.54515084569247],[139.7854091755448,35.54515847337418],[139.78538785675497,35.5449428780402],[139.7853724401526,35.544930277658544],[139.78536672646433,35.544912846968565],[139.7853724465745,35.54489541181228],[139.78538806465858,35.54488264709862],[139.78540939205917,35.54487797735086],[139.78542937956456,35.54488235524163],[139.78544076086519,35.54486861623585],[139.78545901083086,35.5448663582839],[139.78545917259316,35.54486697129479],[139.7856511669553,35.544814790954405],[139.78564910509002,35.54481011732207],[139.78564806928205,35.544810426991404],[139.7855800180893,35.54483081659558],[139.78557898227973,35.54483112806709],[139.78557345989435,35.54481836937802],[139.78557309202924,35.5448175192195],[139.7856422736062,35.54479726527505],[139.78564331161658,35.544796961014995],[139.7856552526119,35.544793434983525],[139.78566716376102,35.54479747702782],[139.78567201347698,35.54480822444084]]]}}]}