{"type":"FeatureCollection","crs":{"type":"name","properties":{"name":"urn:ogc:def:crs:OGC:1.3:CRS84"}},"features":[{"type":"Feature","properties":{"height":4.8,"gml_id":"bldg_0c772c4b-22a6-403f-99b3-af65ca832d0a"},"geometry":{"type":"Polygon","coordinates":[[[139.7874123253223,35.55084892920943],[139.78752994872778,35.55068981438406],[139.78770757843282,35.550777524001916],[139.78758997841348,35.5509366372044],[139.7874123253223,35.55084892920943]]]}},{"type":"Feature","properties":{"height":1.1,"gml_id":"bldg_c50f49a6-e00f-4935-b3e5-4cc8f215bdaa"},"geometry":{"type":"Polygon","coordinates":[[[139.7879955947861,35.55732306302989],[139.78798247121546,35.55731773989164],[139.78798799165568,35.55730872806474],[139.78800111522526,35.55731405120241],[139.7879955947861,35.55732306302989]]]}},{"type":"Feature","properties":{"height":1.9,"gml_id":"bldg_be532317-90bb-4c4a-8791-b579392c26d2"},"geometry":{"type":"Polygon","coordinates":[[[139.7962744832431,35.55493882943259],[139.7962572794677,35.55493089190567],[139.7962725116691,35.55490863223805],[139.79628971544125,35.55491656976284],[139.7962744832431,35.55493882943259]]]}},{"type":"Feature","properties":{"height":0.8,"gml_id":"bldg_1079d5f4-98d1-474e-8da8-10297ccbf8d5"},"geometry":{"type":"Polygon","coordinates":[[[139.78767721659779,35.557767328301246],[139.78766959932094,35.557777961821536],[139.78765438097284,35.55777065479604],[139.787661998251,35.55776002127671],[139.78767721659779,35.557767328301246]]]}},{"type":"Feature","properties":{"height":2.0,"gml_id":"bldg_28b4b96b-e8df-4be0-91c2-d345cef382a4"},"geometry":{"type":"Polygon","coordinates":[[[139.79620339861205,35.55504472097047],[139.79618641538778,35.555036873640574],[139.79625529133898,35.55493666019481],[139.7962723848529,35.55494450754906],[139.79620339861205,35.55504472097047]]]}},{"type":"Feature","properties":{"height":1.3,"gml_id":"bldg_e3e1f4bf-bb64-4b51-943d-37e9f46ffed0"},"geometry":{"type":"Polygon","coordinates":[[[139.78769983650972,35.55775534837411],[139.7876923288295,35.55776724388368],[139.7876725884207,35.55775894361936],[139.78768009610306,35.557747048111004],[139.78769983650972,35.55775534837411]]]}},{"type":"Feature","properties":{"height":1.1,"gml_id":"bldg_bcf48e85-eb93-45cd-91ea-a340d4680a66"},"geometry":{"type":"Polygon","coordinates":[[[139.78801644722512,35.55731531891229],[139.7880007877546,35.55730792162514],[139.78800961933774,35.55729548575889],[139.78802527880663,35.5573028830449],[139.78801644722512,35.55731531891229]]]}},{"type":"Feature","properties":{"height":2.0,"gml_id":"bldg_6a441529-b7e5-4e45-945c-0ce84d461955"},"geometry":{"type":"Polygon","coordinates":[[[139.79615352160704,35.5550869808242],[139.79613896448856,35.555080396182674],[139.79616589714993,35.555040472880364],[139.79619269549036,35.55505255977309],[139.79617492437094,35.55507887490574],[139.79616268314118,35.55507337264954],[139.79615352160704,35.5550869808242]]]}}]}