{"type":"FeatureCollection","crs":{"type":"name","properties":{"name":"urn:ogc:def:crs:OGC:1.3:CRS84"}},"features":[{"type":"Feature","properties":{"height":6.0,"gml_id":"bldg_b6abf34f-53cc-4f52-bda4-d4f55ac75ec5"},"geometry":{"type":"Polygon","coordinates":[[[139.7646450587969,35.565885949045246],[139.7646349237618,35.56586917743673],[139.7646790665636,35.565851355081655],[139.76468920160562,35.56586812668654],[139.7646450587969,35.565885949045246]]]}},{"type":"Feature","properties":{"height":8.7,"gml_id":"bldg_6a9d052a-4875-4949-8f64-751b5254c6fe"},"geometry":{"type":"Polygon","coordinates":[[[139.76326943823747,35.56632665772221],[139.76321235803752,35.56625162898478],[139.76324889002817,35.56623299147798],[139.7633059701706,35.56630811033718],[139.76326943823747,35.56632665772221]]]}},{"type":"Feature","properties":{"height":8.3,"gml_id":"bldg_6a32f8e5-7444-4c88-a8d0-7c02de72b01b"},"geometry":{"type":"Polygon","coordinates":[[[139.76516603822742,35.5653023249742],[139.7653380465286,35.56553723393798],[139.7651830951036,35.56561304339824],[139.76501108709337,35.565378134216665],[139.76516603822742,35.5653023249742]]]}},{"type":"Feature","properties":{"height":3.3,"gml_id":"bldg_06999789-e0bd-4188-af9b-ce18db923098"},"geometry":{"type":"Polygon","coordinates":[[[139.76483238233507,35.566402281033234],[139.76480053740326,35.56635827515981],[139.76485362284268,35.56633279602034],[139.7648853574738,35.56637680181732],[139.76483238233507,35.566402281033234]]]}},{"type":"Feature","properties":{"height":5.9,"gml_id":"bldg_0edb78b0-4d99-4f51-9ce3-6bb171494a1a"},"geometry":{"type":"Polygon","coordinates":[[[139.7630718281124,35.5663583617447],[139.76312414280432,35.56633180125127],[139.7632894327267,35.566549582795666],[139.76323700762768,35.566576143295606],[139.7630718281124,35.5663583617447]]]}},{"type":"Feature","properties":{"height":2.7,"gml_id":"bldg_cf9a1102-ba0c-4339-9e82-c6662e47d4d4"},"geometry":{"type":"Polygon","coordinates":[[[139.76434714996694,35.56645617782218],[139.7644187801313,35.56641809004121],[139.764420322832,35.566420164117346],[139.76445404448174,35.566462458524114],[139.76437126697354,35.56650639897715],[139.7643360025723,35.56646212060922],[139.76434714996694,35.56645617782218]]]}},{"type":"Feature","properties":{"height":2.9,"gml_id":"bldg_7a18cd4f-52d4-4a01-89b7-131c9b08fec3"},"geometry":{"type":"Polygon","coordinates":[[[139.76441081229297,35.559876252493865],[139.76441466892453,35.55988121234237],[139.76442747075657,35.55987445923575],[139.76443033574964,35.5598780664323],[139.7644340880118,35.559876085519],[139.76443893636144,35.55988230787917],[139.7644347427019,35.55988446881835],[139.76443915042623,35.559889969814854],[139.76440769758514,35.55990662754986],[139.76441607225294,35.55991708845882],[139.76439863519852,35.55992636280558],[139.7643912523256,35.559917074269265],[139.76436995269154,35.55992832946073],[139.76436785894842,35.559925804371694],[139.76435582958777,35.55993219735794],[139.76435252381634,35.55992804907357],[139.7643488819378,35.5599299399085],[139.7643450251535,35.55992516033581],[139.76434988106857,35.55992254908377],[139.76434701607752,35.55991894188532],[139.76435871427282,35.55991281912745],[139.7643536453832,35.55990650649893],[139.76441081229297,35.559876252493865]]]}},{"type":"Feature","properties":{"height":14.0,"gml_id":"bldg_7f266344-6fdc-428e-b9b9-92d2be344f8a"},"geometry":{"type":"Polygon","coordinates":[[[139.7646492623623,35.5657432615737],[139.7648887544367,35.565625405962365],[139.7649105723885,35.56565498390434],[139.7646711904998,35.56577292976006],[139.7646492623623,35.5657432615737]]]}},{"type":"Feature","properties":{"height":9.7,"gml_id":"bldg_390b50b4-4172-41e5-b104-18ff4a48bc41"},"geometry":{"type":"Polygon","coordinates":[[[139.76529277202874,35.566372164938095],[139.7652392456522,35.56639737360513],[139.76521379217112,35.566361483950104],[139.76526621495475,35.566336725365574],[139.76529277202874,35.566372164938095]]]}},{"type":"Feature","properties":{"height":14.2,"gml_id":"bldg_86c9ce1e-9603-46d1-862c-ca992831045a"},"geometry":{"type":"Polygon","coordinates":[[[139.7646492623623,35.5657432615737],[139.76451086229756,35.56555569374663],[139.764808736982,35.56540902715643],[139.76494713748983,35.56559659464662],[139.7648887544367,35.565625405962365],[139.7646492623623,35.5657432615737]]]}},{"type":"Feature","properties":{"height":12.1,"gml_id":"bldg_188e06b0-7ccf-408b-bb1e-7d02ad72a0c5"},"geometry":{"type":"Polygon","coordinates":[[[139.76499447459494,35.565974123171756],[139.7649826657064,35.565979705088594],[139.7649534656061,35.56593912602978],[139.76503491433158,35.565899961780865],[139.76505210382967,35.56592385832369],[139.76519745304196,35.5658541730544],[139.76518059401425,35.56583081755217],[139.7652288229726,35.56580767911076],[139.76524391888975,35.5658286899994],[139.76534081816743,35.56578223301764],[139.76533211318474,35.565770149496316],[139.7653765897026,35.56574881165681],[139.76539466075536,35.56577397059286],[139.76499447459494,35.565974123171756]]]}},{"type":"Feature","properties":{"height":11.3,"gml_id":"bldg_0e151795-746c-4c6a-8b2e-ca522ee7dc9e"},"geometry":{"type":"Polygon","coordinates":[[[139.763283740067,35.56624554103701],[139.76327195032218,35.56622894863137],[139.76331819321965,35.56620707174649],[139.76330508128768,35.5661885856595],[139.7636088051605,35.5660445394771],[139.76363128365546,35.56607528983587],[139.763283740067,35.56624554103701]]]}},{"type":"Feature","properties":{"height":5.5,"gml_id":"bldg_a9da1fae-5378-4f07-86b5-1e90c9d788e8"},"geometry":{"type":"Polygon","coordinates":[[[139.76301060372026,35.56635490077058],[139.76294063176272,35.56638839160015],[139.7629148483515,35.56635250126764],[139.76298471004776,35.56631892024959],[139.76301060372026,35.56635490077058]]]}},{"type":"Feature","properties":{"height":8.4,"gml_id":"bldg_24c4e6fb-a752-4949-af55-9300409fd5c2"},"geometry":{"type":"Polygon","coordinates":[[[139.76390490450726,35.56591373855182],[139.7638824248638,35.565884250187025],[139.76391343809797,35.565868493742734],[139.76393591774843,35.56589798210184],[139.76390490450726,35.56591373855182]]]}},{"type":"Feature","properties":{"height":8.4,"gml_id":"bldg_1990aaa2-ed02-4c6a-b863-2d4c60276c8e"},"geometry":{"type":"Polygon","coordinates":[[[139.76301303429554,35.566350845938565],[139.76299220965075,35.56632135837533],[139.7630774114442,35.56628120611405],[139.76309823610987,35.56631069366278],[139.76301303429554,35.566350845938565]]]}},{"type":"Feature","properties":{"height":11.9,"gml_id":"bldg_f8d52dea-52d2-43ae-9e58-20dac23d5ba9"},"geometry":{"type":"Polygon","coordinates":[[[139.76542739015778,35.565815813478416],[139.76540325748306,35.56578362029855],[139.76543581499678,35.565767684054514],[139.76545950625228,35.56580005725725],[139.76542739015778,35.565815813478416]]]}},{"type":"Feature","properties":{"height":12.6,"gml_id":"bldg_8955ce70-1e02-4e79-9e21-75982fa6fcdf"},"geometry":{"type":"Polygon","coordinates":[[[139.7638511363544,35.56596328396538],[139.76371593810813,35.56602954819384],[139.76369478186325,35.566000601392155],[139.7636782539646,35.56597751628857],[139.76381455448794,35.56591224426517],[139.7638511363544,35.56596328396538]]]}},{"type":"Feature","properties":{"height":2.5,"gml_id":"bldg_bcaa1d48-1f62-4cff-a6d1-4a655fe65ff9"},"geometry":{"type":"Polygon","coordinates":[[[139.76650685900944,35.56156591563912],[139.76651503175205,35.56155438238222],[139.76654414295152,35.56156818977254],[139.76653597021166,35.561579723031386],[139.76650685900944,35.56156591563912]]]}},{"type":"Feature","properties":{"height":2.9,"gml_id":"bldg_387b78ff-ce96-4ba8-815e-0861696c3d82"},"geometry":{"type":"Polygon","coordinates":[[[139.76653761623177,35.561590180062296],[139.76655274617343,35.56156963676137],[139.76668903766762,35.56163668541906],[139.76667401806122,35.56165722879788],[139.76653761623177,35.561590180062296]]]}},{"type":"Feature","properties":{"height":9.2,"gml_id":"bldg_8847bb56-13f6-4385-a60c-fdc16f12f45e"},"geometry":{"type":"Polygon","coordinates":[[[139.7655878342514,35.566029983608104],[139.76555973436214,35.5659925601757],[139.76558942249505,35.56597797436106],[139.7656173016789,35.566015487801586],[139.7655878342514,35.566029983608104]]]}},{"type":"Feature","properties":{"height":12.4,"gml_id":"bldg_da93c9fa-2808-4689-a067-1a3016e11c93"},"geometry":{"type":"Polygon","coordinates":[[[139.76631365747133,35.566652708141675],[139.7662250550206,35.566538903586334],[139.7663591504394,35.56647074301988],[139.76640907440574,35.566531975045066],[139.76637943512463,35.56662038483147],[139.76631365747133,35.566652708141675]]]}},{"type":"Feature","properties":{"height":11.2,"gml_id":"bldg_330bb0f2-409d-4f0e-9793-18e445e530ba"},"geometry":{"type":"Polygon","coordinates":[[[139.7651762013144,35.56528601557915],[139.7649978502781,35.56537650421447],[139.7649610451696,35.56532798861955],[139.7651392857452,35.56523759011434],[139.7651762013144,35.56528601557915]]]}},{"type":"Feature","properties":{"height":3.0,"gml_id":"bldg_fa98bbb7-2d69-4bb1-9f5e-c3f96bbfad56"},"geometry":{"type":"Polygon","coordinates":[[[139.7667742441052,35.56211636185364],[139.76672952651654,35.56216528260793],[139.76671089287146,35.562153914805336],[139.76672458417107,35.56213895930464],[139.7667070531488,35.5621282230832],[139.76672195908998,35.562111826030765],[139.7667318823354,35.562117870822405],[139.76674789237674,35.562100302570286],[139.7667742441052,35.56211636185364]]]}},{"type":"Feature","properties":{"height":3.6,"gml_id":"bldg_c7b81c77-b822-4a66-9282-9d740b2dec99"},"geometry":{"type":"Polygon","coordinates":[[[139.765685449089,35.56631352522147],[139.76565900316604,35.56627691399188],[139.7656789791039,35.56626728034252],[139.76570542503282,35.56630389156779],[139.765685449089,35.56631352522147]]]}},{"type":"Feature","properties":{"height":12.0,"gml_id":"bldg_d80f1297-8d74-4b57-99ac-902f195f8f3e"},"geometry":{"type":"Polygon","coordinates":[[[139.76346586113223,35.56639158157075],[139.76344272132084,35.56636010968831],[139.76385902298836,35.56615636600861],[139.76388194249876,35.56618756726873],[139.76346586113223,35.56639158157075]]]}},{"type":"Feature","properties":{"height":3.9,"gml_id":"bldg_b7feaa1a-da7f-4429-9f5b-5f56f63fec8d"},"geometry":{"type":"Polygon","coordinates":[[[139.7654880749738,35.565281143708425],[139.7654424101819,35.56527291536232],[139.7654530337141,35.5652338010611],[139.76549858816682,35.565242029341135],[139.7654880749738,35.565281143708425]]]}},{"type":"Feature","properties":{"height":3.8,"gml_id":"bldg_5ca0ad24-d55a-4e41-8b41-fe93ab33cc25"},"geometry":{"type":"Polygon","coordinates":[[[139.765545772197,35.565280184635334],[139.76549900475015,35.56527132471839],[139.7655098480553,35.5652332020637],[139.76555661548116,35.56524206197649],[139.765545772197,35.565280184635334]]]}},{"type":"Feature","properties":{"height":3.8,"gml_id":"bldg_9489faa9-a937-4aa9-9ad9-7d39599e55a7"},"geometry":{"type":"Polygon","coordinates":[[[139.76487469724975,35.56645855173171],[139.7648434014932,35.56641734048721],[139.76491260175118,35.56638231575405],[139.76494389752955,35.56642352698085],[139.76487469724975,35.56645855173171]]]}},{"type":"Feature","properties":{"height":17.0,"gml_id":"bldg_b7ed545d-0465-4bb8-b780-1a742aa1d28f"},"geometry":{"type":"Polygon","coordinates":[[[139.7627467468189,35.566826443330484],[139.76259997182626,35.56663111649767],[139.76262712242058,35.56661761159222],[139.7626165441379,35.56660345358378],[139.76299753582958,35.56641231161564],[139.76300998746285,35.56642890443371],[139.7630393453375,35.5664142289169],[139.76318479881303,35.56660766153682],[139.76315731711972,35.56662143679186],[139.76316425926237,35.56663063499824],[139.76278293581262,35.56682195756955],[139.7627755529693,35.56681212811148],[139.7627467468189,35.566826443330484]]]}},{"type":"Feature","properties":{"height":13.1,"gml_id":"bldg_928c88b1-a92f-41ab-a3b9-bb192c66a821"},"geometry":{"type":"Polygon","coordinates":[[[139.76414404029197,35.56608387797253],[139.76409985376074,35.566024000384175],[139.7640839610551,35.56603183333987],[139.7640691955847,35.56601172388559],[139.76408310161287,35.56600497145734],[139.76402701476164,35.56592877186633],[139.76401366049242,35.56593534432767],[139.7640036331843,35.565921727589384],[139.76401820142695,35.56591461499375],[139.76397390491857,35.565854557016635],[139.76447661952673,35.56560714350371],[139.76464587287597,35.56583691395207],[139.7645304306851,35.56589372576626],[139.76439666764767,35.565959540883846],[139.76414404029197,35.56608387797253]]]}},{"type":"Feature","properties":{"height":13.6,"gml_id":"bldg_113a1820-ea99-4fb5-bc3f-2939622ffa69"},"geometry":{"type":"Polygon","coordinates":[[[139.76346586113223,35.56639158157075],[139.76347665970658,35.566406280466175],[139.76342158669797,35.56643329020719],[139.763283740067,35.56624554103701],[139.76363128365546,35.56607528983587],[139.7636088051605,35.5660445394771],[139.76360781345915,35.56604318682026],[139.76369478186325,35.566000601392155],[139.76371593810813,35.56602954819384],[139.7638511363544,35.56596328396538],[139.76385312295363,35.56596229358252],[139.7640257902,35.566197835743374],[139.7639254675069,35.56624690372114],[139.76388194249876,35.56618756726873],[139.76385902298836,35.56615636600861],[139.76344272132084,35.56636010968831],[139.76346586113223,35.56639158157075]]]}},{"type":"Feature","properties":{"height":12.1,"gml_id":"bldg_b20ec14f-64df-4845-88ad-09afd04a4d91"},"geometry":{"type":"Polygon","coordinates":[[[139.76555973436214,35.5659925601757],[139.7655878342514,35.566029983608104],[139.76572128121808,35.566208082825106],[139.76532010044988,35.566408686606344],[139.76529277202874,35.566372164938095],[139.76526621495475,35.566336725365574],[139.76499447459494,35.565974123171756],[139.76539466075536,35.56577397059286],[139.7653956540812,35.56577343031925],[139.76540325748306,35.56578362029855],[139.76542739015778,35.565815813478416],[139.76555973436214,35.5659925601757]]]}},{"type":"Feature","properties":{"height":7.7,"gml_id":"bldg_89a7a106-707d-4523-9ae9-bc9245f53f74"},"geometry":{"type":"Polygon","coordinates":[[[139.7654125689391,35.565469221077166],[139.76537411058973,35.565418541343995],[139.76542366473802,35.5653934205141],[139.765462233425,35.56544410029382],[139.7654125689391,35.565469221077166]]]}}]}