{"type":"FeatureCollection","crs":{"type":"name","properties":{"name":"urn:ogc:def:crs:OGC:1.3:CRS84"}},"features":[{"type":"Feature","properties":{"height":2.7,"gml_id":"bldg_b569fe3d-888b-419c-a31a-9d8ef373a073"},"geometry":{"type":"Polygon","coordinates":[[[139.78867404288388,35.53434205581633],[139.78865519066755,35.53433312503586],[139.7886682133045,35.534314921705366],[139.78868706551805,35.53432385248384],[139.78867404288388,35.53434205581633]]]}},{"type":"Feature","properties":{"height":2.4,"gml_id":"bldg_b72efd4a-2912-4c94-a963-fc78295fccc9"},"geometry":{"type":"Polygon","coordinates":[[[139.78770675542415,35.53522370748462],[139.7877220798989,35.53523083429072],[139.78770552486984,35.53525462482025],[139.787690200392,35.53524749801206],[139.78770675542415,35.53522370748462]]]}},{"type":"Feature","properties":{"height":31.7,"gml_id":"bldg_0a8543de-42db-4853-bb27-f901cc339cbd"},"geometry":{"type":"Polygon","coordinates":[[[139.79143959719713,35.54082886939892],[139.79117544256874,35.541209513933076],[139.79095350467074,35.541106573710884],[139.79095550565927,35.54110368454889],[139.79095624402592,35.54110262116489],[139.7909348925224,35.54109273259279],[139.7912395232044,35.54065343556154],[139.79123831837543,35.54064388217984],[139.79125623210822,35.54061810769516],[139.79131924330832,35.54064734470658],[139.79130524100412,35.540667498576695],[139.79132530903178,35.54067680613986],[139.7913524324661,35.540689384606274],[139.7913586174592,35.54068046297025],[139.79141491515645,35.54070655263502],[139.79140872243875,35.54071549139767],[139.79149159896815,35.54075392942967],[139.79146906748986,35.54078640239855],[139.7914981798063,35.54080035344224],[139.79146799064685,35.54084247496663],[139.79143959719713,35.54082886939892]]]}},{"type":"Feature","properties":{"height":13.3,"gml_id":"bldg_9e9cc389-588e-4df2-b64a-8b3caf54e6e4"},"geometry":{"type":"Polygon","coordinates":[[[139.7928704623103,35.538832191185286],[139.79281734228678,35.538806870345276],[139.79274890763304,35.538903783148754],[139.79260101277623,35.53883391768878],[139.7926044063768,35.53882911170549],[139.79257775442343,35.53881624342765],[139.79277946842168,35.53853685341717],[139.7928027994441,35.53854810974543],[139.7928035830006,35.53854700219658],[139.79294343109544,35.538612985120636],[139.7929443989457,35.53861162884811],[139.79303918775008,35.53865674373311],[139.79290839065757,35.53884064905676],[139.79290327973317,35.53884815234244],[139.7929054859488,35.53884920320498],[139.79287066304298,35.53889802990583],[139.79286399257327,35.53889485296116],[139.7928643082027,35.538894409581665],[139.79283625018272,35.53888135700506],[139.7928704623103,35.538832191185286]]]}},{"type":"Feature","properties":{"height":6.2,"gml_id":"bldg_f50d1f71-e9de-4040-b732-e1e5cd90c07e"},"geometry":{"type":"Polygon","coordinates":[[[139.7949565704759,35.534021140073],[139.79504901614484,35.53406609221772],[139.7950155433066,35.53411210585482],[139.79492308436707,35.534067160891674],[139.7949565704759,35.534021140073]]]}},{"type":"Feature","properties":{"height":8.8,"gml_id":"bldg_bbd8dfa5-1f3e-4d80-baa8-cc3a9107e08b"},"geometry":{"type":"Polygon","coordinates":[[[139.7961499772558,35.533474321854705],[139.79634730010415,35.533568914411525],[139.79625777454154,35.53369373268228],[139.79623672218412,35.53368364321679],[139.79624412306555,35.533673341659444],[139.79615212119492,35.53362924057904],[139.79614472140972,35.53363953942697],[139.796060448178,35.53359915440212],[139.7961499772558,35.533474321854705]]]}},{"type":"Feature","properties":{"height":5.6,"gml_id":"bldg_68aae4e3-f5ec-4d74-9bab-d39e8ba4ddf1"},"geometry":{"type":"Polygon","coordinates":[[[139.79487342789608,35.53378408035826],[139.79486975327941,35.53378229622933],[139.79487876758475,35.533769859868464],[139.79490422089907,35.533782206260604],[139.79489565351216,35.533794009987304],[139.7949185920261,35.533805172044715],[139.79488767819316,35.53384764308413],[139.7948429885413,35.53382590073129],[139.79487342789608,35.53378408035826]]]}},{"type":"Feature","properties":{"height":43.2,"gml_id":"bldg_6fc1e0d2-0afe-4ace-ad0f-3602892f2f6a"},"geometry":{"type":"Polygon","coordinates":[[[139.79405176151278,35.5361981759826],[139.79388578446196,35.53643094904072],[139.79355927202676,35.536275317173754],[139.7925545178086,35.537701040936014],[139.7925512675121,35.537699518285116],[139.79249589483203,35.537777397953725],[139.79237422192972,35.5377195791867],[139.7923720411096,35.537718541843766],[139.79226091972052,35.53766562111067],[139.7921914213196,35.53763264068107],[139.79219069846428,35.537633657206094],[139.7911915847803,35.53716183214366],[139.79115300833752,35.537150348427474],[139.79244298733545,35.535329150369144],[139.79247877407295,35.53534519558551],[139.79248443105405,35.53534784399334],[139.79347120820057,35.53581133003638],[139.79378324041133,35.53595750268864],[139.79378022330823,35.535961783318484],[139.79402492092342,35.53607823322538],[139.79396775997992,35.53615813122878],[139.79405176151278,35.5361981759826]]]}},{"type":"Feature","properties":{"height":4.0,"gml_id":"bldg_e4c8bc4c-98db-4c55-82ac-73a9bcbaf307"},"geometry":{"type":"Polygon","coordinates":[[[139.79008102054942,35.541486559734714],[139.79005208308223,35.541526916421574],[139.78994801352178,35.54147700677182],[139.7899550075697,35.5414672580216],[139.78994836231527,35.54146417917785],[139.78996083095748,35.54144619997713],[139.7899677992689,35.54144942496198],[139.78997696425736,35.541436650114385],[139.79008102054942,35.541486559734714]]]}},{"type":"Feature","properties":{"height":22.5,"gml_id":"bldg_6227b719-9dee-44bc-aad9-dc581e33a72f"},"geometry":{"type":"Polygon","coordinates":[[[139.79374290000578,35.540873976234764],[139.7940494599258,35.54044154313404],[139.79404697359186,35.540440365105],[139.7941601068177,35.540280774242],[139.79428848537353,35.540341598599376],[139.79430104428266,35.54032388037935],[139.79443446955236,35.54038711744018],[139.7944219194937,35.54040481855032],[139.7945496710698,35.540465347670775],[139.79443653615485,35.54062492897863],[139.79443476428895,35.54062409011179],[139.79376360446537,35.54157085517128],[139.79337829158968,35.54138829615879],[139.79370223736274,35.54093133472749],[139.79368608550547,35.540923671185354],[139.79372674263925,35.54086631810455],[139.79374290000578,35.540873976234764]]]}},{"type":"Feature","properties":{"height":43.1,"gml_id":"bldg_0396026c-b58e-4548-adff-16d172eac805"},"geometry":{"type":"Polygon","coordinates":[[[139.79179173925368,35.53816668102233],[139.79177004787343,35.53815637242719],[139.79175334799015,35.538179922779086],[139.79209379066427,35.538344774687175],[139.79189733363754,35.5386207842398],[139.7919280607501,35.53863497460848],[139.79189718424718,35.53867967310277],[139.79186574707424,35.538665160684836],[139.79166752930877,35.53894364176367],[139.79132887168547,35.53877852067472],[139.79117872015624,35.53899026230819],[139.79151165771185,35.53914746309174],[139.79151578275554,35.539152909837576],[139.79151480882177,35.53915955366802],[139.79136807018014,35.53936521230428],[139.79136010887325,35.53936732510311],[139.7913528954799,35.53936694310589],[139.7912654022044,35.539325627916135],[139.79126246543373,35.5393297435536],[139.79113363783088,35.53926831457976],[139.79113625675842,35.5392646450237],[139.79102230466822,35.53921083520129],[139.7910205951272,35.5392132440251],[139.7900605931069,35.538756369427624],[139.79002432742155,35.53874311043793],[139.79110500579765,35.53721978759174],[139.79112285463148,35.53722810829225],[139.79113894493517,35.537235609909715],[139.79210080442078,35.53768993113514],[139.79192539207742,35.53793730258175],[139.79210863898538,35.53802353855218],[139.792123404233,35.53803698156857],[139.79213442147642,35.53805387924437],[139.79213733435643,35.538072585050024],[139.79213411977273,35.53809394516824],[139.79207241570845,35.53818156292891],[139.79205253702614,35.538193331025525],[139.79203293530102,35.53819833786335],[139.79200871906463,35.538199720417616],[139.79198020036281,35.538195432630026],[139.79182369207123,35.538121768390056],[139.79179173925368,35.53816668102233]]]}},{"type":"Feature","properties":{"height":3.1,"gml_id":"bldg_f17ece20-bf96-4243-a852-6c8235768004"},"geometry":{"type":"Polygon","coordinates":[[[139.787686558543,35.53525227401992],[139.7877099309507,35.53526346014455],[139.7876473541751,35.535351051915136],[139.78762398175073,35.53533986577853],[139.787686558543,35.53525227401992]]]}},{"type":"Feature","properties":{"height":8.5,"gml_id":"bldg_c5bb8303-acec-4b13-85d1-6ec58dd2057f"},"geometry":{"type":"Polygon","coordinates":[[[139.7961523590584,35.53616809984547],[139.79692328718968,35.53653453426843],[139.7968586888289,35.53662538872987],[139.79608775681325,35.536258956602346],[139.7961523590584,35.53616809984547]]]}},{"type":"Feature","properties":{"height":4.1,"gml_id":"bldg_3d4df335-ed1b-4b6a-9cd6-9ccedbbac812"},"geometry":{"type":"Polygon","coordinates":[[[139.79002996487594,35.54152358504658],[139.78997454578442,35.54160246223275],[139.7899889101885,35.54160920260252],[139.78997453886134,35.54162966896536],[139.78987346656635,35.54158220490663],[139.7898752082123,35.54157972670439],[139.78986990480934,35.541577240554915],[139.78988248485132,35.54155930557105],[139.78988780258524,35.54156180164046],[139.78991149027806,35.54152808726868],[139.78990552202796,35.54152527998555],[139.78991812410126,35.541507363033595],[139.7899240824277,35.54151016490417],[139.78994326036369,35.541482868621216],[139.79002996487594,35.54152358504658]]]}},{"type":"Feature","properties":{"height":3.4,"gml_id":"bldg_e72ef354-92c9-4dd9-9e7f-fbd137977054"},"geometry":{"type":"Polygon","coordinates":[[[139.79351737815944,35.53665952411471],[139.79345737825554,35.53663136999956],[139.79351452865387,35.53654996781547],[139.79357453293233,35.536578113791464],[139.79351737815944,35.53665952411471]]]}},{"type":"Feature","properties":{"height":12.7,"gml_id":"bldg_d07bc320-7c6f-4734-93ac-c23a6227d904"},"geometry":{"type":"Polygon","coordinates":[[[139.79307964056474,35.53847941985953],[139.79306387199114,35.53850032781786],[139.7930517042678,35.538516492944694],[139.7930438679682,35.538526905023474],[139.79303779396568,35.538524087943344],[139.79297267199135,35.53861577029956],[139.79281077956665,35.53853904801761],[139.79281258394906,35.5385365057938],[139.79278308951228,35.53852262073559],[139.79301189552422,35.53819778938084],[139.79304279894254,35.538212338279955],[139.7930471735652,35.53820618142304],[139.79320906883328,35.538282947560994],[139.7931093287554,35.53842337302589],[139.7931152483278,35.53842625224709],[139.79310743568743,35.53843790555644],[139.79309531003003,35.53845599697906],[139.79307964056474,35.53847941985953]]]}},{"type":"Feature","properties":{"height":13.9,"gml_id":"bldg_2a2a9bb9-fb20-4c2a-aa0a-66eceeb52fe0"},"geometry":{"type":"Polygon","coordinates":[[[139.79190142786285,35.540311698866475],[139.79172647584895,35.5402299111441],[139.79200696638995,35.539830030705645],[139.79208207116272,35.539865261221934],[139.79209321020093,35.539849368966976],[139.7921779967033,35.5398891286278],[139.79216359529264,35.53990972685075],[139.79217993759434,35.53991738615599],[139.79190142786285,35.540311698866475]]]}},{"type":"Feature","properties":{"height":4.3,"gml_id":"bldg_f099ce53-b6c1-4a9b-adda-7fc6dacb6042"},"geometry":{"type":"Polygon","coordinates":[[[139.79520467490488,35.538509192975624],[139.79514865187664,35.538481279836375],[139.7951983189202,35.538414634822864],[139.79525434412707,35.538442543433064],[139.79520467490488,35.538509192975624]]]}},{"type":"Feature","properties":{"height":7.1,"gml_id":"bldg_4b5036e0-7ea9-48f7-8167-d8e6f1e2c74f"},"geometry":{"type":"Polygon","coordinates":[[[139.79868233665348,35.53567429919542],[139.79891215085604,35.535782810765795],[139.7988243961811,35.53590641632318],[139.798594493537,35.5357978703093],[139.79868233665348,35.53567429919542]]]}},{"type":"Feature","properties":{"height":8.6,"gml_id":"bldg_28800b32-034c-4e38-b2ef-bf54ec17a249"},"geometry":{"type":"Polygon","coordinates":[[[139.79625371345065,35.536726947227685],[139.79682596392794,35.53699694040649],[139.79664323096088,35.537255811100344],[139.79607097374995,35.53698580624693],[139.79625371345065,35.536726947227685]]]}},{"type":"Feature","properties":{"height":5.3,"gml_id":"bldg_9a2b999c-bc91-40b5-964c-c2a2dc1a0382"},"geometry":{"type":"Polygon","coordinates":[[[139.79547187855133,35.53763085774178],[139.79551777460196,35.537565963711714],[139.7955223744735,35.5375681384132],[139.79561312386036,35.53761104070159],[139.79559908462255,35.53763106166315],[139.7955685674754,35.53767420541325],[139.79556712294823,35.537676246616705],[139.79555526876638,35.53769301242465],[139.79554232649284,35.53771131656874],[139.79552360388516,35.53773779724054],[139.79552215604514,35.53773984294936],[139.79549715098707,35.53777519676518],[139.79547983536693,35.537799676778256],[139.7954783831101,35.537801729696284],[139.79545588525474,35.537833540913226],[139.79543850891318,35.53785811013896],[139.79543567391784,35.53786211864534],[139.79537893282208,35.53783528885922],[139.79542157362332,35.537774996357584],[139.79546539403643,35.53771304925257],[139.79542668759015,35.53769474962594],[139.79547187855133,35.53763085774178]]]}},{"type":"Feature","properties":{"height":6.5,"gml_id":"bldg_c5868ba0-9d19-4b52-9c49-be9550b46883"},"geometry":{"type":"Polygon","coordinates":[[[139.79304665685564,35.538663914106564],[139.79334003487907,35.538801887041885],[139.79332965774594,35.538816633996966],[139.79333909457475,35.53882107468512],[139.79332397195083,35.538842593133616],[139.79333636474743,35.53884843466607],[139.79315322307207,35.5391086861945],[139.79289450877639,35.53898703244335],[139.79289767724327,35.538982519329224],[139.79285550649303,35.53896265199986],[139.792853115039,35.538961525357216],[139.79298004560192,35.5387585390156],[139.79304665685564,35.538663914106564]]]}},{"type":"Feature","properties":{"height":3.5,"gml_id":"bldg_4e4f599b-4e4f-4bf4-ba92-8c13775720cc"},"geometry":{"type":"Polygon","coordinates":[[[139.79977659773417,35.5350279695551],[139.79983658641615,35.53505638193531],[139.79979066001835,35.535121197404905],[139.7997306790252,35.53509278139872],[139.79977659773417,35.5350279695551]]]}},{"type":"Feature","properties":{"height":2.7,"gml_id":"bldg_c173ecab-4087-40ac-905e-0f139dc00599"},"geometry":{"type":"Polygon","coordinates":[[[139.78862537344224,35.534410183152445],[139.78860597008608,35.53440080146318],[139.7886188822692,35.53438295865476],[139.78863839584847,35.53439243052219],[139.78862537344224,35.534410183152445]]]}},{"type":"Feature","properties":{"height":19.8,"gml_id":"bldg_15a2b5fb-05d6-46ee-8677-f318a842df55"},"geometry":{"type":"Polygon","coordinates":[[[139.792845425792,35.537292191230726],[139.7929953478143,35.53736299994347],[139.79270433723545,35.53777510580364],[139.79255441910624,35.53770431205882],[139.792845425792,35.537292191230726]]]}},{"type":"Feature","properties":{"height":35.4,"gml_id":"bldg_28d431ae-38b7-4c43-a3c0-94d59e84ea70"},"geometry":{"type":"Polygon","coordinates":[[[139.79394351917702,35.53737510267656],[139.79399507634378,35.537399603150064],[139.79382841779685,35.53763366124646],[139.79387817021933,35.53765731386806],[139.7935273322497,35.53815002632192],[139.79351765184288,35.538145434133554],[139.79350409108255,35.538164501333235],[139.79300360688848,35.5379266105723],[139.7930171092404,35.53790761912568],[139.79300425025832,35.53790150968989],[139.79305884224468,35.537824838296984],[139.7930265785107,35.53780948760787],[139.79327392196134,35.53746217124619],[139.7933085947324,35.53747407213595],[139.7935212874232,35.53717535228034],[139.7935109907812,35.537170535440374],[139.79346111125335,35.53724410781153],[139.7935470498308,35.53693422543586],[139.79357659289857,35.5368866352975],[139.79366014363546,35.5369698803503],[139.79363829897326,35.536993303981916],[139.79364807880472,35.536997277838275],[139.79368807503042,35.536941109847305],[139.7941098645513,35.53714147878052],[139.79394351917702,35.53737510267656]]]}},{"type":"Feature","properties":{"height":10.4,"gml_id":"bldg_a738683f-1086-439e-86c2-bca3c1d5fea2"},"geometry":{"type":"Polygon","coordinates":[[[139.79175766214,35.54088984782216],[139.7917784867343,35.540860853587944],[139.79182647079176,35.54088389258588],[139.7918055788895,35.540912975141616],[139.7918178736933,35.54091890873646],[139.79182790598307,35.540904549397005],[139.79185918627402,35.540919141989704],[139.79184889682844,35.54093388163103],[139.79192609693015,35.540971142895614],[139.79160704432022,35.54141300471754],[139.79157367475716,35.54139689970156],[139.79156979320445,35.541402323840124],[139.79154048990873,35.54138828711656],[139.79146208893172,35.54135458839613],[139.7914681436706,35.541345967775435],[139.79142798449365,35.54132658379921],[139.79174704656427,35.54088472425093],[139.79175766214,35.54088984782216]]]}},{"type":"Feature","properties":{"height":5.9,"gml_id":"bldg_287ed228-b7ae-4a84-9f48-efed7555e7c4"},"geometry":{"type":"Polygon","coordinates":[[[139.79751203600668,35.53511840314175],[139.79760076887905,35.53515894620807],[139.7975378238051,35.53525099769378],[139.79744909307183,35.535210447371234],[139.79751203600668,35.53511840314175]]]}},{"type":"Feature","properties":{"height":5.4,"gml_id":"bldg_2bed9f9b-f1ac-493d-9b24-ca39088d62c0"},"geometry":{"type":"Polygon","coordinates":[[[139.79802141339587,35.53536099760436],[139.7980249779186,35.53536268695825],[139.79810404244097,35.53540016839331],[139.798083302927,35.53542965142607],[139.79805675822723,35.535467079443414],[139.79805445310996,35.53547032919457],[139.79797169501953,35.535431097039485],[139.79802141339587,35.53536099760436]]]}},{"type":"Feature","properties":{"height":9.4,"gml_id":"bldg_5fc099d8-cc12-4a18-b3f0-2319484b1ccd"},"geometry":{"type":"Polygon","coordinates":[[[139.79922738694123,35.535677786113716],[139.79936914806171,35.5357451439955],[139.79925640029444,35.53590369886955],[139.79911466435343,35.5358363408641],[139.79922738694123,35.535677786113716]]]}},{"type":"Feature","properties":{"height":3.0,"gml_id":"bldg_539652b0-c2c3-4bc5-b0cd-acdf032398d2"},"geometry":{"type":"Polygon","coordinates":[[[139.79618998416754,35.53444245640927],[139.79624160950863,35.53446719031735],[139.79618443102126,35.53454694336257],[139.7961328166739,35.53452221033511],[139.79618998416754,35.53444245640927]]]}},{"type":"Feature","properties":{"height":3.9,"gml_id":"bldg_38c7b315-66fe-4749-81a9-80720bacb452"},"geometry":{"type":"Polygon","coordinates":[[[139.79714978121194,35.53505607630468],[139.79714185833765,35.53506720613938],[139.79713825967042,35.535065495115624],[139.79711880658522,35.53505624187816],[139.79704601742299,35.53502161729878],[139.7970910057057,35.534958376425365],[139.79709222731134,35.53495895458583],[139.79711168037,35.53496820782771],[139.79718426334048,35.53500273044846],[139.7971868719315,35.53500397154803],[139.79714978121194,35.53505607630468]]]}},{"type":"Feature","properties":{"height":33.1,"gml_id":"bldg_48b27828-12e5-46bc-96bc-1b3b21690b57"},"geometry":{"type":"Polygon","coordinates":[[[139.79221310890645,35.53993418140738],[139.79221942260213,35.539925604102045],[139.79227960135654,35.539955181277264],[139.79227390898697,35.53996292320601],[139.79246940583937,35.54005534181941],[139.79251138632924,35.5401817520547],[139.7924562710521,35.54025966601249],[139.79245802414516,35.54026049678953],[139.79246299072702,35.540270388555555],[139.79241641966948,35.54033622221778],[139.79240576422518,35.54033799975441],[139.7924020904453,35.54033625881932],[139.79233052085561,35.540437431180145],[139.7923044794544,35.54047424061598],[139.79227940702108,35.54050968476563],[139.792245320854,35.54049357157666],[139.7918924738756,35.540326762571866],[139.79218095359371,35.539918980165396],[139.79221310890645,35.53993418140738]]]}},{"type":"Feature","properties":{"height":6.6,"gml_id":"bldg_6cbcc53b-6f9b-4d3a-8201-5338b6e70c9c"},"geometry":{"type":"Polygon","coordinates":[[[139.79380312637971,35.53993700801844],[139.79369744170626,35.5398921731997],[139.7937560310109,35.539799869972384],[139.7937641891729,35.5398033312942],[139.79378748277477,35.53981321369461],[139.79386171338987,35.539844705641094],[139.7938594342791,35.539848296044646],[139.79382009226785,35.539910279165156],[139.79380312637971,35.53993700801844]]]}},{"type":"Feature","properties":{"height":10.3,"gml_id":"bldg_158015d4-5da1-4d66-8c00-2f774c96d821"},"geometry":{"type":"Polygon","coordinates":[[[139.79550466119045,35.54080492716354],[139.7954439781778,35.54089162120017],[139.79533011442808,35.54083828241027],[139.79515573340117,35.5407566476768],[139.79515142663902,35.540754632601754],[139.79521555306403,35.54066302540513],[139.7954005399154,35.54074956516393],[139.79539703381474,35.54075457400237],[139.79541746395307,35.540764131585725],[139.79542965530084,35.54074669256557],[139.79551472229588,35.540786486920624],[139.79550251331662,35.540803922338185],[139.79550466119045,35.54080492716354]]]}},{"type":"Feature","properties":{"height":6.3,"gml_id":"bldg_0baa9965-ae15-4237-b412-af2a316671b5"},"geometry":{"type":"Polygon","coordinates":[[[139.79843838282224,35.53550319843501],[139.79844192420603,35.53550487785452],[139.79851590739702,35.53553998868622],[139.7985161830346,35.535540118566466],[139.79850073808865,35.535561880058246],[139.79847580789666,35.535597003769894],[139.79847350831076,35.53560024361525],[139.79839569703256,35.53556332255204],[139.79843838282224,35.53550319843501]]]}},{"type":"Feature","properties":{"height":3.0,"gml_id":"bldg_5fe191ef-de8d-472d-86de-8fda9561cc2c"},"geometry":{"type":"Polygon","coordinates":[[[139.7933383370289,35.536801410900196],[139.79339581212432,35.53682855377573],[139.7933050171142,35.53695711465362],[139.79324753203258,35.53692997173207],[139.7933383370289,35.536801410900196]]]}},{"type":"Feature","properties":{"height":5.7,"gml_id":"bldg_41ea06bb-23a8-4032-940a-3faae2ee246f"},"geometry":{"type":"Polygon","coordinates":[[[139.797689271102,35.53521503457578],[139.7979672183002,35.535344438446906],[139.79791822430178,35.53541478144886],[139.79764027363078,35.53528537926805],[139.797689271102,35.53521503457578]]]}},{"type":"Feature","properties":{"height":41.5,"gml_id":"bldg_440265f5-adb3-488e-8ced-9f876778d746"},"geometry":{"type":"Polygon","coordinates":[[[139.79228777971832,35.535236438888695],[139.79228371088098,35.53524217487438],[139.7922754354807,35.53523825640348],[139.79225986812912,35.535230860576384],[139.7927573226382,35.53452960134946],[139.79278119518952,35.534529636420466],[139.7927976630102,35.53451371162472],[139.7946854535344,35.535408556241144],[139.79467240197528,35.53544123659067],[139.79463372260605,35.53548630828837],[139.79417551098055,35.536137971590385],[139.79322652494443,35.53568477708838],[139.79228777971832,35.535236438888695]]]}},{"type":"Feature","properties":{"height":6.9,"gml_id":"bldg_3c17e90c-7dfd-405e-903c-1a8f7af11602"},"geometry":{"type":"Polygon","coordinates":[[[139.7955419347675,35.534358858134716],[139.7955308149584,35.534374441551115],[139.79529640356864,35.53426262116081],[139.7953526592936,35.534183784959964],[139.79558706722614,35.534295600734296],[139.79557731464848,35.534309270022625],[139.7955907233991,35.53431565698894],[139.79559615694538,35.53430804281306],[139.79566561189705,35.53434117902878],[139.795614002026,35.534413519580355],[139.79554454703242,35.534380385138086],[139.79555534021017,35.534365255920605],[139.7955419347675,35.534358858134716]]]}},{"type":"Feature","properties":{"height":3.7,"gml_id":"bldg_3cb6d828-1986-492a-b616-066fa9c1f630"},"geometry":{"type":"Polygon","coordinates":[[[139.79268835975085,35.53987599715442],[139.7926006806368,35.539896604062285],[139.79258862412112,35.539862365986906],[139.79267632525767,35.53984175909509],[139.79268835975085,35.53987599715442]]]}},{"type":"Feature","properties":{"height":5.0,"gml_id":"bldg_5d002571-0010-4257-b02b-f537753e5a50"},"geometry":{"type":"Polygon","coordinates":[[[139.79541787503032,35.54048353533417],[139.7955968131592,35.54056650517968],[139.795551562673,35.540631734727356],[139.79537261231428,35.540548765713105],[139.79541787503032,35.54048353533417]]]}},{"type":"Feature","properties":{"height":11.6,"gml_id":"bldg_6907ac13-4cda-41b6-8426-9c76e4eb070a"},"geometry":{"type":"Polygon","coordinates":[[[139.7965379321493,35.53461939759202],[139.79646129609137,35.53472697265595],[139.79639477423223,35.53469536475975],[139.7961949396944,35.53460097433765],[139.79627207400887,35.53449192942066],[139.79647186423287,35.534586371082504],[139.7964710344189,35.53458754534494],[139.7965379321493,35.53461939759202]]]}},{"type":"Feature","properties":{"height":3.7,"gml_id":"bldg_67ccaf00-b214-47ec-adad-9069aae9c84c"},"geometry":{"type":"Polygon","coordinates":[[[139.79118422648452,35.5398356987636],[139.7912319443936,35.53985794378156],[139.79119953760514,35.53990436591832],[139.79115182960632,35.539882114581395],[139.79118422648452,35.5398356987636]]]}},{"type":"Feature","properties":{"height":8.0,"gml_id":"bldg_40dee9a9-9ecf-46d6-bdfa-c9cf87901f36"},"geometry":{"type":"Polygon","coordinates":[[[139.7919347343628,35.539419599003764],[139.79198706466323,35.53940667565662],[139.79198245650815,35.53937979633975],[139.79203483946793,35.539373801096595],[139.79206150004788,35.539529329361585],[139.79200911698803,35.53953532641889],[139.7919995707922,35.53947963959501],[139.79195720091647,35.53948881386605],[139.7919679089742,35.53952183195935],[139.791852979127,35.53954675475976],[139.7918107526608,35.5394166584017],[139.79192569446556,35.539391737447794],[139.7919347343628,35.539419599003764]]]}},{"type":"Feature","properties":{"height":3.1,"gml_id":"bldg_36639b98-7ae3-46d3-8dfe-9cf72ec417b5"},"geometry":{"type":"Polygon","coordinates":[[[139.7905080750764,35.54084351343601],[139.79050272451698,35.54085095343471],[139.7905220161236,35.540860203166375],[139.79046936352623,35.54093359299037],[139.79041075878044,35.54090550457774],[139.79046342244504,35.540832107571774],[139.79048151003994,35.54084078089191],[139.79048686722922,35.54083331926306],[139.7905080750764,35.54084351343601]]]}},{"type":"Feature","properties":{"height":3.5,"gml_id":"bldg_883d6719-c1b5-4a72-b36c-b0c5ebd81f7d"},"geometry":{"type":"Polygon","coordinates":[[[139.79622847609093,35.53346512386924],[139.79621370413955,35.533485716174724],[139.79608973431294,35.53342638606737],[139.79614446351354,35.533350086438325],[139.7962590057829,35.53340485704624],[139.79627698431088,35.533413433926285],[139.79623701167256,35.533469209809354],[139.79622847609093,35.53346512386924]]]}},{"type":"Feature","properties":{"height":5.3,"gml_id":"bldg_a1519a59-03cc-4a91-987b-00578e857f62"},"geometry":{"type":"Polygon","coordinates":[[[139.79571506202896,35.537746835891014],[139.79570163432908,35.537765610427925],[139.79567193953653,35.53780712744498],[139.7956700955432,35.53780970485385],[139.7956597908018,35.53782412032194],[139.79562891297303,35.537867313549874],[139.79562568183962,35.537871833928236],[139.79553056623357,35.53782638835354],[139.79557379700063,35.53776591840839],[139.79561966181245,35.537701783304385],[139.79566591941304,35.53763708403269],[139.7956685390889,35.53763833598476],[139.79575966548688,35.53768189179029],[139.79576102383828,35.53768254211804],[139.7957474979421,35.53770146265538],[139.79571691264215,35.53774424586398],[139.79571506202896,35.537746835891014]]]}},{"type":"Feature","properties":{"height":9.8,"gml_id":"bldg_3cc8b8d0-f64b-482e-97ff-256a6238c53f"},"geometry":{"type":"Polygon","coordinates":[[[139.79953056223295,35.5351863820826],[139.79970464783736,35.535265336046336],[139.79948639918695,35.53557330283245],[139.7993124466361,35.53549418544288],[139.79953056223295,35.5351863820826]]]}},{"type":"Feature","properties":{"height":7.1,"gml_id":"bldg_22ad83b2-fdc2-453e-9d16-c104b66ddd05"},"geometry":{"type":"Polygon","coordinates":[[[139.79971586047085,35.5351102030118],[139.79977879071714,35.53514020990429],[139.79971299741453,35.535232426688815],[139.79965007594294,35.53520241976488],[139.79971586047085,35.5351102030118]]]}},{"type":"Feature","properties":{"height":27.3,"gml_id":"bldg_3aa6af0b-8fee-4a3c-b17f-5693e63bc21d"},"geometry":{"type":"Polygon","coordinates":[[[139.79562557617015,35.5379232475635],[139.7958037628042,35.537671149194786],[139.7960648100404,35.53779446412868],[139.79609263941614,35.53775612565281],[139.7960950485055,35.53775729370099],[139.79623525871872,35.53782529475384],[139.79623740319772,35.53782633471991],[139.7962122774612,35.53786094319427],[139.79627683274094,35.53789147881443],[139.79624501039726,35.537936445851415],[139.7962722847976,35.5379489484478],[139.7962230577399,35.538020615706195],[139.79627493470835,35.5380451522583],[139.7959619265849,35.53848744773388],[139.7960035895309,35.538507151570776],[139.79600390938614,35.53850706784022],[139.7960042753312,35.53850747718597],[139.79600706043283,35.53850879408202],[139.79595048640732,35.53858873283592],[139.79594612411364,35.53859489611139],[139.79590099133523,35.53857355244524],[139.79567067703852,35.53889897740295],[139.79549538511213,35.5388160854076],[139.79548033513055,35.53883679019153],[139.7956545840704,35.53891914194814],[139.7953328619298,35.53937396056224],[139.7953406715594,35.5393775568768],[139.79537326668486,35.53933082540522],[139.79538485374414,35.53933623110029],[139.7953523722229,35.53938294458289],[139.79533484834005,35.539408571976196],[139.7953148771561,35.53939938589543],[139.7948988217435,35.53998754183638],[139.79487476108906,35.53997617661488],[139.79481971997686,35.54005397630161],[139.7947823246294,35.540036301558985],[139.794751254982,35.5400811891033],[139.79468451838866,35.54005030043498],[139.794715937897,35.540004919056344],[139.79465915032304,35.53997807540496],[139.7946335906751,35.54001320440357],[139.79462959687547,35.54001869170348],[139.7944996018593,35.53995549742349],[139.79452821400656,35.539916177957984],[139.79440923098227,35.53985993235514],[139.79494982156663,35.53909572344743],[139.79492599044886,35.539084588162815],[139.7949039732691,35.539076210812915],[139.7948987941601,35.53907211413373],[139.7948963550787,35.539066729335566],[139.7948984217778,35.53905977574665],[139.79490278594426,35.53905684310297],[139.7949082772904,35.53905602368364],[139.79491245347205,35.53905646128842],[139.79491632443438,35.53905866101929],[139.79494634499636,35.53907125042038],[139.794961975144,35.539078542256064],[139.7950149848985,35.5390036028678],[139.79490023264847,35.53894873190703],[139.79490240775903,35.53894569310266],[139.79490207257706,35.53894553435067],[139.79492016067724,35.53892087980114],[139.79510565798012,35.53866162687249],[139.79521867121605,35.53871565428818],[139.79521951432724,35.538714474631014],[139.79539263039086,35.53879629458767],[139.79540820677744,35.538774856246114],[139.79512084239934,35.53863895443613],[139.7954669234294,35.53814992258901],[139.7954657547097,35.538149370569386],[139.79550557166422,35.538093036073555],[139.79550340842712,35.538092023130424],[139.7954254152226,35.538202817724866],[139.79536203526996,35.538173009444925],[139.7953654132353,35.538168210589596],[139.7953746664959,35.53815506668238],[139.79536091980782,35.538148374017254],[139.7954277778695,35.53805658003764],[139.7953863445466,35.53803716271575],[139.79544911772635,35.53794763083565],[139.795449532293,35.53794782025845],[139.79550455421287,35.53786660397],[139.79562557617015,35.5379232475635]]]}},{"type":"Feature","properties":{"height":4.9,"gml_id":"bldg_d6b1cd39-0a7d-4eba-93dc-abba307fec38"},"geometry":{"type":"Polygon","coordinates":[[[139.79179965574403,35.53996481598287],[139.79177603127678,35.53995321232571],[139.7918175987101,35.539896650714866],[139.79189902135573,35.53993665098673],[139.7918579969387,35.539992465557305],[139.79185860114032,35.539992761421956],[139.79184545070305,35.54001032955373],[139.79178701630312,35.5399816244101],[139.79179965574403,35.53996481598287]]]}},{"type":"Feature","properties":{"height":4.0,"gml_id":"bldg_781b8a20-41db-459d-9eb2-fa6282c00084"},"geometry":{"type":"Polygon","coordinates":[[[139.79590587916312,35.534126470616116],[139.79590030001881,35.53413424791326],[139.79572340687562,35.534049458255794],[139.79577908252614,35.533971828638514],[139.7959559854804,35.5340566227254],[139.79590587916312,35.534126470616116]]]}},{"type":"Feature","properties":{"height":16.8,"gml_id":"bldg_49c99ce6-026e-40c3-b74d-4c8ee6e032da"},"geometry":{"type":"Polygon","coordinates":[[[139.79302866915913,35.53931132195756],[139.79293933131524,35.53943686693199],[139.79293762344156,35.53943605510623],[139.79277425824552,35.53967037867835],[139.79272706814612,35.539648394048754],[139.7927262989292,35.53964947275714],[139.79228551473804,35.53944005523546],[139.79254079616157,35.53908092771544],[139.79296891500607,35.53928432958897],[139.79296967318032,35.53928326619895],[139.79302866915913,35.53931132195756]]]}},{"type":"Feature","properties":{"height":16.9,"gml_id":"bldg_94921ac9-244c-4cfd-8121-1473e02b2d3f"},"geometry":{"type":"Polygon","coordinates":[[[139.79664977364712,35.533554945946754],[139.79665623220984,35.53354576000291],[139.79683725816747,35.53363091281169],[139.7968307974057,35.533640114989524],[139.79683867817724,35.53364381759635],[139.79673615453385,35.53378946530224],[139.79680202750245,35.53382076273868],[139.79675902030712,35.53388127559795],[139.79669345380347,35.53385012606002],[139.79659188965434,35.533994405613726],[139.79658064948427,35.53398913624621],[139.7965732429957,35.53399967308576],[139.79639553727014,35.53391606859593],[139.7964029415745,35.53390551914696],[139.79639646760643,35.53390247766434],[139.7966432478753,35.53355189003917],[139.79664977364712,35.533554945946754]]]}},{"type":"Feature","properties":{"height":2.7,"gml_id":"bldg_3a0bed4e-64a8-4732-80fe-86ab9e60c7b0"},"geometry":{"type":"Polygon","coordinates":[[[139.78864093434345,35.534388555469775],[139.78861987720282,35.53437854219424],[139.7886504474586,35.5343355570418],[139.78867150459178,35.534345570312034],[139.78864093434345,35.534388555469775]]]}},{"type":"Feature","properties":{"height":33.9,"gml_id":"bldg_d7f1b795-f805-4c38-8327-94fa4e008f93"},"geometry":{"type":"Polygon","coordinates":[[[139.79288349212,35.539073831098904],[139.79288787368498,35.53907593101149],[139.79284159878083,35.53914044981817],[139.79259159843923,35.539020610143474],[139.792637874571,35.5389561040514],[139.79264101905807,35.5389576086361],[139.79266788663918,35.53891919131145],[139.79291195104477,35.53903312111035],[139.79288349212,35.539073831098904]]]}},{"type":"Feature","properties":{"height":6.6,"gml_id":"bldg_0546e393-5757-4b21-a8c1-c5a01e9e83d9"},"geometry":{"type":"Polygon","coordinates":[[[139.79594566218063,35.53370099531234],[139.7961241225535,35.53378654590854],[139.7960579048798,35.533878859741385],[139.79587944216703,35.53379330994915],[139.79594566218063,35.53370099531234]]]}},{"type":"Feature","properties":{"height":20.2,"gml_id":"bldg_8bdbc6ce-14c8-4b67-b56d-e1e36e4edd78"},"geometry":{"type":"Polygon","coordinates":[[[139.79644801441162,35.53737210160246],[139.7964506071594,35.537379186445605],[139.79645191568306,35.537392324653574],[139.79644494324805,35.53741275800926],[139.7964384409692,35.53742757402514],[139.79641895595765,35.53745564556325],[139.79642876098242,35.53746041513191],[139.79640658071833,35.53749088084511],[139.7963975452721,35.53748649189835],[139.79633870608137,35.537571260721215],[139.79632660563556,35.537586746551305],[139.79631277067296,35.53760180368589],[139.79630008466452,35.537612413697104],[139.79628999268812,35.537620098581144],[139.79627812304776,35.53762526172112],[139.7962678670755,35.53762744444825],[139.79626029262454,35.537625911554265],[139.79602126140455,35.537513336743665],[139.79602213649017,35.537512119232034],[139.79591964061112,35.5374630615978],[139.79591242278013,35.537472554635634],[139.7958748530479,35.53745487386064],[139.7958822705833,35.53744517717217],[139.79586580171227,35.537437294780645],[139.79585845036334,35.537446949123215],[139.7958208762491,35.537429256611865],[139.79582842068373,35.537419403123685],[139.79579429771997,35.53740307097832],[139.7958608375847,35.537310154413184],[139.79581809078908,35.53728905302642],[139.7958464516892,35.53725064355939],[139.79588857333394,35.53727142474749],[139.79593275140135,35.53720973988381],[139.79605089882915,35.53726627940614],[139.79607763367218,35.537226380280075],[139.79610191776564,35.53723726489291],[139.79607480661915,35.53727772096914],[139.79608264247472,35.537281471383224],[139.79612807840087,35.53721802731672],[139.7962099254367,35.53725720906566],[139.79620945865196,35.53725786243215],[139.79644114312254,35.53736672359087],[139.79644801441162,35.53737210160246]]]}},{"type":"Feature","properties":{"height":27.9,"gml_id":"bldg_9466667b-3444-4596-8466-e67797e50e53"},"geometry":{"type":"Polygon","coordinates":[[[139.79320928343753,35.53295988410081],[139.7944088536615,35.53353228738422],[139.79439493538717,35.53355158083349],[139.79437430017293,35.53358019703137],[139.79433002048432,35.533641603699444],[139.79418800656148,35.533838540193464],[139.79412473636822,35.53380871956039],[139.79412441193884,35.533809172856024],[139.7938972828348,35.53370075126053],[139.79377127800905,35.53364060234573],[139.79376969337827,35.533642809339526],[139.7931961235551,35.53336905759126],[139.79306435709393,35.53330617389235],[139.79306338602242,35.53330748780047],[139.79298650539093,35.533271268435556],[139.79320928343753,35.53295988410081]]]}},{"type":"Feature","properties":{"height":5.5,"gml_id":"bldg_65b53aee-6f88-4f02-969a-b23cda58b063"},"geometry":{"type":"Polygon","coordinates":[[[139.79402644531544,35.536963682425814],[139.79383969962024,35.536875155965184],[139.7939199169632,35.536762070855495],[139.79410664925118,35.536850597189165],[139.79402644531544,35.536963682425814]]]}},{"type":"Feature","properties":{"height":5.7,"gml_id":"bldg_590f440f-d1d7-4d64-aa80-3bf33dd9f60d"},"geometry":{"type":"Polygon","coordinates":[[[139.79693638811537,35.53359060358821],[139.79669902946108,35.53347867414868],[139.79674478870564,35.53341381922569],[139.7969821384042,35.53352576299594],[139.79693638811537,35.53359060358821]]]}},{"type":"Feature","properties":{"height":55.6,"gml_id":"bldg_f675d89f-c9f5-4875-9d6b-4f3fd13d3a75"},"geometry":{"type":"Polygon","coordinates":[[[139.79106971732824,35.54127945565101],[139.7909725815602,35.541413224305245],[139.79080703468395,35.541332876288195],[139.7909041717292,35.54119911407575],[139.79106971732824,35.54127945565101]]]}},{"type":"Feature","properties":{"height":13.8,"gml_id":"bldg_d80b7cd7-2f59-4a1e-94df-c181b79a246f"},"geometry":{"type":"Polygon","coordinates":[[[139.79260695446416,35.538875974190404],[139.79261337355882,35.53887899332062],[139.79253451590606,35.5389909999141],[139.79237170662446,35.53891442817126],[139.79245055781792,35.538802409061184],[139.79245456120097,35.53880428982286],[139.7924687117124,35.53878425755117],[139.7926209857619,35.53885610771712],[139.79260695446416,35.538875974190404]]]}},{"type":"Feature","properties":{"height":6.2,"gml_id":"bldg_735edf47-d8bc-492f-a69a-72e522400b84"},"geometry":{"type":"Polygon","coordinates":[[[139.79481890096767,35.53394855561803],[139.7949351428027,35.53400506680921],[139.79489442889943,35.53406104031209],[139.79477818590954,35.53400452908183],[139.79481890096767,35.53394855561803]]]}},{"type":"Feature","properties":{"height":10.7,"gml_id":"bldg_d889a386-aad9-4640-ade0-100fb655c747"},"geometry":{"type":"Polygon","coordinates":[[[139.79319067619434,35.53833815357543],[139.79320709450656,35.538314536228214],[139.79335721669875,35.53838424304396],[139.793339583348,35.53840961321813],[139.79334318648606,35.53841134238365],[139.79336068408622,35.53838618128719],[139.7934126311986,35.538410312563755],[139.79339472857765,35.53843607656558],[139.7934602731226,35.53846753073474],[139.7932553563396,35.53875241571611],[139.79297929670577,35.538619987430735],[139.79307964056474,35.53847941985953],[139.7931831248319,35.53833453286946],[139.79319067619434,35.53833815357543]]]}},{"type":"Feature","properties":{"height":15.0,"gml_id":"bldg_388bb13e-b717-47c7-82f2-124f8222ff34"},"geometry":{"type":"Polygon","coordinates":[[[139.7997164709453,35.53596245101757],[139.79989152748217,35.536044714889606],[139.79991792584016,35.53600755955354],[139.79999985852137,35.53604646023161],[139.79997366873698,35.53608331908461],[139.8000012571905,35.53609628514606],[139.79996788389892,35.53614370904826],[139.79994215657402,35.536131607029596],[139.7997696022715,35.536376995965114],[139.79960594790046,35.53630008578152],[139.79960612114144,35.536299837946764],[139.79952004131704,35.536259752310485],[139.79957267909998,35.53618422126639],[139.79965911168927,35.53622447822887],[139.7997201175108,35.53613771719138],[139.79965641121765,35.536107791181756],[139.7996584580951,35.53610488205498],[139.7996288309972,35.536091084260605],[139.7996586361255,35.53604831425185],[139.7996567308933,35.53604741773469],[139.7997164709453,35.53596245101757]]]}},{"type":"Feature","properties":{"height":38.1,"gml_id":"bldg_53467cf2-5e7f-4fe5-a50e-8d5618242957"},"geometry":{"type":"Polygon","coordinates":[[[139.78999045928828,35.538846677351444],[139.79096470589963,35.53929552609394],[139.78988961112742,35.54080946475823],[139.7889179443298,35.54035781317016],[139.78999045928828,35.538846677351444]]]}},{"type":"Feature","properties":{"height":6.7,"gml_id":"bldg_4d6a46b1-fa65-4b09-b792-ed02061fccb8"},"geometry":{"type":"Polygon","coordinates":[[[139.79761218471788,35.53517891906508],[139.79768654550907,35.535214005280054],[139.79763790267646,35.53528288080454],[139.79756355176826,35.5352477936615],[139.79761218471788,35.53517891906508]]]}},{"type":"Feature","properties":{"height":7.3,"gml_id":"bldg_403fff01-244f-4998-81dc-14ad81ffdb0f"},"geometry":{"type":"Polygon","coordinates":[[[139.79750337048696,35.53362032555885],[139.79768240485984,35.533705431437],[139.7976197274187,35.533793551187074],[139.79744068299405,35.53370843980575],[139.79750337048696,35.53362032555885]]]}},{"type":"Feature","properties":{"height":31.4,"gml_id":"bldg_c69efcee-a7e0-4484-bee7-74733e2ba68d"},"geometry":{"type":"Polygon","coordinates":[[[139.7905464597855,35.54052144859075],[139.79023688687963,35.54096147043913],[139.78989623846658,35.540800666847616],[139.79020616004422,35.54036469864936],[139.7905464597855,35.54052144859075]]]}},{"type":"Feature","properties":{"height":3.6,"gml_id":"bldg_9e9908b2-00c5-46ab-8868-428ad67785d3"},"geometry":{"type":"Polygon","coordinates":[[[139.79344128414613,35.536655864550646],[139.79349874153098,35.536683001062144],[139.79340796341032,35.53681152326642],[139.7933504949361,35.53678438760996],[139.79344128414613,35.536655864550646]]]}},{"type":"Feature","properties":{"height":3.0,"gml_id":"bldg_03b76625-e374-4276-b56e-7f6a432cf7a0"},"geometry":{"type":"Polygon","coordinates":[[[139.79481234801042,35.53386172856574],[139.79481611413584,35.53386355869668],[139.79484265935787,35.53382708055078],[139.79489003912272,35.53385008390986],[139.79486337579914,35.53388681532005],[139.7948318411037,35.53387148516742],[139.79481044026167,35.53390091875823],[139.79480859137462,35.53390002218218],[139.79479687354277,35.53391613355784],[139.7947819832253,35.533908904127465],[139.79479370767731,35.53389278914978],[139.79479080921553,35.53389138024635],[139.79481234801042,35.53386172856574]]]}},{"type":"Feature","properties":{"height":23.3,"gml_id":"bldg_719d1eb4-3618-4924-8e73-aeaa37c520da"},"geometry":{"type":"Polygon","coordinates":[[[139.79175958393992,35.54037783482347],[139.79168451373903,35.5404841417296],[139.79168583462155,35.54048476594961],[139.7916742816072,35.54050112584509],[139.79167296072447,35.54050050162493],[139.79160266470365,35.54060004156823],[139.79160392935594,35.54060063962928],[139.79159492133655,35.54061339122053],[139.79159365888935,35.54061279406156],[139.7915637763414,35.54065510771407],[139.7915643761356,35.54065540357866],[139.79154268107118,35.54068497887363],[139.79151686434153,35.540721535825554],[139.79151611900045,35.54072118402392],[139.79150032610107,35.540742710116774],[139.79148162985453,35.54073363832243],[139.79135518273782,35.54067499933424],[139.7913707555576,35.54065258260745],[139.79131815949984,35.54062776066848],[139.7913174752358,35.54062872041344],[139.7912987425827,35.54061976305478],[139.79129936283633,35.540618890722705],[139.7912381094271,35.540589982421324],[139.79124226140027,35.54058409777533],[139.79123799667178,35.54058204742084],[139.7912524851305,35.54054116529819],[139.7912858504727,35.54049482461178],[139.79131823426061,35.54046960501112],[139.79133187552094,35.54043113561165],[139.79136522974815,35.540384785884584],[139.7913953638714,35.540361301562484],[139.79140969425387,35.54032090070822],[139.7914430483864,35.54027455907126],[139.79147704724573,35.54024808344629],[139.79147893152697,35.54024899000012],[139.7914808463612,35.54024627927487],[139.79174105851922,35.54036909213609],[139.79175958393992,35.54037783482347]]]}}]}