{"type":"FeatureCollection","crs":{"type":"name","properties":{"name":"urn:ogc:def:crs:OGC:1.3:CRS84"}},"features":[{"type":"Feature","properties":{"height":1.9,"gml_id":"bldg_eee970dd-7e04-439c-8e75-39ff40551968"},"geometry":{"type":"Polygon","coordinates":[[[139.8025672151653,35.53646746950166],[139.80258441527766,35.53647630754437],[139.8025601420065,35.53650757970711],[139.80254305216894,35.53649874168913],[139.8025672151653,35.53646746950166]]]}},{"type":"Feature","properties":{"height":2.3,"gml_id":"bldg_55d42dc6-c71a-46c6-b5f3-29daaa95c44e"},"geometry":{"type":"Polygon","coordinates":[[[139.80276577872047,35.53659524744804],[139.8028082636262,35.53652260589459],[139.80282083356792,35.536527476600206],[139.8027835351295,35.53659128581592],[139.802859726606,35.53662105107626],[139.802896693957,35.53655778258982],[139.80290871254923,35.53656256300776],[139.80287163489243,35.53662592160933],[139.80294529039125,35.53665469464208],[139.8029830300843,35.536590254512596],[139.8029935050193,35.53659440355817],[139.80295079951463,35.5366674958172],[139.80276577872047,35.53659524744804]]]}},{"type":"Feature","properties":{"height":2.6,"gml_id":"bldg_79191ba1-c3b0-4d92-863e-2602e5f3911f"},"geometry":{"type":"Polygon","coordinates":[[[139.80357344441765,35.53664169093623],[139.80358348196802,35.53663583435515],[139.8035943949618,35.53664836641578],[139.80358446768966,35.53665422302496],[139.80357344441765,35.53664169093623]]]}},{"type":"Feature","properties":{"height":2.6,"gml_id":"bldg_a5d6c3a4-8572-4c7e-8503-2879abb4e030"},"geometry":{"type":"Polygon","coordinates":[[[139.80355845193918,35.536626904382935],[139.803568930871,35.53662032679726],[139.80357951355606,35.53663141654819],[139.8035690345904,35.536638084274124],[139.80355845193918,35.536626904382935]]]}},{"type":"Feature","properties":{"height":2.6,"gml_id":"bldg_b88fd2c9-d06c-4dea-ad94-378d181dcbe0"},"geometry":{"type":"Polygon","coordinates":[[[139.80354268774693,35.536611486661705],[139.80355471098278,35.53660382778653],[139.80356705746084,35.53661672076102],[139.80355503422422,35.53662437963741],[139.80354268774693,35.536611486661705]]]}},{"type":"Feature","properties":{"height":1.7,"gml_id":"bldg_a6ef1504-42ab-40f7-8ae0-b7ebf3eeb8cc"},"geometry":{"type":"Polygon","coordinates":[[[139.80354180778173,35.53660535696876],[139.80353530402502,35.5365980540749],[139.80354501066935,35.53659237769391],[139.8035515144598,35.536599590447906],[139.80354180778173,35.53660535696876]]]}},{"type":"Feature","properties":{"height":2.7,"gml_id":"bldg_7a687c9f-236f-4690-a38c-60d31cad5094"},"geometry":{"type":"Polygon","coordinates":[[[139.8035603430019,35.536582736569805],[139.80357071168223,35.536576068817354],[139.8036098455585,35.536617091871435],[139.80359936663044,35.53662366946069],[139.8035603430019,35.536582736569805]]]}},{"type":"Feature","properties":{"height":3.0,"gml_id":"bldg_d5be49ae-b08e-49f1-84ab-680c97b14278"},"geometry":{"type":"Polygon","coordinates":[[[139.80641656375872,35.53824224204929],[139.8063949385226,35.538272524033324],[139.80602268927544,35.53809504612052],[139.80604431460372,35.53806476420238],[139.80641656375872,35.53824224204929]]]}},{"type":"Feature","properties":{"height":3.1,"gml_id":"bldg_b145db3a-a675-4c4c-81b3-49e1bcd8ad1b"},"geometry":{"type":"Polygon","coordinates":[[[139.80341945590956,35.5367468454561],[139.8033716151158,35.53669211899783],[139.80351545011683,35.53660805463536],[139.8035632909252,35.536662871176695],[139.80341945590956,35.5367468454561]]]}},{"type":"Feature","properties":{"height":3.0,"gml_id":"bldg_6c92b68c-9030-49ca-8a14-51eaca5a4fed"},"geometry":{"type":"Polygon","coordinates":[[[139.8032924320372,35.536699400587146],[139.80334338441762,35.5366901289155],[139.8033608947111,35.536754853318264],[139.80330994232537,35.53676403485784],[139.8032924320372,35.536699400587146]]]}},{"type":"Feature","properties":{"height":3.3,"gml_id":"bldg_2260940b-61d5-4f21-a1a9-382549f892e3"},"geometry":{"type":"Polygon","coordinates":[[[139.80323828114805,35.53670975311129],[139.80328559433224,35.53670048055589],[139.80330486881275,35.5367658363816],[139.80325755555873,35.536775199083785],[139.80323828114805,35.53670975311129]]]}},{"type":"Feature","properties":{"height":3.3,"gml_id":"bldg_acb5d772-713f-46a6-86c3-e919a604bb58"},"geometry":{"type":"Polygon","coordinates":[[[139.80319207539705,35.53670658669524],[139.80321677730174,35.53670821537446],[139.80321013545185,35.53677536752756],[139.8031854335267,35.53677373884698],[139.80319207539705,35.53670658669524]]]}},{"type":"Feature","properties":{"height":3.3,"gml_id":"bldg_4525435b-5404-4815-a9e1-f3357d4a3234"},"geometry":{"type":"Polygon","coordinates":[[[139.80316174932852,35.53670477632537],[139.8031873333634,35.536706675649356],[139.8031798095257,35.536773106465574],[139.80315422546988,35.53677120714003],[139.80316174932852,35.53670477632537]]]}},{"type":"Feature","properties":{"height":3.1,"gml_id":"bldg_89f956d1-8cbf-45d0-8de2-34dabddba417"},"geometry":{"type":"Polygon","coordinates":[[[139.8031309826857,35.53670152360803],[139.80315480242263,35.53670297180034],[139.8031486018745,35.53676949308512],[139.80312478215183,35.53676795475225],[139.8031309826857,35.53670152360803]]]}},{"type":"Feature","properties":{"height":2.9,"gml_id":"bldg_a818d2a4-2b37-4fa3-9331-400ed4d583ab"},"geometry":{"type":"Polygon","coordinates":[[[139.8030468698099,35.53691495248048],[139.80307024713673,35.53692000615204],[139.80304949069864,35.536983639316965],[139.80302611338854,35.53697849550209],[139.8030468698099,35.53691495248048]]]}},{"type":"Feature","properties":{"height":2.4,"gml_id":"bldg_680d0dbb-03fc-4403-b4cb-76774516a72e"},"geometry":{"type":"Polygon","coordinates":[[[139.80302876982498,35.53695262617863],[139.8030163092359,35.536950009006034],[139.8030198423818,35.53693883261577],[139.8030323029354,35.53694153992734],[139.80302876982498,35.53695262617863]]]}},{"type":"Feature","properties":{"height":1.5,"gml_id":"bldg_6ab9d06d-ae69-4efb-b218-4a5e036c3bbd"},"geometry":{"type":"Polygon","coordinates":[[[139.80300681367237,35.53698065399475],[139.8029963378041,35.53697884857321],[139.80300119688604,35.53696082192713],[139.80301167271816,35.536962717487576],[139.80300681367237,35.53698065399475]]]}},{"type":"Feature","properties":{"height":2.5,"gml_id":"bldg_a41482fc-6a4f-4554-9700-fb8105e2e316"},"geometry":{"type":"Polygon","coordinates":[[[139.80302525627738,35.5369117020345],[139.8030380477667,35.53691413901063],[139.80303142222573,35.536937483435686],[139.8030187410123,35.53693504648659],[139.80302525627738,35.5369117020345]]]}},{"type":"Feature","properties":{"height":3.0,"gml_id":"bldg_4b6e95b2-3bfc-4c9a-a5ea-e24bae4057dd"},"geometry":{"type":"Polygon","coordinates":[[[139.80297826861565,35.53693467574929],[139.80296691201372,35.53692890397249],[139.80299328188505,35.536894116823156],[139.8030046385179,35.536899798458194],[139.80297826861565,35.53693467574929]]]}},{"type":"Feature","properties":{"height":2.7,"gml_id":"bldg_7400c658-47a7-42f8-a146-73f17ab6b985"},"geometry":{"type":"Polygon","coordinates":[[[139.80299491564307,35.53694838111809],[139.8029876337401,35.53695757349888],[139.80295422570575,35.536939987916575],[139.80296150764494,35.53693070539844],[139.80299491564307,35.53694838111809]]]}},{"type":"Feature","properties":{"height":2.4,"gml_id":"bldg_a6c50801-18ba-43ea-82dc-1e4effbd62b4"},"geometry":{"type":"Polygon","coordinates":[[[139.80301773724824,35.53667183935031],[139.80302601414195,35.536655976905685],[139.80305380079116,35.5366657189346],[139.80304541362284,35.536681581353406],[139.80301773724824,35.53667183935031]]]}},{"type":"Feature","properties":{"height":5.9,"gml_id":"bldg_a4dbf864-4e3c-4ac3-9d95-496741f3a338"},"geometry":{"type":"Polygon","coordinates":[[[139.802501382492,35.536745893131354],[139.80254242819802,35.536688665133596],[139.80276526165437,35.53679544680305],[139.8027242160521,35.53685267487568],[139.802501382492,35.536745893131354]]]}},{"type":"Feature","properties":{"height":2.6,"gml_id":"bldg_205442c4-319b-43a3-9a4d-fba89b12e56d"},"geometry":{"type":"Polygon","coordinates":[[[139.80509211676102,35.53721281843767],[139.80510678150634,35.53721985273918],[139.80508879702452,35.537245177682586],[139.80507402196474,35.53723823349241],[139.80509211676102,35.53721281843767]]]}},{"type":"Feature","properties":{"height":2.8,"gml_id":"bldg_494bb596-2e8d-4090-b223-a018ffb6219c"},"geometry":{"type":"Polygon","coordinates":[[[139.80507038045494,35.53724472267139],[139.80509430709748,35.537256356250765],[139.80503858903975,35.53733251093124],[139.8050146623826,35.53732087734097],[139.80507038045494,35.53724472267139]]]}},{"type":"Feature","properties":{"height":2.9,"gml_id":"bldg_e542681e-4732-4a21-aa45-b1d4a7dd39e7"},"geometry":{"type":"Polygon","coordinates":[[[139.8059430873773,35.537708961325656],[139.80595312130473,35.53771365084929],[139.80595753466653,35.53770734209802],[139.805971979139,35.537714015686454],[139.80595553932736,35.537737628460214],[139.80596667588026,35.53774285906899],[139.80595663545537,35.537757279083095],[139.80594130888562,35.53775015459586],[139.80592442772087,35.53777439824031],[139.80591351166603,35.53776934795646],[139.80591858705446,35.53776204782454],[139.80590910443354,35.537757628841426],[139.8059430873773,35.537708961325656]]]}},{"type":"Feature","properties":{"height":2.1,"gml_id":"bldg_96175a7f-5ba5-4708-b88e-011670b834e9"},"geometry":{"type":"Polygon","coordinates":[[[139.80600171654717,35.53782696701006],[139.80601341179275,35.53781074458068],[139.80607295360863,35.53783942236077],[139.80606125840143,35.537855554656524],[139.80600171654717,35.53782696701006]]]}},{"type":"Feature","properties":{"height":13.4,"gml_id":"bldg_4297c574-78d8-4c6f-b08d-354a0400301f"},"geometry":{"type":"Polygon","coordinates":[[[139.80814696110303,35.53549877420729],[139.80806437544268,35.53546008714475],[139.80808136578406,35.53543575307469],[139.80811764172358,35.53545270686533],[139.80812602658122,35.53544062994315],[139.80817244655796,35.53546236322341],[139.80814696110303,35.53549877420729]]]}},{"type":"Feature","properties":{"height":3.0,"gml_id":"bldg_9c8d8cc2-040d-491f-a820-45605765d060"},"geometry":{"type":"Polygon","coordinates":[[[139.80672933011877,35.54155493066644],[139.80673859277914,35.541558988976774],[139.80674598564053,35.54154772319768],[139.80676252608703,35.54155502812432],[139.80674354742487,35.54158386850877],[139.80675545653102,35.5415891893511],[139.80674431207672,35.54160613307779],[139.80673041809283,35.541600000543085],[139.80671408757848,35.541624875378815],[139.8066998627661,35.54161865262831],[139.80670549020186,35.541610000500796],[139.80669600702535,35.541605761860716],[139.80672933011877,35.54155493066644]]]}},{"type":"Feature","properties":{"height":1.3,"gml_id":"bldg_e9131d8c-8565-4967-85f3-896caf81e8b5"},"geometry":{"type":"Polygon","coordinates":[[[139.8005297844739,35.53871004979981],[139.8005385018733,35.5386974326666],[139.8005591207179,35.53870690289978],[139.80055029300223,35.53871961014377],[139.8005297844739,35.53871004979981]]]}},{"type":"Feature","properties":{"height":2.7,"gml_id":"bldg_6eb6f030-457f-47a9-adf1-ab675ca56187"},"geometry":{"type":"Polygon","coordinates":[[[139.80047011322904,35.53873157685042],[139.80048335469382,35.538712831480574],[139.80053561825483,35.53873745373804],[139.8005223767981,35.538756199113536],[139.80047011322904,35.53873157685042]]]}},{"type":"Feature","properties":{"height":2.0,"gml_id":"bldg_3c065edd-fe5b-479a-b88e-ae62641ddbb4"},"geometry":{"type":"Polygon","coordinates":[[[139.80273018067874,35.536537188680576],[139.80271837454157,35.53655377132414],[139.80268044547267,35.5365357338204],[139.80267470788655,35.53654384490327],[139.80266279993296,35.53653816309666],[139.80268056422142,35.53651346943166],[139.80273018067874,35.536537188680576]]]}},{"type":"Feature","properties":{"height":1.3,"gml_id":"bldg_34bc804d-b6ff-4a1a-bef2-383a57700e6d"},"geometry":{"type":"Polygon","coordinates":[[[139.80266312853928,35.53654402223781],[139.8026717288485,35.53654781027721],[139.80266201875122,35.53656241038247],[139.80265341847522,35.53655853220304],[139.80266312853928,35.53654402223781]]]}},{"type":"Feature","properties":{"height":2.1,"gml_id":"bldg_44a22a30-2d4f-4792-9a48-9175d08f065a"},"geometry":{"type":"Polygon","coordinates":[[[139.80296659475619,35.53660025584296],[139.80295456657123,35.53662089472417],[139.80295147920248,35.53661972213494],[139.80294154763723,35.53663684610843],[139.8029365858316,35.536634861792336],[139.80292930272583,35.53664729918627],[139.80287328928122,35.53662538119111],[139.80290253213246,35.53657527109643],[139.80296659475619,35.53660025584296]]]}},{"type":"Feature","properties":{"height":2.0,"gml_id":"bldg_cfe7c3f4-59d1-401e-9efb-7ea4399f3f11"},"geometry":{"type":"Polygon","coordinates":[[[139.8028561988388,35.53661798544704],[139.80279676716384,35.536595075019555],[139.8028053745542,35.536580204206395],[139.80280173586303,35.53657885119508],[139.80281166751908,35.536561546954275],[139.8028099032962,35.53656091553235],[139.80282071769105,35.53654225942393],[139.80288544197046,35.536567154241745],[139.8028561988388,35.53661798544704]]]}},{"type":"Feature","properties":{"height":2.4,"gml_id":"bldg_0fac5cea-dc5c-4337-8d26-0ac79ab7ffd1"},"geometry":{"type":"Polygon","coordinates":[[[139.80299909368017,35.53668887099882],[139.8029554298399,35.53667119269677],[139.8030016655571,35.53659467602887],[139.80302029987902,35.53660216227975],[139.80302129299972,35.536600540021134],[139.80304643279922,35.536610641943916],[139.80299909368017,35.53668887099882]]]}},{"type":"Feature","properties":{"height":4.4,"gml_id":"bldg_51f3e10b-b28c-4211-8dd1-2c51b715b909"},"geometry":{"type":"Polygon","coordinates":[[[139.80273799788003,35.5368607909136],[139.80277849231993,35.53680293172131],[139.8029802677024,35.53689735856481],[139.8029397733938,35.53695512768466],[139.80273799788003,35.5368607909136]]]}}]}