{"type":"FeatureCollection","crs":{"type":"name","properties":{"name":"urn:ogc:def:crs:OGC:1.3:CRS84"}},"features":[{"type":"Feature","properties":{"height":5.3,"gml_id":"bldg_c19f4f4d-f294-4cb0-9ae2-969e5326ad29"},"geometry":{"type":"Polygon","coordinates":[[[139.77888549647113,35.56977550246306],[139.77886708664442,35.56975431151941],[139.77900614978506,35.56967360986484],[139.77899325201912,35.56965855086522],[139.77894879387622,35.56965483512513],[139.77894779529362,35.569663217587],[139.77888899592278,35.56965814327172],[139.77889199052953,35.56963470852498],[139.77897881069399,35.569642048946776],[139.779037967607,35.569607732704895],[139.77906596822902,35.56963992487942],[139.77914333574154,35.56959498039827],[139.77916119440886,35.569615540080754],[139.77888549647113,35.56977550246306]]]}},{"type":"Feature","properties":{"height":2.5,"gml_id":"bldg_ec7ddc78-0ff3-4197-91a1-1f09f0a0728c"},"geometry":{"type":"Polygon","coordinates":[[[139.7803244692557,35.569757124478485],[139.78029788311736,35.569754048064866],[139.78030054111747,35.569738545353374],[139.78032712731013,35.569741531627564],[139.7803244692557,35.569757124478485]]]}},{"type":"Feature","properties":{"height":1.7,"gml_id":"bldg_7eb6ab38-fda7-437a-9a33-9afa09f04f5b"},"geometry":{"type":"Polygon","coordinates":[[[139.78034355340222,35.569760107450115],[139.78032921236974,35.56975838850773],[139.7803319810444,35.56974234501115],[139.78034621180916,35.5697439737659],[139.78034355340222,35.569760107450115]]]}},{"type":"Feature","properties":{"height":3.1,"gml_id":"bldg_1d95f7d7-1fa7-476a-bdb7-f8a53087d7ef"},"geometry":{"type":"Polygon","coordinates":[[[139.78447264202356,35.567431762107674],[139.78446381879638,35.56742770228192],[139.78445498538804,35.567440408282756],[139.78443976534214,35.567433371278604],[139.7844584259797,35.56740642732042],[139.78444508090553,35.5674002023269],[139.78445689555258,35.56738326100806],[139.78447410082256,35.56739120020347],[139.78449000106076,35.56736813109328],[139.78450257415918,35.56737390507476],[139.7844990407682,35.56737904155967],[139.78450665078824,35.567382560058284],[139.78447264202356,35.567431762107674]]]}},{"type":"Feature","properties":{"height":2.8,"gml_id":"bldg_bd8f3efa-3cab-4299-aad1-f16b262fdf9d"},"geometry":{"type":"Polygon","coordinates":[[[139.78419840955385,35.56757001383021],[139.7841737047366,35.56755828570506],[139.7842460268715,35.56745717935357],[139.78427073161333,35.567468997602944],[139.78419840955385,35.56757001383021]]]}},{"type":"Feature","properties":{"height":3.0,"gml_id":"bldg_b931f9ba-dbee-417b-adb2-9b3c2de6186e"},"geometry":{"type":"Polygon","coordinates":[[[139.78178741691227,35.568478147724264],[139.7818192179644,35.568434173552426],[139.78190656648306,35.56847630569325],[139.78187476546194,35.568520279887856],[139.78178741691227,35.568478147724264]]]}},{"type":"Feature","properties":{"height":2.8,"gml_id":"bldg_8b928a66-c59d-4a4c-970e-21c98722f774"},"geometry":{"type":"Polygon","coordinates":[[[139.78207085521757,35.569659808661726],[139.78209324471237,35.5696697334529],[139.78205680292518,35.56972434209756],[139.7820344134197,35.56971441729972],[139.78207085521757,35.569659808661726]]]}},{"type":"Feature","properties":{"height":2.7,"gml_id":"bldg_4d7393b2-a8c7-42e3-936b-d5904a146a16"},"geometry":{"type":"Polygon","coordinates":[[[139.78203952998814,35.569649068815174],[139.78206390490928,35.56965962542845],[139.7820370695902,35.569701258158815],[139.78201258433575,35.56969070149322],[139.78203952998814,35.569649068815174]]]}},{"type":"Feature","properties":{"height":2.8,"gml_id":"bldg_fe082b28-082b-4030-96b4-452647598aaa"},"geometry":{"type":"Polygon","coordinates":[[[139.78029369085323,35.56975395608167],[139.78019175798306,35.56974363536426],[139.78019552561432,35.56971848828806],[139.7802975687774,35.56972880905085],[139.78029369085323,35.56975395608167]]]}}]}