{"type":"FeatureCollection","crs":{"type":"name","properties":{"name":"urn:ogc:def:crs:OGC:1.3:CRS84"}},"features":[{"type":"Feature","properties":{"height":6.9,"gml_id":"bldg_71afbe2a-8233-4fbf-9522-f0bfec45378b"},"geometry":{"type":"Polygon","coordinates":[[[139.76244289053778,35.566614709097685],[139.76242548102795,35.56659081205654],[139.76248165791492,35.566563533003595],[139.7624978547097,35.566586527935435],[139.76244289053778,35.566614709097685]]]}},{"type":"Feature","properties":{"height":5.9,"gml_id":"bldg_58ea3e68-e84f-4eeb-bc5c-dad9cfd02579"},"geometry":{"type":"Polygon","coordinates":[[[139.75397027886459,35.56030327627963],[139.7539041896897,35.56031611632178],[139.75388418976897,35.56024728835216],[139.7539502888185,35.56023444832728],[139.75397027886459,35.56030327627963]]]}},{"type":"Feature","properties":{"height":3.6,"gml_id":"bldg_0e4198a1-1505-4c33-87f9-8ffd34ce3427"},"geometry":{"type":"Polygon","coordinates":[[[139.75120900010788,35.56196858127642],[139.75119959935898,35.561992191275124],[139.75109505024642,35.561964537491896],[139.7511043407092,35.56194092742602],[139.75120900010788,35.56196858127642]]]}},{"type":"Feature","properties":{"height":3.7,"gml_id":"bldg_967d574b-967d-4fa2-a127-06026395191f"},"geometry":{"type":"Polygon","coordinates":[[[139.751268004341,35.55841083640793],[139.7511923333148,35.5584100637679],[139.75119280177097,35.558383382944754],[139.75126836246343,35.55838415550939],[139.751268004341,35.55841083640793]]]}},{"type":"Feature","properties":{"height":4.0,"gml_id":"bldg_004edde4-6330-49a5-b9c0-8b8e638ce1cc"},"geometry":{"type":"Polygon","coordinates":[[[139.75008013192985,35.56562275968614],[139.7500605832545,35.565644289378824],[139.74992188988952,35.56555982350573],[139.74994154880642,35.56553838405038],[139.75008013192985,35.56562275968614]]]}},{"type":"Feature","properties":{"height":5.4,"gml_id":"bldg_3699718b-bfe0-447f-afe5-844af79faee0"},"geometry":{"type":"Polygon","coordinates":[[[139.75125204640855,35.56205325105462],[139.7511739666773,35.56203129411062],[139.75118933752694,35.56199479831327],[139.75126741741082,35.56201657496967],[139.75125204640855,35.56205325105462]]]}},{"type":"Feature","properties":{"height":4.3,"gml_id":"bldg_af37d2ed-6325-4bfd-a912-07ab68681679"},"geometry":{"type":"Polygon","coordinates":[[[139.75007906240515,35.56111049480261],[139.75000793106858,35.56109097565037],[139.75002308201465,35.56105411928846],[139.75009421341554,35.56107354829295],[139.75007906240515,35.56111049480261]]]}},{"type":"Feature","properties":{"height":11.5,"gml_id":"bldg_cab5cc84-7827-45b4-b8c1-b0b6548aaa04"},"geometry":{"type":"Polygon","coordinates":[[[139.74988413774363,35.55994233938465],[139.74984537589407,35.55934532212184],[139.750133298045,35.55933281155122],[139.75016869528014,35.559878627467896],[139.7500241817353,35.559884837429],[139.75002743807684,35.55993603861433],[139.74988413774363,35.55994233938465]]]}},{"type":"Feature","properties":{"height":8.8,"gml_id":"bldg_3bdb1f64-dd36-4e4e-9a5f-4db912969580"},"geometry":{"type":"Polygon","coordinates":[[[139.75129285387987,35.56444295178116],[139.75125779431923,35.56442210583202],[139.751305616113,35.56436859586882],[139.75128444814027,35.56435596201821],[139.75136606590954,35.56426407585132],[139.75142251394377,35.56429764588849],[139.75129285387987,35.56444295178116]]]}},{"type":"Feature","properties":{"height":4.1,"gml_id":"bldg_38a7f363-8edf-46b0-aa01-caa5aa118522"},"geometry":{"type":"Polygon","coordinates":[[[139.75107209558072,35.560678329149894],[139.75091169493717,35.560685340583206],[139.75091039869739,35.56065847828702],[139.75107079762955,35.56065308935546],[139.75107209558072,35.560678329149894]]]}},{"type":"Feature","properties":{"height":5.3,"gml_id":"bldg_cc32a72b-d963-405c-a227-33d5ff6a6f50"},"geometry":{"type":"Polygon","coordinates":[[[139.75134535495877,35.56131165130205],[139.751340887408,35.5612573846154],[139.75136780514882,35.56125596069467],[139.75136693311086,35.56124568426134],[139.7514055446223,35.56124363730879],[139.75140826913767,35.56127635959952],[139.75143033285343,35.56127520278331],[139.75143294825946,35.56130675319283],[139.75134535495877,35.56131165130205]]]}},{"type":"Feature","properties":{"height":8.8,"gml_id":"bldg_5473dcd0-8650-44ab-b37e-d868de2dd510"},"geometry":{"type":"Polygon","coordinates":[[[139.75172384826297,35.56282489019146],[139.7516171281045,35.56276126996175],[139.75160685731083,35.562772620505115],[139.7514998066454,35.56270872953027],[139.7517244412801,35.56245757444882],[139.7517463807491,35.562470479164766],[139.75174251536475,35.56247480321782],[139.7518200194659,35.56252109691517],[139.75181173648917,35.562530375624924],[139.7519262841712,35.56259859805572],[139.75172384826297,35.56282489019146]]]}},{"type":"Feature","properties":{"height":4.5,"gml_id":"bldg_b4e4c831-7418-4fba-8418-0bdafaade4c8"},"geometry":{"type":"Polygon","coordinates":[[[139.75141471472347,35.55949521803834],[139.75141286935164,35.55946583147764],[139.75140485817377,35.55942508321587],[139.75138768971215,35.559385861092565],[139.7514507055249,35.55935760026512],[139.75147007086304,35.55940601804719],[139.75147830122592,35.55944820867723],[139.75147869646256,35.55949454038044],[139.75141471472347,35.55949521803834]]]}},{"type":"Feature","properties":{"height":2.1,"gml_id":"bldg_2d107392-b597-40d8-8e84-92af8ed5fa48"},"geometry":{"type":"Polygon","coordinates":[[[139.750057990003,35.55834041945529],[139.750071888699,35.558340609331914],[139.75007050710593,35.558396584693],[139.7500567187089,35.558396394892426],[139.750057990003,35.55834041945529]]]}},{"type":"Feature","properties":{"height":9.0,"gml_id":"bldg_55726f0e-ce37-44e9-a4b2-2ca402e6ca47"},"geometry":{"type":"Polygon","coordinates":[[[139.75099239007724,35.560305910687276],[139.7509907628826,35.56027904816422],[139.7510814409405,35.56027694672347],[139.7510830690863,35.56030290785632],[139.75099239007724,35.560305910687276]]]}},{"type":"Feature","properties":{"height":3.8,"gml_id":"bldg_6a7d2b60-27a1-4e6a-ba5c-fb7097282111"},"geometry":{"type":"Polygon","coordinates":[[[139.75005653741826,35.56113103092781],[139.74999411990783,35.56111232903642],[139.75000141741415,35.56109601892993],[139.75006383500684,35.5611146306787],[139.75005653741826,35.56113103092781]]]}},{"type":"Feature","properties":{"height":6.2,"gml_id":"bldg_68294f52-cc04-4826-a6d7-c0f2bf2b4a6f"},"geometry":{"type":"Polygon","coordinates":[[[139.75232151003854,35.56284863924354],[139.75229582157806,35.56283383919561],[139.75235888483905,35.56276077889524],[139.75238468360257,35.562775579003954],[139.75232151003854,35.56284863924354]]]}},{"type":"Feature","properties":{"height":7.0,"gml_id":"bldg_31f5cc86-a1d2-4fbe-b819-b2de8c9119e6"},"geometry":{"type":"Polygon","coordinates":[[[139.75086743712643,35.56124597462344],[139.75077631893993,35.561245912265996],[139.75077635323524,35.56121247073846],[139.75078528855002,35.56121247685646],[139.75078532136266,35.56118047755097],[139.7508110240792,35.56118058528481],[139.75081114344698,35.56117175174918],[139.75086773374554,35.56117179046892],[139.75086743712643,35.56124597462344]]]}},{"type":"Feature","properties":{"height":4.5,"gml_id":"bldg_247eb8cc-be6a-4c79-afde-3fd93fcba7c5"},"geometry":{"type":"Polygon","coordinates":[[[139.7536152584387,35.55908439555601],[139.7536674157464,35.559258726375546],[139.75358675478765,35.55927444917736],[139.7535345987432,35.55910012283125],[139.7536152584387,35.55908439555601]]]}},{"type":"Feature","properties":{"height":7.6,"gml_id":"bldg_182685d6-bcc6-4c39-bea1-7477c0764d7f"},"geometry":{"type":"Polygon","coordinates":[[[139.75084859236827,35.56133537957157],[139.7507188700021,35.56133006269483],[139.75072290878404,35.561264264028345],[139.75086487518982,35.56127013011],[139.75086117318708,35.5613303403967],[139.750848929125,35.5613297010481],[139.75084859236827,35.56133537957157]]]}},{"type":"Feature","properties":{"height":6.0,"gml_id":"bldg_519e8d31-0dfe-40c1-999e-81dd0becbb16"},"geometry":{"type":"Polygon","coordinates":[[[139.76127410866565,35.56223614955255],[139.7611778499875,35.56218543389639],[139.76118248349397,35.562185076113536],[139.7612070775146,35.562191761110775],[139.7612300140856,35.56220150983588],[139.76125085211476,35.5622141417482],[139.761269040437,35.56222920582464],[139.76127410866565,35.56223614955255]]]}},{"type":"Feature","properties":{"height":6.8,"gml_id":"bldg_71c01ac6-f9a6-42d1-a657-bfc9e7ab9ac8"},"geometry":{"type":"Polygon","coordinates":[[[139.75058153589296,35.561324920732304],[139.75014978854495,35.56130866903457],[139.7501520375491,35.56126729680808],[139.75021381027943,35.561269592883875],[139.75022369822977,35.561094820272686],[139.75024818673768,35.56109564840115],[139.75025122136023,35.5610412065644],[139.75045076868773,35.5610487352994],[139.75045222845395,35.561023767812564],[139.75064504707896,35.561030931044606],[139.75063471046747,35.56121381589071],[139.75061981892424,35.56121317470287],[139.75061588648325,35.56128275927529],[139.7505838971194,35.56128147537889],[139.75058153589296,35.561324920732304]]]}},{"type":"Feature","properties":{"height":3.4,"gml_id":"bldg_bd602675-e0a8-4eec-acec-cd1d3257e196"},"geometry":{"type":"Polygon","coordinates":[[[139.75090861155942,35.560680110415674],[139.75077601289453,35.56068380553014],[139.750775263452,35.56066163083284],[139.7509078631879,35.56065685405238],[139.75090861155942,35.560680110415674]]]}},{"type":"Feature","properties":{"height":11.6,"gml_id":"bldg_2c4984f0-76f5-45c9-b995-747700120068"},"geometry":{"type":"Polygon","coordinates":[[[139.75009314924293,35.560075709262144],[139.75008484684528,35.559890467947284],[139.7501635008995,35.559888088476875],[139.75017180338475,35.560073419925516],[139.75009314924293,35.560075709262144]]]}},{"type":"Feature","properties":{"height":2.6,"gml_id":"bldg_d8c9d435-5672-4fab-b6ae-05b3d964ffde"},"geometry":{"type":"Polygon","coordinates":[[[139.75495009124316,35.56031195493924],[139.75503507561766,35.56029897426094],[139.75504892262327,35.560359487232006],[139.75496393817042,35.56037248504625],[139.75495009124316,35.56031195493924]]]}},{"type":"Feature","properties":{"height":12.2,"gml_id":"bldg_7b28e655-dd35-455b-9f23-2788062af58f"},"geometry":{"type":"Polygon","coordinates":[[[139.75151445163456,35.56262662290391],[139.75144786213227,35.56258682642752],[139.75140313406095,35.56263664286996],[139.75121020124195,35.56252131405388],[139.75134250837047,35.5623735762507],[139.75160203021596,35.562528971702896],[139.75151445163456,35.56262662290391]]]}},{"type":"Feature","properties":{"height":10.0,"gml_id":"bldg_20eb31ca-f833-42f7-96ad-c4c5c52063bd"},"geometry":{"type":"Polygon","coordinates":[[[139.7542186469157,35.55987018384009],[139.75417771354074,35.55987840108431],[139.7541772033741,35.559876697122775],[139.7541690532357,35.559878203402384],[139.75410510908773,35.55989083584177],[139.7540968321406,35.559863149624995],[139.75409628268423,35.55986326013485],[139.7540952370506,35.55985978368881],[139.75408018985718,35.559862843932365],[139.75405766770152,35.55978891696928],[139.7540729863019,35.55978580011937],[139.75406962303995,35.559774484565544],[139.75418309993253,35.55975169986861],[139.7542186469157,35.55987018384009]]]}},{"type":"Feature","properties":{"height":6.1,"gml_id":"bldg_ee92cd88-3526-4471-8cac-d3221166e247"},"geometry":{"type":"Polygon","coordinates":[[[139.7502002117918,35.55862806098482],[139.75006729310022,35.55862445384451],[139.75006887676616,35.558586416284264],[139.75020179530193,35.55859011356171],[139.7502002117918,35.55862806098482]]]}},{"type":"Feature","properties":{"height":4.7,"gml_id":"bldg_f64d9166-e7e8-427b-9044-9d06a17be15c"},"geometry":{"type":"Polygon","coordinates":[[[139.75360713091922,35.55931264822979],[139.75369020151683,35.55929648622657],[139.75374576730476,35.55947680538736],[139.75366276148665,35.559493097271215],[139.75360713091922,35.55931264822979]]]}},{"type":"Feature","properties":{"height":22.2,"gml_id":"bldg_5304c38e-4571-49d5-9e7a-1195601372ce"},"geometry":{"type":"Polygon","coordinates":[[[139.75079096664368,35.560085743741276],[139.75078443874796,35.559997222804206],[139.75082812526242,35.55999499923238],[139.75082496884076,35.55995236133945],[139.75106976103774,35.5599402697075],[139.75106834744565,35.55992025789142],[139.75111501129004,35.55991794610801],[139.75111653529652,35.55993786785988],[139.75112632934295,35.560069026739626],[139.75079096664368,35.560085743741276]]]}},{"type":"Feature","properties":{"height":5.0,"gml_id":"bldg_a505cf20-e121-444b-9cd3-3bebaae244fb"},"geometry":{"type":"Polygon","coordinates":[[[139.75077907495378,35.55952651341217],[139.75077491366932,35.55949676470038],[139.75077572373885,35.5594598082742],[139.75078480946635,35.55942051390054],[139.75079863047623,35.559389064858685],[139.75086413496663,35.55940830928356],[139.75086202716395,35.559419935770094],[139.75085152064858,35.55944633930376],[139.7508437655995,35.55947887416937],[139.75084945952247,35.5595200715775],[139.75077907495378,35.55952651341217]]]}},{"type":"Feature","properties":{"height":3.1,"gml_id":"bldg_ce0c28b7-010c-4dec-9c7d-d3e8eb32c415"},"geometry":{"type":"Polygon","coordinates":[[[139.75007194192534,35.56170225208139],[139.75004966453452,35.5616965579415],[139.75006570386182,35.56165411357711],[139.75008787102212,35.561659717499],[139.75007194192534,35.56170225208139]]]}},{"type":"Feature","properties":{"height":3.3,"gml_id":"bldg_dcee4d74-966b-41f4-ac0d-67dc77c5475c"},"geometry":{"type":"Polygon","coordinates":[[[139.7550665077427,35.561225968426434],[139.75504979037248,35.5611743980909],[139.75508178774064,35.561167478162666],[139.75509850512992,35.561219048493854],[139.7550665077427,35.561225968426434]]]}},{"type":"Feature","properties":{"height":13.9,"gml_id":"bldg_1538de47-f5d8-4083-ac8e-b9309f87a4b0"},"geometry":{"type":"Polygon","coordinates":[[[139.7512847735841,35.5619803509282],[139.75111670144,35.56193543738025],[139.75115364093625,35.56184261945415],[139.75115628772159,35.56184334236974],[139.7511930121484,35.5618531024009],[139.7511908002696,35.56185859936945],[139.75132214975332,35.561891859917424],[139.7512847735841,35.5619803509282]]]}},{"type":"Feature","properties":{"height":5.2,"gml_id":"bldg_75626fec-9e18-4623-9b76-e7ebea84a95d"},"geometry":{"type":"Polygon","coordinates":[[[139.75110299842152,35.56163508507567],[139.75106594371846,35.56162478395777],[139.7511662436234,35.56138391094719],[139.75120838475468,35.56138231715804],[139.75110299842152,35.56163508507567]]]}},{"type":"Feature","properties":{"height":15.7,"gml_id":"bldg_1b2b0c05-b76e-4811-9a8f-8743832f9cd4"},"geometry":{"type":"Polygon","coordinates":[[[139.75070882543815,35.55940135239061],[139.7505640928191,35.55940693187696],[139.75056051597736,35.55934527435976],[139.75070524857827,35.55933960473859],[139.75070882543815,35.55940135239061]]]}},{"type":"Feature","properties":{"height":22.1,"gml_id":"bldg_70cc378d-343d-402b-a9f3-f3ff9a8ab290"},"geometry":{"type":"Polygon","coordinates":[[[139.75069296468308,35.558948212856876],[139.75071485044762,35.55933483395253],[139.7505469520222,35.559341208793114],[139.75055031194077,35.55939926060267],[139.75033464725757,35.559407405121476],[139.75033258928227,35.55937062700146],[139.75017009612978,35.55937682476006],[139.75014702098773,35.55896947078289],[139.75031171950855,35.55896327457297],[139.75030998681265,35.55893199515197],[139.75038643429326,35.558929073181766],[139.7503862185965,35.55892429566712],[139.75044402303809,35.55892208194532],[139.75044489047906,35.558936685057354],[139.7505200141538,35.55893385223137],[139.75052109582998,35.558954675079974],[139.75069296468308,35.558948212856876]]]}},{"type":"Feature","properties":{"height":3.9,"gml_id":"bldg_eca922d8-0810-4e47-bdb7-31e1ecc0e3c1"},"geometry":{"type":"Polygon","coordinates":[[[139.7515668762399,35.56140716874594],[139.75156349875203,35.561365612399506],[139.75166190238056,35.561361082011],[139.7516651704293,35.56140182703005],[139.7515668762399,35.56140716874594]]]}},{"type":"Feature","properties":{"height":8.2,"gml_id":"bldg_b4c1bcb9-6c05-43fa-9b06-d0e06782721e"},"geometry":{"type":"Polygon","coordinates":[[[139.7511158958859,35.56099600871262],[139.75116486844504,35.561001991268945],[139.75115432906364,35.56106048426742],[139.75113425470624,35.561058036831305],[139.75112870797912,35.561088500016105],[139.75109980973198,35.56108496489027],[139.7511158958859,35.56099600871262]]]}},{"type":"Feature","properties":{"height":8.7,"gml_id":"bldg_9b1b191f-d0b7-4432-af89-2f1957e1ebe6"},"geometry":{"type":"Polygon","coordinates":[[[139.75053996039892,35.561849140299515],[139.75045967562846,35.561826370127726],[139.75050612039178,35.56171643253267],[139.75058640515854,35.561739112534944],[139.75053996039892,35.561849140299515]]]}},{"type":"Feature","properties":{"height":6.3,"gml_id":"bldg_ca3589c5-37f6-4935-8734-a57e71bc9c01"},"geometry":{"type":"Polygon","coordinates":[[[139.7505416115878,35.56163803602739],[139.7504533863416,35.56161345761896],[139.75050049565016,35.56150081631052],[139.75058872069476,35.561525484823655],[139.7505416115878,35.56163803602739]]]}},{"type":"Feature","properties":{"height":23.5,"gml_id":"bldg_12a11fc4-9d57-4a02-aa03-f6bca8e01ca7"},"geometry":{"type":"Polygon","coordinates":[[[139.75352509528363,35.558891201411015],[139.75343792635962,35.55854793676822],[139.75354848335465,35.55852917272996],[139.75363560419663,35.558872434558246],[139.75358846877043,35.558880451001336],[139.75359413782513,35.55890246939585],[139.75353097145324,35.558913472334716],[139.75352509528363,35.558891201411015]]]}},{"type":"Feature","properties":{"height":4.9,"gml_id":"bldg_47447ae8-e68a-413b-8a17-93822a907f47"},"geometry":{"type":"Polygon","coordinates":[[[139.7516237413369,35.56124531774187],[139.75162303145495,35.561183932634236],[139.75164344923604,35.561174121324015],[139.75170577039378,35.561179481731415],[139.7517025463787,35.56120408748272],[139.75168533917986,35.56120254346911],[139.7516798908952,35.561244905086994],[139.7516237413369,35.56124531774187]]]}},{"type":"Feature","properties":{"height":8.1,"gml_id":"bldg_3c57d01c-c474-4838-8776-d3dd30af1b65"},"geometry":{"type":"Polygon","coordinates":[[[139.75063601373887,35.56187805068259],[139.7505538542332,35.56185464831508],[139.75060140331388,35.56174344949676],[139.7506835626275,35.561766941971044],[139.75063601373887,35.56187805068259]]]}},{"type":"Feature","properties":{"height":10.3,"gml_id":"bldg_3c19cc90-c7d0-41af-8c49-b0e018234c0b"},"geometry":{"type":"Polygon","coordinates":[[[139.75504307119465,35.56139108777289],[139.75510864742733,35.56156627031843],[139.75509662041665,35.56156923709999],[139.75503104412013,35.56139414468691],[139.75504307119465,35.56139108777289]]]}},{"type":"Feature","properties":{"height":4.6,"gml_id":"bldg_7592c848-133f-4017-a751-7f9d6ab715b9"},"geometry":{"type":"Polygon","coordinates":[[[139.7536710568191,35.55953099898203],[139.7537541033602,35.55951483782099],[139.75383684235484,35.55978328661589],[139.7537538472219,35.5597996272435],[139.7536710568191,35.55953099898203]]]}},{"type":"Feature","properties":{"height":3.6,"gml_id":"bldg_3b2e2a8a-ee6a-48d5-a88c-7cc744bf855c"},"geometry":{"type":"Polygon","coordinates":[[[139.7500406298583,35.56168591530491],[139.74992979733685,35.56165474075055],[139.74996861273908,35.56156255545429],[139.75007944514877,35.56159372997331],[139.7500406298583,35.56168591530491]]]}},{"type":"Feature","properties":{"height":5.5,"gml_id":"bldg_0cbc22a1-c0b0-4bac-b840-270796835d90"},"geometry":{"type":"Polygon","coordinates":[[[139.7501584484438,35.558372127584],[139.75015904971383,35.55832399377587],[139.75017416189468,35.55832409433877],[139.75017404544118,35.55833004343211],[139.75023857540074,35.55833062875556],[139.75023809062705,35.55837281347077],[139.7501584484438,35.558372127584]]]}},{"type":"Feature","properties":{"height":13.5,"gml_id":"bldg_908f0a39-405e-4926-b495-fe36ae19c030"},"geometry":{"type":"Polygon","coordinates":[[[139.75050237530797,35.56353354065774],[139.75052324843793,35.56351074985032],[139.7505714260834,35.5635402583575],[139.7505506632752,35.56356304924891],[139.75050237530797,35.56353354065774]]]}},{"type":"Feature","properties":{"height":12.4,"gml_id":"bldg_aa880a11-6df8-4e60-8be1-36776d3e7a4f"},"geometry":{"type":"Polygon","coordinates":[[[139.7611080077914,35.56244634431587],[139.76127410866565,35.56223614955255],[139.76128413803863,35.562246431386],[139.76129570406624,35.5622653674753],[139.76130351837392,35.56228547312837],[139.76130736065366,35.56230638765854],[139.76130712107235,35.56232757016691],[139.76130291042483,35.562348479885976],[139.76129461895852,35.562368485777164],[139.76128268816942,35.562387317686685],[139.76126733924872,35.56240434477305],[139.7612489034608,35.56241920667729],[139.76122782246603,35.562431452967424],[139.761204647998,35.56244090369429],[139.76117993187205,35.56244728877009],[139.76115433613776,35.562450428312395],[139.7611285226837,35.562450322716984],[139.7611080077914,35.56244634431587]]]}},{"type":"Feature","properties":{"height":3.0,"gml_id":"bldg_90380d2c-eb3b-4440-b9c6-d3286d23e669"},"geometry":{"type":"Polygon","coordinates":[[[139.75943204805796,35.563718541063935],[139.75944662821894,35.563698449020876],[139.75949988709763,35.563724351518516],[139.75948541734394,35.563744353496624],[139.75943204805796,35.563718541063935]]]}},{"type":"Feature","properties":{"height":8.6,"gml_id":"bldg_d8597d6a-0a73-40dc-a27f-749c92a6f10a"},"geometry":{"type":"Polygon","coordinates":[[[139.75106161714947,35.56132479858643],[139.75103084055596,35.56132414660883],[139.75103140926018,35.56130738115226],[139.75101828233025,35.561307101773984],[139.75102022078,35.56124535791597],[139.7510640139508,35.56124628919569],[139.75106161714947,35.56132479858643]]]}},{"type":"Feature","properties":{"height":3.5,"gml_id":"bldg_af8262c1-b73e-4d51-925c-b90381da624d"},"geometry":{"type":"Polygon","coordinates":[[[139.75051480938487,35.56141979122947],[139.7504809592156,35.56140435421261],[139.75050990475407,35.561362008794106],[139.75054375491112,35.561377445802904],[139.75051480938487,35.56141979122947]]]}},{"type":"Feature","properties":{"height":14.5,"gml_id":"bldg_8ba85d81-c270-44da-8eb6-2b1de0024cfe"},"geometry":{"type":"Polygon","coordinates":[[[139.75096110572773,35.564036018831274],[139.75090443771387,35.564002178009744],[139.75094839399415,35.56395299220934],[139.75100506189978,35.5639869231493],[139.75096110572773,35.564036018831274]]]}},{"type":"Feature","properties":{"height":6.5,"gml_id":"bldg_ee5e614c-6de6-434d-93ae-6090c00ed259"},"geometry":{"type":"Polygon","coordinates":[[[139.75050366816146,35.56195547932278],[139.75041136190777,35.561929996691546],[139.75045051033814,35.56183537772169],[139.75054281658856,35.56186077018434],[139.75050366816146,35.56195547932278]]]}},{"type":"Feature","properties":{"height":13.2,"gml_id":"bldg_c62f76f6-f743-4bf0-9774-39434470384a"},"geometry":{"type":"Polygon","coordinates":[[[139.75082286876523,35.56372332255874],[139.7508433005901,35.56370053139459],[139.75089192000752,35.56372976965843],[139.7508715985973,35.56375247076733],[139.75082286876523,35.56372332255874]]]}},{"type":"Feature","properties":{"height":3.0,"gml_id":"bldg_ac84e92f-e39d-465d-a299-0ae883ecc5e2"},"geometry":{"type":"Polygon","coordinates":[[[139.75179028069752,35.559970775436355],[139.75178413780526,35.5599366987505],[139.75182539914877,35.5599316788688],[139.75183154196688,35.55996584569152],[139.75179028069752,35.559970775436355]]]}},{"type":"Feature","properties":{"height":7.2,"gml_id":"bldg_17bc9b12-f82a-4bf8-a603-1d03ce685892"},"geometry":{"type":"Polygon","coordinates":[[[139.75082267645826,35.56111271862824],[139.75076256397097,35.56110510580319],[139.75077864745117,35.56101912425475],[139.75088232777716,35.56103208507211],[139.75086813061162,35.56110743152797],[139.75082467316759,35.56110190332027],[139.75082267645826,35.56111271862824]]]}},{"type":"Feature","properties":{"height":5.4,"gml_id":"bldg_cc8d3670-99fe-4b0e-a511-07976c0d5b44"},"geometry":{"type":"Polygon","coordinates":[[[139.7540191922785,35.56017873641164],[139.75402013130542,35.560181812571],[139.75389996014414,35.56020676324876],[139.75384216127148,35.560021513909135],[139.7539623266753,35.559996546157855],[139.75396341091638,35.560000019926214],[139.75397703927644,35.55999722827901],[139.7540315264564,35.5601762089156],[139.7540191922785,35.56017873641164]]]}},{"type":"Feature","properties":{"height":8.3,"gml_id":"bldg_cd4ade7e-cd93-4108-80e8-f447b2340776"},"geometry":{"type":"Polygon","coordinates":[[[139.750449845035,35.56151727692893],[139.7504042108524,35.561589987679],[139.75029559936524,35.56154448289559],[139.75034123362002,35.56147177218618],[139.750449845035,35.56151727692893]]]}},{"type":"Feature","properties":{"height":3.6,"gml_id":"bldg_5199aa89-13e3-4cd5-a757-5706de0b0551"},"geometry":{"type":"Polygon","coordinates":[[[139.75087005507493,35.558905608226674],[139.75086758533536,35.558947521166026],[139.7507308070125,35.558942199476355],[139.75073316642127,35.55890037660322],[139.75087005507493,35.558905608226674]]]}},{"type":"Feature","properties":{"height":11.3,"gml_id":"bldg_7bea6bd5-91c4-4bd7-b395-7bd235e23aef"},"geometry":{"type":"Polygon","coordinates":[[[139.75146388188838,35.56147839876176],[139.75135360066295,35.5614472258893],[139.75136952389266,35.561409738912474],[139.7514796946685,35.56144100183449],[139.75146388188838,35.56147839876176]]]}},{"type":"Feature","properties":{"height":12.8,"gml_id":"bldg_602119b0-bdfb-411f-afab-75b23e830362"},"geometry":{"type":"Polygon","coordinates":[[[139.7611080077914,35.56244634431587],[139.76101185920018,35.562395718733754],[139.7611778499875,35.56218543389639],[139.76127410866565,35.56223614955255],[139.7611080077914,35.56244634431587]]]}},{"type":"Feature","properties":{"height":6.1,"gml_id":"bldg_0e456c87-a854-4364-9d65-ac297574a7b7"},"geometry":{"type":"Polygon","coordinates":[[[139.75136767100815,35.560087579400125],[139.75136734429682,35.56008343278545],[139.75133568357577,35.56008485348107],[139.75133416447017,35.560060064231386],[139.75134464437772,35.560059710802435],[139.751342148996,35.560018695874284],[139.75135351156885,35.560018162766845],[139.7513522099598,35.559996438389994],[139.75133786890487,35.55999705961075],[139.7513339614309,35.559934500507566],[139.7512931446975,35.55993618538166],[139.75128923781233,35.55987308544299],[139.7514208442492,35.55986749617019],[139.75142366601315,35.5599130182681],[139.75144032357818,35.55991239861055],[139.75145095938026,35.56008412057281],[139.75136767100815,35.560087579400125]]]}},{"type":"Feature","properties":{"height":2.8,"gml_id":"bldg_0a8c131c-57dd-452e-80e4-fda17310531a"},"geometry":{"type":"Polygon","coordinates":[[[139.75026777398574,35.561570153328006],[139.7502232211137,35.561556962338656],[139.75024290157904,35.561513619070034],[139.7502874540584,35.561527170607704],[139.75026777398574,35.561570153328006]]]}},{"type":"Feature","properties":{"height":8.5,"gml_id":"bldg_c19d2f02-36a9-4ca9-a99b-bba7463c377e"},"geometry":{"type":"Polygon","coordinates":[[[139.75076498393295,35.5606816346427],[139.75073663232038,35.56068305744682],[139.75072070601104,35.56040091158497],[139.75075027021035,35.56040021072673],[139.7507556631784,35.56051973868545],[139.75082130401893,35.5605144654263],[139.75082226975388,35.56054087680308],[139.7507598318119,35.56054236641994],[139.75076498393295,35.5606816346427]]]}},{"type":"Feature","properties":{"height":3.9,"gml_id":"bldg_15028137-1b5f-4e06-8f7c-8d9f65751340"},"geometry":{"type":"Polygon","coordinates":[[[139.7511930121484,35.5618531024009],[139.75115628772159,35.56184334236974],[139.75124131213207,35.56176191468675],[139.75127527824034,35.56177212350957],[139.7511930121484,35.5618531024009]]]}},{"type":"Feature","properties":{"height":17.6,"gml_id":"bldg_29846a4d-41eb-47ad-bbc1-4adff3e07c70"},"geometry":{"type":"Polygon","coordinates":[[[139.7512847735841,35.5619803509282],[139.75132214975332,35.561891859917424],[139.7523906741743,35.56219364606875],[139.75234998200108,35.562289706850414],[139.75234854737488,35.56229024672041],[139.7523104998379,35.562279494624235],[139.75222425872528,35.56225518926365],[139.7522259175216,35.5622511341274],[139.7521472858529,35.56222908730389],[139.75212981451676,35.562270449310105],[139.75199935041675,35.562233404405404],[139.75201438907894,35.56219780966918],[139.75197931919396,35.56218796086609],[139.7519635064984,35.56222535785436],[139.7519208272272,35.562213250425074],[139.7519377456307,35.56217333029854],[139.7517843428077,35.56213005008565],[139.75168100831985,35.562100865270494],[139.75167746977658,35.562109245795334],[139.75163534199586,35.56209731891623],[139.75162373114708,35.562124803424304],[139.7515039647418,35.56209092009534],[139.7514987814624,35.56208947435428],[139.7515171378829,35.562045859565586],[139.75131620395487,35.56198920592942],[139.7512847735841,35.5619803509282]]]}},{"type":"Feature","properties":{"height":3.3,"gml_id":"bldg_ed2b3728-447e-4686-bd59-e86199dbcbc3"},"geometry":{"type":"Polygon","coordinates":[[[139.7550222615337,35.56123711692615],[139.75500399955135,35.56118581599796],[139.7550342321034,35.56117871465792],[139.75505249419106,35.5612299254427],[139.7550222615337,35.56123711692615]]]}},{"type":"Feature","properties":{"height":5.8,"gml_id":"bldg_9602ed46-6d95-4f73-ade0-eabd378d1ebb"},"geometry":{"type":"Polygon","coordinates":[[[139.75164298290048,35.55989432801768],[139.75163432003652,35.559843393628476],[139.75165406793008,35.559841153533874],[139.75165220408084,35.55982988489958],[139.75171056507892,35.55982334427763],[139.75171231926527,35.55983398186398],[139.75174133425293,35.55983075649948],[139.7517455013926,35.5598550968421],[139.75171461084068,35.55985859135488],[139.75171921638375,35.55988572630321],[139.75164298290048,35.55989432801768]]]}},{"type":"Feature","properties":{"height":11.1,"gml_id":"bldg_b8aea0f0-64dd-4193-97e5-8de2d8125e82"},"geometry":{"type":"Polygon","coordinates":[[[139.7550586372737,35.56024992872171],[139.75538094984074,35.56020257481063],[139.7554375050341,35.5604730462948],[139.75545670695521,35.560563151693685],[139.75513732087663,35.560610285959775],[139.7551191097945,35.560524831422924],[139.75506915403153,35.560297915620616],[139.75504655570856,35.56030012107218],[139.7550381779181,35.56026345791628],[139.755061093951,35.56026122833499],[139.7550586372737,35.56024992872171]]]}},{"type":"Feature","properties":{"height":9.3,"gml_id":"bldg_4ee4fe2a-1500-4108-8c84-8d74745d762f"},"geometry":{"type":"Polygon","coordinates":[[[139.7506244913926,35.56267802583302],[139.75064679992826,35.56265370362368],[139.75071592382588,35.562695936029655],[139.7506936152068,35.562720348390506],[139.7506244913926,35.56267802583302]]]}},{"type":"Feature","properties":{"height":11.1,"gml_id":"bldg_e6c84f2a-1e56-4fc4-b4b2-42d129333f24"},"geometry":{"type":"Polygon","coordinates":[[[139.75070347057067,35.560319594428236],[139.7507084637567,35.560398649721975],[139.75072615750884,35.56067836304458],[139.75072670111334,35.560686115367574],[139.75067992696373,35.56068797622967],[139.7506787322284,35.560669767340784],[139.75055628077217,35.560674911392844],[139.7504932899568,35.560677572298445],[139.75046593564053,35.56024596814702],[139.75069815099437,35.5602361221002],[139.75070184273198,35.560293453012676],[139.75070347057067,35.560319594428236]]]}},{"type":"Feature","properties":{"height":2.7,"gml_id":"bldg_75780d03-3825-47cc-a479-d275274e2031"},"geometry":{"type":"Polygon","coordinates":[[[139.75480957170353,35.56076823077285],[139.75486272715435,35.56076770742002],[139.75486366580537,35.56083005805159],[139.75481049265468,35.560830590407164],[139.75480957170353,35.56076823077285]]]}},{"type":"Feature","properties":{"height":9.0,"gml_id":"bldg_57557d45-b488-461e-9bd6-d56462d411bf"},"geometry":{"type":"Polygon","coordinates":[[[139.7509912719807,35.56042840877656],[139.75086164937315,35.56043481018699],[139.75085729758638,35.5603755859109],[139.75098692009888,35.56036918450496],[139.7509912719807,35.56042840877656]]]}},{"type":"Feature","properties":{"height":4.7,"gml_id":"bldg_4150e9ad-e779-4f99-b7ae-fbf6084e7ffc"},"geometry":{"type":"Polygon","coordinates":[[[139.75079414384078,35.560429806349866],[139.75079375749115,35.560376263540824],[139.75081769524598,35.56037609964793],[139.75081808151913,35.56042973259581],[139.75079414384078,35.560429806349866]]]}},{"type":"Feature","properties":{"height":8.8,"gml_id":"bldg_6373366b-4fd4-4070-b33b-4bb1d6e31ce8"},"geometry":{"type":"Polygon","coordinates":[[[139.75081073024162,35.561467226945055],[139.75068081943158,35.5614303612665],[139.75070437314932,35.561374761679524],[139.75078112854698,35.561396537744876],[139.75078931165677,35.561377073334526],[139.7508424670714,35.56139207278013],[139.75081073024162,35.561467226945055]]]}},{"type":"Feature","properties":{"height":11.4,"gml_id":"bldg_a245a69a-2306-41af-b958-14f7cbb1fa2a"},"geometry":{"type":"Polygon","coordinates":[[[139.75154241438813,35.5604028238958],[139.75152533166283,35.560278961367686],[139.75154519034376,35.56027636081044],[139.7515202040829,35.56011427399478],[139.75164475785314,35.56010191926952],[139.75168373666642,35.560389759393615],[139.75154241438813,35.5604028238958]]]}},{"type":"Feature","properties":{"height":8.3,"gml_id":"bldg_c1910c30-c62f-477d-965c-0029258b7067"},"geometry":{"type":"Polygon","coordinates":[[[139.7502912052059,35.5589601055812],[139.75016246840843,35.5589655153243],[139.75016105729344,35.558943340160546],[139.75028990436496,35.558937930494885],[139.7502912052059,35.5589601055812]]]}},{"type":"Feature","properties":{"height":8.8,"gml_id":"bldg_0a9b2148-453c-4b66-9943-187d7e1fa832"},"geometry":{"type":"Polygon","coordinates":[[[139.75005525613741,35.56492867304993],[139.7500086209913,35.56490042735349],[139.75007024850663,35.56483250520257],[139.75011688354195,35.56486084101431],[139.75005525613741,35.56492867304993]]]}},{"type":"Feature","properties":{"height":13.5,"gml_id":"bldg_beca189a-fca2-46a1-80e1-6086cafba63b"},"geometry":{"type":"Polygon","coordinates":[[[139.74990537292456,35.56308207386893],[139.74994756258994,35.56303450970411],[139.75002730322825,35.56294451604262],[139.75008782919443,35.56298025286288],[139.750055468867,35.5630170071962],[139.75014939986724,35.56307259761756],[139.7499737935377,35.56327078195803],[139.74986034849618,35.563203730249676],[139.74994649533437,35.56310634968783],[139.74990537292456,35.56308207386893]]]}},{"type":"Feature","properties":{"height":10.9,"gml_id":"bldg_45ed6d0b-140e-4232-9b3a-4191862a4205"},"geometry":{"type":"Polygon","coordinates":[[[139.7510814409405,35.56027694672347],[139.75107655752242,35.56019807179615],[139.75134374248628,35.56018707655161],[139.75137163313389,35.56063824103031],[139.75117052627098,35.56064648707485],[139.75117193668103,35.560669653748796],[139.75110585715936,35.56067231286962],[139.75109229323948,35.56045200399582],[139.7510905568022,35.56042405973265],[139.7510830690863,35.56030290785632],[139.7510814409405,35.56027694672347]]]}},{"type":"Feature","properties":{"height":12.2,"gml_id":"bldg_6d1a92d6-bf85-41cb-a223-08db239e5a1b"},"geometry":{"type":"Polygon","coordinates":[[[139.75081534344977,35.564284612400805],[139.75079384425635,35.56427233879287],[139.75083194925753,35.56422774611546],[139.75085344826016,35.564240199994394],[139.75081534344977,35.564284612400805]]]}},{"type":"Feature","properties":{"height":6.0,"gml_id":"bldg_c62cc623-fc70-495f-800a-6f2d67d29963"},"geometry":{"type":"Polygon","coordinates":[[[139.75060611651415,35.565207761756106],[139.75055176218535,35.56517617583483],[139.75066486118172,35.565046363293746],[139.75071910533464,35.56507776881139],[139.75060611651415,35.565207761756106]]]}},{"type":"Feature","properties":{"height":12.7,"gml_id":"bldg_da734b65-7862-4e9f-a758-084406e389e3"},"geometry":{"type":"Polygon","coordinates":[[[139.75038752739698,35.563435390557316],[139.750382795717,35.56342384952039],[139.75037607789417,35.56341275781126],[139.75036803703009,35.563400944079945],[139.75037940816824,35.5633925689849],[139.75038636621952,35.563384641547295],[139.75039509386812,35.56337229851958],[139.75041185857222,35.56337546491327],[139.75042774344598,35.56337601667098],[139.75043954729648,35.563375934648334],[139.75044317508414,35.56338819603554],[139.75045132553103,35.56340073094855],[139.7504574928992,35.563410740608106],[139.75044578822101,35.563421639370915],[139.75043573947997,35.56343136746521],[139.75043010512366,35.56343938595473],[139.750420839822,35.563438207777395],[139.7504049565147,35.56343612365825],[139.75038752739698,35.563435390557316]]]}},{"type":"Feature","properties":{"height":9.8,"gml_id":"bldg_5ddff373-cf84-4f66-b40b-ea66a4a31adc"},"geometry":{"type":"Polygon","coordinates":[[[139.75070347057067,35.560319594428236],[139.75070184273198,35.560293453012676],[139.75080907009038,35.5602888392266],[139.7508108061499,35.560317053911014],[139.75070347057067,35.560319594428236]]]}},{"type":"Feature","properties":{"height":3.5,"gml_id":"bldg_8603f764-4f22-4c5f-a9e1-0eff6a62a794"},"geometry":{"type":"Polygon","coordinates":[[[139.75101774356358,35.561402468415054],[139.75101632645695,35.561385881880874],[139.75107567840973,35.56138231683061],[139.75107720584128,35.56139890343936],[139.75101774356358,35.561402468415054]]]}},{"type":"Feature","properties":{"height":5.5,"gml_id":"bldg_cf1d454c-aa74-4227-bc51-845c6328af71"},"geometry":{"type":"Polygon","coordinates":[[[139.75395672870266,35.55997385809878],[139.75395754236243,35.55997653666332],[139.75383736266352,35.56000148727409],[139.7537795629783,35.55981623789779],[139.75389973801308,35.5597912801295],[139.75390093661156,35.559795119036714],[139.75391644611517,35.55979194284075],[139.75397095837428,35.55997094335772],[139.75395672870266,35.55997385809878]]]}},{"type":"Feature","properties":{"height":5.7,"gml_id":"bldg_2a4f98b0-b26f-4247-9d84-deb3bf8e959c"},"geometry":{"type":"Polygon","coordinates":[[[139.750095766634,35.565758970335594],[139.7500659982872,35.56574182339153],[139.7501192355666,35.565680295291145],[139.75014900380881,35.56569753236104],[139.750095766634,35.565758970335594]]]}},{"type":"Feature","properties":{"height":7.7,"gml_id":"bldg_265530e0-1d42-41cf-bbf7-5fefe31ac081"},"geometry":{"type":"Polygon","coordinates":[[[139.75107298175064,35.56132246272804],[139.7510813691278,35.56121096656766],[139.75111479216648,35.561212611865535],[139.7511157992485,35.56119864101472],[139.7511649961441,35.561201108304715],[139.75115560180737,35.56132657532217],[139.75107298175064,35.56132246272804]]]}},{"type":"Feature","properties":{"height":4.5,"gml_id":"bldg_811eccc3-decd-4a40-a6f3-34483151811a"},"geometry":{"type":"Polygon","coordinates":[[[139.75056237916093,35.56150284186704],[139.75048718173844,35.56146781630803],[139.75051712085371,35.56142475045936],[139.75059231824912,35.56145977599992],[139.75056237916093,35.56150284186704]]]}},{"type":"Feature","properties":{"height":37.4,"gml_id":"bldg_0f59f2e8-789b-4843-8372-10d804b17c75"},"geometry":{"type":"Polygon","coordinates":[[[139.75079405641503,35.559331553058556],[139.7510968646906,35.559324458715324],[139.75113768341856,35.55932052043415],[139.75143994007445,35.559313424853165],[139.75144001554196,35.55934767771698],[139.75127487517034,35.55935378502758],[139.75127603143432,35.5594098522598],[139.7509730027856,35.5594164060683],[139.7509711771265,35.559367910050426],[139.7507963277349,35.559375632574465],[139.75079405641503,35.559331553058556]]]}},{"type":"Feature","properties":{"height":9.1,"gml_id":"bldg_a5103096-a0ca-4847-b48f-f1a2939978cb"},"geometry":{"type":"Polygon","coordinates":[[[139.7503537911705,35.56191742776971],[139.75026810186236,35.56189384250037],[139.7503117842595,35.56178859030346],[139.75039736296947,35.5618123557439],[139.7503537911705,35.56191742776971]]]}},{"type":"Feature","properties":{"height":13.4,"gml_id":"bldg_d4022a48-9187-47d4-b5fa-3a4b7c961c40"},"geometry":{"type":"Polygon","coordinates":[[[139.75104290528537,35.563982171622854],[139.75098701299297,35.56394490609068],[139.75099949136322,35.56393256558207],[139.751055383745,35.563969740969696],[139.75104290528537,35.563982171622854]]]}},{"type":"Feature","properties":{"height":2.6,"gml_id":"bldg_d86a839a-7534-4802-8706-d9eec56934d3"},"geometry":{"type":"Polygon","coordinates":[[[139.7513250781341,35.56215759150443],[139.75136525154926,35.56213877978528],[139.75140583565195,35.56214998459823],[139.75139577067088,35.562175937772565],[139.7513250781341,35.56215759150443]]]}},{"type":"Feature","properties":{"height":9.8,"gml_id":"bldg_2bcdaef7-c9f6-4636-b214-8bcdbfa96d49"},"geometry":{"type":"Polygon","coordinates":[[[139.7513930977043,35.56176742627609],[139.75138104611793,35.561794369629084],[139.75130759957707,35.56177259619791],[139.7513039508798,35.56178079635939],[139.75127527824034,35.56177212350957],[139.75124131213207,35.56176191468675],[139.75123943735778,35.56176137257658],[139.7512420907595,35.56175560549083],[139.75117702561442,35.5617362714379],[139.751188856174,35.5617097786492],[139.7513930977043,35.56176742627609]]]}},{"type":"Feature","properties":{"height":8.6,"gml_id":"bldg_9b6bb08d-2333-406c-83c6-2407e7c9ed82"},"geometry":{"type":"Polygon","coordinates":[[[139.75062903789467,35.561473953008495],[139.75052253035446,35.56142069792229],[139.75057997187142,35.56134402911619],[139.75063973061825,35.5613739962489],[139.7506539805894,35.56135489656442],[139.75070072922009,35.56137827460118],[139.75062903789467,35.561473953008495]]]}},{"type":"Feature","properties":{"height":1.3,"gml_id":"bldg_7b0786f4-8741-482f-a85f-17836d89b63b"},"geometry":{"type":"Polygon","coordinates":[[[139.75190625235211,35.56255369534018],[139.75189929452236,35.56256162286688],[139.75188474150607,35.56255323011572],[139.7518918097421,35.56254521252549],[139.75190625235211,35.56255369534018]]]}},{"type":"Feature","properties":{"height":11.7,"gml_id":"bldg_63fbf96b-ef25-4e1b-a751-1cef0bcff807"},"geometry":{"type":"Polygon","coordinates":[[[139.75099239007724,35.560305910687276],[139.75099510240872,35.56035035104943],[139.75081319142046,35.56035761807777],[139.7508108061499,35.560317053911014],[139.75080907009038,35.5602888392266],[139.7508086358678,35.56028198836801],[139.75099054668556,35.56027472134622],[139.7509907628826,35.56027904816422],[139.75099239007724,35.560305910687276]]]}},{"type":"Feature","properties":{"height":10.4,"gml_id":"bldg_94262dec-bc3c-436b-8142-9ddcb9ee7c08"},"geometry":{"type":"Polygon","coordinates":[[[139.75036461850848,35.559867675356045],[139.750352130214,35.55967612144404],[139.7514166734076,35.55963006727861],[139.7514291642283,35.55982162108519],[139.75036461850848,35.559867675356045]]]}},{"type":"Feature","properties":{"height":15.5,"gml_id":"bldg_16bc2afc-f7ed-4ec6-a656-607ba9ad67ad"},"geometry":{"type":"Polygon","coordinates":[[[139.7523104998379,35.562279494624235],[139.7522838513622,35.56234185285701],[139.7521193101347,35.56229477974767],[139.75212981451676,35.562270449310105],[139.7521472858529,35.56222908730389],[139.7522259175216,35.5622511341274],[139.75222425872528,35.56225518926365],[139.7523104998379,35.562279494624235]]]}},{"type":"Feature","properties":{"height":7.6,"gml_id":"bldg_bffa1aaf-dea9-4ba8-ac37-cf3b816dc9be"},"geometry":{"type":"Polygon","coordinates":[[[139.750859167287,35.56027336960341],[139.7508544970442,35.56020197634729],[139.7509873176549,35.56019620810102],[139.75099198921046,35.5602675112141],[139.750859167287,35.56027336960341]]]}},{"type":"Feature","properties":{"height":13.3,"gml_id":"bldg_f8bb5654-ec5c-453d-8923-3f5bdb72adf9"},"geometry":{"type":"Polygon","coordinates":[[[139.75075961712977,35.56430052883309],[139.75070339166962,35.56426533613801],[139.7507169754279,35.564250923222076],[139.75077309065964,35.56428602569654],[139.75075961712977,35.56430052883309]]]}},{"type":"Feature","properties":{"height":9.1,"gml_id":"bldg_d66d2d51-b18a-42a2-aae4-820543ade01a"},"geometry":{"type":"Polygon","coordinates":[[[139.75520132625277,35.55938245616447],[139.75521797067344,35.55946231656624],[139.75522661023254,35.559461114301016],[139.75528312939085,35.559732415145504],[139.75493985701345,35.55978018693956],[139.7548833455897,35.55950889405455],[139.75497134982191,35.55949663559422],[139.75495472991065,35.55941677156938],[139.75520132625277,35.55938245616447]]]}},{"type":"Feature","properties":{"height":7.8,"gml_id":"bldg_1ea48a73-8e88-41d5-9f2d-23f54b012f6a"},"geometry":{"type":"Polygon","coordinates":[[[139.7510905568022,35.56042405973265],[139.75109229323948,35.56045200399582],[139.75099786402524,35.56045446343883],[139.7509976706904,35.560427782173605],[139.7510171958177,35.5604277955056],[139.7510905568022,35.56042405973265]]]}},{"type":"Feature","properties":{"height":13.3,"gml_id":"bldg_140a7263-8956-403b-bc3b-3fe3fc3da934"},"geometry":{"type":"Polygon","coordinates":[[[139.7505550730316,35.56356584658309],[139.7505749534062,35.56354296494629],[139.7506245659358,35.56357175330571],[139.75060457525234,35.56359463487489],[139.7505550730316,35.56356584658309]]]}},{"type":"Feature","properties":{"height":4.6,"gml_id":"bldg_e2bc26cb-c3eb-490e-b6e7-19976ad0730c"},"geometry":{"type":"Polygon","coordinates":[[[139.7512094571003,35.56162875777145],[139.7511964087923,35.56165948626339],[139.75110299842152,35.56163508507567],[139.75120838475468,35.56138231715804],[139.7512348532908,35.561388735049675],[139.7511447197838,35.56161257878717],[139.7512094571003,35.56162875777145]]]}},{"type":"Feature","properties":{"height":3.3,"gml_id":"bldg_7ba94ec9-3f3b-4d7b-a4b0-669637267a7e"},"geometry":{"type":"Polygon","coordinates":[[[139.75022144526685,35.55953730754732],[139.7501930944203,35.559538369668786],[139.75018908825294,35.55946544447389],[139.75021743907382,35.55946438235331],[139.75022144526685,35.55953730754732]]]}},{"type":"Feature","properties":{"height":9.2,"gml_id":"bldg_57594b59-5679-4806-8849-ef634bdb9632"},"geometry":{"type":"Polygon","coordinates":[[[139.75117469230605,35.560996048792575],[139.75121759797216,35.5610017567763],[139.75120030024073,35.56108899950207],[139.75115728412501,35.56108338157589],[139.75117469230605,35.560996048792575]]]}},{"type":"Feature","properties":{"height":13.4,"gml_id":"bldg_84c5d0b6-07e3-4d59-b77b-7abe741318d9"},"geometry":{"type":"Polygon","coordinates":[[[139.75077105160173,35.56369272999352],[139.7507883928321,35.56367164936148],[139.750835691839,35.563697551604264],[139.75081846083893,35.56371872245738],[139.75077105160173,35.56369272999352]]]}},{"type":"Feature","properties":{"height":10.1,"gml_id":"bldg_7cf04c05-1ec3-4036-829a-e8870e774100"},"geometry":{"type":"Polygon","coordinates":[[[139.75046199696177,35.56514348388687],[139.75044942805226,35.56513635427414],[139.75046444864142,35.56511950862658],[139.7504248683835,35.56509631571889],[139.75046219822875,35.56505514790977],[139.75045624524438,35.56505108756748],[139.75047568260956,35.56503027884301],[139.75048417318027,35.56503407051151],[139.75049310075545,35.56504200886881],[139.7504964017542,35.56505030391519],[139.75048094047008,35.56506660843073],[139.75047079113884,35.56506669159442],[139.75044638361305,35.56509317565134],[139.75047350584285,35.56510869818457],[139.75049813205203,35.56508410718923],[139.750509818786,35.56509087563533],[139.75046199696177,35.56514348388687]]]}},{"type":"Feature","properties":{"height":9.7,"gml_id":"bldg_dfa2f0cf-f60e-457d-8fa8-5429dae5cd20"},"geometry":{"type":"Polygon","coordinates":[[[139.7504054473226,35.56178180420315],[139.75032990334012,35.56176174137375],[139.75036496322974,35.561673880035094],[139.7504316844043,35.56169168330293],[139.7504058041696,35.561756655683446],[139.750414516597,35.561758915149234],[139.7504054473226,35.56178180420315]]]}},{"type":"Feature","properties":{"height":6.0,"gml_id":"bldg_5a50aa96-b0fd-410e-b967-03690964cf1b"},"geometry":{"type":"Polygon","coordinates":[[[139.75056491756635,35.560106861571626],[139.7505615435219,35.56006251088287],[139.75075172949755,35.560052996427274],[139.75075499342785,35.560097256896455],[139.75056491756635,35.560106861571626]]]}},{"type":"Feature","properties":{"height":4.9,"gml_id":"bldg_f0a2b499-c69a-4356-b3aa-f2b8091de38f"},"geometry":{"type":"Polygon","coordinates":[[[139.75142951920682,35.56055697502376],[139.75139720250294,35.56033566191041],[139.75146163073586,35.56032939594967],[139.7514939476144,35.56055070904622],[139.75142951920682,35.56055697502376]]]}},{"type":"Feature","properties":{"height":8.6,"gml_id":"bldg_f7ae210f-6844-4b5f-a6e9-f71ca3f43640"},"geometry":{"type":"Polygon","coordinates":[[[139.75496279129797,35.55983499192412],[139.75495308420452,35.55978828100522],[139.7552876795133,35.55974171322223],[139.7553447217591,35.56001548507331],[139.75534199118445,35.56001587541158],[139.7552506427603,35.56012041715631],[139.75502818683736,35.5601513726327],[139.75500567674155,35.560042531428074],[139.75500602869045,35.56004247306639],[139.75500046959917,35.56001579823423],[139.75497614239453,35.56002066705756],[139.7549639216454,35.559961121421665],[139.7549525062784,35.55996266078599],[139.75492748442508,35.55984150043957],[139.75496279129797,35.55983499192412]]]}},{"type":"Feature","properties":{"height":14.5,"gml_id":"bldg_2b0b4166-509b-4be7-8f31-0ed81d4f96e3"},"geometry":{"type":"Polygon","coordinates":[[[139.75060140913325,35.56452847179908],[139.75049435851236,35.56446304758781],[139.75058160687973,35.56436783068347],[139.7506886572601,35.56443343509592],[139.75060140913325,35.56452847179908]]]}},{"type":"Feature","properties":{"height":14.5,"gml_id":"bldg_f5bfe4ed-0b12-4cb9-bdcf-806afd81bd28"},"geometry":{"type":"Polygon","coordinates":[[[139.75114114700938,35.56392328778963],[139.75103177882318,35.56385912441399],[139.75111715246052,35.56376201291472],[139.75122652058315,35.56382617621385],[139.75114114700938,35.56392328778963]]]}},{"type":"Feature","properties":{"height":17.2,"gml_id":"bldg_6234e98e-da64-46cc-8186-6298158710c3"},"geometry":{"type":"Polygon","coordinates":[[[139.75154241438813,35.5604028238958],[139.75168373666642,35.560389759393615],[139.75170772039155,35.560561850914354],[139.75156639781494,35.56057491544389],[139.75154241438813,35.5604028238958]]]}},{"type":"Feature","properties":{"height":12.1,"gml_id":"bldg_01725819-bff2-4a2d-bd1b-c9c225331243"},"geometry":{"type":"Polygon","coordinates":[[[139.76101185920018,35.562395718733754],[139.7611080077914,35.56244634431587],[139.76110293293166,35.56244679197037],[139.76107833884183,35.562440106952096],[139.76105540214039,35.56243044833734],[139.7610345640051,35.562417906530555],[139.7610163756842,35.56240284241922],[139.76101185920018,35.562395718733754]]]}},{"type":"Feature","properties":{"height":11.4,"gml_id":"bldg_47aace6f-32f6-4d06-a4e7-aa2b8d2f5cf7"},"geometry":{"type":"Polygon","coordinates":[[[139.7513930977043,35.56176742627609],[139.751188856174,35.5617097786492],[139.7511766149033,35.56170634502848],[139.7511964087923,35.56165948626339],[139.7512094571003,35.56162875777145],[139.75129349742883,35.56143023888482],[139.75135360066295,35.5614472258893],[139.75146388188838,35.56147839876176],[139.75151008979813,35.56149141013822],[139.7513930977043,35.56176742627609]]]}},{"type":"Feature","properties":{"height":9.0,"gml_id":"bldg_25034c82-9976-4b14-91fb-e9aae6ef0946"},"geometry":{"type":"Polygon","coordinates":[[[139.7548019833847,35.55905948383287],[139.75504378509225,35.559025838962754],[139.75505785673406,35.55909334958087],[139.75514773598897,35.559080845227086],[139.75520387366686,35.55935026467759],[139.75519188795278,35.55935194341065],[139.75487191340994,35.55939645265891],[139.754859987275,35.55939810525741],[139.75485623332986,35.55938009304548],[139.75484473304473,35.559381693639054],[139.75480774824186,35.55920416877234],[139.75481923967936,35.5592025663737],[139.75480385511966,35.55912869376574],[139.75481602504328,35.55912699716335],[139.75481286182332,35.55911181840229],[139.75478311828178,35.55911595713987],[139.7547732817066,35.559068740436956],[139.75480302081976,35.559064600797484],[139.7548019833847,35.55905948383287]]]}},{"type":"Feature","properties":{"height":15.6,"gml_id":"bldg_ae87b81f-27fe-43e2-9d80-99aeeebc2fc9"},"geometry":{"type":"Polygon","coordinates":[[[139.7517736026442,35.56314915357593],[139.75173203849104,35.56312478794209],[139.7518022796347,35.563045152653274],[139.7517696458362,35.563025930989504],[139.75179836060906,35.56299350039872],[139.75187244812045,35.563037177719316],[139.75187101238305,35.56303879924989],[139.7517736026442,35.56314915357593]]]}},{"type":"Feature","properties":{"height":7.0,"gml_id":"bldg_cc160bba-4530-44ac-b3ab-64853d663e0c"},"geometry":{"type":"Polygon","coordinates":[[[139.7507136583118,35.55952908263404],[139.75048684982983,35.559539292984454],[139.7504826122938,35.55947655334464],[139.75070942059955,35.55946634300186],[139.7507136583118,35.55952908263404]]]}},{"type":"Feature","properties":{"height":4.2,"gml_id":"bldg_dcaf9411-49fd-460c-ab9b-d15b39f5b35e"},"geometry":{"type":"Polygon","coordinates":[[[139.75067082730115,35.56160008605367],[139.75060245654876,35.56157732414398],[139.75061373181867,35.561554616865855],[139.75059189725712,35.561547390767736],[139.7506144476029,35.56150215648983],[139.75063286356448,35.561508298571674],[139.75066757374685,35.56143828441292],[139.75072348348556,35.56145671107931],[139.75068954710764,35.56152519342227],[139.75070531649428,35.56153043228942],[139.75067082730115,35.56160008605367]]]}},{"type":"Feature","properties":{"height":6.7,"gml_id":"bldg_887dc6bb-f214-4f5a-bdb5-8a346c18c0ee"},"geometry":{"type":"Polygon","coordinates":[[[139.75476296712006,35.560596400055495],[139.75470320859594,35.56059458626195],[139.7547064492925,35.56054628921416],[139.75476620556583,35.56054811201852],[139.75476296712006,35.560596400055495]]]}},{"type":"Feature","properties":{"height":9.6,"gml_id":"bldg_648740b4-9dfa-49dc-a3f2-17c375fe3e26"},"geometry":{"type":"Polygon","coordinates":[[[139.7505949800765,35.5619824935629],[139.7505118276543,35.56195909048572],[139.7505521909116,35.56186303009467],[139.75063534324642,35.56188643314426],[139.7505949800765,35.5619824935629]]]}},{"type":"Feature","properties":{"height":4.7,"gml_id":"bldg_08ccd235-0ccb-4d11-af06-c8f479426f70"},"geometry":{"type":"Polygon","coordinates":[[[139.7519635064984,35.56222535785436],[139.75194802400102,35.562263476174685],[139.75200669500651,35.562279380217724],[139.7520041512277,35.56228586850525],[139.75203458960831,35.56229409167715],[139.75200462047187,35.56236735441991],[139.7517843837281,35.56230744354219],[139.7517481002781,35.5622976839901],[139.7517696696898,35.5622402800812],[139.7518079389503,35.56224986069178],[139.75181568018704,35.562230846610326],[139.75184567745424,35.562238889253855],[139.75184733617803,35.5622349242617],[139.75190556597812,35.56225073791686],[139.7519208272272,35.562213250425074],[139.7519635064984,35.56222535785436]]]}},{"type":"Feature","properties":{"height":4.2,"gml_id":"bldg_c3e1f2be-4fd7-4c73-a734-62121fe88445"},"geometry":{"type":"Polygon","coordinates":[[[139.75514143833345,35.561310387105536],[139.75507655975986,35.561325488356424],[139.7550630293344,35.56128635926768],[139.75512790787894,35.561271258023936],[139.75514143833345,35.561310387105536]]]}},{"type":"Feature","properties":{"height":7.9,"gml_id":"bldg_0eb7a0fd-9917-4054-bcd9-117348a0384b"},"geometry":{"type":"Polygon","coordinates":[[[139.75109341051038,35.56108604219296],[139.7510051719642,35.56107489488144],[139.75101959063403,35.56099855703164],[139.75110782909857,35.56100970433264],[139.75109341051038,35.56108604219296]]]}},{"type":"Feature","properties":{"height":5.3,"gml_id":"bldg_5b56da42-62f2-44b1-a016-5d4031fb6686"},"geometry":{"type":"Polygon","coordinates":[[[139.75388427327624,35.55917119488309],[139.75400263226248,35.55914670092942],[139.75406553293308,35.55936422332869],[139.75394709226984,35.55938846039317],[139.75388427327624,35.55917119488309]]]}},{"type":"Feature","properties":{"height":11.6,"gml_id":"bldg_3378efa4-e6e7-4de8-8d4d-f76aa0013764"},"geometry":{"type":"Polygon","coordinates":[[[139.75050768790442,35.565231941538066],[139.75042874781906,35.56518564602928],[139.75054173541108,35.56505709547195],[139.75059090749693,35.56508597367501],[139.7504973585478,35.565192543745745],[139.75052690586955,35.56520996084966],[139.75050768790442,35.565231941538066]]]}},{"type":"Feature","properties":{"height":8.2,"gml_id":"bldg_ea7a851c-7256-4a65-984a-fc33a0aea052"},"geometry":{"type":"Polygon","coordinates":[[[139.75096801746727,35.56116239442893],[139.75088231511802,35.561152150149695],[139.7509057236718,35.56102263647898],[139.75094565182386,35.56102744113428],[139.75094953443116,35.56100626113294],[139.75099519798516,35.561011880941265],[139.75096801746727,35.56116239442893]]]}},{"type":"Feature","properties":{"height":14.5,"gml_id":"bldg_8e814544-8ca5-4384-93ae-da883af819f4"},"geometry":{"type":"Polygon","coordinates":[[[139.75083089616584,35.564178890107236],[139.7507778662412,35.564147305189195],[139.75082071858932,35.564099020069776],[139.75087374849906,35.56413060496921],[139.75083089616584,35.564178890107236]]]}},{"type":"Feature","properties":{"height":13.9,"gml_id":"bldg_3881f3f9-5a88-4b62-9292-fbbc7371a929"},"geometry":{"type":"Polygon","coordinates":[[[139.75130770521574,35.561993707094764],[139.75129598459955,35.56202056052445],[139.75121801602907,35.56199779243401],[139.751229736576,35.561971029150726],[139.75130770521574,35.561993707094764]]]}},{"type":"Feature","properties":{"height":13.0,"gml_id":"bldg_7d8eb4de-fe46-440d-a1a1-5a50f1c3053c"},"geometry":{"type":"Polygon","coordinates":[[[139.75013780350798,35.56457971222701],[139.7501188066878,35.564601242313834],[139.75007040700766,35.56457263486635],[139.75008940374076,35.56455119492588],[139.75013780350798,35.56457971222701]]]}},{"type":"Feature","properties":{"height":5.3,"gml_id":"bldg_0efd6632-9f14-4e09-b28f-cd4d06cc4d91"},"geometry":{"type":"Polygon","coordinates":[[[139.75256010904786,35.56286060843088],[139.75256938589166,35.56285024776741],[139.75259231771318,35.56286387410492],[139.75258304078125,35.56287432400761],[139.75256010904786,35.56286060843088]]]}},{"type":"Feature","properties":{"height":5.6,"gml_id":"bldg_31581e25-8cf5-412e-bbdd-a9ece3c8af33"},"geometry":{"type":"Polygon","coordinates":[[[139.75063233877256,35.559978910499844],[139.75062940751351,35.55993302775322],[139.75074413580552,35.559928148752384],[139.7507470671298,35.559974031496324],[139.75063233877256,35.559978910499844]]]}},{"type":"Feature","properties":{"height":5.4,"gml_id":"bldg_cb44445c-99d3-4918-a37f-d658c2e0255d"},"geometry":{"type":"Polygon","coordinates":[[[139.75070647202173,35.561264433043014],[139.75063709789723,35.56125221672152],[139.75069656800252,35.561026008725314],[139.7507659420337,35.56103813487388],[139.75070647202173,35.561264433043014]]]}},{"type":"Feature","properties":{"height":7.0,"gml_id":"bldg_3377ebd6-4332-4c21-adbb-c0e80ee575dc"},"geometry":{"type":"Polygon","coordinates":[[[139.7504362651755,35.560242792886996],[139.75043431076134,35.560212504850554],[139.7505942690731,35.56020567402558],[139.75059622345466,35.56023605219845],[139.7504362651755,35.560242792886996]]]}},{"type":"Feature","properties":{"height":6.0,"gml_id":"bldg_4eaba279-d6e5-4103-a06c-ae9aea6bb4d5"},"geometry":{"type":"Polygon","coordinates":[[[139.75100333836164,35.5606026556309],[139.7508261729786,35.560607221749756],[139.75082464607536,35.56059018444124],[139.75081008465696,35.56059044489242],[139.750808467497,35.56055384736722],[139.75082358102122,35.56055304646028],[139.75082343559936,35.560479673245524],[139.75086138424126,35.56047825698587],[139.75086217045782,35.56046455640129],[139.7510121968686,35.56046195475972],[139.75101392913172,35.56049395527428],[139.75100697904352,35.560494401223664],[139.75100957213644,35.560547584982],[139.75100085816396,35.560546948059084],[139.75100333836164,35.5606026556309]]]}},{"type":"Feature","properties":{"height":7.6,"gml_id":"bldg_78f24f53-c51e-47a5-a8e3-bd642354a891"},"geometry":{"type":"Polygon","coordinates":[[[139.75094970124968,35.561274424632],[139.75088319003697,35.56126725818956],[139.75090017438123,35.561163249452726],[139.75096668532512,35.561170596163564],[139.75094970124968,35.561274424632]]]}},{"type":"Feature","properties":{"height":2.1,"gml_id":"bldg_3a7f7f3c-b99c-4d1b-a70d-28e36de5d4b6"},"geometry":{"type":"Polygon","coordinates":[[[139.7518752728044,35.56253510579327],[139.7518675423166,35.56254348349081],[139.75184957211704,35.56253256453625],[139.7518573026969,35.56252409670097],[139.7518752728044,35.56253510579327]]]}},{"type":"Feature","properties":{"height":7.3,"gml_id":"bldg_ec8ad298-f98a-4dcc-af8c-6c985680942f"},"geometry":{"type":"Polygon","coordinates":[[[139.75171400242576,35.561111522533515],[139.75164010254443,35.56110218817155],[139.75165751523582,35.56100989767895],[139.75166644933955,35.561011075537216],[139.75167177258177,35.5609832262055],[139.75174633423103,35.56099256099601],[139.75174234143034,35.561013831087585],[139.7517326352307,35.561012562573424],[139.75171400242576,35.561111522533515]]]}},{"type":"Feature","properties":{"height":21.0,"gml_id":"bldg_69cf9067-e94b-4fdd-a3a1-e85254888e00"},"geometry":{"type":"Polygon","coordinates":[[[139.75038851003063,35.560019305542724],[139.75038208908552,35.55993448035456],[139.75059897165153,35.55992336200221],[139.75060550313518,35.56000818725498],[139.75038851003063,35.560019305542724]]]}},{"type":"Feature","properties":{"height":4.9,"gml_id":"bldg_3d9a56a1-0d10-4dc6-8401-1f3238d7dfe3"},"geometry":{"type":"Polygon","coordinates":[[[139.75397863402515,35.55947159740963],[139.75409083670758,35.559448534331416],[139.75417828503382,35.55973695267535],[139.75406596207822,35.55975966781808],[139.75397863402515,35.55947159740963]]]}},{"type":"Feature","properties":{"height":4.0,"gml_id":"bldg_ea30059f-35f2-4058-922b-359cb0a5b6e9"},"geometry":{"type":"Polygon","coordinates":[[[139.75139306379367,35.560283468636605],[139.75137979100865,35.56020990621871],[139.75143528439776,35.56020318350348],[139.75144855704903,35.56027692619321],[139.75139306379367,35.560283468636605]]]}},{"type":"Feature","properties":{"height":8.2,"gml_id":"bldg_cdcd288a-2e7d-4a89-ac44-31bd226f894c"},"geometry":{"type":"Polygon","coordinates":[[[139.7510244312746,35.561227152722246],[139.7510395177257,35.56114504643488],[139.7510846298946,35.561150575693986],[139.75106954348846,35.56123268198696],[139.7510244312746,35.561227152722246]]]}},{"type":"Feature","properties":{"height":6.8,"gml_id":"bldg_74f7cda5-567a-447d-829e-1b410d477109"},"geometry":{"type":"Polygon","coordinates":[[[139.7524558277762,35.56267458100882],[139.75241724160878,35.56265075844055],[139.75246174662112,35.56260274425063],[139.75250033268824,35.562626656943706],[139.7524558277762,35.56267458100882]]]}},{"type":"Feature","properties":{"height":6.6,"gml_id":"bldg_0ed60d4f-2a55-4115-ba1f-7197ad001a15"},"geometry":{"type":"Polygon","coordinates":[[[139.7501557332402,35.561854284174615],[139.75023800953133,35.5616575675949],[139.75033516743144,35.56168476633967],[139.75025300175707,35.56188139202083],[139.7501557332402,35.561854284174615]]]}},{"type":"Feature","properties":{"height":3.0,"gml_id":"bldg_c7fccf12-83da-4ecf-8678-d7017f102371"},"geometry":{"type":"Polygon","coordinates":[[[139.75021765125996,35.55957939983381],[139.75021882744966,35.55961545623484],[139.75017128257642,35.55961650511828],[139.75017010640804,35.55958044871683],[139.75021765125996,35.55957939983381]]]}},{"type":"Feature","properties":{"height":9.8,"gml_id":"bldg_3d93cf4c-b069-4bd0-97a1-ada708d12ea1"},"geometry":{"type":"Polygon","coordinates":[[[139.75140664916776,35.56113384881511],[139.75137929526585,35.56113031480565],[139.75140480114808,35.56099863912773],[139.75157543175104,35.56102083899814],[139.75155658023215,35.561117725589405],[139.7514134134485,35.56109924005309],[139.75140664916776,35.56113384881511]]]}},{"type":"Feature","properties":{"height":13.2,"gml_id":"bldg_7aac4060-b10b-4429-bdf8-21c92bb22356"},"geometry":{"type":"Polygon","coordinates":[[[139.75091434978066,35.56412594550844],[139.75085712930962,35.56409291553765],[139.75087148744268,35.564076339799804],[139.75092859759135,35.56410936968846],[139.75091434978066,35.56412594550844]]]}},{"type":"Feature","properties":{"height":2.1,"gml_id":"bldg_20cf01a2-30ad-44de-96bf-3c52ac47c197"},"geometry":{"type":"Polygon","coordinates":[[[139.7552783960227,35.560606136334705],[139.75533242198227,35.56059851489485],[139.75533670887256,35.56061882868092],[139.7552826751683,35.560626460032935],[139.7552783960227,35.560606136334705]]]}},{"type":"Feature","properties":{"height":7.6,"gml_id":"bldg_85da917d-a135-4573-9878-f3d211c788ca"},"geometry":{"type":"Polygon","coordinates":[[[139.75045505043803,35.56149717952206],[139.75036408092856,35.56145961915294],[139.75040341777404,35.56139609825791],[139.7504943872302,35.561433658597664],[139.75045505043803,35.56149717952206]]]}},{"type":"Feature","properties":{"height":41.2,"gml_id":"bldg_4e553da6-8977-4b03-acf6-55e072578152"},"geometry":{"type":"Polygon","coordinates":[[[139.75079405641503,35.559331553058556],[139.75077629605073,35.559331991593886],[139.75077136775423,35.55918965876829],[139.7508882990504,35.559186854334065],[139.75088637061467,35.55913105698516],[139.75076833630268,35.55913386066229],[139.75076276133618,35.5589767445953],[139.75107726135838,35.55896938788931],[139.75107972609092,35.55904023881302],[139.75112804287158,35.559039099958326],[139.75112536309217,35.55896275041081],[139.75143754653033,35.55895539118545],[139.7514430147949,35.5591102536756],[139.75132608362821,35.55911305864803],[139.75132790563939,35.55916534049754],[139.75144649152776,35.55916253664725],[139.75145174351178,35.55931316245272],[139.75143994007445,35.559313424853165],[139.75113768341856,35.55932052043415],[139.7511354306877,35.559258052584674],[139.75109450472002,35.5592590162056],[139.7510968646906,35.559324458715324],[139.75079405641503,35.559331553058556]]]}},{"type":"Feature","properties":{"height":16.0,"gml_id":"bldg_a99d5d61-cca7-46cb-96a1-0ccba8061b24"},"geometry":{"type":"Polygon","coordinates":[[[139.7517843428077,35.56213005008565],[139.75175990198733,35.562190697057304],[139.7516111287471,35.562151025313945],[139.75162373114708,35.562124803424304],[139.75163534199586,35.56209731891623],[139.75167746977658,35.562109245795334],[139.75168100831985,35.562100865270494],[139.7517843428077,35.56213005008565]]]}},{"type":"Feature","properties":{"height":4.6,"gml_id":"bldg_50e5f1b8-ea24-4f75-ae5b-327bb0911c6c"},"geometry":{"type":"Polygon","coordinates":[[[139.75515684101887,35.56135384406908],[139.7550916299337,35.56136939580711],[139.75507820840429,35.56133170901427],[139.75514341835836,35.56131615728263],[139.75515684101887,35.56135384406908]]]}},{"type":"Feature","properties":{"height":9.5,"gml_id":"bldg_abc44f5f-eadd-4e29-8b69-159b2d00aa8f"},"geometry":{"type":"Polygon","coordinates":[[[139.75080259229046,35.56155023934526],[139.75071105979947,35.56152358566535],[139.75073715534418,35.56146348086727],[139.75082284303917,35.56148832774888],[139.75080968503286,35.56151833501294],[139.75081564008408,35.561520141867746],[139.75080259229046,35.56155023934526]]]}},{"type":"Feature","properties":{"height":5.9,"gml_id":"bldg_bd566faf-80cd-4355-b70a-5c98b3f083e1"},"geometry":{"type":"Polygon","coordinates":[[[139.75143180893227,35.55982432705095],[139.75143487085404,35.5598506497109],[139.75134032699523,35.55985806698847],[139.7513372651041,35.55983174432618],[139.75143180893227,35.55982432705095]]]}},{"type":"Feature","properties":{"height":10.8,"gml_id":"bldg_4375bbd8-4c32-4710-9378-b2b0b5788ae4"},"geometry":{"type":"Polygon","coordinates":[[[139.75504307119465,35.56139108777289],[139.7551620172617,35.561361419097295],[139.75522759372933,35.561536601579306],[139.75510864742733,35.56156627031843],[139.75504307119465,35.56139108777289]]]}},{"type":"Feature","properties":{"height":8.9,"gml_id":"bldg_90bcc8d1-f285-4062-9431-b1aa4230d0f3"},"geometry":{"type":"Polygon","coordinates":[[[139.75120349313775,35.56109504098699],[139.75118941733535,35.5611598413053],[139.7511421001934,35.561153048636974],[139.7511562864371,35.561088158260446],[139.75120349313775,35.56109504098699]]]}},{"type":"Feature","properties":{"height":2.6,"gml_id":"bldg_ddf30b5c-c57e-4893-9355-98151d056ad2"},"geometry":{"type":"Polygon","coordinates":[[[139.75069414629215,35.5615582775682],[139.75071476927295,35.56156370003862],[139.75068734048256,35.56163299808936],[139.7506667174859,35.56162757561429],[139.75069414629215,35.5615582775682]]]}},{"type":"Feature","properties":{"height":5.9,"gml_id":"bldg_955cf3ee-db7f-46a8-ad83-af4f16602887"},"geometry":{"type":"Polygon","coordinates":[[[139.75022773613017,35.5656248445787],[139.75018341087767,35.5656027299893],[139.75020019996452,35.56558273073474],[139.7502432021325,35.565604123295095],[139.75022773613017,35.5656248445787]]]}},{"type":"Feature","properties":{"height":3.8,"gml_id":"bldg_3d466557-fa1b-41d9-9bbf-74f19e8b6e63"},"geometry":{"type":"Polygon","coordinates":[[[139.75014787308595,35.56070699019268],[139.75009944525888,35.560707858160065],[139.75009891327105,35.56068892861143],[139.75014745139856,35.56068806072035],[139.75014787308595,35.56070699019268]]]}},{"type":"Feature","properties":{"height":3.3,"gml_id":"bldg_433599f9-c742-400f-b20f-eadd4aa7de9c"},"geometry":{"type":"Polygon","coordinates":[[[139.75424410587695,35.56117122038758],[139.75416028909382,35.561146750339546],[139.75421208139832,35.56102943603735],[139.7542958892511,35.56105390514254],[139.75424410587695,35.56117122038758]]]}},{"type":"Feature","properties":{"height":3.2,"gml_id":"bldg_c39b3744-b6b5-43c3-8668-b68672cada93"},"geometry":{"type":"Polygon","coordinates":[[[139.750089421558,35.56165376939921],[139.75007232796384,35.56164898023191],[139.7500846036684,35.561619062578885],[139.75010180766324,35.56162376168175],[139.750089421558,35.56165376939921]]]}},{"type":"Feature","properties":{"height":9.0,"gml_id":"bldg_5f914208-6c07-4ab3-9cbd-ec37593590e1"},"geometry":{"type":"Polygon","coordinates":[[[139.7511309439164,35.56462429110666],[139.75108342566233,35.5645964057779],[139.75113710212156,35.56453541834835],[139.75115099728842,35.56454011504377],[139.75122014148806,35.564456152698924],[139.75125883949286,35.56447898419173],[139.7511309439164,35.56462429110666]]]}},{"type":"Feature","properties":{"height":9.1,"gml_id":"bldg_1a214b7c-a32c-4619-9272-f5289497a4e5"},"geometry":{"type":"Polygon","coordinates":[[[139.75093191765131,35.564853378462274],[139.75089663690923,35.56483298295281],[139.75102475627165,35.56468533283333],[139.7510599266643,35.56470572823049],[139.75093191765131,35.564853378462274]]]}},{"type":"Feature","properties":{"height":5.5,"gml_id":"bldg_593ca1ba-83e0-4e6c-ac58-d5fdd8acb74b"},"geometry":{"type":"Polygon","coordinates":[[[139.75266456031866,35.562216995339234],[139.7525239241089,35.56220292962463],[139.75256434851235,35.56193371169773],[139.75270487394545,35.56194777729141],[139.75266456031866,35.562216995339234]]]}},{"type":"Feature","properties":{"height":5.4,"gml_id":"bldg_29c328c1-794e-4b1f-8722-5f5c9d002955"},"geometry":{"type":"Polygon","coordinates":[[[139.75442961219886,35.561338587549585],[139.75421680599743,35.561280943948894],[139.7542855139015,35.56111167741157],[139.75429101373206,35.56111315659201],[139.7543883022371,35.56113951566962],[139.75441933034247,35.5610692293992],[139.75452954617126,35.561101408082024],[139.75452259320537,35.56111715441851],[139.75455360709248,35.56112552155445],[139.75452818472328,35.56118837415781],[139.75449429242212,35.561179225431296],[139.75442961219886,35.561338587549585]]]}},{"type":"Feature","properties":{"height":3.2,"gml_id":"bldg_428bc516-4538-42d0-82e7-98b9fcdc6efd"},"geometry":{"type":"Polygon","coordinates":[[[139.75002570377163,35.56182516965949],[139.7499980219287,35.56181857038632],[139.75001981644357,35.56175792194028],[139.75004749826746,35.56176452120849],[139.75002570377163,35.56182516965949]]]}},{"type":"Feature","properties":{"height":13.1,"gml_id":"bldg_b96528d7-9969-4d62-9cc7-70b479ab4f6f"},"geometry":{"type":"Polygon","coordinates":[[[139.75008466318184,35.564548217068875],[139.7500659971198,35.5645699276537],[139.75001550182583,35.56454095818106],[139.75003416798805,35.564519157465135],[139.75008466318184,35.564548217068875]]]}},{"type":"Feature","properties":{"height":4.1,"gml_id":"bldg_fad57295-8b79-426f-8191-c174dbf7ecb1"},"geometry":{"type":"Polygon","coordinates":[[[139.75139445306854,35.560327457396085],[139.75138919831215,35.560287972957816],[139.75144468992053,35.560283053016484],[139.75144994479552,35.5603224473135],[139.75139445306854,35.560327457396085]]]}},{"type":"Feature","properties":{"height":4.3,"gml_id":"bldg_1be88005-5c18-42ea-afa2-768ee60106a6"},"geometry":{"type":"Polygon","coordinates":[[[139.75261818292435,35.562262394324634],[139.75256347108316,35.562258481710145],[139.75256837111098,35.56221242399548],[139.75262308292108,35.56221633660774],[139.75261818292435,35.562262394324634]]]}},{"type":"Feature","properties":{"height":7.9,"gml_id":"bldg_b7e5c19e-d819-4c76-a544-45c53df48cfa"},"geometry":{"type":"Polygon","coordinates":[[[139.75243815602,35.56302520958469],[139.7524148931431,35.56301167313495],[139.7524349934824,35.56298879133655],[139.7524581460411,35.56300232770846],[139.75243815602,35.56302520958469]]]}},{"type":"Feature","properties":{"height":14.5,"gml_id":"bldg_812af8b2-2d12-41ef-9c58-4faa54fe1888"},"geometry":{"type":"Polygon","coordinates":[[[139.75067616276934,35.5643539240171],[139.75062313214204,35.564322970003715],[139.75066664787298,35.564273423451006],[139.75071967857696,35.56430428730662],[139.75067616276934,35.5643539240171]]]}},{"type":"Feature","properties":{"height":3.6,"gml_id":"bldg_bac25e88-f6f3-4fa7-91d1-c7867d064c1e"},"geometry":{"type":"Polygon","coordinates":[[[139.75155270388413,35.56124148374238],[139.75155249342342,35.56123147817597],[139.75150583075387,35.56123189721051],[139.7515271758538,35.56117800860167],[139.75161817825432,35.561183388511346],[139.75161427211526,35.56122791450641],[139.75159430673318,35.56122672916614],[139.75159451271446,35.56124115153811],[139.75155270388413,35.56124148374238]]]}},{"type":"Feature","properties":{"height":11.9,"gml_id":"bldg_f09d053a-b6e9-4270-b7cd-b316ea8baa6f"},"geometry":{"type":"Polygon","coordinates":[[[139.751122349364,35.56299412300266],[139.7511436637143,35.56297106196966],[139.7512072755222,35.56301022561086],[139.7511858507727,35.563033376718664],[139.751122349364,35.56299412300266]]]}},{"type":"Feature","properties":{"height":4.4,"gml_id":"bldg_42e53fd8-88af-49da-8214-f45c96108949"},"geometry":{"type":"Polygon","coordinates":[[[139.7547232885821,35.56171528977793],[139.75455654473137,35.56166434257889],[139.75457290609035,35.56162856810568],[139.75473964987745,35.56167951528233],[139.7547232885821,35.56171528977793]]]}},{"type":"Feature","properties":{"height":3.3,"gml_id":"bldg_c7cd1f8f-b7a3-467b-a43d-e2040f495d99"},"geometry":{"type":"Polygon","coordinates":[[[139.75004595742536,35.56176109486424],[139.75002235710045,35.56175458855499],[139.7500360713887,35.561720345232224],[139.75005967170472,35.561726851538815],[139.75004595742536,35.56176109486424]]]}},{"type":"Feature","properties":{"height":3.4,"gml_id":"bldg_dc5756a3-0789-4f21-9373-5b2fbbacd33c"},"geometry":{"type":"Polygon","coordinates":[[[139.75254754013542,35.562633809560204],[139.75257356069767,35.56264743797131],[139.7525439586876,35.5626850060734],[139.75251793811822,35.56267137765598],[139.75254754013542,35.562633809560204]]]}},{"type":"Feature","properties":{"height":15.6,"gml_id":"bldg_906bcee8-4e3a-4639-a86f-60036ac63d0e"},"geometry":{"type":"Polygon","coordinates":[[[139.7515039647418,35.56209092009534],[139.75149323700074,35.56211777421769],[139.75128678639874,35.56206192803869],[139.75131620395487,35.56198920592942],[139.7515171378829,35.562045859565586],[139.7514987814624,35.56208947435428],[139.7515039647418,35.56209092009534]]]}},{"type":"Feature","properties":{"height":6.3,"gml_id":"bldg_b98065f0-bfe8-49c0-afdc-62a2061256d1"},"geometry":{"type":"Polygon","coordinates":[[[139.75109827234846,35.56064616739807],[139.75107356141044,35.560647232208716],[139.75106129350073,35.560454146181776],[139.75108589406815,35.56045308129827],[139.75109827234846,35.56064616739807]]]}},{"type":"Feature","properties":{"height":2.1,"gml_id":"bldg_eb41531b-dc6a-4b7f-be55-9e13ec62c30a"},"geometry":{"type":"Polygon","coordinates":[[[139.75070846683792,35.558890895086066],[139.75044527894508,35.55888079915309],[139.7504465144345,35.55885934692361],[139.75070970225735,35.55886944285384],[139.75070846683792,35.558890895086066]]]}},{"type":"Feature","properties":{"height":9.9,"gml_id":"bldg_87720330-9f74-4e4c-8dbf-2652f8349105"},"geometry":{"type":"Polygon","coordinates":[[[139.75073571673138,35.56308057239101],[139.75076162626047,35.56309474194954],[139.75072363013055,35.563141227605406],[139.75069761027805,35.563127057963214],[139.75073571673138,35.56308057239101]]]}},{"type":"Feature","properties":{"height":8.1,"gml_id":"bldg_da055de6-6d4a-4122-a1a2-952b3b6cdf18"},"geometry":{"type":"Polygon","coordinates":[[[139.75344758875394,35.562641710537164],[139.7533160586792,35.56278800893891],[139.75322719625484,35.562736480600456],[139.75328650037193,35.56267098898568],[139.75321550464267,35.56262388930625],[139.7532886125935,35.56254371421504],[139.75344758875394,35.562641710537164]]]}},{"type":"Feature","properties":{"height":3.2,"gml_id":"bldg_8f531d1f-10ee-4f04-9caa-32fd9a396289"},"geometry":{"type":"Polygon","coordinates":[[[139.75191709306316,35.56252413709129],[139.75189691803396,35.5625117744319],[139.75193303064623,35.5624724081049],[139.75195320567113,35.562484770758324],[139.75191709306316,35.56252413709129]]]}},{"type":"Feature","properties":{"height":14.0,"gml_id":"bldg_256d77b4-e526-4ace-becd-1a21fbeb63d4"},"geometry":{"type":"Polygon","coordinates":[[[139.75151445163456,35.56262662290391],[139.75147038629444,35.56267562857037],[139.75140313406095,35.56263664286996],[139.75144786213227,35.56258682642752],[139.75151445163456,35.56262662290391]]]}},{"type":"Feature","properties":{"height":9.3,"gml_id":"bldg_e1f6bfa7-c090-45c3-a7a1-3ecb29ad4108"},"geometry":{"type":"Polygon","coordinates":[[[139.7504932899568,35.560677572298445],[139.75055628077217,35.560674911392844],[139.75055670431666,35.5606921282249],[139.75049437619353,35.56069397833538],[139.7504932899568,35.560677572298445]]]}},{"type":"Feature","properties":{"height":2.6,"gml_id":"bldg_77b0b947-7315-49f1-a1d6-5d6e3c192d86"},"geometry":{"type":"Polygon","coordinates":[[[139.7511751883604,35.56007762324499],[139.75117313863183,35.56003237208562],[139.75122686179293,35.560030696042055],[139.75122902195463,35.56007585713678],[139.7511751883604,35.56007762324499]]]}},{"type":"Feature","properties":{"height":8.2,"gml_id":"bldg_a2dd4407-b15f-4cea-a86f-f7e5a4d136b9"},"geometry":{"type":"Polygon","coordinates":[[[139.7522125128002,35.56241689061234],[139.75215990902345,35.56240090061584],[139.75217074380421,35.56237711123121],[139.75222334747681,35.5623931913619],[139.7522125128002,35.56241689061234]]]}},{"type":"Feature","properties":{"height":5.8,"gml_id":"bldg_c09899d4-3407-4893-aadb-65a9f4d7909c"},"geometry":{"type":"Polygon","coordinates":[[[139.75414575799022,35.56010118741587],[139.75426909800666,35.56008986578025],[139.75429459991346,35.56027730575617],[139.75417124755887,35.56028854628419],[139.7541709321421,35.56028622770283],[139.75415582145925,35.560287588794324],[139.75413115000512,35.56010403071918],[139.7541459462365,35.56010270097283],[139.75414575799022,35.56010118741587]]]}},{"type":"Feature","properties":{"height":7.2,"gml_id":"bldg_b06a1399-93a9-4b78-8344-a4849fde1481"},"geometry":{"type":"Polygon","coordinates":[[[139.7506375464927,35.56167460813907],[139.75055108516744,35.56165102254048],[139.7505800601316,35.561580103081255],[139.75066663160976,35.56160377887375],[139.7506375464927,35.56167460813907]]]}}]}