{"type":"FeatureCollection","crs":{"type":"name","properties":{"name":"urn:ogc:def:crs:OGC:1.3:CRS84"}},"features":[{"type":"Feature","properties":{"height":12.6,"gml_id":"bldg_2f22148b-b5bf-4ef6-89e2-8ef7e04a7818"},"geometry":{"type":"Polygon","coordinates":[[[139.77988963954962,35.58427016986191],[139.7796352342071,35.584032271098685],[139.77977786632283,35.583930477906456],[139.78003227176606,35.58416837637274],[139.77988963954962,35.58427016986191]]]}},{"type":"Feature","properties":{"height":31.6,"gml_id":"bldg_495e06ef-9344-4202-a852-817d0737ee7c"},"geometry":{"type":"Polygon","coordinates":[[[139.77809983696616,35.58510125229359],[139.77816236461894,35.58515851894766],[139.77771479552877,35.58548749944787],[139.7771802946284,35.58499230052655],[139.7777490762591,35.58458279401739],[139.77780288996433,35.584632755615836],[139.77772693498238,35.584687434739905],[139.77768288546307,35.584719143203394],[139.77809983696616,35.58510125229359]]]}},{"type":"Feature","properties":{"height":3.3,"gml_id":"bldg_6c56a16b-9216-4aa7-ba7e-c5977bad4078"},"geometry":{"type":"Polygon","coordinates":[[[139.7801633724302,35.58431734328242],[139.7801323507839,35.58433986425009],[139.7801052224888,35.5843150641519],[139.7801362441927,35.58429245305254],[139.7801633724302,35.58431734328242]]]}},{"type":"Feature","properties":{"height":9.9,"gml_id":"bldg_dca6fc0b-7332-465b-bca6-d381d9baed69"},"geometry":{"type":"Polygon","coordinates":[[[139.77831341872417,35.58339538638586],[139.778359565326,35.58336142517506],[139.77845506329126,35.58344800178247],[139.7784112355474,35.5834795303428],[139.77831341872417,35.58339538638586]]]}},{"type":"Feature","properties":{"height":2.9,"gml_id":"bldg_a9194746-ee6d-4cd4-b2c2-614e9e4053b5"},"geometry":{"type":"Polygon","coordinates":[[[139.78034547886986,35.584594149043006],[139.78031368469544,35.58461675985529],[139.78029725356035,35.584601248784075],[139.78032904773323,35.58457863797607],[139.78034547886986,35.584594149043006]]]}},{"type":"Feature","properties":{"height":16.5,"gml_id":"bldg_0ede30c5-7efa-4434-b950-0dc3252acc14"},"geometry":{"type":"Polygon","coordinates":[[[139.77855001758905,35.585467150077484],[139.77826108557747,35.58521273739835],[139.7782980685897,35.585187515479724],[139.77858556545738,35.58544291894411],[139.77855001758905,35.585467150077484]]]}},{"type":"Feature","properties":{"height":2.9,"gml_id":"bldg_7fcd6542-2cd4-47eb-9ef1-db53733acf8d"},"geometry":{"type":"Polygon","coordinates":[[[139.78030882768715,35.58461955201592],[139.78027504651442,35.58464333374582],[139.78025982839986,35.58462899500558],[139.78029349922636,35.58460521323134],[139.78030882768715,35.58461955201592]]]}},{"type":"Feature","properties":{"height":24.4,"gml_id":"bldg_fe2f460a-8587-44bb-9f0d-65a8c80bed1b"},"geometry":{"type":"Polygon","coordinates":[[[139.7793721236294,35.583778864048384],[139.77955076648408,35.583948945346656],[139.7796005002113,35.583995839614204],[139.77947122855085,35.58408393749503],[139.7794491744339,35.58406202395165],[139.77924781662344,35.58386831599475],[139.7793721236294,35.583778864048384]]]}},{"type":"Feature","properties":{"height":9.0,"gml_id":"bldg_42f3847d-ba29-4a7f-af64-8c384d69fecb"},"geometry":{"type":"Polygon","coordinates":[[[139.78029268413468,35.58466993240091],[139.78027226012645,35.584685427254],[139.78023796289298,35.58465512557524],[139.7802584972448,35.58463963077646],[139.78029268413468,35.58466993240091]]]}},{"type":"Feature","properties":{"height":31.9,"gml_id":"bldg_090517cc-60f8-412a-a2f1-21a7164c0fce"},"geometry":{"type":"Polygon","coordinates":[[[139.77855001758905,35.585467150077484],[139.77856435389484,35.58547986613595],[139.7785646800834,35.58548698723397],[139.77854037955055,35.58552285135444],[139.778103524457,35.58583759624922],[139.7777583622811,35.58551627375818],[139.77833145653324,35.58509450767415],[139.7783734694659,35.585136441292086],[139.7782980685897,35.585187515479724],[139.77826108557747,35.58521273739835],[139.77855001758905,35.585467150077484]]]}},{"type":"Feature","properties":{"height":32.0,"gml_id":"bldg_08ab5bf6-881c-4deb-92d7-0dd91491668b"},"geometry":{"type":"Polygon","coordinates":[[[139.77893400926322,35.58499544837398],[139.7789818690519,35.585039908300445],[139.77888747790553,35.585107740074854],[139.7785350372573,35.58478010677787],[139.7786294283157,35.58471227527569],[139.7789085355017,35.5849718205579],[139.77893400926322,35.58499544837398]]]}},{"type":"Feature","properties":{"height":3.0,"gml_id":"bldg_5606d4c5-013a-49b4-90fc-7f702eebeca5"},"geometry":{"type":"Polygon","coordinates":[[[139.7787634610573,35.58639206892219],[139.77874380929768,35.58640675261385],[139.77872759873344,35.58639133157175],[139.77869116219944,35.586423674813375],[139.77867053977795,35.58640527718998],[139.77872927425776,35.58636140631829],[139.7787634610573,35.58639206892219]]]}},{"type":"Feature","properties":{"height":32.3,"gml_id":"bldg_6a620f07-9738-4c46-8674-e5d01056fae6"},"geometry":{"type":"Polygon","coordinates":[[[139.7754841837472,35.58958676306318],[139.77546014314382,35.589564487302155],[139.77550541070877,35.589531878877104],[139.7754550137147,35.589485162921136],[139.77541062942134,35.589517140782185],[139.7752601003943,35.58937771415819],[139.77529432709383,35.58935303268315],[139.77514379844501,35.58921378618762],[139.77510780522869,35.58923972870679],[139.77493930203863,35.58908379763724],[139.77498180933574,35.58905317111699],[139.77493339781824,35.5890084389488],[139.77491219935175,35.589023752229146],[139.77489654002912,35.58900932246984],[139.77497327608967,35.58895104000755],[139.7755781460191,35.5895128043817],[139.7754841837472,35.58958676306318]]]}},{"type":"Feature","properties":{"height":15.1,"gml_id":"bldg_ad891437-e2ad-42f3-a188-6bb422abb037"},"geometry":{"type":"Polygon","coordinates":[[[139.78093150764127,35.58342674944826],[139.7809120988364,35.58340898369738],[139.78093130744955,35.58339529097676],[139.78099356976523,35.58335096981876],[139.78101333035843,35.58333682663144],[139.7810314155803,35.58335378054417],[139.78101198595638,35.583368014016735],[139.78095049574534,35.58341278621286],[139.78093150764127,35.58342674944826]]]}},{"type":"Feature","properties":{"height":22.9,"gml_id":"bldg_04b1f5bd-6dbe-49df-b361-a29072930b18"},"geometry":{"type":"Polygon","coordinates":[[[139.78093150764127,35.58342674944826],[139.78098642580784,35.58347698053155],[139.7807948890546,35.583616882498646],[139.7807030301655,35.5835295882262],[139.7808925796972,35.58339121789532],[139.7809120988364,35.58340898369738],[139.78093150764127,35.58342674944826]]]}},{"type":"Feature","properties":{"height":30.4,"gml_id":"bldg_d43ba8c0-c07a-4041-a123-7315c8081b8e"},"geometry":{"type":"Polygon","coordinates":[[[139.77809983696616,35.58510125229359],[139.77768288546307,35.584719143203394],[139.77772693498238,35.584687434739905],[139.77814189864532,35.58507197651207],[139.77809983696616,35.58510125229359]]]}},{"type":"Feature","properties":{"height":5.6,"gml_id":"bldg_48c218dc-29a5-4044-bf69-9e8c625c732b"},"geometry":{"type":"Polygon","coordinates":[[[139.78092808642631,35.584782523049824],[139.78092422564646,35.584780538321624],[139.78091738690534,35.58477647911014],[139.78091076914845,35.58477196930128],[139.78090459306566,35.584767008991115],[139.78089874819457,35.584761778408826],[139.78089345528372,35.58475618751193],[139.78088871427428,35.58475032643907],[139.7808844148213,35.58474419514232],[139.78088066726957,35.58473779366973],[139.7808775818463,35.584731302346555],[139.78087526830828,35.58472562260677],[139.78087328651054,35.58471886134792],[139.78087174626882,35.58471182986536],[139.7808708680962,35.584704798670955],[139.7808706519925,35.58469776776467],[139.7808709876128,35.58469073709854],[139.78087187495692,35.58468370667254],[139.78087353465548,35.58467676672127],[139.78087541445538,35.58467072825196],[139.7809029968263,35.58467659926316],[139.78090133824674,35.584681826581566],[139.7809001209873,35.58468714423053],[139.78089945545167,35.58469246211949],[139.78089912089158,35.58469787029106],[139.78089933805546,35.584703278702605],[139.78089999659863,35.58470868730616],[139.78090120692477,35.584714006011104],[139.7809027483443,35.58471923472145],[139.78090440075513,35.58472347195524],[139.78090682505126,35.584728520772295],[139.7809096908446,35.5847333895041],[139.7809129981352,35.5847380781506],[139.7809166365782,35.58474258666378],[139.78092071657733,35.584746824953],[139.78092512778767,35.58475079297023],[139.78092987015054,35.58475458085404],[139.7809349437834,35.58475800832721],[139.78094034856875,35.584761255666855],[139.7809434371687,35.584762879504446],[139.78092808642631,35.584782523049824]]]}},{"type":"Feature","properties":{"height":2.6,"gml_id":"bldg_3131044e-1ba3-4a8b-9921-c911a4d72fb5"},"geometry":{"type":"Polygon","coordinates":[[[139.77872370763492,35.586433965362595],[139.77870826858077,35.58641989674637],[139.77873277788825,35.58640188013321],[139.77874821694323,35.586415948746335],[139.77872370763492,35.586433965362595]]]}},{"type":"Feature","properties":{"height":33.0,"gml_id":"bldg_a84526e7-dac4-4451-991e-ae93b70977ee"},"geometry":{"type":"Polygon","coordinates":[[[139.77995559167056,35.585484907061605],[139.7784281476662,35.58408274576399],[139.77899183012158,35.58368891512218],[139.77941573865425,35.58406435260416],[139.780506709852,35.585071684061916],[139.77995559167056,35.585484907061605]]]}},{"type":"Feature","properties":{"height":12.7,"gml_id":"bldg_1fa80734-e205-4328-ba71-7604dddc485a"},"geometry":{"type":"Polygon","coordinates":[[[139.7784281476662,35.58408274576399],[139.77995559167056,35.585484907061605],[139.77992611513622,35.58550625685396],[139.77917710841785,35.58481879602187],[139.77893400926322,35.58499544837398],[139.7789085355017,35.5849718205579],[139.7791550570336,35.58479264591358],[139.77840231431622,35.58410157296667],[139.7784281476662,35.58408274576399]]]}},{"type":"Feature","properties":{"height":16.0,"gml_id":"bldg_7581104c-ffb6-4d32-86ec-c01c09fa56f1"},"geometry":{"type":"Polygon","coordinates":[[[139.77560067678397,35.5905622080062],[139.77556526615103,35.590544614026186],[139.77564358117644,35.59044027112086],[139.77567722665458,35.59045714312554],[139.77560067678397,35.5905622080062]]]}},{"type":"Feature","properties":{"height":26.1,"gml_id":"bldg_e7ba6cdb-0c5c-4f1d-b2d8-d2c69f78f78b"},"geometry":{"type":"Polygon","coordinates":[[[139.7751668196141,35.591560553928964],[139.7751923362013,35.591526313606025],[139.77525091329375,35.59155536645045],[139.77555722106834,35.591144121488895],[139.7755171769575,35.59112427181212],[139.77561305634543,35.59099550982217],[139.77565354163576,35.59101563009417],[139.7758578917099,35.59074125591408],[139.77579898412472,35.59071193278756],[139.7758268198421,35.59067453858384],[139.77593370955242,35.59073390068662],[139.77528033706204,35.591611897473676],[139.7751668196141,35.591560553928964]]]}},{"type":"Feature","properties":{"height":20.2,"gml_id":"bldg_35e5839c-6755-4ee6-9d3f-d4f174e18e13"},"geometry":{"type":"Polygon","coordinates":[[[139.77551970670632,35.59052196741043],[139.77485992492836,35.591408161478306],[139.77475369566403,35.59135096207518],[139.77541027343338,35.59047098659949],[139.77551970670632,35.59052196741043]]]}},{"type":"Feature","properties":{"height":2.3,"gml_id":"bldg_8a9d3aff-4164-42c3-be83-9e72e05d53f5"},"geometry":{"type":"Polygon","coordinates":[[[139.77873710697483,35.58538890451714],[139.77870457628651,35.58535752154259],[139.77873151336513,35.58533878491781],[139.77876415440213,35.58537016793514],[139.77873710697483,35.58538890451714]]]}},{"type":"Feature","properties":{"height":5.5,"gml_id":"bldg_03de9fa3-fd15-4851-8f51-cae05b635ac4"},"geometry":{"type":"Polygon","coordinates":[[[139.77871872679378,35.58531885849252],[139.77874312449975,35.58530219390235],[139.7787888874915,35.58534710364659],[139.7787643794968,35.58536367805734],[139.77871872679378,35.58531885849252]]]}},{"type":"Feature","properties":{"height":18.6,"gml_id":"bldg_d0a4b0c9-9aec-460e-a3f4-6b3bfcf8c07c"},"geometry":{"type":"Polygon","coordinates":[[[139.7794340054532,35.58381007970195],[139.7793756699207,35.58375606056221],[139.77966468658,35.58355031295548],[139.7797216982184,35.58360406095248],[139.7794340054532,35.58381007970195]]]}},{"type":"Feature","properties":{"height":5.1,"gml_id":"bldg_db73dc69-3996-4d77-847e-44ef5394f249"},"geometry":{"type":"Polygon","coordinates":[[[139.77601336943238,35.59044540517151],[139.7760439260781,35.59046092352687],[139.77602437527858,35.59048669385158],[139.77599381856257,35.59047126562984],[139.77601336943238,35.59044540517151]]]}},{"type":"Feature","properties":{"height":6.7,"gml_id":"bldg_4a39bc0b-e6e6-4ab5-8689-9c9847b1887c"},"geometry":{"type":"Polygon","coordinates":[[[139.77531550202949,35.59166464543559],[139.77534499959518,35.59162049176092],[139.77541791930332,35.591652976687044],[139.77538831251488,35.591697130326835],[139.77531550202949,35.59166464543559]]]}},{"type":"Feature","properties":{"height":6.9,"gml_id":"bldg_297bfe75-d27f-4afd-85c2-d405e37e83e0"},"geometry":{"type":"Polygon","coordinates":[[[139.7786476890067,35.58625608745399],[139.77859034504593,35.586202519098435],[139.7785473991804,35.586233236846375],[139.7785258952327,35.5862131261637],[139.7785840762601,35.58617168885174],[139.77861583596734,35.5862013588714],[139.7786713673915,35.586161723086256],[139.77866122198066,35.58615216379375],[139.778688380458,35.58613279631145],[139.77869863615518,35.586142445790294],[139.77870316257713,35.5861392028525],[139.7787500301634,35.586183121581534],[139.7786476890067,35.58625608745399]]]}},{"type":"Feature","properties":{"height":18.3,"gml_id":"bldg_fcccb049-694d-438e-a924-8efed6b7a4d7"},"geometry":{"type":"Polygon","coordinates":[[[139.7795000592678,35.58387284570749],[139.77944591428633,35.583822434018984],[139.7796307196756,35.58368739868875],[139.7796891675369,35.58373862345813],[139.7795000592678,35.58387284570749]]]}},{"type":"Feature","properties":{"height":14.1,"gml_id":"bldg_b9610a1f-e3b4-4cd1-965a-dc6c704670e6"},"geometry":{"type":"Polygon","coordinates":[[[139.78056670268967,35.58377948305466],[139.78046833377908,35.583691915339806],[139.7806784204467,35.58353444496455],[139.78077678939385,35.583622012510276],[139.78056670268967,35.58377948305466]]]}},{"type":"Feature","properties":{"height":3.3,"gml_id":"bldg_449ff6c7-43ba-4e3b-bc55-7694b179d6e6"},"geometry":{"type":"Polygon","coordinates":[[[139.77783872125326,35.58451739468639],[139.77786334101683,35.584498657186046],[139.77789973284086,35.58453040272208],[139.77787511307605,35.584549140229754],[139.77783872125326,35.58451739468639]]]}},{"type":"Feature","properties":{"height":2.7,"gml_id":"bldg_d0cd92bf-4413-4ec6-9b30-12df6ba12bc7"},"geometry":{"type":"Polygon","coordinates":[[[139.77781323552108,35.58451179435557],[139.7778371651105,35.584533799198624],[139.777792232215,35.58456658895963],[139.77776819228356,35.58454458405691],[139.77781323552108,35.58451179435557]]]}},{"type":"Feature","properties":{"height":2.8,"gml_id":"bldg_b2576fa0-332a-49c3-b730-b0dd34c0c931"},"geometry":{"type":"Polygon","coordinates":[[[139.77583177869423,35.58481959013992],[139.7758709710522,35.584791755998765],[139.77592379088173,35.58484135740566],[139.7758844881728,35.58486919151116],[139.77583177869423,35.58481959013992]]]}},{"type":"Feature","properties":{"height":9.6,"gml_id":"bldg_12ade047-aa83-47cc-9119-98220eda0b7e"},"geometry":{"type":"Polygon","coordinates":[[[139.78136872580893,35.58558693051093],[139.78105244496592,35.585292130633476],[139.78111504007242,35.58524726873997],[139.78143132096884,35.58554206845542],[139.78136872580893,35.58558693051093]]]}},{"type":"Feature","properties":{"height":3.0,"gml_id":"bldg_e7527192-18b3-42fc-ba5a-a58dd635ca09"},"geometry":{"type":"Polygon","coordinates":[[[139.78211799272054,35.58382693412689],[139.78209835460189,35.58382214843362],[139.78212587864851,35.58374599298552],[139.78214551675026,35.58375077867435],[139.78211799272054,35.58382693412689]]]}},{"type":"Feature","properties":{"height":3.1,"gml_id":"bldg_00d6b1df-05f0-4cfa-8772-57e0eb41b33a"},"geometry":{"type":"Polygon","coordinates":[[[139.78201884431783,35.58357477420006],[139.78201435446255,35.58352113980021],[139.7820354307583,35.58351997696947],[139.78203981028435,35.583573611321576],[139.78201884431783,35.58357477420006]]]}},{"type":"Feature","properties":{"height":3.4,"gml_id":"bldg_c24bdd2c-6609-4801-be88-e8b5627794cc"},"geometry":{"type":"Polygon","coordinates":[[[139.78187370409654,35.58346294041475],[139.78181709808345,35.58346291623506],[139.78181712573644,35.58341973983956],[139.78187373171914,35.58341976401922],[139.78187370409654,35.58346294041475]]]}},{"type":"Feature","properties":{"height":10.0,"gml_id":"bldg_b4a9685a-0aa6-4d08-bfec-eeca97fbfffc"},"geometry":{"type":"Polygon","coordinates":[[[139.7816937655545,35.583586353391965],[139.78167247572864,35.58357633888067],[139.78172184387466,35.583506682863906],[139.78174302334506,35.583516697319375],[139.7816937655545,35.583586353391965]]]}},{"type":"Feature","properties":{"height":3.9,"gml_id":"bldg_98f9f554-8001-4afa-b0b7-a48daf9be754"},"geometry":{"type":"Polygon","coordinates":[[[139.78112522242108,35.58401021074013],[139.78109112874589,35.584006229868486],[139.78107746350108,35.583979452772205],[139.7811018630634,35.58395855118575],[139.78113374931664,35.583963342346124],[139.78114620091233,35.58398993863338],[139.78112522242108,35.58401021074013]]]}},{"type":"Feature","properties":{"height":4.0,"gml_id":"bldg_dd498925-d407-44db-bdb2-e9a9547f903d"},"geometry":{"type":"Polygon","coordinates":[[[139.77860495645095,35.58548682525107],[139.77857793987536,35.585460131953916],[139.77864384661942,35.58541563340441],[139.77867075291744,35.58544223649839],[139.77860495645095,35.58548682525107]]]}},{"type":"Feature","properties":{"height":7.0,"gml_id":"bldg_8e1dabad-e1bd-452a-85a8-3c6910030ccd"},"geometry":{"type":"Polygon","coordinates":[[[139.78108962378874,35.58462439989915],[139.78106654962212,35.58464304858997],[139.78106566733294,35.584642327098436],[139.78106048370856,35.5846383587513],[139.78105496881622,35.58463475081473],[139.78104912265587,35.5846315032887],[139.78104305563082,35.584628526082426],[139.78103676768237,35.58462590933447],[139.78103014840715,35.5846237431355],[139.78102352889783,35.584621937490546],[139.7810165781202,35.584620492255915],[139.78101337847593,35.584619950035396],[139.78100642728816,35.584619135770346],[139.78099936552124,35.58461868201136],[139.78099230346112,35.58461867894493],[139.78098524110766,35.584619126571056],[139.78097817851943,35.58461993475114],[139.78097133638573,35.58462110358106],[139.78096449395838,35.58462272310356],[139.7809578719267,35.58462479341453],[139.78094663297108,35.58459991027142],[139.78095435862375,35.58459757002479],[139.78096329794977,35.58459541058222],[139.78097256795724,35.58459379211436],[139.78098183761233,35.584592714477346],[139.78099121725987,35.58459217771911],[139.78100059655537,35.584592181791706],[139.7810099754404,35.58459281683373],[139.78101891271248,35.584593812237834],[139.78102376734972,35.58459462559231],[139.78103259375,35.58459643219486],[139.7810415300851,35.584598869814805],[139.78105024537987,35.584601848169925],[139.7810586293484,35.5846052770738],[139.7810666819907,35.584609156526525],[139.78107440324837,35.584613576666754],[139.78108168289387,35.58461835716954],[139.78108830035498,35.584623317662086],[139.78108962378874,35.58462439989915]]]}},{"type":"Feature","properties":{"height":22.2,"gml_id":"bldg_521b7072-88a7-409e-9114-7b49a53d71d6"},"geometry":{"type":"Polygon","coordinates":[[[139.7794699060398,35.58325763605694],[139.77966300078015,35.58343087851267],[139.7792968133138,35.58369797595739],[139.77910769308247,35.583521760135945],[139.7794699060398,35.58325763605694]]]}},{"type":"Feature","properties":{"height":25.1,"gml_id":"bldg_a28c9ea5-276a-4b63-83d9-eb0d30d88d57"},"geometry":{"type":"Polygon","coordinates":[[[139.7801021550565,35.584114774772615],[139.7798328534801,35.58387641914772],[139.78014749112288,35.58363733046205],[139.78041403542736,35.5838738814104],[139.7801021550565,35.584114774772615]]]}},{"type":"Feature","properties":{"height":38.5,"gml_id":"bldg_6dc12cf0-c247-4169-bb1c-9a74f499e086"},"geometry":{"type":"Polygon","coordinates":[[[139.78291337293228,35.583965812534025],[139.78261738051523,35.58369554287717],[139.78295739396575,35.583447083101795],[139.78325338655688,35.583717442073656],[139.78291337293228,35.583965812534025]]]}},{"type":"Feature","properties":{"height":16.5,"gml_id":"bldg_03083e4e-3e05-40b0-ad04-1d32f804f318"},"geometry":{"type":"Polygon","coordinates":[[[139.77984440499796,35.58359654382195],[139.77982323437837,35.58357354907368],[139.7798365914275,35.58356526224823],[139.7797506857419,35.58348761472579],[139.7798841528257,35.58339401993954],[139.77999895887345,35.58348610234103],[139.77984440499796,35.58359654382195]]]}},{"type":"Feature","properties":{"height":3.0,"gml_id":"bldg_4f3f8802-a336-4096-858b-858baf166939"},"geometry":{"type":"Polygon","coordinates":[[[139.7751825499611,35.59056191685726],[139.77518213807764,35.59052108390547],[139.7752219756257,35.59052083270406],[139.7752224978822,35.59056166570892],[139.7751825499611,35.59056191685726]]]}},{"type":"Feature","properties":{"height":16.4,"gml_id":"bldg_348a464d-02e0-4368-8c05-bd63979fb6c8"},"geometry":{"type":"Polygon","coordinates":[[[139.78032612071726,35.58366210713468],[139.78008616103764,35.5834391786649],[139.78015736920418,35.58338341428394],[139.780404169488,35.58360742728165],[139.78032612071726,35.58366210713468]]]}},{"type":"Feature","properties":{"height":5.5,"gml_id":"bldg_6f156543-ef30-4572-9db2-79ecb5cb0e29"},"geometry":{"type":"Polygon","coordinates":[[[139.78038950892363,35.58475795026016],[139.78033503157644,35.58470780924784],[139.78043505157842,35.5846354718741],[139.78048941859427,35.58468561279344],[139.78038950892363,35.58475795026016]]]}},{"type":"Feature","properties":{"height":4.3,"gml_id":"bldg_3ba373e3-7e68-478d-8dc0-8c14c3347646"},"geometry":{"type":"Polygon","coordinates":[[[139.77878971564706,35.586078488637135],[139.77882037296484,35.58610662574837],[139.7787455209321,35.58616103558367],[139.77871475327308,35.58613289840363],[139.77878971564706,35.586078488637135]]]}},{"type":"Feature","properties":{"height":3.2,"gml_id":"bldg_f958279d-b6c6-4123-84bd-5061c1f4d011"},"geometry":{"type":"Polygon","coordinates":[[[139.7802754147116,35.58458699727098],[139.78024839675268,35.584562016977316],[139.78022256379325,35.584580664291664],[139.7801996261022,35.58455947160689],[139.78022435501916,35.58454172519714],[139.78024541798365,35.58456120441781],[139.78028262189332,35.584534269350655],[139.78031151458293,35.58456096309524],[139.7802754147116,35.58458699727098]]]}},{"type":"Feature","properties":{"height":6.7,"gml_id":"bldg_851a1143-a792-4e6f-9b84-662614904aa6"},"geometry":{"type":"Polygon","coordinates":[[[139.78043508585034,35.583744451576024],[139.78041468434336,35.58372614447853],[139.78044117898494,35.583707587549206],[139.78046158144133,35.58372445242456],[139.78043508585034,35.583744451576024]]]}},{"type":"Feature","properties":{"height":2.2,"gml_id":"bldg_dfb57678-7050-4530-b067-83178a992a44"},"geometry":{"type":"Polygon","coordinates":[[[139.77871665854934,35.586089632740965],[139.77868104075824,35.58605401185065],[139.77870819840177,35.586035816164944],[139.77874381619688,35.58607143704733],[139.77871665854934,35.586089632740965]]]}},{"type":"Feature","properties":{"height":32.1,"gml_id":"bldg_5f18ed44-0419-471f-a4af-8ac93e3b821c"},"geometry":{"type":"Polygon","coordinates":[[[139.7751668196141,35.591560553928964],[139.77485992492836,35.591408161478306],[139.77551970670632,35.59052196741043],[139.77556526615103,35.590544614026186],[139.77560067678397,35.5905622080062],[139.7758268198421,35.59067453858384],[139.77579898412472,35.59071193278756],[139.7758578917099,35.59074125591408],[139.77565354163576,35.59101563009417],[139.77561305634543,35.59099550982217],[139.7755171769575,35.59112427181212],[139.77555722106834,35.591144121488895],[139.77525091329375,35.59155536645045],[139.7751923362013,35.591526313606025],[139.7751668196141,35.591560553928964]]]}},{"type":"Feature","properties":{"height":14.6,"gml_id":"bldg_bf68900e-25cc-4291-84a9-9872b7d83e3f"},"geometry":{"type":"Polygon","coordinates":[[[139.77564358117644,35.59044027112086],[139.77557684176668,35.59040688790165],[139.77564808729477,35.59031200614882],[139.77571262031523,35.590344396750446],[139.7757531583568,35.590290423143585],[139.77601956453648,35.590423865009],[139.77594246505325,35.59052658624445],[139.7758150532324,35.590462707429104],[139.7757804798076,35.59050884185158],[139.77567722665458,35.59045714312554],[139.77564358117644,35.59044027112086]]]}}]}