{"type":"FeatureCollection","crs":{"type":"name","properties":{"name":"urn:ogc:def:crs:OGC:1.3:CRS84"}},"features":[{"type":"Feature","properties":{"height":2.0,"gml_id":"bldg_9932172c-9b3a-4b4b-a07e-bc8caf7c66f7"},"geometry":{"type":"Polygon","coordinates":[[[139.77497421380338,35.55342895495985],[139.77499847186792,35.5534405045008],[139.77490395700144,35.55357332374592],[139.7748796988451,35.55356186432523],[139.77497421380338,35.55342895495985]]]}},{"type":"Feature","properties":{"height":3.0,"gml_id":"bldg_6aeb1e0e-d34c-4efe-bb14-ae410783af21"},"geometry":{"type":"Polygon","coordinates":[[[139.774846598659,35.554182455819216],[139.77485519947456,35.554186335970876],[139.77486138311667,35.55417714478429],[139.77487671018758,35.55418409292446],[139.77485992613768,35.55420887303114],[139.77487150415593,35.554214106711434],[139.77485979947053,35.554231407737646],[139.7748464571916,35.554225361948845],[139.77483364835555,35.554244194801115],[139.77481159501951,35.554234178662746],[139.774846598659,35.554182455819216]]]}},{"type":"Feature","properties":{"height":1.8,"gml_id":"bldg_913778aa-4bf1-44c4-8a53-e96b73ce1f63"},"geometry":{"type":"Polygon","coordinates":[[[139.77499748809666,35.5534281549704],[139.77498094842593,35.553420395006206],[139.77499740032349,35.55339705694399],[139.7750139399257,35.553404907045014],[139.77499748809666,35.5534281549704]]]}}]}