{"type":"FeatureCollection","crs":{"type":"name","properties":{"name":"urn:ogc:def:crs:OGC:1.3:CRS84"}},"features":[{"type":"Feature","properties":{"height":2.0,"gml_id":"bldg_983a196e-e8d2-4527-87e0-b1f9ad0d93bb"},"geometry":{"type":"Polygon","coordinates":[[[139.81162379098157,35.59111554213084],[139.81164574809873,35.59112762464715],[139.8116245532366,35.59115340045151],[139.8116025961156,35.59114131793139],[139.81162379098157,35.59111554213084]]]}},{"type":"Feature","properties":{"height":10.8,"gml_id":"bldg_604950eb-b8f4-4b1d-9c12-b95916d1137b"},"geometry":{"type":"Polygon","coordinates":[[[139.81190050008794,35.5913325550983],[139.81180203215226,35.5914528724825],[139.81151427122805,35.59129588955394],[139.81156902488408,35.59122892652602],[139.81154640567695,35.59121666359918],[139.81157113309598,35.591186471658716],[139.8115964003743,35.5912002674136],[139.81161549785543,35.591177015115356],[139.81190050008794,35.5913325550983]]]}},{"type":"Feature","properties":{"height":2.2,"gml_id":"bldg_9ebbc2c4-693a-4599-be55-d4db016d23f2"},"geometry":{"type":"Polygon","coordinates":[[[139.8120241926441,35.590136889325606],[139.8120247396525,35.590154826993114],[139.81199008883135,35.59015554197039],[139.81198954183068,35.590137604302726],[139.8120241926441,35.590136889325606]]]}},{"type":"Feature","properties":{"height":4.0,"gml_id":"bldg_04a719ea-f38e-4565-9a34-b0197a5b3665"},"geometry":{"type":"Polygon","coordinates":[[[139.80200732188595,35.59034697836256],[139.8020036819014,35.590342740905],[139.8019975007523,35.59034634483975],[139.80200069950197,35.59035013149011],[139.8019903240404,35.590356077936114],[139.80198767680795,35.59035292239874],[139.80198259946442,35.59035580551147],[139.80198601881355,35.5903598626352],[139.80195279533046,35.59037869294471],[139.80194253728675,35.590366521570424],[139.80197598154265,35.59034751104407],[139.80197818761016,35.59035003549716],[139.80198271305002,35.59034751279522],[139.8019812791342,35.59034579978995],[139.80199132343202,35.59034012367419],[139.80199231614844,35.59034129573338],[139.80199871803765,35.59033760171773],[139.80199651200496,35.59033498712647],[139.8020338194158,35.590313814263304],[139.8020441877841,35.5903260757971],[139.80200732188595,35.59034697836256]]]}},{"type":"Feature","properties":{"height":2.7,"gml_id":"bldg_2605f67f-28ac-45a8-b499-6c205785abb2"},"geometry":{"type":"Polygon","coordinates":[[[139.81207201406983,35.590407223266965],[139.81205920905848,35.59042272483676],[139.81202632875693,35.59040460118148],[139.81203913377172,35.59038909961511],[139.81207201406983,35.590407223266965]]]}},{"type":"Feature","properties":{"height":2.0,"gml_id":"bldg_e8a9bac2-5806-40cd-95e7-171c647a36c7"},"geometry":{"type":"Polygon","coordinates":[[[139.81115811873426,35.591442660214675],[139.8111782001489,35.591453660808064],[139.81115435560685,35.59148286130522],[139.8111342741633,35.591471950846426],[139.81115811873426,35.591442660214675]]]}},{"type":"Feature","properties":{"height":3.2,"gml_id":"bldg_d9e9ae8b-1cac-4fed-bb06-1c940751186c"},"geometry":{"type":"Polygon","coordinates":[[[139.81101934488643,35.591654369998395],[139.81096969316124,35.591626507991656],[139.81101097929778,35.591577480287896],[139.811060631032,35.59160525213933],[139.81101934488643,35.591654369998395]]]}},{"type":"Feature","properties":{"height":3.6,"gml_id":"bldg_a72af214-1832-4bf0-9a52-891c9621e8c7"},"geometry":{"type":"Polygon","coordinates":[[[139.81188850161743,35.590392047479696],[139.81190726793227,35.59036816410333],[139.81193617631249,35.59038322237566],[139.81191740997866,35.590407195895025],[139.81188850161743,35.590392047479696]]]}},{"type":"Feature","properties":{"height":3.6,"gml_id":"bldg_9f8bf27a-8531-46c4-8ce4-955aa01c3209"},"geometry":{"type":"Polygon","coordinates":[[[139.81194377990326,35.59042360579248],[139.81196188414103,35.590399542013124],[139.8119918960456,35.590414690606245],[139.8119737918134,35.59043875439004],[139.81194377990326,35.59042360579248]]]}},{"type":"Feature","properties":{"height":3.0,"gml_id":"bldg_e8437f63-8088-4734-97d3-8f64ecae82a5"},"geometry":{"type":"Polygon","coordinates":[[[139.80212448084717,35.59157577722718],[139.8021408059706,35.5915946204046],[139.80208859662275,35.59162489342474],[139.80213481445432,35.591678087125246],[139.80207830024557,35.591710882904664],[139.80201575735688,35.5916387558523],[139.80212448084717,35.59157577722718]]]}},{"type":"Feature","properties":{"height":2.8,"gml_id":"bldg_60b582e3-490f-4127-a6b1-162ccca20f71"},"geometry":{"type":"Polygon","coordinates":[[[139.80564644987388,35.585770632349096],[139.80563255154837,35.58575521545331],[139.80567989995876,35.585726562247174],[139.8056937982884,35.58574197913759],[139.80564644987388,35.585770632349096]]]}},{"type":"Feature","properties":{"height":2.8,"gml_id":"bldg_4e6af36b-8d64-4a09-a385-e5f0824ca511"},"geometry":{"type":"Polygon","coordinates":[[[139.8023247590661,35.59161413779332],[139.8023103090144,35.59159763872511],[139.8024183703012,35.59153411883279],[139.80243293071794,35.59155061791651],[139.8023247590661,35.59161413779332]]]}},{"type":"Feature","properties":{"height":2.7,"gml_id":"bldg_4c619d6b-9a71-4341-87f6-85e5d0ec8452"},"geometry":{"type":"Polygon","coordinates":[[[139.8024850297759,35.591519713748895],[139.8024703592075,35.59150267381204],[139.80252444462874,35.591471679997234],[139.80253900484882,35.591488719899424],[139.8024850297759,35.591519713748895]]]}},{"type":"Feature","properties":{"height":4.0,"gml_id":"bldg_64a22f89-6f37-4959-84f5-76d36fa3f956"},"geometry":{"type":"Polygon","coordinates":[[[139.8019895283137,35.59041574944319],[139.801978718637,35.59040321737444],[139.80200962433273,35.59038537797946],[139.80201403643693,35.59039051702288],[139.80201955529736,35.59038736360793],[139.80201602559274,35.590383306456495],[139.8020260699279,35.590377540199356],[139.80202937903277,35.59038132687759],[139.8020352290551,35.590377903132286],[139.80203026543276,35.59037213297663],[139.80206702108904,35.59035095996003],[139.80207783077248,35.59036349202096],[139.802040854373,35.59038475512205],[139.80203975133776,35.590383492896095],[139.80201789663806,35.590396016476895],[139.8020198821082,35.59039827045626],[139.8019895283137,35.59041574944319]]]}},{"type":"Feature","properties":{"height":3.6,"gml_id":"bldg_cdc42e88-41e9-4546-945c-0cf68937f9ca"},"geometry":{"type":"Polygon","coordinates":[[[139.81121733960111,35.588776733426556],[139.8111887498292,35.58880944847696],[139.8111389897991,35.588780324567246],[139.81116768990643,35.58874769968736],[139.81121733960111,35.588776733426556]]]}},{"type":"Feature","properties":{"height":1.6,"gml_id":"bldg_01872266-60fa-4593-9d04-d8701b8ed00a"},"geometry":{"type":"Polygon","coordinates":[[[139.8052827401317,35.586427207998696],[139.80529863349093,35.586417566866096],[139.80532301095917,35.58644416342088],[139.80530722791343,35.58645389472092],[139.8052827401317,35.586427207998696]]]}},{"type":"Feature","properties":{"height":3.0,"gml_id":"bldg_47b66172-526b-4cf2-8201-5d333e65d52f"},"geometry":{"type":"Polygon","coordinates":[[[139.80326095201676,35.58762502295994],[139.80324793618078,35.58761077781572],[139.8032958384452,35.58758167500073],[139.8033088542513,35.58759601027843],[139.80326095201676,35.58762502295994]]]}},{"type":"Feature","properties":{"height":2.9,"gml_id":"bldg_715e08c9-dd5e-4f9e-8258-2580022ba26f"},"geometry":{"type":"Polygon","coordinates":[[[139.80499880465106,35.586148342886815],[139.80498435550837,35.586130492045434],[139.8050343521535,35.5861033720739],[139.80504891164924,35.58612122293526],[139.80499880465106,35.586148342886815]]]}},{"type":"Feature","properties":{"height":3.0,"gml_id":"bldg_700d8400-21b2-4895-a83f-fd134e62321c"},"geometry":{"type":"Polygon","coordinates":[[[139.80505420981612,35.58611689752536],[139.80504042195457,35.5861013003109],[139.80508611494568,35.586074449723284],[139.80509979246474,35.58609004690674],[139.80505420981612,35.58611689752536]]]}},{"type":"Feature","properties":{"height":2.4,"gml_id":"bldg_8cf4a97d-d230-4efd-8d60-cbc8d8e6bce2"},"geometry":{"type":"Polygon","coordinates":[[[139.80514758691328,35.58604922530401],[139.80515751413614,35.586060585089434],[139.805139523927,35.58607112709962],[139.8051295967054,35.58605976731273],[139.80514758691328,35.58604922530401]]]}},{"type":"Feature","properties":{"height":2.9,"gml_id":"bldg_28ab308f-790a-4483-a17e-96a2a285d0dc"},"geometry":{"type":"Polygon","coordinates":[[[139.80517671783855,35.586050944746084],[139.80516160602554,35.58603471626577],[139.8052108312912,35.58600426091183],[139.80522583276175,35.5860204893603],[139.80517671783855,35.586050944746084]]]}},{"type":"Feature","properties":{"height":2.5,"gml_id":"bldg_7514f877-fa05-4dce-bded-90fe340983a9"},"geometry":{"type":"Polygon","coordinates":[[[139.8053119210773,35.58596904026002],[139.8052996775087,35.585954975790166],[139.80531590171802,35.58594560514729],[139.80532814528803,35.58595966961549],[139.8053119210773,35.58596904026002]]]}},{"type":"Feature","properties":{"height":3.2,"gml_id":"bldg_a3de11bf-b9e0-465e-891b-2bd72b8833ab"},"geometry":{"type":"Polygon","coordinates":[[[139.80533653325836,35.58595498435649],[139.8053210909566,35.58593713332421],[139.80536766650138,35.58591037297282],[139.80538299849312,35.58592813383502],[139.80533653325836,35.58595498435649]]]}},{"type":"Feature","properties":{"height":3.1,"gml_id":"bldg_187db752-a1df-4331-894b-eacf283e6a08"},"geometry":{"type":"Polygon","coordinates":[[[139.80539226985536,35.5859216460048],[139.80537837167788,35.58590586852569],[139.80542715474002,35.58587730589093],[139.80544105295343,35.5858929932259],[139.80539226985536,35.5859216460048]]]}},{"type":"Feature","properties":{"height":2.9,"gml_id":"bldg_1b503cdf-dcff-4918-b6b9-842180deb63c"},"geometry":{"type":"Polygon","coordinates":[[[139.80545418743293,35.58588362184925],[139.80544128230522,35.585868024884206],[139.80549315502125,35.585839462937464],[139.8055059498392,35.585854969732964],[139.80545418743293,35.58588362184925]]]}},{"type":"Feature","properties":{"height":2.9,"gml_id":"bldg_f56cf0d9-20a3-41ff-ab98-7e4174f06846"},"geometry":{"type":"Polygon","coordinates":[[[139.8055787938416,35.58581045805512],[139.80556500580627,35.585795221454255],[139.80561423049303,35.585765577181654],[139.80562801856365,35.585780723638344],[139.8055787938416,35.58581045805512]]]}},{"type":"Feature","properties":{"height":3.0,"gml_id":"bldg_ae10e4ea-69b0-448b-bca5-12fd45c169b7"},"geometry":{"type":"Polygon","coordinates":[[[139.80570969137005,35.58573260836539],[139.8056945799429,35.585715118010576],[139.80573707168358,35.585690519905576],[139.80575218311537,35.58570801025514],[139.80570969137005,35.58573260836539]]]}},{"type":"Feature","properties":{"height":2.0,"gml_id":"bldg_9861518f-2fe1-431f-9dff-d7f512ec15d7"},"geometry":{"type":"Polygon","coordinates":[[[139.80576057156009,35.585701792610124],[139.80575395329117,35.58569448986839],[139.80576885311723,35.58568547941552],[139.80577547138674,35.58569278215644],[139.80576057156009,35.585701792610124]]]}},{"type":"Feature","properties":{"height":2.6,"gml_id":"bldg_d058e6ae-8fd1-4cb6-9ce8-c6a19ef375e4"},"geometry":{"type":"Polygon","coordinates":[[[139.8052570678479,35.58600048586932],[139.8052502290643,35.58599273235589],[139.8052646874269,35.58598426269459],[139.80527152621116,35.585992016207214],[139.8052570678479,35.58600048586932]]]}},{"type":"Feature","properties":{"height":2.6,"gml_id":"bldg_9a27931e-e27d-4cf2-906f-4e4b88fe303a"},"geometry":{"type":"Polygon","coordinates":[[[139.80527825898915,35.58598733056691],[139.8052705377779,35.585978585324554],[139.8052852168918,35.58596993543495],[139.80529293807243,35.58597877081499],[139.80527825898915,35.58598733056691]]]}},{"type":"Feature","properties":{"height":1.9,"gml_id":"bldg_8688097a-7d98-4699-b165-92439d36aca3"},"geometry":{"type":"Polygon","coordinates":[[[139.8052174519625,35.5860046230108],[139.80522826816804,35.58599822569223],[139.8052397396821,35.586011208325985],[139.80522892347574,35.586017605645594],[139.8052174519625,35.5860046230108]]]}},{"type":"Feature","properties":{"height":1.9,"gml_id":"bldg_bb15318c-29c2-4167-a1b1-8bf12e45adb1"},"geometry":{"type":"Polygon","coordinates":[[[139.8049220441804,35.58603249670903],[139.8049145439198,35.58602312052576],[139.80493739000423,35.58601086705962],[139.80494489029815,35.58602015310288],[139.8049220441804,35.58603249670903]]]}},{"type":"Feature","properties":{"height":2.9,"gml_id":"bldg_afbe55b4-338c-4894-bce7-cc37a19338e5"},"geometry":{"type":"Polygon","coordinates":[[[139.80511856367977,35.58605507752304],[139.80513543958165,35.586075452797274],[139.8051086201091,35.58609031939002],[139.80509174421096,35.586069944112076],[139.80511856367977,35.58605507752304]]]}},{"type":"Feature","properties":{"height":9.0,"gml_id":"bldg_472ffcd4-7844-460c-aee4-1ee5ae73d077"},"geometry":{"type":"Polygon","coordinates":[[[139.80189614166227,35.59161718160474],[139.8017027566759,35.59172953374394],[139.80168444613463,35.591708436523255],[139.80187783106055,35.59159617455154],[139.80189614166227,35.59161718160474]]]}},{"type":"Feature","properties":{"height":4.6,"gml_id":"bldg_efaf1f61-2487-4393-b9c7-a47cebb86a82"},"geometry":{"type":"Polygon","coordinates":[[[139.81202819928345,35.59042524323843],[139.81206019712977,35.59044201465925],[139.81202895673147,35.5904819405153],[139.81199684852302,35.59046516906677],[139.81202819928345,35.59042524323843]]]}},{"type":"Feature","properties":{"height":3.8,"gml_id":"bldg_44455eb6-79b9-489c-abfd-cf1a2ef45b13"},"geometry":{"type":"Polygon","coordinates":[[[139.8112632629939,35.58871256318425],[139.81121270666813,35.58877024259954],[139.81114661740796,35.588731651145174],[139.81119728410712,35.58867397177751],[139.8112632629939,35.58871256318425]]]}}]}