{"type":"FeatureCollection","crs":{"type":"name","properties":{"name":"urn:ogc:def:crs:OGC:1.3:CRS84"}},"features":[{"type":"Feature","properties":{"height":3.2,"gml_id":"bldg_189cc887-182b-4a8d-8de0-2263e55bd0fa"},"geometry":{"type":"Polygon","coordinates":[[[139.75359691883844,35.580270164437685],[139.75353900677626,35.58025426170989],[139.75354774426964,35.5802333553224],[139.75352877121463,35.58022811471989],[139.7535453617894,35.58018801399483],[139.75362213643146,35.58020924737613],[139.75359691883844,35.580270164437685]]]}},{"type":"Feature","properties":{"height":16.8,"gml_id":"bldg_795e0a27-8721-4de3-a2a1-a8ef0c95ff81"},"geometry":{"type":"Polygon","coordinates":[[[139.75048418844528,35.579807005912905],[139.75022442342615,35.57972840644825],[139.7502624665101,35.57964433328814],[139.7505223416332,35.579722932747394],[139.75048418844528,35.579807005912905]]]}},{"type":"Feature","properties":{"height":4.4,"gml_id":"bldg_acb12c15-6cd9-4868-a708-a10259bd5c08"},"geometry":{"type":"Polygon","coordinates":[[[139.75055539681466,35.57976784451116],[139.75052428995173,35.57975962052618],[139.75053634823854,35.57972907179885],[139.7505675654288,35.579737295856496],[139.75055539681466,35.57976784451116]]]}},{"type":"Feature","properties":{"height":3.0,"gml_id":"bldg_6b40a328-77ec-444a-83c7-53110ffad38f"},"geometry":{"type":"Polygon","coordinates":[[[139.7502689143529,35.57810152396778],[139.75002117733194,35.57802707871447],[139.75003854003697,35.577989502875475],[139.75028506104655,35.578065028920115],[139.7502689143529,35.57810152396778]]]}},{"type":"Feature","properties":{"height":8.4,"gml_id":"bldg_e569507f-6f2d-4875-888e-6635f77de474"},"geometry":{"type":"Polygon","coordinates":[[[139.75904570515846,35.57807741645999],[139.75872495752793,35.57807920141729],[139.7587231593207,35.57787665863147],[139.75904401647912,35.57787487374593],[139.75904570515846,35.57807741645999]]]}},{"type":"Feature","properties":{"height":26.3,"gml_id":"bldg_c01b1672-49ee-459a-8e9d-ad3649371d4f"},"geometry":{"type":"Polygon","coordinates":[[[139.75927654104575,35.577703122303916],[139.7592749183161,35.57754817286131],[139.75948047372566,35.577546766614134],[139.75948209685123,35.57770171605449],[139.75927654104575,35.577703122303916]]]}},{"type":"Feature","properties":{"height":28.2,"gml_id":"bldg_8b2ef5d3-5cb8-4795-80ca-091d03289a72"},"geometry":{"type":"Polygon","coordinates":[[[139.7598931035379,35.57769295328517],[139.75987767176065,35.57767635835966],[139.75984733166038,35.57767408639982],[139.75984569399972,35.5775342802583],[139.7599349533935,35.57753604727608],[139.75993482666976,35.57767495095501],[139.75990989027446,35.57767565687855],[139.7598931035379,35.57769295328517]]]}},{"type":"Feature","properties":{"height":24.2,"gml_id":"bldg_576c94dd-2ffd-4aa2-8bf3-5a53f6326be8"},"geometry":{"type":"Polygon","coordinates":[[[139.75971291321423,35.57770708528796],[139.75971404381127,35.577556734606745],[139.7596998107667,35.57755654563604],[139.75970015785862,35.577538968798976],[139.75981347208244,35.577538767546194],[139.75981331821353,35.57770714656683],[139.75971291321423,35.57770708528796]]]}},{"type":"Feature","properties":{"height":10.8,"gml_id":"bldg_e12e4038-8393-43e2-9517-4c7396aa164a"},"geometry":{"type":"Polygon","coordinates":[[[139.76027206171452,35.5776190895441],[139.7602702240832,35.577577173928795],[139.760441355527,35.57757520434125],[139.7604405436547,35.57761883098743],[139.76027206171452,35.5776190895441]]]}},{"type":"Feature","properties":{"height":28.2,"gml_id":"bldg_3c2b6cd3-e4d9-41c0-b152-ed3cd96faf08"},"geometry":{"type":"Polygon","coordinates":[[[139.760127021308,35.57744260008573],[139.7601252285395,35.57735146875528],[139.76014433087056,35.57733561594068],[139.76016562677069,35.577334186649175],[139.7601656337386,35.57732652486247],[139.76041123963546,35.577325592024295],[139.76041289976212,35.577441691695064],[139.760127021308,35.57744260008573]]]}},{"type":"Feature","properties":{"height":26.1,"gml_id":"bldg_caae48d0-b9bd-4152-a96d-d20726284d22"},"geometry":{"type":"Polygon","coordinates":[[[139.76097387171262,35.578267610176034],[139.76079800013247,35.57826317781834],[139.76080142739553,35.57813319986906],[139.7609768595376,35.57813519821285],[139.76097387171262,35.578267610176034]]]}},{"type":"Feature","properties":{"height":24.2,"gml_id":"bldg_23230270-c456-4fe5-aa4a-6f3ec5dc5cfb"},"geometry":{"type":"Polygon","coordinates":[[[139.76047217111446,35.578270733243464],[139.76047241206538,35.57812651146264],[139.76057336812727,35.57812783438369],[139.76057224776764,35.57826863036326],[139.76047217111446,35.578270733243464]]]}},{"type":"Feature","properties":{"height":10.0,"gml_id":"bldg_153aadc7-ac7d-4045-9a6a-c167b127ec97"},"geometry":{"type":"Polygon","coordinates":[[[139.7584686291074,35.57798052089008],[139.7584701910369,35.57808057582293],[139.75821696814347,35.57808312245516],[139.7582172850957,35.57809817581627],[139.7581109203888,35.57809928129202],[139.7581091522254,35.57798426320126],[139.7584686291074,35.57798052089008]]]}},{"type":"Feature","properties":{"height":5.7,"gml_id":"bldg_787cdf21-f28d-4f2a-b8bf-90bef000393c"},"geometry":{"type":"Polygon","coordinates":[[[139.754306652964,35.5797848745244],[139.7542478604443,35.57976689836923],[139.7542922010897,35.579670118513164],[139.75435099354863,35.57968809464692],[139.754306652964,35.5797848745244]]]}},{"type":"Feature","properties":{"height":7.2,"gml_id":"bldg_5c3160db-7e06-4e50-a2b1-04c8a14334fa"},"geometry":{"type":"Polygon","coordinates":[[[139.75416465292273,35.578994896076225],[139.7540610754255,35.57896553293152],[139.75412344999714,35.578818738009794],[139.75422702723966,35.57884819124002],[139.75416465292273,35.578994896076225]]]}},{"type":"Feature","properties":{"height":3.7,"gml_id":"bldg_044c28bb-9e95-4ea7-9a89-0e20af66e84c"},"geometry":{"type":"Polygon","coordinates":[[[139.75190354894178,35.57885439598819],[139.75188828223168,35.57889413683555],[139.7517728999428,35.57886449333223],[139.7517881667042,35.578824752499344],[139.75190354894178,35.57885439598819]]]}},{"type":"Feature","properties":{"height":7.1,"gml_id":"bldg_e0f620b7-bd32-4f5b-b13e-d29dc6d0d88a"},"geometry":{"type":"Polygon","coordinates":[[[139.7520019114095,35.57902085841098],[139.7520561798841,35.57903802136467],[139.75203904085512,35.57907442583613],[139.75198466202266,35.57905726280036],[139.7520019114095,35.57902085841098]]]}},{"type":"Feature","properties":{"height":11.7,"gml_id":"bldg_9dec0b87-84fa-46c6-8ff7-1a171181bc97"},"geometry":{"type":"Polygon","coordinates":[[[139.75815783563507,35.57795707168264],[139.7581568152445,35.57786828442006],[139.75815651329702,35.57783718637761],[139.7582774416691,35.577836360346346],[139.7582786539359,35.57795615544291],[139.75815783563507,35.57795707168264]]]}},{"type":"Feature","properties":{"height":35.6,"gml_id":"bldg_c725ed6d-2fbd-4d29-b910-37f1bfa7c94e"},"geometry":{"type":"Polygon","coordinates":[[[139.749938798535,35.576815737788884],[139.75035242735268,35.576935637308765],[139.75019327778034,35.57730212179444],[139.7497796473179,35.57718222173353],[139.749938798535,35.576815737788884]]]}},{"type":"Feature","properties":{"height":10.1,"gml_id":"bldg_6b578fed-f21f-4136-9fe2-3d4ce4cfa280"},"geometry":{"type":"Polygon","coordinates":[[[139.75565009893214,35.58084469688327],[139.75545352772122,35.581472926613635],[139.7553846885519,35.58145927118078],[139.7553896700232,35.58144259875145],[139.75533848201087,35.581432379973386],[139.75536718305955,35.58141941857508],[139.755548586632,35.58084463141978],[139.7558208529712,35.579982089617786],[139.75579924793283,35.57995314481406],[139.75585110310868,35.57996399119245],[139.7558563049798,35.57994740901991],[139.75592635570302,35.579962056489514],[139.75565009893214,35.58084469688327]]]}},{"type":"Feature","properties":{"height":23.6,"gml_id":"bldg_c9791dd7-3f42-461b-9603-62d29d669e57"},"geometry":{"type":"Polygon","coordinates":[[[139.76031001132046,35.57823313741821],[139.76028551855413,35.57823113952694],[139.76028515153502,35.57827080033391],[139.7601481134798,35.57827161859931],[139.76013135873836,35.57825367082401],[139.7601320112973,35.57814280061457],[139.76016601938736,35.57811568951135],[139.76031265646668,35.578114786901814],[139.76031197015365,35.57814155768145],[139.76031001132046,35.57823313741821]]]}},{"type":"Feature","properties":{"height":10.0,"gml_id":"bldg_b91085ab-2f2b-4b5c-a369-ba8f9180c623"},"geometry":{"type":"Polygon","coordinates":[[[139.76222385771777,35.58189941035546],[139.75785082555657,35.581897923039],[139.75777827711812,35.58183838607928],[139.75762070965627,35.581839098458765],[139.75762120305103,35.58084595106736],[139.75762139773124,35.58040463228191],[139.75763089094465,35.58040031158816],[139.75770395695926,35.580377281953936],[139.75775803288948,35.58036676964573],[139.75780636560293,35.58036220286704],[139.7578455352851,35.58036285837389],[139.7578470800283,35.580362859341264],[139.75784739895238,35.58084609293079],[139.75784800998227,35.58184113392803],[139.7622233555762,35.58184334381883],[139.76222385771777,35.58189941035546]]]}},{"type":"Feature","properties":{"height":23.7,"gml_id":"bldg_ae4a8a54-f564-4873-abbc-0744aba9ad42"},"geometry":{"type":"Polygon","coordinates":[[[139.7627321369705,35.58184391330961],[139.76273133001175,35.58188330342729],[139.76238684771366,35.58188084769781],[139.7623862165941,35.58184578339135],[139.7623556526567,35.58184522456608],[139.7623544859133,35.581791951936324],[139.7622236217568,35.58179187480618],[139.7622233555762,35.58184334381883],[139.75784800998227,35.58184113392803],[139.75784739895238,35.58084609293079],[139.7578470800283,35.580362859341264],[139.75784704860493,35.580278759942004],[139.7578470005188,35.58021241784956],[139.7599861359222,35.580212656797634],[139.76000643822476,35.58021266914957],[139.76007021401833,35.58021261778988],[139.7600856614225,35.58021262717763],[139.76222358302402,35.58021300595931],[139.76222331605356,35.58026537637174],[139.7623568271276,35.58026401284062],[139.76235753480887,35.580212273658056],[139.76238787736912,35.580212922491],[139.7623878012925,35.580174072677146],[139.76273338314812,35.580172562942714],[139.76273268662587,35.58021186299735],[139.7627629187715,35.58021260180992],[139.76276507897055,35.58026569475411],[139.76290189964487,35.58026496352748],[139.76290183350045,35.58021448583082],[139.76382161617036,35.58021501974726],[139.76382139877364,35.580849686005905],[139.76382098044778,35.58184454614411],[139.76306139523527,35.5818427536318],[139.76289875267318,35.581842838981395],[139.76289835527203,35.581792631520344],[139.76276506322043,35.58179300425257],[139.76276358450679,35.58184348103157],[139.7627321369705,35.58184391330961]]]}},{"type":"Feature","properties":{"height":22.2,"gml_id":"bldg_ecf43a7f-6f34-4b57-ae37-346ca89f934c"},"geometry":{"type":"Polygon","coordinates":[[[139.75461196696622,35.58158018577185],[139.75453936324328,35.58180512439859],[139.7539825871894,35.58168938169001],[139.7539985163309,35.58164873964505],[139.75393894568694,35.58163526976423],[139.75405162024748,35.58128236096949],[139.7541286199886,35.58107617434678],[139.7542388573104,35.58084377913159],[139.75433494146247,35.58064103015176],[139.75432137328542,35.58063741571229],[139.7543712469366,35.58052468492436],[139.75456242428953,35.580565823099484],[139.75456884328386,35.58054608692642],[139.7546815860805,35.58057040784394],[139.75459326763192,35.5808440111636],[139.75437235800354,35.58152855988113],[139.75461196696622,35.58158018577185]]]}},{"type":"Feature","properties":{"height":33.1,"gml_id":"bldg_8b10c8dd-09d0-4634-8b1d-32f0c14c5835"},"geometry":{"type":"Polygon","coordinates":[[[139.75157355621317,35.5777444751264],[139.75150715532902,35.577723878446655],[139.7514715511886,35.57779875953642],[139.75140658179848,35.57778095807339],[139.7513958568801,35.57780294462755],[139.75103130290918,35.57770092968097],[139.7511702029893,35.577388513536945],[139.75131415072474,35.577426920517155],[139.75137867911215,35.57744409076005],[139.75142997083756,35.5774578267046],[139.75146259059994,35.57738808150241],[139.75158535777337,35.57742295836202],[139.75162930365178,35.57760813306272],[139.75157355621317,35.5777444751264]]]}},{"type":"Feature","properties":{"height":34.5,"gml_id":"bldg_fef57962-78a5-4447-8d11-44ce97e7a737"},"geometry":{"type":"Polygon","coordinates":[[[139.75896113574518,35.577656506684896],[139.75878117820722,35.57765747718677],[139.75878118931635,35.577645488745056],[139.75872282189343,35.57764563291032],[139.7587153191082,35.57764562826627],[139.75871518747346,35.577549630456616],[139.75876472794755,35.57754957097372],[139.75876473747175,35.57753929516637],[139.75915289634457,35.57753890368471],[139.759152974017,35.577574328246634],[139.7592345117337,35.57757419811812],[139.75923467096942,35.577640900862946],[139.75915136873823,35.57764003837986],[139.75915135452595,35.57765545209076],[139.75896113574518,35.577656506684896]]]}},{"type":"Feature","properties":{"height":12.2,"gml_id":"bldg_4cbf1d19-4420-4f41-82ad-79a3e0e6fa13"},"geometry":{"type":"Polygon","coordinates":[[[139.76235785588852,35.580848833136905],[139.762356444024,35.581698659584376],[139.76231120435955,35.58169863293736],[139.7623100714074,35.58110723253979],[139.76227156248694,35.58110757039838],[139.76227159206803,35.58169860959104],[139.762219952726,35.581698488998114],[139.76222136595283,35.58084875269251],[139.76222213912214,35.58034857367316],[139.76227168124015,35.580348602889664],[139.76227112905786,35.58084878203977],[139.76227104855502,35.580939912182444],[139.76231187468602,35.58093939541197],[139.76231206500464,35.58084880616592],[139.7623125065936,35.58034862695032],[139.76235873854796,35.58034865418068],[139.76235785588852,35.580848833136905]]]}},{"type":"Feature","properties":{"height":18.3,"gml_id":"bldg_fdb9843f-82c3-4c74-b0d1-ce79d1cd924c"},"geometry":{"type":"Polygon","coordinates":[[[139.75533848201087,35.581432379973386],[139.7553229172156,35.581439400716036],[139.75452840686097,35.58127528225169],[139.75449655869434,35.58123433847711],[139.75462096283468,35.58084402925172],[139.7547194665623,35.5805354587528],[139.7547244477615,35.58051914690291],[139.75495399134851,35.579800350339106],[139.75499296068406,35.579779824053524],[139.75566069967314,35.57992204430818],[139.7557637344236,35.57994401435427],[139.75579782198398,35.57995124737915],[139.75579924793283,35.57995314481406],[139.7558208529712,35.579982089617786],[139.755548586632,35.58084463141978],[139.75536718305955,35.58141941857508],[139.75533848201087,35.581432379973386]]]}},{"type":"Feature","properties":{"height":13.2,"gml_id":"bldg_408fff28-dc82-4b88-a1b1-f48107419155"},"geometry":{"type":"Polygon","coordinates":[[[139.7547244477615,35.58051914690291],[139.7547194665623,35.5805354587528],[139.75455784556954,35.58050912288699],[139.75456116677248,35.58049785772422],[139.75456271743178,35.580491819446955],[139.7547244477615,35.58051914690291]]]}},{"type":"Feature","properties":{"height":11.3,"gml_id":"bldg_afb5464f-90d3-4dbf-bbec-0fec7a55c217"},"geometry":{"type":"Polygon","coordinates":[[[139.75767445923208,35.58029956390926],[139.7576554752918,35.580305591283185],[139.7576584401697,35.580203466029886],[139.75778367666214,35.58020120098223],[139.75785147428147,35.580148241916184],[139.7599858613678,35.580150731361535],[139.7599861359222,35.580212656797634],[139.7578470005188,35.58021241784956],[139.75784704860493,35.580278759942004],[139.75784528318596,35.58027875883643],[139.75774067457309,35.58028671562205],[139.75767445923208,35.58029956390926]]]}},{"type":"Feature","properties":{"height":13.1,"gml_id":"bldg_d1a848a9-0fda-4797-b0a5-67ba7abab230"},"geometry":{"type":"Polygon","coordinates":[[[139.76007021401833,35.58021261778988],[139.76000643822476,35.58021266914957],[139.76000477951322,35.57900616187388],[139.75974438366143,35.57900672429777],[139.75974439405044,35.57899536682899],[139.75966583432086,35.578995138566725],[139.75966561298665,35.578995859540996],[139.75965964678528,35.57900459934777],[139.75964993119007,35.579011083395145],[139.759641873455,35.57901450373973],[139.759627637923,35.57901674850352],[139.7593488126963,35.5790206339344],[139.75934883715053,35.57899404303549],[139.75927744924115,35.57899390906041],[139.75927750649421,35.57893171339823],[139.75934757038917,35.57893175642192],[139.75934758754883,35.57891309772311],[139.7596323700127,35.57890984690812],[139.75964759335562,35.57891328148518],[139.7596600501897,35.57892554796142],[139.75966797768663,35.57894385096086],[139.75974421922018,35.5789452496095],[139.75974424172966,35.578920641760156],[139.75985325476324,35.57892043784531],[139.7598944104825,35.578920372787216],[139.76023899313628,35.57891977097879],[139.76033167631763,35.578919556728096],[139.7603316583229,35.578939387229674],[139.7605171334353,35.57894076135411],[139.7605167678319,35.57897897993895],[139.7603318432526,35.57897877795031],[139.76033192921486,35.5790056393326],[139.76018054659696,35.57900590811386],[139.7600689956981,35.57900611078218],[139.76007021401833,35.58021261778988]]]}},{"type":"Feature","properties":{"height":11.1,"gml_id":"bldg_b050d29d-4702-4126-b38a-fd4c77f4a56c"},"geometry":{"type":"Polygon","coordinates":[[[139.76222358302402,35.58021300595931],[139.7600856614225,35.58021262717763],[139.76008582543716,35.58015367658445],[139.7622235242372,35.580154686201624],[139.76222358302402,35.58021300595931]]]}},{"type":"Feature","properties":{"height":11.5,"gml_id":"bldg_5818c4a9-e586-4b14-b094-6d9b26acc2d7"},"geometry":{"type":"Polygon","coordinates":[[[139.75586666388,35.57961705742555],[139.7557637344236,35.57994401435427],[139.75566069967314,35.57992204430818],[139.75576185881405,35.57960058478676],[139.75577385020154,35.57952289296035],[139.7557725919363,35.5794546571688],[139.75575554585518,35.57939632647201],[139.75572657501286,35.57934664140912],[139.75569693609307,35.57930326561649],[139.75552181694425,35.57908925360056],[139.75559910862074,35.57903161470827],[139.7557861326317,35.57925771285704],[139.7558153320575,35.57929919543307],[139.7558543253242,35.57936790617967],[139.7558773139882,35.579442555783],[139.75587826953463,35.57948149630762],[139.75587943985587,35.579526566400325],[139.75586666388,35.57961705742555]]]}},{"type":"Feature","properties":{"height":41.9,"gml_id":"bldg_eb8df436-f1d2-4274-a8ec-57e75850c8ac"},"geometry":{"type":"Polygon","coordinates":[[[139.75949486830947,35.579053984666416],[139.7594920872654,35.57919883583688],[139.75835197348994,35.5791975010679],[139.75835218598672,35.57908789255487],[139.75835221236667,35.57905958902275],[139.7584915679336,35.57905976576442],[139.75849196822645,35.57886668893622],[139.7583409172144,35.578866595058464],[139.75834095149636,35.578829818493084],[139.75834116173766,35.578722643716745],[139.75949141982923,35.578723894659994],[139.75949128637714,35.57886928829239],[139.7593476279195,35.57886920020444],[139.75934758754883,35.57891309772311],[139.75934757038917,35.57893175642192],[139.75927750649421,35.57893171339823],[139.75927744924115,35.57899390906041],[139.75934883715053,35.57899404303549],[139.7593488126963,35.5790206339344],[139.75934878219067,35.57905380495387],[139.75949486830947,35.579053984666416]]]}},{"type":"Feature","properties":{"height":20.3,"gml_id":"bldg_ba80838b-484c-4a97-a469-55f1fa68367d"},"geometry":{"type":"Polygon","coordinates":[[[139.76170644687784,35.5791978283558],[139.76050652962275,35.57919719952418],[139.76050666956465,35.57904261175492],[139.76057552017724,35.57904229277714],[139.7605763233509,35.579008220836464],[139.76051641095796,35.5790075536888],[139.7605167678319,35.57897897993895],[139.7605171334353,35.57894076135411],[139.76051737409762,35.57891867751968],[139.7605737564611,35.578918441149234],[139.7605737875213,35.578884098325716],[139.76050515804405,35.57888405688142],[139.76050530198532,35.57872505231042],[139.76170763960266,35.57872568258841],[139.76170760701027,35.57888621958618],[139.7616411842652,35.578886180099865],[139.76164115839993,35.57891520474404],[139.76166289475458,35.57891521766968],[139.76166281284574,35.57900715908824],[139.76163831804246,35.57900714452195],[139.7616382896055,35.579039053602166],[139.76170658820573,35.5790390942048],[139.76170644687784,35.5791978283558]]]}},{"type":"Feature","properties":{"height":37.0,"gml_id":"bldg_3b84190e-e52f-403c-90fd-755fb958dc4a"},"geometry":{"type":"Polygon","coordinates":[[[139.75835218598672,35.57908789255487],[139.75832427020777,35.579088416019275],[139.75832419063076,35.579055425209376],[139.75828171029343,35.57905602973875],[139.75827989939356,35.57886826971756],[139.75832127643233,35.578867484224816],[139.7583214216483,35.578830076757626],[139.75834095149636,35.578829818493084],[139.7583409172144,35.578866595058464],[139.75849196822645,35.57886668893622],[139.7584915679336,35.57905976576442],[139.75835221236667,35.57905958902275],[139.75835218598672,35.57908789255487]]]}},{"type":"Feature","properties":{"height":3.2,"gml_id":"bldg_0ae38df1-3b27-46bf-9f84-2045762319aa"},"geometry":{"type":"Polygon","coordinates":[[[139.75160197201217,35.57920627359299],[139.75161701266376,35.57917203109053],[139.7516678630844,35.57918684829568],[139.75165293278891,35.5792210908792],[139.75160197201217,35.57920627359299]]]}},{"type":"Feature","properties":{"height":3.6,"gml_id":"bldg_b504d457-f90e-4896-8300-7fadb3360c96"},"geometry":{"type":"Polygon","coordinates":[[[139.75106703959202,35.57987059231254],[139.75107334407238,35.57985572373405],[139.75113048271493,35.57987189753558],[139.75112428867408,35.57988667605368],[139.75106703959202,35.57987059231254]]]}},{"type":"Feature","properties":{"height":3.1,"gml_id":"bldg_879c3270-4742-4073-b9af-394dfd2cdb19"},"geometry":{"type":"Polygon","coordinates":[[[139.75382519198988,35.580734619485334],[139.75388597140747,35.58075241687642],[139.75385909830666,35.580813783589484],[139.75379820859848,35.580795895973594],[139.75382519198988,35.580734619485334]]]}},{"type":"Feature","properties":{"height":2.8,"gml_id":"bldg_ff784540-3c39-489d-b40a-c80a9156fccf"},"geometry":{"type":"Polygon","coordinates":[[[139.75388975267265,35.58049885930899],[139.7538957276224,35.58048200731632],[139.75397261582233,35.58050035611114],[139.75396653054833,35.58051720803495],[139.75388975267265,35.58049885930899]]]}},{"type":"Feature","properties":{"height":5.8,"gml_id":"bldg_07b4e966-e3d5-4a7d-a3ae-b7892241a766"},"geometry":{"type":"Polygon","coordinates":[[[139.75794937016227,35.5821226102125],[139.75777375028213,35.58195889861253],[139.75778038403354,35.581944751003284],[139.75794026590478,35.58194719471544],[139.75796703514456,35.582111534205644],[139.75794937016227,35.5821226102125]]]}},{"type":"Feature","properties":{"height":6.4,"gml_id":"bldg_186e36b0-d215-43d8-8827-3e8f8d9f2cc0"},"geometry":{"type":"Polygon","coordinates":[[[139.76045681858648,35.577922788559356],[139.76031592192035,35.57792081038314],[139.76031759071768,35.57778407097222],[139.76045385592076,35.5777828914915],[139.76045681858648,35.577922788559356]]]}},{"type":"Feature","properties":{"height":3.0,"gml_id":"bldg_d01557d4-0d19-4436-886e-63c206db463b"},"geometry":{"type":"Polygon","coordinates":[[[139.75405129008686,35.5803858416381],[139.754024595112,35.580378703122584],[139.75404981419229,35.580315983200094],[139.75407639889866,35.5803230314989],[139.75405129008686,35.5803858416381]]]}},{"type":"Feature","properties":{"height":3.7,"gml_id":"bldg_f9e87397-2f66-4676-a109-7c4b5ef212c1"},"geometry":{"type":"Polygon","coordinates":[[[139.75740291064437,35.581122990138624],[139.75736815350868,35.58112305837798],[139.75736739915425,35.58098712880453],[139.7574021563163,35.58098697042671],[139.75740291064437,35.581122990138624]]]}},{"type":"Feature","properties":{"height":9.4,"gml_id":"bldg_aaa75dd3-405b-4808-8702-1021a49b6492"},"geometry":{"type":"Polygon","coordinates":[[[139.75740089813547,35.58126784169285],[139.75736558949237,35.581267639168054],[139.75736660321786,35.581128916413746],[139.75740191180012,35.58112911893818],[139.75740089813547,35.58126784169285]]]}},{"type":"Feature","properties":{"height":2.7,"gml_id":"bldg_edbec7e2-78e5-40a2-9947-7be50f43b122"},"geometry":{"type":"Polygon","coordinates":[[[139.75373819327586,35.581009484980775],[139.75373045495925,35.581024172471864],[139.75369052582116,35.58101017460465],[139.75369815380404,35.580995487043204],[139.75373819327586,35.581009484980775]]]}},{"type":"Feature","properties":{"height":2.5,"gml_id":"bldg_72c9b70e-41e1-45ab-9941-ed0da4a27f48"},"geometry":{"type":"Polygon","coordinates":[[[139.75375962075123,35.58098768557282],[139.75378940345396,35.58099680923449],[139.75377204268395,35.581034656012946],[139.7537421496295,35.58102553227416],[139.75375962075123,35.58098768557282]]]}},{"type":"Feature","properties":{"height":2.4,"gml_id":"bldg_a7037b9c-6ffa-48c7-8b07-eaead582f7b8"},"geometry":{"type":"Polygon","coordinates":[[[139.75205630315253,35.57902522175439],[139.7520299419129,35.57901600983121],[139.75204652478624,35.57898402178125],[139.75207299635423,35.578993233775236],[139.75205630315253,35.57902522175439]]]}},{"type":"Feature","properties":{"height":7.5,"gml_id":"bldg_cc138fee-09ac-4c68-b4ce-aeb205f88e22"},"geometry":{"type":"Polygon","coordinates":[[[139.75502844824786,35.58299608437457],[139.7549980041007,35.58309873249007],[139.75487896743903,35.58307512888912],[139.75490941164114,35.58297257094201],[139.75502844824786,35.58299608437457]]]}},{"type":"Feature","properties":{"height":5.6,"gml_id":"bldg_bddddb9b-08ee-4543-aff4-9a663a5d6cc1"},"geometry":{"type":"Polygon","coordinates":[[[139.75376795217974,35.58104267565343],[139.75371685925097,35.58115982217006],[139.75365927843717,35.581143018334224],[139.7536634808148,35.581133466414364],[139.75364605211925,35.581128407128986],[139.75366164556814,35.581092542251646],[139.75367466191463,35.58109633667778],[139.75370595901097,35.581024697124484],[139.75376795217974,35.58104267565343]]]}},{"type":"Feature","properties":{"height":16.0,"gml_id":"bldg_ef88af6a-550e-4943-ad58-5346421649cc"},"geometry":{"type":"Polygon","coordinates":[[[139.75525635450563,35.58169508096979],[139.75521079293287,35.58168567702998],[139.75446206500712,35.58152834819586],[139.7544814350121,35.581466706031556],[139.7544309095844,35.58145603660837],[139.75448237809817,35.58129255877219],[139.75453157970233,35.581302866753994],[139.75453921683027,35.5812787145873],[139.75528937674636,35.581436314290464],[139.75524023410534,35.58159240260589],[139.75528557451048,35.58160225708473],[139.75525635450563,35.58169508096979]]]}},{"type":"Feature","properties":{"height":9.7,"gml_id":"bldg_b4eed486-d998-463a-914e-39ad213a7ec4"},"geometry":{"type":"Polygon","coordinates":[[[139.7588039612077,35.57771833490471],[139.75880443636657,35.57768182902078],[139.75895493473013,35.57768056989474],[139.75895445963957,35.57771707577935],[139.7588039612077,35.57771833490471]]]}},{"type":"Feature","properties":{"height":30.1,"gml_id":"bldg_94178b68-2cd9-4e50-a09d-e42e4696c1f2"},"geometry":{"type":"Polygon","coordinates":[[[139.75897332570491,35.57771843949937],[139.75897304427045,35.57766480679293],[139.75922163225007,35.577661714889686],[139.75922180343207,35.5777154376666],[139.75897332570491,35.57771843949937]]]}},{"type":"Feature","properties":{"height":8.9,"gml_id":"bldg_163b6f52-0dee-4c9c-8ad8-b6b1fe6e5814"},"geometry":{"type":"Polygon","coordinates":[[[139.76156401548113,35.58326335772831],[139.7615404482235,35.58321169425911],[139.76157168373715,35.58320215816457],[139.76159959425192,35.583209115452405],[139.7616102743475,35.583235081733164],[139.76159039456311,35.583255351093975],[139.76156401548113,35.58326335772831]]]}},{"type":"Feature","properties":{"height":8.1,"gml_id":"bldg_f2ec0170-dfe6-46c9-8520-71274519c7be"},"geometry":{"type":"Polygon","coordinates":[[[139.7624131760233,35.583056180935436],[139.76238493501992,35.58304859267081],[139.76237524666772,35.58302388898246],[139.762396450068,35.583003890686136],[139.76242724196416,35.582996697712815],[139.7624455131302,35.58304853817349],[139.7624131760233,35.583056180935436]]]}},{"type":"Feature","properties":{"height":4.5,"gml_id":"bldg_b618d9c9-7954-47eb-ba84-ee2aec186810"},"geometry":{"type":"Polygon","coordinates":[[[139.75762831506628,35.58278564909975],[139.7575893674369,35.58278228950242],[139.7575628012228,35.58275441996782],[139.7575628250821,35.58272909102665],[139.75760787484657,35.58269702998295],[139.75764888882537,35.58273239008704],[139.75768188550703,35.58272772359193],[139.75769246961275,35.582737014513576],[139.75762831506628,35.58278564909975]]]}},{"type":"Feature","properties":{"height":4.0,"gml_id":"bldg_99b39325-b5fb-4d61-8eff-466a2747b425"},"geometry":{"type":"Polygon","coordinates":[[[139.75424995821112,35.58201027070353],[139.75419535003198,35.58199941822638],[139.7542112914517,35.58194624689197],[139.75426578925592,35.58195709928957],[139.75424995821112,35.58201027070353]]]}},{"type":"Feature","properties":{"height":8.2,"gml_id":"bldg_35f7d4f8-4001-4328-a60c-cde6c0800451"},"geometry":{"type":"Polygon","coordinates":[[[139.7552958436968,35.58159451180964],[139.75525690137982,35.58158637411339],[139.75528855731486,35.58148480835452],[139.75532760992627,35.58149294611202],[139.7552958436968,35.58159451180964]]]}},{"type":"Feature","properties":{"height":3.7,"gml_id":"bldg_8a1ad294-c259-41f4-bbe6-6dd5195e2a6d"},"geometry":{"type":"Polygon","coordinates":[[[139.75372748738718,35.580343443335046],[139.7537340131611,35.580327493100405],[139.75378530668237,35.580341678732125],[139.75377867057867,35.5803576288967],[139.75372748738718,35.580343443335046]]]}},{"type":"Feature","properties":{"height":2.3,"gml_id":"bldg_0f8b88e5-dfb6-4e12-aa1c-8a171757e89f"},"geometry":{"type":"Polygon","coordinates":[[[139.7537793611363,35.5803287849789],[139.75378566550822,35.58031355570465],[139.7538244943154,35.5803241275466],[139.75381830019964,35.580339447034255],[139.7537793611363,35.5803287849789]]]}},{"type":"Feature","properties":{"height":2.5,"gml_id":"bldg_0ec65337-de5d-4d1e-8db8-efd6525f108a"},"geometry":{"type":"Polygon","coordinates":[[[139.7537822442307,35.580091181349225],[139.75381423381842,35.58009985576898],[139.75379952307128,35.58013599167057],[139.75376753355994,35.58012722710834],[139.7537822442307,35.580091181349225]]]}},{"type":"Feature","properties":{"height":2.8,"gml_id":"bldg_7d7bddca-1f58-408b-8446-90c7a1bfe85d"},"geometry":{"type":"Polygon","coordinates":[[[139.7537547897596,35.580071152442486],[139.75373372110275,35.58006509924057],[139.75375373871736,35.580018240348245],[139.75377480745263,35.580024203408065],[139.7537547897596,35.580071152442486]]]}},{"type":"Feature","properties":{"height":2.7,"gml_id":"bldg_6dc5990b-2fd5-49ab-8112-c8e7dcf3c82c"},"geometry":{"type":"Polygon","coordinates":[[[139.75415225753792,35.58015416148699],[139.75412876368978,35.58014576315566],[139.7541461188644,35.580113234497944],[139.75416972304333,35.58012163289838],[139.75415225753792,35.58015416148699]]]}},{"type":"Feature","properties":{"height":5.9,"gml_id":"bldg_92159a1e-a35e-431e-8c7a-c755b5a943cb"},"geometry":{"type":"Polygon","coordinates":[[[139.75390504233516,35.57965291795335],[139.75393335847642,35.57958235802321],[139.75410422659823,35.57962817076191],[139.7540828788375,35.579681518825936],[139.75405949342945,35.57967519374141],[139.75405252508924,35.579692495784556],[139.75390504233516,35.57965291795335]]]}},{"type":"Feature","properties":{"height":3.2,"gml_id":"bldg_a03a2fc7-9757-42c0-9388-bff1c58db345"},"geometry":{"type":"Polygon","coordinates":[[[139.7538985700528,35.579614785027566],[139.7538673534582,35.57960566044583],[139.75388736954494,35.57956015360678],[139.75391858603518,35.57956936832203],[139.7538985700528,35.579614785027566]]]}},{"type":"Feature","properties":{"height":2.5,"gml_id":"bldg_12298ed6-f7a7-47b2-bce8-01e1b8880bda"},"geometry":{"type":"Polygon","coordinates":[[[139.75396205058078,35.5794661881609],[139.75393634904583,35.57945896014042],[139.753964109313,35.57939254621394],[139.7539898108292,35.57939977422857],[139.75396205058078,35.5794661881609]]]}},{"type":"Feature","properties":{"height":2.3,"gml_id":"bldg_f0a205e5-0e71-4744-8c6d-87ddd921e241"},"geometry":{"type":"Polygon","coordinates":[[[139.7540080621078,35.579353545096744],[139.7539853393588,35.579346679601535],[139.7540061283865,35.579300452140075],[139.7540289614616,35.579307317703986],[139.7540080621078,35.579353545096744]]]}},{"type":"Feature","properties":{"height":5.9,"gml_id":"bldg_660b64c9-80fb-4479-9641-8d469f18d8d7"},"geometry":{"type":"Polygon","coordinates":[[[139.75405425190945,35.57939576038731],[139.7540719555483,35.57934538450619],[139.75414884305772,35.57936337263624],[139.75413755713956,35.579395364454065],[139.7541480368032,35.57939780508313],[139.75414150879132,35.5794161890857],[139.75405425190945,35.57939576038731]]]}},{"type":"Feature","properties":{"height":6.5,"gml_id":"bldg_e340d5f2-3305-4f18-aa89-47e5bded5b1c"},"geometry":{"type":"Polygon","coordinates":[[[139.75438749261687,35.5795988812652],[139.75428016410748,35.579568163774276],[139.75429807990548,35.579526351175055],[139.75428340916162,35.57952210503707],[139.75429258826355,35.5795006580504],[139.75430935488743,35.57950544639338],[139.75432207266243,35.57947597938163],[139.75442730526916,35.579506064492925],[139.75438749261687,35.5795988812652]]]}},{"type":"Feature","properties":{"height":2.6,"gml_id":"bldg_e992dac4-25aa-4616-b3e8-a423a1755013"},"geometry":{"type":"Polygon","coordinates":[[[139.7544194848374,35.57937977508096],[139.75442998926187,35.579356976870656],[139.7544829353174,35.57937323647888],[139.7544724309058,35.57939603469374],[139.7544194848374,35.57937977508096]]]}},{"type":"Feature","properties":{"height":3.2,"gml_id":"bldg_c5489197-a59c-45d0-aeec-ee4760d1da9b"},"geometry":{"type":"Polygon","coordinates":[[[139.75457909082309,35.578982457999196],[139.75463799564994,35.57899791018489],[139.75460503338775,35.579081537363166],[139.75454612850606,35.57906608516149],[139.75457909082309,35.578982457999196]]]}},{"type":"Feature","properties":{"height":2.8,"gml_id":"bldg_af12d039-9a29-4eeb-94dd-ebce852f3ffc"},"geometry":{"type":"Polygon","coordinates":[[[139.75426370827006,35.579808462695375],[139.7542866517608,35.57981541842111],[139.7542675221731,35.579857230220426],[139.7542445786721,35.57985027449107],[139.75426370827006,35.579808462695375]]]}},{"type":"Feature","properties":{"height":2.7,"gml_id":"bldg_aeb4a0c0-840a-4865-af19-4b2e3b723acf"},"geometry":{"type":"Polygon","coordinates":[[[139.75413296673844,35.57912674816032],[139.75415469746864,35.579132531312084],[139.75413910160412,35.57917146097899],[139.75411737086452,35.57916567782444],[139.75413296673844,35.57912674816032]]]}},{"type":"Feature","properties":{"height":3.1,"gml_id":"bldg_18ca4cbf-d21c-4389-9b79-15b0f91c6512"},"geometry":{"type":"Polygon","coordinates":[[[139.7542005615402,35.5789449828213],[139.7542233945311,35.57895184834868],[139.7542011688561,35.5790005987906],[139.75417844627884,35.57899364319287],[139.7542005615402,35.5789449828213]]]}},{"type":"Feature","properties":{"height":2.8,"gml_id":"bldg_e51b8060-f43a-4f17-aa5f-232cb5e73049"},"geometry":{"type":"Polygon","coordinates":[[[139.75439428509546,35.5785238015938],[139.7544009213674,35.57850740069694],[139.75443864655227,35.57851743078891],[139.75443212062348,35.578533831760055],[139.75439428509546,35.5785238015938]]]}},{"type":"Feature","properties":{"height":2.7,"gml_id":"bldg_e3bcff7b-f86a-423d-a6d6-716c14ce2344"},"geometry":{"type":"Polygon","coordinates":[[[139.75430835547976,35.57872565596457],[139.75433935084467,35.57873505070436],[139.7543184519955,35.57878109787848],[139.75428745661532,35.578771703133356],[139.75430835547976,35.57872565596457]]]}},{"type":"Feature","properties":{"height":6.4,"gml_id":"bldg_3f563b4f-389e-4925-9449-ff996f0e3897"},"geometry":{"type":"Polygon","coordinates":[[[139.75423421410392,35.57883296251756],[139.75414740343604,35.57880820752067],[139.75420336234296,35.57867754316489],[139.75429017288724,35.57870229812186],[139.75423421410392,35.57883296251756]]]}},{"type":"Feature","properties":{"height":3.2,"gml_id":"bldg_a6941aa9-e79c-4565-8581-6d1531bb9d49"},"geometry":{"type":"Polygon","coordinates":[[[139.75430256086057,35.5786714788115],[139.7542931616261,35.57869247496416],[139.7542242216106,35.57867178797975],[139.7542336208606,35.57865079183243],[139.75430256086057,35.5786714788115]]]}},{"type":"Feature","properties":{"height":2.9,"gml_id":"bldg_8ed0024b-4feb-44ee-91fb-4ddf621b9b81"},"geometry":{"type":"Polygon","coordinates":[[[139.75412439674474,35.57864161610259],[139.75413236031292,35.57862197110006],[139.75421123009778,35.57864311534872],[139.75420326654674,35.578662760356394],[139.75412439674474,35.57864161610259]]]}},{"type":"Feature","properties":{"height":2.8,"gml_id":"bldg_69cf3d3d-0c17-4cb6-8c73-c6a93507abda"},"geometry":{"type":"Polygon","coordinates":[[[139.75828066414797,35.57745714879615],[139.75830273144777,35.57745680197867],[139.75830367545302,35.577509353436106],[139.7582817185578,35.57750961018378],[139.75828066414797,35.57745714879615]]]}},{"type":"Feature","properties":{"height":15.5,"gml_id":"bldg_8b6965ee-4222-439b-8b88-070a41c5a06d"},"geometry":{"type":"Polygon","coordinates":[[[139.7591183648886,35.57825287113351],[139.7591182692705,35.57823691652429],[139.7591757546011,35.57823659134779],[139.75917585023058,35.57825254595695],[139.7591183648886,35.57825287113351]]]}},{"type":"Feature","properties":{"height":3.0,"gml_id":"bldg_91834c18-e456-49c0-9c3b-976ba8a41344"},"geometry":{"type":"Polygon","coordinates":[[[139.7577534876458,35.579215064902186],[139.75779652026466,35.579213920072995],[139.75779813893053,35.57925268072262],[139.75775510620628,35.57925391569098],[139.7577534876458,35.579215064902186]]]}},{"type":"Feature","properties":{"height":3.0,"gml_id":"bldg_7aedf3ae-6fc1-4df6-851f-68a140d48424"},"geometry":{"type":"Polygon","coordinates":[[[139.76174359910144,35.57886118240995],[139.76176290827357,35.578860923459956],[139.76176343052765,35.578894004671],[139.761744011091,35.57889417341689],[139.76174359910144,35.57886118240995]]]}},{"type":"Feature","properties":{"height":7.0,"gml_id":"bldg_a7e0da33-ea64-4576-abc2-182b5b613f55"},"geometry":{"type":"Polygon","coordinates":[[[139.76166171116262,35.5782621620919],[139.76158877975607,35.57826139759734],[139.7615883836686,35.57821064927112],[139.76132909770834,35.57820679898395],[139.76132842157526,35.57748289460084],[139.76156652525012,35.57748186478885],[139.76156591180677,35.57742742063924],[139.7616605791327,35.57742738682444],[139.76166171116262,35.5782621620919]]]}},{"type":"Feature","properties":{"height":3.3,"gml_id":"bldg_6e3bbe8f-4c0e-4ed3-bb86-e66f12d681e1"},"geometry":{"type":"Polygon","coordinates":[[[139.7583932750982,35.57738267413985],[139.7583293937348,35.57738002038652],[139.75833869250525,35.57722877340643],[139.75840257374887,35.57723142715474],[139.7583932750982,35.57738267413985]]]}},{"type":"Feature","properties":{"height":32.5,"gml_id":"bldg_8381d63b-e0c4-4409-a929-2801daee4607"},"geometry":{"type":"Polygon","coordinates":[[[139.75157355621317,35.5777444751264],[139.75164260371233,35.57776651578239],[139.75159152809724,35.57786563373251],[139.75145761839764,35.57782876626212],[139.7514715511886,35.57779875953642],[139.75150715532902,35.577723878446655],[139.75157355621317,35.5777444751264]]]}},{"type":"Feature","properties":{"height":3.0,"gml_id":"bldg_b7044ef6-a319-4f99-a205-a20ef7776145"},"geometry":{"type":"Polygon","coordinates":[[[139.75846350710066,35.577320370634425],[139.7585116126775,35.577319560410146],[139.75851331667045,35.57738554300748],[139.7584526315678,35.577386586990606],[139.75845081728997,35.57732060432394],[139.75846350710066,35.577320370634425]]]}},{"type":"Feature","properties":{"height":3.5,"gml_id":"bldg_fcbd82ba-6099-43b6-b3c5-ca6f4072c022"},"geometry":{"type":"Polygon","coordinates":[[[139.7584674319993,35.57725128445013],[139.75844657842387,35.57725164557264],[139.75844593688868,35.57722965132714],[139.75850982174134,35.57722842905601],[139.75851046321011,35.57725051343988],[139.7584674319993,35.57725128445013]]]}},{"type":"Feature","properties":{"height":7.6,"gml_id":"bldg_346e7fc5-7f22-445f-9fe6-50e8d98cba95"},"geometry":{"type":"Polygon","coordinates":[[[139.7558305292551,35.57990232311243],[139.75579059396406,35.579894906057746],[139.75581860661973,35.579794149034655],[139.75585854195018,35.57980147594151],[139.7558305292551,35.57990232311243]]]}},{"type":"Feature","properties":{"height":10.8,"gml_id":"bldg_bb5ff614-858f-4da5-af72-bc023a4bde83"},"geometry":{"type":"Polygon","coordinates":[[[139.75575025213712,35.5788216889339],[139.7555763624375,35.5789347910858],[139.7553405121547,35.57865556932855],[139.75540343955782,35.57861883343978],[139.7555131020848,35.578631163148096],[139.75556126577197,35.57868635911268],[139.75560984117476,35.578658086893036],[139.75575025213712,35.5788216889339]]]}},{"type":"Feature","properties":{"height":4.8,"gml_id":"bldg_86b245ea-34d2-4cbd-a84d-97ba347b7f4b"},"geometry":{"type":"Polygon","coordinates":[[[139.75618812612552,35.577956007486115],[139.75608198069511,35.577958733808714],[139.75607915343232,35.5779155555571],[139.75618794443622,35.57791535481383],[139.75618812612552,35.577956007486115]]]}},{"type":"Feature","properties":{"height":6.6,"gml_id":"bldg_c09c1c52-b2ea-419c-8c25-3b538d8a799e"},"geometry":{"type":"Polygon","coordinates":[[[139.7558131385214,35.577338857594256],[139.75578133616318,35.577365788613875],[139.7557296304077,35.577323029587845],[139.75576187488687,35.57729528761773],[139.7558131385214,35.577338857594256]]]}},{"type":"Feature","properties":{"height":6.8,"gml_id":"bldg_8c9980ad-da78-4195-98ed-72face80b63b"},"geometry":{"type":"Polygon","coordinates":[[[139.75426445119828,35.578491266570396],[139.7543372211328,35.57831950992495],[139.75437218791,35.57832944809157],[139.75437716461897,35.578317643181975],[139.75444742919836,35.57833751969849],[139.75436968284987,35.578520991180696],[139.75426445119828,35.578491266570396]]]}},{"type":"Feature","properties":{"height":7.2,"gml_id":"bldg_711f8964-49bd-436f-94fb-681de9e50f6d"},"geometry":{"type":"Polygon","coordinates":[[[139.75483695177724,35.58180585939178],[139.75481069560067,35.58180079452634],[139.75478566778665,35.581780767440314],[139.75479606428163,35.581755715670845],[139.75482641114232,35.58175249044833],[139.7548511227981,35.581757283888834],[139.75483695177724,35.58180585939178]]]}},{"type":"Feature","properties":{"height":3.2,"gml_id":"bldg_c351d677-9b8e-4107-a34e-ec0c64757d1a"},"geometry":{"type":"Polygon","coordinates":[[[139.75430550708595,35.57859260938639],[139.75425895940432,35.57857806653107],[139.75428118342137,35.578530848431726],[139.75432762074342,35.57854539120621],[139.75430550708595,35.57859260938639]]]}},{"type":"Feature","properties":{"height":11.6,"gml_id":"bldg_af70db5a-24b1-422a-8448-685273ccafa1"},"geometry":{"type":"Polygon","coordinates":[[[139.75536225911748,35.5819459152354],[139.7552401364326,35.58192032694115],[139.75527311984698,35.58181542692219],[139.75539524238326,35.581841015183294],[139.75536225911748,35.5819459152354]]]}},{"type":"Feature","properties":{"height":10.1,"gml_id":"bldg_60fdd39d-aa37-4ffb-b552-253833f9d399"},"geometry":{"type":"Polygon","coordinates":[[[139.75698851336315,35.581779027920824],[139.75692607180497,35.58176709005482],[139.7569416832625,35.58171085343288],[139.75696520387692,35.58169184908186],[139.75700017441258,35.58169971329511],[139.7570042352911,35.58172261108355],[139.75698851336315,35.581779027920824]]]}},{"type":"Feature","properties":{"height":8.5,"gml_id":"bldg_e05276b3-ae6f-4419-ae4c-4c9f3c5c9cc4"},"geometry":{"type":"Polygon","coordinates":[[[139.76129931281685,35.58325238319395],[139.76129389636017,35.58301675757643],[139.76142774368685,35.58301467416952],[139.7614331605355,35.58325029978156],[139.76129931281685,35.58325238319395]]]}},{"type":"Feature","properties":{"height":6.3,"gml_id":"bldg_666abec7-417f-4648-8285-8b7f593f96bf"},"geometry":{"type":"Polygon","coordinates":[[[139.76031592192035,35.57792081038314],[139.76045681858648,35.577922788559356],[139.76045543609771,35.57798732703825],[139.76031453931859,35.5779853488603],[139.76031592192035,35.57792081038314]]]}},{"type":"Feature","properties":{"height":20.4,"gml_id":"bldg_cbc0ed70-c9da-4b6f-8918-697146f7f2db"},"geometry":{"type":"Polygon","coordinates":[[[139.76031001132046,35.57823313741821],[139.76031197015365,35.57814155768145],[139.76033547134364,35.57814193247024],[139.7603334022013,35.578233512140585],[139.76031001132046,35.57823313741821]]]}},{"type":"Feature","properties":{"height":12.6,"gml_id":"bldg_98a51206-19cd-439f-8e14-a89f47c81979"},"geometry":{"type":"Polygon","coordinates":[[[139.75158535777337,35.57742295836202],[139.75146259059994,35.57738808150241],[139.75142997083756,35.5774578267046],[139.75137867911215,35.57744409076005],[139.75131415072474,35.577426920517155],[139.75134632831765,35.57735807643236],[139.75141196073793,35.577374526298826],[139.75146703380332,35.57725035256965],[139.7515443557571,35.577272579180026],[139.75158535777337,35.57742295836202]]]}},{"type":"Feature","properties":{"height":24.5,"gml_id":"bldg_313d433f-cdd9-4d39-abf5-15cb6d1b4e3d"},"geometry":{"type":"Polygon","coordinates":[[[139.75066334657114,35.577367525234166],[139.75079993149902,35.57705411638643],[139.75090548470894,35.577089973678675],[139.75076813343054,35.5773978836582],[139.75066334657114,35.577367525234166]]]}},{"type":"Feature","properties":{"height":7.3,"gml_id":"bldg_66d157e0-ebab-4516-969a-10c9ed0a8be0"},"geometry":{"type":"Polygon","coordinates":[[[139.76212937864827,35.57781634278264],[139.7618538703952,35.57781726139295],[139.76185387888427,35.57780770669464],[139.76212927684907,35.577806697880426],[139.76212937864827,35.57781634278264]]]}},{"type":"Feature","properties":{"height":5.0,"gml_id":"bldg_3e6144be-aae8-45f7-8d56-b95f5dbdc1f3"},"geometry":{"type":"Polygon","coordinates":[[[139.76077031303896,35.5781328205885],[139.7606091119377,35.57813335441431],[139.7606100100234,35.57811631874085],[139.76076933400105,35.57811731614185],[139.76077031303896,35.5781328205885]]]}},{"type":"Feature","properties":{"height":23.1,"gml_id":"bldg_472a0ef6-0ed7-43eb-8285-f0b275526a9b"},"geometry":{"type":"Polygon","coordinates":[[[139.76047488808092,35.57782914536363],[139.76098243231968,35.577827558148655],[139.76098400288504,35.57792148362631],[139.76064405737662,35.577923442443975],[139.76064428741324,35.57791307663122],[139.76047591633525,35.57791207359737],[139.76047488808092,35.57782914536363]]]}},{"type":"Feature","properties":{"height":29.9,"gml_id":"bldg_5b909b7d-3677-4467-9070-0fd8e22406ef"},"geometry":{"type":"Polygon","coordinates":[[[139.75896113574518,35.577656506684896],[139.75896122783195,35.57767624711943],[139.7587736576277,35.57767667208077],[139.75877366247278,35.57767144403854],[139.7587229081538,35.577671592912466],[139.75872282189343,35.57764563291032],[139.75878118931635,35.577645488745056],[139.75878117820722,35.57765747718677],[139.75896113574518,35.577656506684896]]]}},{"type":"Feature","properties":{"height":23.6,"gml_id":"bldg_557267e9-41c0-41f8-90e9-3011f57e0611"},"geometry":{"type":"Polygon","coordinates":[[[139.7622680623891,35.57894937797265],[139.76226973167425,35.57905817635938],[139.76189304220003,35.57905669175857],[139.7618921426606,35.57895140923214],[139.7622680623891,35.57894937797265]]]}},{"type":"Feature","properties":{"height":15.4,"gml_id":"bldg_b73e5ce5-3f4a-482a-9083-3112f9982e9b"},"geometry":{"type":"Polygon","coordinates":[[[139.7603410315703,35.57821566929729],[139.76034120520487,35.578145902045364],[139.76035411424434,35.578146180277535],[139.76035348117458,35.578114271694076],[139.7604402061162,35.57811315146355],[139.76044083685116,35.57814767496899],[139.76044690523682,35.57814776877707],[139.7604462909221,35.57821690479181],[139.7603410315703,35.57821566929729]]]}},{"type":"Feature","properties":{"height":16.0,"gml_id":"bldg_03cc8182-a5d6-4cab-82fb-70aba9de14f3"},"geometry":{"type":"Polygon","coordinates":[[[139.75574532913498,35.578205948331934],[139.75575337304673,35.57821695043062],[139.75573339165015,35.5782279344907],[139.755744863364,35.578231277007],[139.75575059691775,35.5782353369388],[139.75575334870865,35.578242189251064],[139.75575212875543,35.57824867845234],[139.7557498074422,35.57825309375463],[139.75574616427113,35.578255254738586],[139.75573998389555,35.57825687325705],[139.75572784755437,35.57825623447342],[139.75572233406336,35.57825280565313],[139.75571693456118,35.57824559108058],[139.75571672571633,35.57823333208287],[139.75568570680676,35.5782483652691],[139.75567854489213,35.57823808484375],[139.75574532913498,35.578205948331934]]]}},{"type":"Feature","properties":{"height":5.7,"gml_id":"bldg_40fed33f-84b2-41da-8495-81b0e45341d3"},"geometry":{"type":"Polygon","coordinates":[[[139.76016646680145,35.577987692820344],[139.76016603488662,35.57797732660686],[139.76014109921957,35.57797713119152],[139.76014023408453,35.57795784098284],[139.76012180780847,35.5779581002093],[139.76011777387063,35.57778358921916],[139.76030490510706,35.57778081829408],[139.7603067084788,35.577860502005876],[139.76023289304774,35.57786162906849],[139.7602358688452,35.57798665326102],[139.76016646680145,35.577987692820344]]]}},{"type":"Feature","properties":{"height":4.6,"gml_id":"bldg_490c405d-bd3e-4807-97ec-53abe55721db"},"geometry":{"type":"Polygon","coordinates":[[[139.76028022234433,35.577988212506725],[139.760239177847,35.57798782707074],[139.7602387490348,35.57797403558854],[139.7602363109056,35.57786442544108],[139.76030571284215,35.577863385841404],[139.76030835831887,35.57798777886113],[139.76028022234433,35.577988212506725]]]}},{"type":"Feature","properties":{"height":8.0,"gml_id":"bldg_6df94034-beb1-462b-aa9f-2046fccb4f4d"},"geometry":{"type":"Polygon","coordinates":[[[139.7591879997164,35.577520627122674],[139.75918674571304,35.577324935201446],[139.7593029285852,35.57732446577675],[139.75930418287118,35.57752015769709],[139.7591879997164,35.577520627122674]]]}},{"type":"Feature","properties":{"height":15.8,"gml_id":"bldg_f5335233-fd35-4458-8724-6240665a1e94"},"geometry":{"type":"Polygon","coordinates":[[[139.75891363680068,35.57735793795142],[139.7588960935861,35.577357927119635],[139.75889654943595,35.5773422432646],[139.75891409289727,35.57734198368031],[139.75891363680068,35.57735793795142]]]}},{"type":"Feature","properties":{"height":3.0,"gml_id":"bldg_96bab2b1-228c-42ae-a37a-e125974d67d8"},"geometry":{"type":"Polygon","coordinates":[[[139.75898935372166,35.578283619072316],[139.75898926321025,35.57826216600542],[139.75906065088557,35.578261849457164],[139.75906074141605,35.57828330252401],[139.75898935372166,35.578283619072316]]]}},{"type":"Feature","properties":{"height":3.1,"gml_id":"bldg_5cef67df-7e3a-4543-ace3-ab04e1df6ed3"},"geometry":{"type":"Polygon","coordinates":[[[139.75889292051608,35.57828310886601],[139.75889249785493,35.57826291753577],[139.75895914175317,35.57826187700842],[139.75895956443102,35.57828206833845],[139.75889292051608,35.57828310886601]]]}},{"type":"Feature","properties":{"height":3.7,"gml_id":"bldg_24496cb8-1ba6-4fbb-bb69-210c500035fa"},"geometry":{"type":"Polygon","coordinates":[[[139.7588251739078,35.57828342756554],[139.75882530311023,35.57826305629877],[139.7588857670299,35.57826327393382],[139.75888563792623,35.578283555062015],[139.7588251739078,35.57828342756554]]]}},{"type":"Feature","properties":{"height":3.8,"gml_id":"bldg_6e641dc5-1e5b-44e2-bd97-fc7792b77d05"},"geometry":{"type":"Polygon","coordinates":[[[139.7587234442437,35.578283274504585],[139.75872335238208,35.57826335379465],[139.75878558209405,35.578263121879345],[139.7587856739711,35.57828304258927],[139.7587234442437,35.578283274504585]]]}},{"type":"Feature","properties":{"height":4.4,"gml_id":"bldg_9ec88850-985e-40f9-aa2d-e5ef4d3b4d8e"},"geometry":{"type":"Polygon","coordinates":[[[139.75823234152594,35.5778073977313],[139.7582318575007,35.57773492590774],[139.75851508929736,35.57773365981471],[139.75851557357774,35.577806131637466],[139.75823234152594,35.5778073977313]]]}},{"type":"Feature","properties":{"height":4.1,"gml_id":"bldg_a72cba99-b670-4726-b40b-c9bb0627647d"},"geometry":{"type":"Polygon","coordinates":[[[139.75851076969593,35.57763279191657],[139.7582329466075,35.57763198817913],[139.75823334248554,35.57756249147913],[139.75851105508283,35.57756320500824],[139.75851076969593,35.57763279191657]]]}},{"type":"Feature","properties":{"height":3.5,"gml_id":"bldg_a81e8009-822c-4ad8-bb5c-0fe6a7e901d1"},"geometry":{"type":"Polygon","coordinates":[[[139.75442641160453,35.57850480336325],[139.7544017022995,35.57849865775486],[139.75442283204407,35.57844206448774],[139.75444941651787,35.57844875215117],[139.75444355323276,35.57846452258589],[139.75445281926315,35.578466782117104],[139.75444872612957,35.5784776862208],[139.75443747448833,35.57847497469621],[139.75442641160453,35.57850480336325]]]}},{"type":"Feature","properties":{"height":6.5,"gml_id":"bldg_2b944b07-d027-4c7d-b89f-0a333bae5bf3"},"geometry":{"type":"Polygon","coordinates":[[[139.76015001820036,35.577633257429014],[139.76014974483698,35.57756988974796],[139.76025136367835,35.57756959084395],[139.76025163703986,35.57763304866354],[139.76015001820036,35.577633257429014]]]}},{"type":"Feature","properties":{"height":15.4,"gml_id":"bldg_a88c4534-9c54-44e4-bb0f-69dd6e6e24ed"},"geometry":{"type":"Polygon","coordinates":[[[139.75011737156888,35.57996494660668],[139.75004754594352,35.57994705092533],[139.75006270295867,35.57990776093636],[139.75013252864653,35.579925566470386],[139.75011737156888,35.57996494660668]]]}},{"type":"Feature","properties":{"height":3.4,"gml_id":"bldg_e1e0d610-d16a-42cb-b131-f014b42147e2"},"geometry":{"type":"Polygon","coordinates":[[[139.7596875333211,35.57771013450111],[139.75957664689065,35.57770961601115],[139.7595770299568,35.57765282885746],[139.75968791639153,35.57765325720832],[139.7596875333211,35.57771013450111]]]}},{"type":"Feature","properties":{"height":6.2,"gml_id":"bldg_d93e8873-584c-4d43-a189-62f38d2966e1"},"geometry":{"type":"Polygon","coordinates":[[[139.75787988789648,35.5786762048545],[139.75784142148507,35.57863246350313],[139.75788889167742,35.57860527133654],[139.75792526331443,35.57864729872734],[139.75787988789648,35.5786762048545]]]}},{"type":"Feature","properties":{"height":13.6,"gml_id":"bldg_7e62967d-d248-433c-a631-ba2fa30c470a"},"geometry":{"type":"Polygon","coordinates":[[[139.75900604700846,35.5829057599423],[139.759006136861,35.582927934101285],[139.75864972982032,35.58292915601956],[139.75864964014968,35.582906891721876],[139.75900604700846,35.5829057599423]]]}},{"type":"Feature","properties":{"height":2.9,"gml_id":"bldg_20ae1cc6-a81d-4d37-bbb3-e90dc7632e2d"},"geometry":{"type":"Polygon","coordinates":[[[139.75968433581747,35.577587183344704],[139.7595221417148,35.577588886914164],[139.7595213092325,35.57753417220567],[139.75968350322484,35.57753246863716],[139.75968433581747,35.577587183344704]]]}},{"type":"Feature","properties":{"height":43.2,"gml_id":"bldg_726db398-0389-4593-8e32-6291a8b92e6d"},"geometry":{"type":"Polygon","coordinates":[[[139.76189304220003,35.57905669175857],[139.76226973167425,35.57905817635938],[139.76235347723633,35.579058496117085],[139.76235244096657,35.57923255331932],[139.76230600799946,35.579210982821586],[139.76230513524953,35.57919971497106],[139.7619601118123,35.5791983393729],[139.76195997740393,35.579225471038946],[139.76187413526233,35.57922514976492],[139.76187516768283,35.57905659102508],[139.76189304220003,35.57905669175857]]]}},{"type":"Feature","properties":{"height":24.3,"gml_id":"bldg_489aa5ad-c706-4698-a4f1-1520ea33d4db"},"geometry":{"type":"Polygon","coordinates":[[[139.75900604700846,35.5829057599423],[139.75900520818539,35.58273882267526],[139.75976524696674,35.582736404513746],[139.7597665294339,35.58302322642811],[139.75978628081592,35.583023148342654],[139.75978692488965,35.58316349458297],[139.75983393102254,35.58316334297773],[139.75983466649677,35.58332451129313],[139.75901018533818,35.58332319448697],[139.7590095974914,35.58324288060793],[139.75896347405313,35.583243032436265],[139.7586497236272,35.582935826274486],[139.75864972982032,35.58292915601956],[139.759006136861,35.582927934101285],[139.75900604700846,35.5829057599423]]]}},{"type":"Feature","properties":{"height":30.5,"gml_id":"bldg_f15354c4-aa91-4e49-832b-f76959abfe48"},"geometry":{"type":"Polygon","coordinates":[[[139.76047488808092,35.57782914536363],[139.76047041839857,35.57740395835389],[139.7605574730057,35.57740347011009],[139.7606377971922,35.57740297774475],[139.7607174593693,35.577402484927084],[139.76093250317408,35.57740108191902],[139.76093165668948,35.57748346819674],[139.76092911625096,35.57773170868701],[139.76092876796648,35.577750908023305],[139.76098647442504,35.577749680728765],[139.76098243231968,35.577827558148655],[139.76047488808092,35.57782914536363]]]}},{"type":"Feature","properties":{"height":6.8,"gml_id":"bldg_8439bcd5-734a-4a67-889f-c27531f11a25"},"geometry":{"type":"Polygon","coordinates":[[[139.75991758937053,35.57733962444187],[139.75944745164722,35.57734123010882],[139.75945066790769,35.57732320433686],[139.75990248865978,35.57732302972023],[139.75991758937053,35.57733962444187]]]}},{"type":"Feature","properties":{"height":35.9,"gml_id":"bldg_68da0f77-faa8-442c-97e8-3cc06b99d3ce"},"geometry":{"type":"Polygon","coordinates":[[[139.75970147171384,35.578032298759865],[139.75970175833714,35.578080793558584],[139.75990025320687,35.57807983297705],[139.75990122772245,35.57822099078179],[139.7596947882393,35.5782220366504],[139.7596951905578,35.578264672502634],[139.7591995590786,35.57826707287119],[139.75919926893678,35.57822272445112],[139.75910757933013,35.57822320885953],[139.7591065036888,35.57807357794872],[139.75920039983825,35.57807309489804],[139.75920010421453,35.578034695627736],[139.75970147171384,35.578032298759865]]]}},{"type":"Feature","properties":{"height":2.6,"gml_id":"bldg_95698468-5be9-4a2a-9cf1-23cc6921cf8d"},"geometry":{"type":"Polygon","coordinates":[[[139.7578960370987,35.57757444958987],[139.75787944593588,35.577618066342204],[139.75786256712735,35.57761544175323],[139.75786776809306,35.577599220041336],[139.75785983276646,35.57758984064727],[139.75773429694848,35.57756272036981],[139.7577556536636,35.57749666208562],[139.7577833421295,35.57750262859729],[139.75776906719227,35.577547058034966],[139.7578960370987,35.57757444958987]]]}},{"type":"Feature","properties":{"height":7.9,"gml_id":"bldg_3b69ef6a-7024-43bf-8367-8a4b2380be06"},"geometry":{"type":"Polygon","coordinates":[[[139.75481046612444,35.58226194367334],[139.75413652932625,35.58212052592864],[139.75414660773296,35.58208258418203],[139.75482197875672,35.58222391266665],[139.75481046612444,35.58226194367334]]]}},{"type":"Feature","properties":{"height":2.5,"gml_id":"bldg_3fb6f2bf-1992-41a6-8bd1-04111fe7e6f7"},"geometry":{"type":"Polygon","coordinates":[[[139.7504695413036,35.57785179757159],[139.75042608199917,35.57783932854828],[139.75051168568208,35.577641082245236],[139.75055514590343,35.57765364137738],[139.7504695413036,35.57785179757159]]]}},{"type":"Feature","properties":{"height":8.3,"gml_id":"bldg_de312044-c153-43ad-bbfb-6dd76d3d9e09"},"geometry":{"type":"Polygon","coordinates":[[[139.75841772246068,35.57826253326768],[139.75803573485942,35.57826725289262],[139.75803457735185,35.57820721979414],[139.75806845079381,35.57820688039395],[139.75806697895248,35.578128999635645],[139.75852134705855,35.57812333332808],[139.75852260319414,35.57819634645736],[139.75848078541068,35.57819686132974],[139.75841778188772,35.57819871510346],[139.75841772246068,35.57826253326768]]]}},{"type":"Feature","properties":{"height":24.5,"gml_id":"bldg_3ce5dc99-7431-4e25-93bd-28c2fe774056"},"geometry":{"type":"Polygon","coordinates":[[[139.75456271743178,35.580491819446955],[139.7545608357555,35.5804978575079],[139.75455751464082,35.580509032532056],[139.75454245962734,35.58055895951276],[139.75445200024635,35.580539881091944],[139.75449373552038,35.58039965263199],[139.75458430694562,35.580416838183],[139.75456969252755,35.580467576703725],[139.75456271743178,35.580491819446955]]]}},{"type":"Feature","properties":{"height":7.5,"gml_id":"bldg_922964f8-b6d7-4e9f-a4ae-663824be0ea0"},"geometry":{"type":"Polygon","coordinates":[[[139.7594031941124,35.577355715307085],[139.75932706334828,35.5773554883146],[139.75932720320063,35.5773233990175],[139.7594031135136,35.57732335545853],[139.7594031941124,35.577355715307085]]]}},{"type":"Feature","properties":{"height":7.8,"gml_id":"bldg_8e83c8f6-15e1-40fa-ac5c-f3f1e533e6bd"},"geometry":{"type":"Polygon","coordinates":[[[139.76176394618346,35.579554631432615],[139.7617635324988,35.57952353334073],[139.76188788424278,35.57952225502826],[139.7618884082332,35.57955344332381],[139.76176394618346,35.579554631432615]]]}},{"type":"Feature","properties":{"height":2.9,"gml_id":"bldg_49f61069-ad51-4c7f-abbf-7f35a2bc0832"},"geometry":{"type":"Polygon","coordinates":[[[139.75392256112877,35.579566396364406],[139.75380663015716,35.579531977098505],[139.7538163624118,35.57950917843295],[139.7539317420223,35.579543236771705],[139.75392256112877,35.579566396364406]]]}},{"type":"Feature","properties":{"height":2.6,"gml_id":"bldg_ee1924d3-189b-4fc7-8a37-fc64408088fa"},"geometry":{"type":"Polygon","coordinates":[[[139.7538386266738,35.57986839574645],[139.75381071897235,35.57986044513524],[139.75385108508925,35.579766637397505],[139.75387899267315,35.57977467813808],[139.7538386266738,35.57986839574645]]]}},{"type":"Feature","properties":{"height":2.6,"gml_id":"bldg_9600d1f7-49ad-4c4d-8742-1979180884fd"},"geometry":{"type":"Polygon","coordinates":[[[139.75389544424792,35.57976333150776],[139.75385275601084,35.579750593814914],[139.75386834811997,35.579715720426954],[139.753911036341,35.579728458114324],[139.75389544424792,35.57976333150776]]]}},{"type":"Feature","properties":{"height":2.6,"gml_id":"bldg_d2f9f264-a83b-47a3-8373-b7fa63c30d02"},"geometry":{"type":"Polygon","coordinates":[[[139.75391446090998,35.579724313991534],[139.753871881782,35.57971283831875],[139.7538863717432,35.579676702260194],[139.75392906119203,35.57968817800059],[139.75391446090998,35.579724313991534]]]}},{"type":"Feature","properties":{"height":2.5,"gml_id":"bldg_44b8158e-f646-4bd1-b3c1-b62f5a6e02d0"},"geometry":{"type":"Polygon","coordinates":[[[139.7539097591848,35.57968095419004],[139.75389199959665,35.579676074998545],[139.75389885656404,35.57965985455537],[139.75391650572226,35.57966482381182],[139.7539097591848,35.57968095419004]]]}},{"type":"Feature","properties":{"height":4.3,"gml_id":"bldg_a404a176-5248-4528-9388-713bec460080"},"geometry":{"type":"Polygon","coordinates":[[[139.7543587187921,35.579686477212285],[139.75428713104023,35.57966452659052],[139.75429962595916,35.57963731290275],[139.7543712136903,35.579659263517165],[139.7543587187921,35.579686477212285]]]}},{"type":"Feature","properties":{"height":2.3,"gml_id":"bldg_62e60e10-275e-4dbb-9806-f9976ac5c230"},"geometry":{"type":"Polygon","coordinates":[[[139.75438238284573,35.57963376158721],[139.75433814730428,35.579623637074214],[139.75434434392085,35.57960561339918],[139.75438857945318,35.57961573790992],[139.75438238284573,35.57963376158721]]]}},{"type":"Feature","properties":{"height":6.9,"gml_id":"bldg_cbb9a350-49fb-4c73-a683-40b3fc9adcde"},"geometry":{"type":"Polygon","coordinates":[[[139.76210848831968,35.58010134632674],[139.76173576622915,35.58009977343742],[139.76173921561733,35.57957138254205],[139.76211193518003,35.57957304555666],[139.76210848831968,35.58010134632674]]]}},{"type":"Feature","properties":{"height":4.3,"gml_id":"bldg_ec665aff-2b24-49ff-ac20-522e202f18ca"},"geometry":{"type":"Polygon","coordinates":[[[139.75202080654842,35.579102807223194],[139.75198705161168,35.57909467196724],[139.75199623519524,35.579069349193844],[139.75202999012228,35.57907748444725],[139.75202080654842,35.579102807223194]]]}},{"type":"Feature","properties":{"height":17.1,"gml_id":"bldg_7469fb1f-2488-4c09-aa23-1d9a0b46aad8"},"geometry":{"type":"Polygon","coordinates":[[[139.75888461827859,35.577358460865305],[139.7586929678534,35.57735735082338],[139.7586933100632,35.57734527244739],[139.75871528304725,35.57732761886251],[139.75888530789538,35.57732862537628],[139.75888461827859,35.577358460865305]]]}},{"type":"Feature","properties":{"height":9.2,"gml_id":"bldg_c7e4f6ee-4dc5-45ce-b964-d8b8ef2909e7"},"geometry":{"type":"Polygon","coordinates":[[[139.75379405126128,35.582545394239226],[139.7537765624316,35.58260081795744],[139.7537011031443,35.58258607553208],[139.75368235002978,35.58258101537798],[139.75366172360643,35.582573430101064],[139.75363558661587,35.582559261056915],[139.75361397704233,35.58254166973337],[139.7535965618052,35.58252272910103],[139.75358246281576,35.58249775137174],[139.75357675114373,35.582471427111145],[139.75357434981416,35.58244501490202],[139.75357779632338,35.58241887697809],[139.7536856258185,35.582170075497245],[139.75375170142266,35.58218913839284],[139.75364641612524,35.58243172204824],[139.75364452620843,35.582445962703254],[139.75364627354764,35.58246426200148],[139.75364978831925,35.58248057941803],[139.75365694802963,35.582493203559785],[139.75366686807098,35.58250402675282],[139.753680208709,35.582514852205456],[139.7536955379118,35.582523245227286],[139.75370778147433,35.58252767010895],[139.75372024670312,35.58253110361081],[139.75379405126128,35.582545394239226]]]}},{"type":"Feature","properties":{"height":9.1,"gml_id":"bldg_af1c2d5c-01b9-4aa4-ba1f-1a3a87ff1cc7"},"geometry":{"type":"Polygon","coordinates":[[[139.75484522478726,35.582826234167364],[139.75486304483587,35.58276990912505],[139.75489503753917,35.582776600206984],[139.7549152282111,35.58277859639404],[139.75493222221354,35.58277725536921],[139.75494778334914,35.582774290914806],[139.75496124965244,35.58276961246237],[139.75497615215744,35.58276313216943],[139.75499094782958,35.58275304625991],[139.75500177056946,35.58274358873723],[139.75500917577529,35.58273097414078],[139.75501349140208,35.5827183575364],[139.75508942180252,35.5824760240606],[139.75515848186137,35.58249031077396],[139.75508233009435,35.582733545535426],[139.755076022971,35.58275165930587],[139.75506132300399,35.58277679843951],[139.75504000890405,35.582795353155205],[139.75501626946092,35.58281165282549],[139.7549920943458,35.58282209319687],[139.75497012870244,35.58282983084089],[139.75494353131828,35.582834861309856],[139.75491439878454,35.58283709582611],[139.75488196117033,35.582834010005044],[139.75484522478726,35.582826234167364]]]}},{"type":"Feature","properties":{"height":5.1,"gml_id":"bldg_8d915781-a2d9-4793-821b-f03167596fd0"},"geometry":{"type":"Polygon","coordinates":[[[139.75841772246068,35.57826253326768],[139.75841778188772,35.57819871510346],[139.75848078541068,35.57819686132974],[139.7584820490583,35.57826176198003],[139.75841772246068,35.57826253326768]]]}},{"type":"Feature","properties":{"height":9.5,"gml_id":"bldg_9de591e6-fd22-485f-b998-3551d27dc70f"},"geometry":{"type":"Polygon","coordinates":[[[139.75749416183055,35.582176227576014],[139.7574255875606,35.582114709856995],[139.7575075199567,35.582051934790584],[139.7575799521034,35.58211778154309],[139.75749416183055,35.582176227576014]]]}},{"type":"Feature","properties":{"height":50.7,"gml_id":"bldg_75d19963-4bd6-491f-97d2-4279d261b153"},"geometry":{"type":"Polygon","coordinates":[[[139.7543551370971,35.5835593720408],[139.75434951109978,35.583557835997844],[139.75423228610165,35.583823397632436],[139.75355210319935,35.58362599646855],[139.75366359651812,35.58335619518446],[139.75366150107448,35.583355112135976],[139.75365476783634,35.58335745128944],[139.7535956246801,35.58324546000964],[139.75359971853055,35.58323419538978],[139.7532588546163,35.58313842248794],[139.75342143103154,35.582763283272094],[139.7535470746323,35.58279969237212],[139.75354442025173,35.58280591018059],[139.75488436922532,35.58319339428261],[139.7547248953245,35.58356141652099],[139.75449577729736,35.5834951952736],[139.75449113219688,35.583506099008424],[139.75449520870737,35.583512411378216],[139.7543622986954,35.58357028350601],[139.7543551370971,35.5835593720408]]]}},{"type":"Feature","properties":{"height":10.8,"gml_id":"bldg_8aaa5833-d2cb-45d4-9cb6-235f9b602a14"},"geometry":{"type":"Polygon","coordinates":[[[139.75749416183055,35.582176227576014],[139.75752624404706,35.58220500198387],[139.75744171961372,35.58220810364874],[139.75729884045091,35.58207767312864],[139.75734587830894,35.58204326982853],[139.7574255875606,35.582114709856995],[139.75749416183055,35.582176227576014]]]}},{"type":"Feature","properties":{"height":11.8,"gml_id":"bldg_dceed0ec-b10f-4332-8363-02845e411ff5"},"geometry":{"type":"Polygon","coordinates":[[[139.75484522478726,35.582826234167364],[139.7548313887346,35.5828705733634],[139.75376228330225,35.58264632854185],[139.7537765624316,35.58260081795744],[139.75379405126128,35.582545394239226],[139.75394060382976,35.5820793839592],[139.75413652932625,35.58212052592864],[139.75481046612444,35.58226194367334],[139.7550095918886,35.58230362713956],[139.75486304483587,35.58276990912505],[139.75484522478726,35.582826234167364]]]}},{"type":"Feature","properties":{"height":24.3,"gml_id":"bldg_bdceaad5-89c6-43a4-8b43-163e66efdb57"},"geometry":{"type":"Polygon","coordinates":[[[139.7589389909193,35.57750199526727],[139.75893626582985,35.57734668458012],[139.759009197878,35.577345828182644],[139.7590089877841,35.577334380436184],[139.7590426401856,35.57733404062568],[139.75904327197998,35.57736676136889],[139.75902032211354,35.57736701763917],[139.7590210505795,35.57741452119117],[139.75904091108617,35.5774142630168],[139.75904237586798,35.577500797085186],[139.7589389909193,35.57750199526727]]]}},{"type":"Feature","properties":{"height":12.3,"gml_id":"bldg_878db550-fc69-496e-b606-0c474061481a"},"geometry":{"type":"Polygon","coordinates":[[[139.76154101091242,35.58196309416708],[139.76270290306874,35.58196224823075],[139.76270312337743,35.58221400560148],[139.76250958448648,35.58221407231762],[139.76250986826193,35.58251838054284],[139.7615416181189,35.58251906968598],[139.76154101091242,35.58196309416708]]]}},{"type":"Feature","properties":{"height":12.1,"gml_id":"bldg_6333fc72-23b5-4c72-9883-8f17b985b96d"},"geometry":{"type":"Polygon","coordinates":[[[139.76150117990218,35.58196072683238],[139.76150509781073,35.58251589307668],[139.76094643486843,35.58251844331139],[139.76094263115652,35.58196327711998],[139.76150117990218,35.58196072683238]]]}},{"type":"Feature","properties":{"height":17.3,"gml_id":"bldg_4c8bddea-b041-4916-8d8c-25c05e8413e3"},"geometry":{"type":"Polygon","coordinates":[[[139.76088438812963,35.58255689523319],[139.75844296505332,35.58255549323064],[139.75822707485727,35.58238499687696],[139.7580017381753,35.58216969532366],[139.75800195613309,35.58193695747937],[139.76088494497418,35.581938634611106],[139.76088438812963,35.58255689523319]]]}},{"type":"Feature","properties":{"height":14.3,"gml_id":"bldg_71fa1645-65c9-442b-85f3-4be55b91c65c"},"geometry":{"type":"Polygon","coordinates":[[[139.76093250317408,35.57740108191902],[139.7607174593693,35.577402484927084],[139.76071752339743,35.57733154579565],[139.76093455165736,35.5773316763374],[139.76093250317408,35.57740108191902]]]}},{"type":"Feature","properties":{"height":11.3,"gml_id":"bldg_d53d171d-e286-43bc-a92a-03b3198b7179"},"geometry":{"type":"Polygon","coordinates":[[[139.7606377971922,35.57740297774475],[139.7605574730057,35.57740347011009],[139.76055764726493,35.57733280146152],[139.76063786120912,35.577332128752104],[139.7606377971922,35.57740297774475]]]}},{"type":"Feature","properties":{"height":4.1,"gml_id":"bldg_65be1d0d-022e-4381-82ca-593354aa4a02"},"geometry":{"type":"Polygon","coordinates":[[[139.7585254236884,35.57753626245098],[139.7583238391728,35.57753893148255],[139.75832203659508,35.57746050968047],[139.75852351057944,35.57745784058318],[139.7585254236884,35.57753626245098]]]}},{"type":"Feature","properties":{"height":9.4,"gml_id":"bldg_0a58ef0e-1a17-4d91-8dc5-28dfcf33d2cc"},"geometry":{"type":"Polygon","coordinates":[[[139.7601690846896,35.577656885345476],[139.76016898566672,35.577644446143125],[139.7604438321466,35.57764262959604],[139.76044504420696,35.57776621050232],[139.76017019722298,35.57776811719025],[139.7601702044365,35.57776018498812],[139.7601690846896,35.577656885345476]]]}},{"type":"Feature","properties":{"height":11.2,"gml_id":"bldg_31d2145e-eca0-4b3e-a5a7-d0146bd9356b"},"geometry":{"type":"Polygon","coordinates":[[[139.75991758937053,35.57733962444187],[139.75991843284734,35.57750349714004],[139.75946230677974,35.57750502125827],[139.75946210646995,35.57748284701187],[139.7594482042781,35.57748283849164],[139.75944745164722,35.57734123010882],[139.75991758937053,35.57733962444187]]]}},{"type":"Feature","properties":{"height":7.8,"gml_id":"bldg_3cea972b-98ec-473d-a5e6-a8bd17ba70fb"},"geometry":{"type":"Polygon","coordinates":[[[139.75811459770978,35.57924061974814],[139.7578222070943,35.57923710180925],[139.75782895613338,35.57886474311044],[139.75788423425183,35.57886540869321],[139.75788493668023,35.57882232283777],[139.7580293658875,35.57882403564684],[139.75802983389613,35.57879555211213],[139.75811611623143,35.578796597507775],[139.75811564943325,35.57882381910189],[139.75814610210736,35.57882410851635],[139.75814529251483,35.57886394931359],[139.7581721040916,35.578864236450315],[139.75816582258267,35.579210274964225],[139.75811517838792,35.579209612402124],[139.75811459770978,35.57924061974814]]]}},{"type":"Feature","properties":{"height":8.0,"gml_id":"bldg_320df7b0-d0ac-44ba-a3e0-9d4b296f69c6"},"geometry":{"type":"Polygon","coordinates":[[[139.75835113773027,35.57867361447242],[139.75835104444835,35.57865531625918],[139.7589087961805,35.578654670385966],[139.75890888967268,35.57867287846028],[139.75835113773027,35.57867361447242]]]}},{"type":"Feature","properties":{"height":27.0,"gml_id":"bldg_adf3fca3-183b-4b86-989a-1ca39aa9f5cb"},"geometry":{"type":"Polygon","coordinates":[[[139.76092911625096,35.57773170868701],[139.76093165668948,35.57748346819674],[139.76098737384862,35.57748566497795],[139.7609845036301,35.57773273346823],[139.76092911625096,35.57773170868701]]]}},{"type":"Feature","properties":{"height":33.1,"gml_id":"bldg_dc1f57d8-e565-42db-a13d-179b0db70314"},"geometry":{"type":"Polygon","coordinates":[[[139.75164185026415,35.578073888245996],[139.75169468567182,35.57808906734208],[139.75162799645085,35.57824342974852],[139.75159426442343,35.57832173740735],[139.7515867437163,35.57833930935311],[139.75099728133307,35.57816962769517],[139.75115952820798,35.57779349946971],[139.75125505058733,35.577820966714434],[139.75126467265366,35.577798528728536],[139.75135004707448,35.57782319468884],[139.7513408673808,35.57784464145665],[139.75169659510192,35.57794710018165],[139.75164185026415,35.578073888245996]]]}},{"type":"Feature","properties":{"height":26.0,"gml_id":"bldg_dccbe972-2604-41ea-80f4-ff8f669471ca"},"geometry":{"type":"Polygon","coordinates":[[[139.75564031748954,35.57989057277521],[139.75498934437275,35.57975431245767],[139.7550975902883,35.57940951217334],[139.7557485608005,35.579545771910816],[139.75564031748954,35.57989057277521]]]}},{"type":"Feature","properties":{"height":9.9,"gml_id":"bldg_1de49d04-ed83-4e96-a250-422ae49f93ba"},"geometry":{"type":"Polygon","coordinates":[[[139.75899075926242,35.57867301911831],[139.75899066450228,35.57865616312371],[139.75956573964393,35.578654893922575],[139.75956572427074,35.57867165971072],[139.75899075926242,35.57867301911831]]]}},{"type":"Feature","properties":{"height":33.3,"gml_id":"bldg_0c5a0e17-010a-4893-9ace-9cfce3ab4db4"},"geometry":{"type":"Polygon","coordinates":[[[139.75186422322196,35.578572776147425],[139.7517370040273,35.57890043437574],[139.7511798477831,35.57874844267056],[139.75136148130252,35.57829625036146],[139.75182387435663,35.57843005931898],[139.75186422322196,35.578572776147425]]]}},{"type":"Feature","properties":{"height":31.5,"gml_id":"bldg_58b7b559-be6d-4105-9b14-c8a7f8d34413"},"geometry":{"type":"Polygon","coordinates":[[[139.75066334657114,35.577367525234166],[139.7506542775446,35.577388521333575],[139.75076281368152,35.57742095552394],[139.7507422441338,35.57746700231258],[139.75062686931886,35.57743249022174],[139.75063405757103,35.577416450463254],[139.7502208673857,35.577296371942424],[139.75037957344009,35.57693187016644],[139.75079993149902,35.57705411638643],[139.75066334657114,35.577367525234166]]]}},{"type":"Feature","properties":{"height":21.3,"gml_id":"bldg_d70f40fd-8400-4f78-908b-0e26ff4ed023"},"geometry":{"type":"Polygon","coordinates":[[[139.7586929678534,35.57735735082338],[139.75888461827859,35.577358460865305],[139.75890911249502,35.57735856612922],[139.7589079860682,35.577502786475605],[139.7586918410383,35.57750157206869],[139.7586929678534,35.57735735082338]]]}},{"type":"Feature","properties":{"height":32.6,"gml_id":"bldg_1db3a412-be50-46e6-8ae9-779225ba5733"},"geometry":{"type":"Polygon","coordinates":[[[139.75122785434817,35.57830607467506],[139.75118549571894,35.578403936439045],[139.75120854924626,35.57841053227204],[139.7511921862787,35.578443061191635],[139.75114144656786,35.57842842413722],[139.75111866325332,35.57848132001359],[139.75105590039092,35.578463249452085],[139.7510445112398,35.57848721857026],[139.75093542085486,35.57845577578502],[139.75072462998853,35.57839569018353],[139.75083478640718,35.57814058207312],[139.75115477710554,35.57823211114682],[139.75114592942566,35.578252476460236],[139.75120891272388,35.57827063726427],[139.75119741054897,35.57829731048159],[139.75122785434817,35.57830607467506]]]}},{"type":"Feature","properties":{"height":13.2,"gml_id":"bldg_6ee1b704-11b5-451b-93ca-0982c1746b2e"},"geometry":{"type":"Polygon","coordinates":[[[139.76021872320223,35.57754901942406],[139.76020923439668,35.57754901366839],[139.76020709914027,35.57747041141431],[139.76044465168607,35.57746875251294],[139.7604453513503,35.577548976391775],[139.76021872320223,35.57754901942406]]]}},{"type":"Feature","properties":{"height":8.4,"gml_id":"bldg_c6a8f7ae-9e15-4de1-81f0-1e2f036b9823"},"geometry":{"type":"Polygon","coordinates":[[[139.7606581716278,35.58330698289814],[139.7606583184939,35.582778049496504],[139.7610405437672,35.582778099067],[139.76104039933352,35.583307122610655],[139.7606581716278,35.58330698289814]]]}},{"type":"Feature","properties":{"height":3.5,"gml_id":"bldg_02d6a10b-11b1-44ca-bc9f-5903a99ae474"},"geometry":{"type":"Polygon","coordinates":[[[139.75016694478987,35.58249607415163],[139.75019183428256,35.58243551816055],[139.75030357889983,35.582466062043316],[139.75027868938867,35.58252670819583],[139.75016694478987,35.58249607415163]]]}},{"type":"Feature","properties":{"height":8.6,"gml_id":"bldg_cc2adcf4-1f7e-499d-b637-31ada6a6496a"},"geometry":{"type":"Polygon","coordinates":[[[139.7612312059062,35.58278830879413],[139.761264860258,35.582788328920586],[139.76126523623523,35.58298447081367],[139.76123158172058,35.582984540825805],[139.7612312059062,35.58278830879413]]]}},{"type":"Feature","properties":{"height":6.0,"gml_id":"bldg_08b068f9-f711-4c86-bcfe-140ac53d6f0e"},"geometry":{"type":"Polygon","coordinates":[[[139.7601690846896,35.577656885345476],[139.7601702044365,35.57776018498812],[139.76012066391473,35.57776015490981],[139.760120426256,35.57765757691217],[139.7601690846896,35.577656885345476]]]}},{"type":"Feature","properties":{"height":12.3,"gml_id":"bldg_5a442976-2a92-4b79-b848-7429a9efe499"},"geometry":{"type":"Polygon","coordinates":[[[139.76218509142774,35.580069482473824],[139.7621825541169,35.57956993240684],[139.76279868211157,35.579567860762765],[139.76280122332741,35.58006732068273],[139.76218509142774,35.580069482473824]]]}},{"type":"Feature","properties":{"height":3.7,"gml_id":"bldg_39dea51e-d4dc-4b2e-8b96-95466658dce0"},"geometry":{"type":"Polygon","coordinates":[[[139.75013411018463,35.58255707534635],[139.75008204434567,35.582542076384556],[139.75010128988862,35.58249756119104],[139.75015335570234,35.58251256014461],[139.75013411018463,35.58255707534635]]]}},{"type":"Feature","properties":{"height":12.4,"gml_id":"bldg_13eb0a32-66ef-4188-be88-3e87b21245fa"},"geometry":{"type":"Polygon","coordinates":[[[139.76150803998158,35.58008584674246],[139.760148559711,35.580085569850745],[139.7601487350587,35.57952896360985],[139.76150809566587,35.57952915028419],[139.76150803998158,35.58008584674246]]]}},{"type":"Feature","properties":{"height":15.6,"gml_id":"bldg_be3cbc7d-9259-48af-9358-3ac4e83d5e86"},"geometry":{"type":"Polygon","coordinates":[[[139.7594031941124,35.577355715307085],[139.75940250518866,35.57750507473507],[139.75932637428318,35.577504847742],[139.75932706334828,35.5773554883146],[139.7594031941124,35.577355715307085]]]}},{"type":"Feature","properties":{"height":13.6,"gml_id":"bldg_621c1ffb-bbe1-487b-a9bb-a93c765d242b"},"geometry":{"type":"Polygon","coordinates":[[[139.76212937864827,35.57781634278264],[139.7622073860381,35.57781602828058],[139.76220917138832,35.57816784071233],[139.76177808788978,35.578169298225426],[139.7617763043445,35.57781757592822],[139.7618538703952,35.57781726139295],[139.76212937864827,35.57781634278264]]]}},{"type":"Feature","properties":{"height":2.5,"gml_id":"bldg_3e0b4095-b099-4af1-b312-8d7fae2cf1fa"},"geometry":{"type":"Polygon","coordinates":[[[139.7570301981375,35.58180438327533],[139.757030656601,35.58178635583597],[139.75707986780745,35.581787198225214],[139.75707951969574,35.58180522573457],[139.7570301981375,35.58180438327533]]]}},{"type":"Feature","properties":{"height":8.8,"gml_id":"bldg_f1412df5-fde5-43d4-93c4-0ec371ef4f07"},"geometry":{"type":"Polygon","coordinates":[[[139.76036123894568,35.583306893640916],[139.7599765848891,35.583306660159494],[139.75997717715984,35.58277700592325],[139.76036182978697,35.582777239400464],[139.76036123894568,35.583306893640916]]]}},{"type":"Feature","properties":{"height":12.3,"gml_id":"bldg_27abe9b3-660f-4139-bd62-6845b3ad59dc"},"geometry":{"type":"Polygon","coordinates":[[[139.7598934125539,35.5795300702668],[139.7598934606424,35.580081719015176],[139.7579001958561,35.58008184021301],[139.75790016143608,35.57953019148052],[139.7598934125539,35.5795300702668]]]}},{"type":"Feature","properties":{"height":7.7,"gml_id":"bldg_95ef125a-fbb7-4662-be1a-28ca604b79c8"},"geometry":{"type":"Polygon","coordinates":[[[139.76170080389232,35.578595968940185],[139.7616213618539,35.5785957414283],[139.76162071855686,35.57857473872872],[139.76170082339533,35.57857406524791],[139.76170080389232,35.578595968940185]]]}},{"type":"Feature","properties":{"height":3.4,"gml_id":"bldg_a2ac18c8-3a92-4ecb-b435-e5fe8e1529be"},"geometry":{"type":"Polygon","coordinates":[[[139.75845081728997,35.57732060432394],[139.7584526315678,35.577386586990606],[139.7583932750982,35.57738267413985],[139.75840257374887,35.57723142715474],[139.75844593688868,35.57722965132714],[139.75844657842387,35.57725164557264],[139.7584674319993,35.57725128445013],[139.75846350710066,35.577320370634425],[139.75845081728997,35.57732060432394]]]}},{"type":"Feature","properties":{"height":3.3,"gml_id":"bldg_bc161d67-49c5-491f-ac03-4f5f4f74b628"},"geometry":{"type":"Polygon","coordinates":[[[139.75659537418719,35.577956537843235],[139.75654363776508,35.57794505728131],[139.7565553697996,35.57790684594322],[139.75660931591636,35.577915173051935],[139.75659537418719,35.577956537843235]]]}},{"type":"Feature","properties":{"height":21.5,"gml_id":"bldg_8bc57bf8-a71d-4f8c-8315-931731765e15"},"geometry":{"type":"Polygon","coordinates":[[[139.75970147171384,35.578032298759865],[139.75920010421453,35.578034695627736],[139.7591968149668,35.577892364586916],[139.75970115816045,35.57789267371107],[139.75970147171384,35.578032298759865]]]}},{"type":"Feature","properties":{"height":9.6,"gml_id":"bldg_3e06b5ae-9854-4cfb-abcf-51c25258e254"},"geometry":{"type":"Polygon","coordinates":[[[139.76130566572482,35.57862205398218],[139.76126186216507,35.57862202780042],[139.76126190568982,35.578573443067924],[139.76130570922314,35.57857346924963],[139.76130566572482,35.57862205398218]]]}},{"type":"Feature","properties":{"height":9.0,"gml_id":"bldg_59277df5-d7fb-48e6-a4f8-f262ad90baa5"},"geometry":{"type":"Polygon","coordinates":[[[139.76020709914027,35.57747041141431],[139.76020923439668,35.57754901366839],[139.76021872320223,35.57754901942406],[139.76021871345418,35.577559745925065],[139.76012283253544,35.57755950745424],[139.76012390757285,35.57746936939308],[139.76020709914027,35.57747041141431]]]}},{"type":"Feature","properties":{"height":4.8,"gml_id":"bldg_efd89083-9152-4027-94f8-2e1d9dff7020"},"geometry":{"type":"Polygon","coordinates":[[[139.7581568152445,35.57786828442006],[139.75815783563507,35.57795707168264],[139.75810818617592,35.577955418212504],[139.7581335358272,35.57786682768046],[139.7581568152445,35.57786828442006]]]}},{"type":"Feature","properties":{"height":5.6,"gml_id":"bldg_bad50f50-fc99-4ce3-9d81-6c2428c701f2"},"geometry":{"type":"Polygon","coordinates":[[[139.75434144939237,35.5789576045056],[139.7543115565132,35.57894902173758],[139.75429906002307,35.57897794806382],[139.7542570334508,35.57896593205603],[139.75426245227237,35.578953406332964],[139.75420674793946,35.57893732509381],[139.75423937165874,35.57886172014394],[139.75433644054573,35.578889726790365],[139.75434075332706,35.57887990449946],[139.7543713080274,35.57888866797124],[139.75434144939237,35.5789576045056]]]}},{"type":"Feature","properties":{"height":6.8,"gml_id":"bldg_c98ba9c5-8639-43e3-ab10-9f7435e75a2b"},"geometry":{"type":"Polygon","coordinates":[[[139.7536618099319,35.580480951547955],[139.7535580106547,35.580450956859906],[139.75357061815856,35.58042185041401],[139.753541496922,35.580413538383425],[139.7535275611392,35.58044688046417],[139.7533527251466,35.58039529540608],[139.75338855716186,35.58031257187967],[139.75356383533622,35.5803631656537],[139.7535521126059,35.58039019949543],[139.75358035130313,35.580398330662256],[139.75362436699672,35.580296593221],[139.75372860736547,35.580326678282546],[139.7536618099319,35.580480951547955]]]}},{"type":"Feature","properties":{"height":35.7,"gml_id":"bldg_d3f91e84-4607-441f-9533-2e725d3a22c4"},"geometry":{"type":"Polygon","coordinates":[[[139.75095858692305,35.57986105368697],[139.75076853146595,35.57980530809702],[139.7507783745823,35.57978287030899],[139.7501905611088,35.57961057184865],[139.75054104278388,35.57881272519163],[139.75113072626775,35.57898565420842],[139.75114322334505,35.57895726904392],[139.75133151222107,35.57901247201597],[139.75095858692305,35.57986105368697]]]}},{"type":"Feature","properties":{"height":6.9,"gml_id":"bldg_4ccd2855-559e-41f6-85a3-3e8b225bd928"},"geometry":{"type":"Polygon","coordinates":[[[139.75872423665774,35.57826164170663],[139.75872304830034,35.578115345856055],[139.75905394712763,35.57811338688216],[139.75905524633947,35.578259772936875],[139.75872423665774,35.57826164170663]]]}},{"type":"Feature","properties":{"height":21.2,"gml_id":"bldg_2301765c-085f-4294-9365-082b26c50d9d"},"geometry":{"type":"Polygon","coordinates":[[[139.7603410315703,35.57821566929729],[139.7604462909221,35.57821690479181],[139.76044513782946,35.57827179856491],[139.76033976909153,35.57827065314183],[139.7603410315703,35.57821566929729]]]}},{"type":"Feature","properties":{"height":25.2,"gml_id":"bldg_bd754635-f4b7-4605-84ca-f34814cc978a"},"geometry":{"type":"Polygon","coordinates":[[[139.76077031303896,35.5781328205885],[139.7607655573853,35.57826757508849],[139.7606073366324,35.578266398070525],[139.7606091119377,35.57813335441431],[139.76077031303896,35.5781328205885]]]}},{"type":"Feature","properties":{"height":5.4,"gml_id":"bldg_67c312c1-603f-4625-8ac6-4917bc38d189"},"geometry":{"type":"Polygon","coordinates":[[[139.75356141244146,35.580358566978276],[139.75352854096232,35.58034899052122],[139.7535330750454,35.58033871771491],[139.7534836574187,35.58032444307987],[139.75351075221326,35.58026217520571],[139.75359293092114,35.58028602620525],[139.75356141244146,35.580358566978276]]]}},{"type":"Feature","properties":{"height":6.4,"gml_id":"bldg_9504d69e-31c5-4e08-a212-4b27b5117052"},"geometry":{"type":"Polygon","coordinates":[[[139.7582786539359,35.57795615544291],[139.7582774416691,35.577836360346346],[139.7585014242497,35.57783451654777],[139.75850274768857,35.577953770879105],[139.7582786539359,35.57795615544291]]]}},{"type":"Feature","properties":{"height":19.2,"gml_id":"bldg_c907e49b-583b-4530-bbed-6813a8689dc8"},"geometry":{"type":"Polygon","coordinates":[[[139.7622680623891,35.57894937797265],[139.7618921426606,35.57895140923214],[139.7618898626674,35.578661161280195],[139.76235504372588,35.5786586417868],[139.76235693685445,35.57888903741012],[139.76226756357582,35.5788895255855],[139.7622680623891,35.57894937797265]]]}},{"type":"Feature","properties":{"height":5.3,"gml_id":"bldg_5454158b-1e89-4a20-87b6-5a7aaa056c1d"},"geometry":{"type":"Polygon","coordinates":[[[139.75910023360214,35.578052932324155],[139.75909872624786,35.57801245911707],[139.75913535840903,35.57801167042237],[139.75913675552923,35.57805205342245],[139.75910023360214,35.578052932324155]]]}},{"type":"Feature","properties":{"height":2.5,"gml_id":"bldg_5ba3e0a3-7e38-4418-9cd1-dc8dc8915de1"},"geometry":{"type":"Polygon","coordinates":[[[139.75051266980105,35.57786408607457],[139.7504881825922,35.577857038429194],[139.75057356565642,35.57765861165368],[139.75059805281242,35.577665659281855],[139.75051266980105,35.57786408607457]]]}}]}