{"type":"FeatureCollection","crs":{"type":"name","properties":{"name":"urn:ogc:def:crs:OGC:1.3:CRS84"}},"features":[{"type":"Feature","properties":{"height":6.8,"gml_id":"bldg_82773c57-3f6a-4710-a4d0-11267ea18047"},"geometry":{"type":"Polygon","coordinates":[[[139.79149939220855,35.59722261763972],[139.79145148307813,35.59724567643918],[139.79141784695437,35.59719906317446],[139.7914656457047,35.59717600434985],[139.79149939220855,35.59722261763972]]]}},{"type":"Feature","properties":{"height":5.9,"gml_id":"bldg_72031c44-cca3-43e7-b789-5788783e1b92"},"geometry":{"type":"Polygon","coordinates":[[[139.79781679565437,35.59508719183393],[139.79777980539308,35.595132340300246],[139.79757414590534,35.595019966922216],[139.79761113627035,35.59497472837977],[139.79781679565437,35.59508719183393]]]}},{"type":"Feature","properties":{"height":2.2,"gml_id":"bldg_8ce7efc8-f946-4025-a225-576d7ab0b8c3"},"geometry":{"type":"Polygon","coordinates":[[[139.79901447480293,35.599336394366034],[139.79899737224525,35.59932701510028],[139.79901128541948,35.599310163181606],[139.79902838801365,35.599319452307],[139.79901447480293,35.599336394366034]]]}},{"type":"Feature","properties":{"height":2.4,"gml_id":"bldg_05d25d8d-fc97-4651-9711-8a6747e6172f"},"geometry":{"type":"Polygon","coordinates":[[[139.799356954045,35.599557600913286],[139.79933830636367,35.59954804098383],[139.79935774134498,35.599522717573365],[139.79937638906082,35.59953218736146],[139.799356954045,35.599557600913286]]]}},{"type":"Feature","properties":{"height":7.7,"gml_id":"bldg_ded6816e-5614-4d55-a22b-64aed2f56483"},"geometry":{"type":"Polygon","coordinates":[[[139.79675359614467,35.59993821439362],[139.79668165625986,35.5998974499808],[139.79673929816687,35.59982932286946],[139.79681134838563,35.59987008728176],[139.79675359614467,35.59993821439362]]]}},{"type":"Feature","properties":{"height":3.6,"gml_id":"bldg_9527dde0-fcd1-4335-a3cd-033831530ed0"},"geometry":{"type":"Polygon","coordinates":[[[139.79978685465366,35.593142657947375],[139.7997670771872,35.59319934955632],[139.79961943463994,35.59316487544018],[139.79963921220195,35.59310818385517],[139.79978685465366,35.593142657947375]]]}},{"type":"Feature","properties":{"height":6.8,"gml_id":"bldg_890e7e89-3656-40d4-adf5-fe840c0966b7"},"geometry":{"type":"Polygon","coordinates":[[[139.79651541346692,35.598039646666635],[139.79649170137995,35.59800475584982],[139.7965067148058,35.59799592687284],[139.7965323266718,35.59797925908783],[139.79655507090297,35.59795862433151],[139.79657505687194,35.597936185961025],[139.79659073859202,35.59791392655181],[139.79662946640175,35.597934940606144],[139.79661389517486,35.59795692963871],[139.79659114869344,35.59798252201886],[139.79658816769623,35.597985135124325],[139.7966628604604,35.59803563539293],[139.79664519437992,35.59805311687052],[139.7965695085902,35.598002075457636],[139.7965650922531,35.598006040201035],[139.79653627775104,35.59802730407477],[139.79651541346692,35.598039646666635]]]}},{"type":"Feature","properties":{"height":9.7,"gml_id":"bldg_b9628d61-8968-4989-b0d8-9dedd8a37e09"},"geometry":{"type":"Polygon","coordinates":[[[139.79708525893818,35.597704955152686],[139.79652585910353,35.59740137964029],[139.79625642247032,35.59773246564614],[139.79623016271847,35.59771821569264],[139.79655624715429,35.59731737989637],[139.79714190635622,35.597635295170946],[139.79708525893818,35.597704955152686]]]}},{"type":"Feature","properties":{"height":6.7,"gml_id":"bldg_d23bb81d-b5aa-4cb2-b043-8bc20e24d975"},"geometry":{"type":"Polygon","coordinates":[[[139.79737340436114,35.599704581928385],[139.79718373083665,35.599605282803545],[139.79718914189664,35.59959825363125],[139.7971751287912,35.59959094821713],[139.7972058279151,35.59955183735771],[139.79722182710452,35.59956022502427],[139.79723231783188,35.59954679754544],[139.79743280454556,35.599651778535694],[139.79739912389545,35.59969476451452],[139.79738632449127,35.59968809045576],[139.79737340436114,35.599704581928385]]]}},{"type":"Feature","properties":{"height":3.2,"gml_id":"bldg_fb2bae09-5c65-4bb5-806c-f0e032030c9b"},"geometry":{"type":"Polygon","coordinates":[[[139.79222770385408,35.595647789029876],[139.7921707439578,35.59567769555721],[139.79215386873386,35.59565632697773],[139.79221094008466,35.595626420496295],[139.79222770385408,35.595647789029876]]]}},{"type":"Feature","properties":{"height":2.8,"gml_id":"bldg_128608fa-ff42-4209-a9d7-1aa5cd4ba941"},"geometry":{"type":"Polygon","coordinates":[[[139.79553383020664,35.59642514367684],[139.79548318112495,35.59641115632099],[139.79549058379047,35.59639313095594],[139.7955412329044,35.59640702817027],[139.79553383020664,35.59642514367684]]]}},{"type":"Feature","properties":{"height":3.5,"gml_id":"bldg_810fb6ee-2697-4245-a5e2-23eb4ab58ede"},"geometry":{"type":"Polygon","coordinates":[[[139.7962969535251,35.59910916217624],[139.7962080059441,35.59909552390836],[139.796225146781,35.59902116500007],[139.79631409424118,35.59903489339383],[139.7962969535251,35.59910916217624]]]}},{"type":"Feature","properties":{"height":6.0,"gml_id":"bldg_94f31ebb-197d-491e-ba45-33e968bbdfd5"},"geometry":{"type":"Polygon","coordinates":[[[139.79479479715795,35.592167939627394],[139.79483937063802,35.59218877586812],[139.79480215552925,35.592241855559315],[139.79475758202946,35.592221019305015],[139.79479479715795,35.592167939627394]]]}},{"type":"Feature","properties":{"height":2.4,"gml_id":"bldg_33a5d180-3fbb-484d-a3e8-3660e683327a"},"geometry":{"type":"Polygon","coordinates":[[[139.7922476929885,35.59562039375443],[139.79225794958873,35.595633827880945],[139.79223145631912,35.595647339617386],[139.79222119972158,35.59563390548866],[139.7922476929885,35.59562039375443]]]}},{"type":"Feature","properties":{"height":11.3,"gml_id":"bldg_eb92af81-caec-4850-b07a-25a29a85e841"},"geometry":{"type":"Polygon","coordinates":[[[139.79804631513798,35.59615549015657],[139.79794491791873,35.59610065624565],[139.79801757450508,35.59601098979596],[139.79811897166084,35.59606582364652],[139.79804631513798,35.59615549015657]]]}},{"type":"Feature","properties":{"height":37.3,"gml_id":"bldg_ef875f93-28c0-40c1-aff8-1bae03a6be57"},"geometry":{"type":"Polygon","coordinates":[[[139.79421107858948,35.59227177140624],[139.79383831353795,35.59201673811787],[139.79415827400032,35.591704692860766],[139.79453103866544,35.591959635033994],[139.79421107858948,35.59227177140624]]]}},{"type":"Feature","properties":{"height":11.3,"gml_id":"bldg_34d86cb7-acc5-49d6-b736-574f6dc66bd2"},"geometry":{"type":"Polygon","coordinates":[[[139.79926019507667,35.59297359065617],[139.79948869021698,35.59309840672224],[139.79920327101593,35.59344707207768],[139.7989747753288,35.59332225547743],[139.79926019507667,35.59297359065617]]]}},{"type":"Feature","properties":{"height":29.2,"gml_id":"bldg_a2692ec8-78d7-4e98-b382-6559be0cfa23"},"geometry":{"type":"Polygon","coordinates":[[[139.7975948092515,35.599677966823656],[139.79799015437192,35.599891981836116],[139.79795525985622,35.59993505775109],[139.79755980429172,35.59972095245448],[139.7975948092515,35.599677966823656]]]}},{"type":"Feature","properties":{"height":6.6,"gml_id":"bldg_d7973a9e-ba63-4756-a2e4-dcff082c0330"},"geometry":{"type":"Polygon","coordinates":[[[139.7947228210686,35.592219115265394],[139.79459704795195,35.5921531836557],[139.79465192797295,35.592083434072926],[139.7947775907138,35.59214927545227],[139.7947228210686,35.592219115265394]]]}},{"type":"Feature","properties":{"height":2.5,"gml_id":"bldg_472b3a39-2b5e-4921-8741-3fbf51873829"},"geometry":{"type":"Polygon","coordinates":[[[139.79379821520638,35.597483533206436],[139.79381234526682,35.597476056351105],[139.79382160998972,35.59748768724665],[139.7938074799281,35.59749516410306],[139.79379821520638,35.597483533206436]]]}},{"type":"Feature","properties":{"height":5.5,"gml_id":"bldg_3e5f5d35-a36b-4f7d-8e3f-69dbaab9e77d"},"geometry":{"type":"Polygon","coordinates":[[[139.79867219923847,35.59711131959288],[139.79869836890114,35.59707905755529],[139.79875596431617,35.59711035213212],[139.79872979470517,35.59714252404363],[139.79867219923847,35.59711131959288]]]}},{"type":"Feature","properties":{"height":3.2,"gml_id":"bldg_daf1860b-fb64-49e9-a9c4-1361e9d1f04c"},"geometry":{"type":"Polygon","coordinates":[[[139.79874685065613,35.5977721459],[139.79878193799675,35.597790814619295],[139.79874980489754,35.59783154797229],[139.79871482787064,35.59781296941386],[139.79874685065613,35.5977721459]]]}},{"type":"Feature","properties":{"height":2.3,"gml_id":"bldg_2f68743f-5399-4129-be21-20f561e008af"},"geometry":{"type":"Polygon","coordinates":[[[139.79882114224645,35.59567482586284],[139.7988340619729,35.595657072285135],[139.7988580050772,35.59566870699805],[139.79884508535415,35.59568646057829],[139.79882114224645,35.59567482586284]]]}},{"type":"Feature","properties":{"height":3.1,"gml_id":"bldg_a62ed145-719a-4df2-abd7-a7f58e48432b"},"geometry":{"type":"Polygon","coordinates":[[[139.79968901952284,35.59961376016138],[139.7996567999556,35.5995968051426],[139.7997302315959,35.59950416336212],[139.79976245114153,35.59952111836152],[139.79968901952284,35.59961376016138]]]}},{"type":"Feature","properties":{"height":3.3,"gml_id":"bldg_efa0577f-50ad-414c-81a5-f3e647e9c2f0"},"geometry":{"type":"Polygon","coordinates":[[[139.79965909534863,35.59964998744099],[139.79962499975133,35.59963258209897],[139.79964896217052,35.59960121973383],[139.7996830577971,35.59961853583216],[139.79965909534863,35.59964998744099]]]}},{"type":"Feature","properties":{"height":4.2,"gml_id":"bldg_52eea169-9817-4a36-b303-224c7dd91a04"},"geometry":{"type":"Polygon","coordinates":[[[139.79667834820762,35.59989104914851],[139.79660431046804,35.59985244737267],[139.79664274020814,35.599803153375355],[139.79671688832747,35.599841665023035],[139.79667834820762,35.59989104914851]]]}},{"type":"Feature","properties":{"height":32.9,"gml_id":"bldg_098afb9d-e807-4aa3-945f-bb29f7ac3e59"},"geometry":{"type":"Polygon","coordinates":[[[139.79956795325862,35.59907758306424],[139.7995284223536,35.59912606644634],[139.79944290869267,35.59908115350101],[139.79948144653642,35.59903221917562],[139.79956795325862,35.59907758306424]]]}},{"type":"Feature","properties":{"height":8.0,"gml_id":"bldg_97a84103-281f-434f-8f21-792bcf5bdbe7"},"geometry":{"type":"Polygon","coordinates":[[[139.7980659105267,35.59853091407879],[139.7979656137385,35.59847653122023],[139.79799045925006,35.598445440754716],[139.79809086622205,35.59850018417878],[139.7980659105267,35.59853091407879]]]}},{"type":"Feature","properties":{"height":13.6,"gml_id":"bldg_c37fd7d5-55f0-49e4-aa79-a99093cb927f"},"geometry":{"type":"Polygon","coordinates":[[[139.79899425503675,35.59939020123432],[139.79894423309068,35.59945238246977],[139.79892095142367,35.599439846585824],[139.79897097334143,35.599377755498296],[139.79899425503675,35.59939020123432]]]}},{"type":"Feature","properties":{"height":2.7,"gml_id":"bldg_a7c33ff9-6048-430a-85b9-3b5477991f81"},"geometry":{"type":"Polygon","coordinates":[[[139.79382049582208,35.59750913982807],[139.79384467134182,35.59749661850994],[139.79385647272497,35.597511675494296],[139.79383229715827,35.59752428695319],[139.79382049582208,35.59750913982807]]]}},{"type":"Feature","properties":{"height":4.8,"gml_id":"bldg_edcdd993-026f-430b-89ef-db990fa5dcd9"},"geometry":{"type":"Polygon","coordinates":[[[139.79434015715404,35.59735436111964],[139.79434997270138,35.597368155475436],[139.7943252458377,35.597379955609334],[139.79431543024944,35.597366251389964],[139.79434015715404,35.59735436111964]]]}},{"type":"Feature","properties":{"height":38.5,"gml_id":"bldg_c65aa15b-2a32-4e98-80b5-0e8b6ae16167"},"geometry":{"type":"Polygon","coordinates":[[[139.7941604363691,35.59927118646607],[139.79432686793103,35.59949577521278],[139.79485153672286,35.60020226836648],[139.7948815634158,35.6001874051162],[139.79494575519297,35.60027386829772],[139.79491639080612,35.60028846135973],[139.79494319257762,35.60032452525658],[139.79484174189508,35.60037479011713],[139.79481560187503,35.6003397179318],[139.79442194123374,35.600534741077745],[139.7943509584918,35.600569872108174],[139.7943186421205,35.600526505086656],[139.79438200775934,35.600495067287135],[139.79429520610014,35.60037812971137],[139.79423007421906,35.60041046827667],[139.79419500070603,35.60036322437551],[139.79426101566835,35.60033052556166],[139.79412127336442,35.60014236135226],[139.79405481690355,35.6001753303619],[139.7940208465507,35.6001295289821],[139.7940865302499,35.60009692029284],[139.7939742517672,35.59994563145043],[139.7939101136651,35.59997742933939],[139.79387812873404,35.59993433271924],[139.79394303955087,35.599902174546045],[139.7938256881206,35.599744123522434],[139.7938010870826,35.599722842793035],[139.79374114386616,35.599752839201315],[139.79370882797429,35.59970983256434],[139.79377064782577,35.599678935404015],[139.79367226652624,35.59954793197176],[139.7936257912462,35.599571262513486],[139.79360825475595,35.59954782075001],[139.7941604363691,35.59927118646607]]]}},{"type":"Feature","properties":{"height":4.2,"gml_id":"bldg_8346afef-b70e-4142-b378-a7ca72524453"},"geometry":{"type":"Polygon","coordinates":[[[139.7939467447545,35.59752071887356],[139.79392036106677,35.59753513239706],[139.7939013900461,35.597512050752975],[139.79392777372962,35.59749763723358],[139.7939467447545,35.59752071887356]]]}},{"type":"Feature","properties":{"height":14.3,"gml_id":"bldg_f182f05c-bb58-44d0-87a6-7b6b8be2f758"},"geometry":{"type":"Polygon","coordinates":[[[139.79894423309068,35.59945238246977],[139.79899425503675,35.59939020123432],[139.79928853154158,35.599548297348],[139.7992097996352,35.599646075246724],[139.7989155229276,35.59948797894324],[139.79894423309068,35.59945238246977]]]}},{"type":"Feature","properties":{"height":4.0,"gml_id":"bldg_bb011796-90c4-4c99-9ec0-2c076cc88097"},"geometry":{"type":"Polygon","coordinates":[[[139.79422413321336,35.59742273859509],[139.79421211144458,35.59740687032905],[139.79428794883492,35.59736876636569],[139.7942999705692,35.5973847247627],[139.79422413321336,35.59742273859509]]]}},{"type":"Feature","properties":{"height":1.9,"gml_id":"bldg_0d703c4c-4dfa-4a21-9ee0-cfff7f3ea924"},"geometry":{"type":"Polygon","coordinates":[[[139.7939427920676,35.59747916376471],[139.7939317530928,35.59748474873892],[139.7939173049919,35.597465634666804],[139.79392834396512,35.59746004969391],[139.7939427920676,35.59747916376471]]]}},{"type":"Feature","properties":{"height":9.1,"gml_id":"bldg_7e88d2bf-a207-4fd1-b9ef-d450ee0321af"},"geometry":{"type":"Polygon","coordinates":[[[139.7962279234088,35.59898321758445],[139.7960062471907,35.598884267291396],[139.79611149727108,35.598726828037606],[139.79633328354913,35.59882577817333],[139.7962279234088,35.59898321758445]]]}},{"type":"Feature","properties":{"height":8.6,"gml_id":"bldg_77e577a1-947d-42c5-be4c-112a94efcb63"},"geometry":{"type":"Polygon","coordinates":[[[139.7997688969163,35.599942967869175],[139.7994809080218,35.59978685774934],[139.79946213612027,35.59981001804334],[139.79929353620219,35.599718660340336],[139.79931153511527,35.59969658151484],[139.799248089605,35.5996621307179],[139.79932483345738,35.59956777749271],[139.79938430672777,35.5995999736708],[139.79939788869635,35.59958330189173],[139.79956990901894,35.599676463177104],[139.79955710004472,35.599692143669536],[139.79972216930156,35.59978160711326],[139.7997351991396,35.59976556611149],[139.79985867028788,35.5998324831632],[139.7997688969163,35.599942967869175]]]}},{"type":"Feature","properties":{"height":2.5,"gml_id":"bldg_24b7cf4f-20ef-46ef-9034-b57eb9def04c"},"geometry":{"type":"Polygon","coordinates":[[[139.79954156617214,35.598838708877565],[139.79951905683575,35.59882689443176],[139.79952987829003,35.598813196428715],[139.79955238758632,35.598825101010924],[139.79954156617214,35.598838708877565]]]}},{"type":"Feature","properties":{"height":6.6,"gml_id":"bldg_06c0f07a-10af-40ab-bad9-c7a1b9f19ab0"},"geometry":{"type":"Polygon","coordinates":[[[139.79839278869304,35.59857571794805],[139.79823897711023,35.59849400784939],[139.7982128066053,35.59852672047129],[139.79814825881223,35.59849235890622],[139.79821815741806,35.59840458447337],[139.79843662701728,35.59852074621542],[139.79839278869304,35.59857571794805]]]}},{"type":"Feature","properties":{"height":3.4,"gml_id":"bldg_360d87f2-5cc7-465e-a838-586d83a33c9b"},"geometry":{"type":"Polygon","coordinates":[[[139.79389188693943,35.5975363850197],[139.7938917758694,35.597537827198245],[139.79389122334968,35.59753926923231],[139.7938905605559,35.59754053095342],[139.79388945631231,35.59754179253006],[139.79388824183894,35.59754278365531],[139.7938866963224,35.59754368453375],[139.7938851509828,35.597544224858524],[139.79388338496247,35.597544674972596],[139.79388161911905,35.59754476453298],[139.79387985336413,35.59754467381651],[139.79387808778614,35.59754422254635],[139.79387643261487,35.59754368117385],[139.79387499834547,35.59754277931996],[139.79387367448277,35.597541787363774],[139.7938726818402,35.59754052510071],[139.79387190992253,35.59753926290993],[139.7938714691807,35.59753782055073],[139.79387135952618,35.59753637829992],[139.7938714705965,35.59753493612139],[139.79387191275418,35.59753349405128],[139.79387268595485,35.597532142227976],[139.7938736797919,35.59753097075377],[139.79387500467195,35.59752988952639],[139.79387643978168,35.597529078750384],[139.79387809552773,35.59752844832344],[139.79387986150348,35.597528088347865],[139.79388162734654,35.597527998787484],[139.7938833931011,35.59752808950395],[139.793885158723,35.59752845063562],[139.79388670348735,35.59752908211027],[139.7938882481633,35.59752989386173],[139.7938894616193,35.597530975920066],[139.7938905646687,35.59753214808068],[139.79389122617994,35.59753350037366],[139.79389177728453,35.59753494276891],[139.79389188693943,35.5975363850197]]]}},{"type":"Feature","properties":{"height":4.0,"gml_id":"bldg_8740c757-e99f-4201-8f3d-0b025af36f28"},"geometry":{"type":"Polygon","coordinates":[[[139.7935498383763,35.59760775236702],[139.79357246875878,35.597595501008904],[139.7935979468181,35.59762723813929],[139.7935754267931,35.5976394895385],[139.7935498383763,35.59760775236702]]]}},{"type":"Feature","properties":{"height":2.2,"gml_id":"bldg_f953dc46-5f8e-4bff-be8e-c2be483ec80e"},"geometry":{"type":"Polygon","coordinates":[[[139.79586032858845,35.59726335287301],[139.79588053068315,35.5972508299103],[139.79589630456476,35.59726778083724],[139.79587610251022,35.59728021366415],[139.79586032858845,35.59726335287301]]]}},{"type":"Feature","properties":{"height":36.2,"gml_id":"bldg_b929c643-aa5d-4cc7-9cf3-35c2272ac9f2"},"geometry":{"type":"Polygon","coordinates":[[[139.79403348040586,35.5991198928866],[139.79354676149407,35.59936490964619],[139.79344032928057,35.59922389799675],[139.79336603520386,35.599261280818894],[139.7933282051063,35.59921097103675],[139.7933716997003,35.5991890818345],[139.79325920202245,35.599039955552996],[139.79321725298686,35.59906103398402],[139.79317445987292,35.599004322672805],[139.7932185063539,35.59898216329375],[139.79311218549662,35.59884133165977],[139.79306902215822,35.59886313074193],[139.79302832481773,35.59880912422956],[139.7931032809984,35.5987713812801],[139.7930992001421,35.59876615188984],[139.79358359852583,35.59852239808515],[139.79358445661506,35.59852349264856],[139.79360753178923,35.59855413469918],[139.79363369451679,35.598540983111754],[139.79370527384506,35.5986359224212],[139.79372392997084,35.59862655415921],[139.79383344996182,35.59877189322797],[139.79381678085707,35.598780270635714],[139.79391119125566,35.59890532353253],[139.79392984742,35.598895955239115],[139.79398521438677,35.598969345995116],[139.79396666862039,35.59897862419464],[139.7940368149175,35.59907166992579],[139.79400800267211,35.599086172811106],[139.79403348040586,35.5991198928866]]]}},{"type":"Feature","properties":{"height":10.0,"gml_id":"bldg_6a270db4-0e2c-4efa-a14e-9532f38e2a82"},"geometry":{"type":"Polygon","coordinates":[[[139.79443347108673,35.596778586931585],[139.79403509716332,35.59648983438862],[139.79420071294302,35.59633728388617],[139.79459908670643,35.59662603588889],[139.79443347108673,35.596778586931585]]]}},{"type":"Feature","properties":{"height":12.1,"gml_id":"bldg_c76ac9c0-402e-489e-8d40-62f0b68d8b73"},"geometry":{"type":"Polygon","coordinates":[[[139.79422559217085,35.597372892514954],[139.7941040526234,35.59720970244693],[139.79443312087315,35.59704620784864],[139.79449554517902,35.59712996659056],[139.79452501889332,35.59711528351986],[139.79455104742098,35.597150265612335],[139.79452488538317,35.597163237125486],[139.79455653877838,35.597205702517876],[139.79440044934964,35.597283261387325],[139.79441732375398,35.597305981723025],[139.79436820077066,35.59733039336643],[139.79435276012117,35.59730965653329],[139.79422559217085,35.597372892514954]]]}},{"type":"Feature","properties":{"height":10.5,"gml_id":"bldg_1ace9dc8-b31b-4e04-ae35-a8bd9d190cbf"},"geometry":{"type":"Polygon","coordinates":[[[139.79268255893868,35.59879891259297],[139.79263458278865,35.59873516854316],[139.7927013700511,35.59870156945125],[139.79274945659822,35.59876531351202],[139.79268255893868,35.59879891259297]]]}},{"type":"Feature","properties":{"height":10.3,"gml_id":"bldg_37020a0d-3919-4c5d-afcb-c81816671235"},"geometry":{"type":"Polygon","coordinates":[[[139.79401292081818,35.59647711763434],[139.79355812491445,35.59625045047219],[139.79368976172773,35.59607427317229],[139.79414455700692,35.596300939843935],[139.79401292081818,35.59647711763434]]]}},{"type":"Feature","properties":{"height":6.9,"gml_id":"bldg_56e4b780-4367-4bb7-8997-7a0cfd776b07"},"geometry":{"type":"Polygon","coordinates":[[[139.79685839934217,35.600035775903144],[139.7967376904703,35.599966783436116],[139.79681344156546,35.599878380648605],[139.79693415036974,35.59994737304073],[139.79685839934217,35.600035775903144]]]}},{"type":"Feature","properties":{"height":53.1,"gml_id":"bldg_76f9c55f-9cbc-4567-ba59-8069d6786e0d"},"geometry":{"type":"Polygon","coordinates":[[[139.79956795325862,35.59907758306424],[139.7996410521865,35.59898791580435],[139.79992594880818,35.59914285290505],[139.7998880743826,35.59918935381883],[139.79996498126465,35.59923110922053],[139.799995236613,35.599193980569915],[139.80045414151073,35.59944342947667],[139.80028133298305,35.59965547786825],[139.79982463422388,35.59940720072478],[139.79985522098593,35.59936962151054],[139.7997782036636,35.599327866008984],[139.79974077075124,35.59937382616749],[139.79945366686744,35.599217716215065],[139.7995284223536,35.59912606644634],[139.79956795325862,35.59907758306424]]]}},{"type":"Feature","properties":{"height":24.6,"gml_id":"bldg_c61cbe03-725c-4d53-8f21-cb47fa02a6e9"},"geometry":{"type":"Polygon","coordinates":[[[139.79442194123374,35.600534741077745],[139.79481560187503,35.6003397179318],[139.79484174189508,35.60037479011713],[139.79494319257762,35.60032452525658],[139.79491639080612,35.60028846135973],[139.79494575519297,35.60027386829772],[139.7948815634158,35.6001874051162],[139.79485153672286,35.60020226836648],[139.79432686793103,35.59949577521278],[139.7941604363691,35.59927118646607],[139.79432723636134,35.59919137794134],[139.79449532544166,35.59941236145881],[139.795140548061,35.600281231398576],[139.79447764013656,35.60060966404774],[139.79442194123374,35.600534741077745]]]}},{"type":"Feature","properties":{"height":4.5,"gml_id":"bldg_b473b74b-e2f6-4a96-af50-66fd6f85d0e2"},"geometry":{"type":"Polygon","coordinates":[[[139.79676943089393,35.59715375336271],[139.79661827211845,35.59707258281294],[139.79665537478058,35.59702635309108],[139.79680664386856,35.59710752362836],[139.79676943089393,35.59715375336271]]]}},{"type":"Feature","properties":{"height":14.6,"gml_id":"bldg_4227b3c5-be1f-4025-8695-75b702256166"},"geometry":{"type":"Polygon","coordinates":[[[139.79358445661506,35.59852349264856],[139.7937702692085,35.598429977494966],[139.7942200422973,35.59902602935916],[139.79403348040586,35.5991198928866],[139.79400800267211,35.599086172811106],[139.7940368149175,35.59907166992579],[139.79396666862039,35.59897862419464],[139.79398521438677,35.598969345995116],[139.79392984742,35.598895955239115],[139.79391119125566,35.59890532353253],[139.79381678085707,35.598780270635714],[139.79383344996182,35.59877189322797],[139.79372392997084,35.59862655415921],[139.79370527384506,35.5986359224212],[139.79363369451679,35.598540983111754],[139.79360753178923,35.59855413469918],[139.79358445661506,35.59852349264856]]]}},{"type":"Feature","properties":{"height":2.4,"gml_id":"bldg_b7a94e35-6257-446b-84e8-79fcad111430"},"geometry":{"type":"Polygon","coordinates":[[[139.7947621598906,35.59717088492708],[139.79474231001575,35.59713905970423],[139.79476251026387,35.59713068329625],[139.79478224978277,35.59716250848052],[139.7947621598906,35.59717088492708]]]}},{"type":"Feature","properties":{"height":31.7,"gml_id":"bldg_b5e21678-9ce2-4804-8ccb-ab08980929ac"},"geometry":{"type":"Polygon","coordinates":[[[139.79354676149407,35.59936490964619],[139.79341406966049,35.599431658322615],[139.79296352832287,35.598834431435115],[139.7930992001421,35.59876615188984],[139.7931032809984,35.5987713812801],[139.79302832481773,35.59880912422956],[139.79306902215822,35.59886313074193],[139.79311218549662,35.59884133165977],[139.7932185063539,35.59898216329375],[139.79317445987292,35.599004322672805],[139.79321725298686,35.59906103398402],[139.79325920202245,35.599039955552996],[139.7933716997003,35.5991890818345],[139.7933282051063,35.59921097103675],[139.79336603520386,35.599261280818894],[139.79344032928057,35.59922389799675],[139.79354676149407,35.59936490964619]]]}},{"type":"Feature","properties":{"height":8.3,"gml_id":"bldg_74e2a996-dbda-4d3a-921e-6dafa60df4fa"},"geometry":{"type":"Polygon","coordinates":[[[139.79361751582803,35.59666312386963],[139.79343281755177,35.59656949915628],[139.79357704294287,35.59637989552744],[139.79376163054658,35.59647361012475],[139.79361751582803,35.59666312386963]]]}},{"type":"Feature","properties":{"height":7.3,"gml_id":"bldg_eb126ee2-4b9e-4316-926e-984237b3eddb"},"geometry":{"type":"Polygon","coordinates":[[[139.79385285079263,35.59679669622742],[139.79367897205464,35.5966935207621],[139.79384040933368,35.596512215221],[139.79401417748193,35.596615480558846],[139.79385285079263,35.59679669622742]]]}},{"type":"Feature","properties":{"height":7.1,"gml_id":"bldg_fba05e0f-19ca-41b4-a330-e6abfae91452"},"geometry":{"type":"Polygon","coordinates":[[[139.79271428058365,35.59848722465309],[139.79265163539685,35.59840535783988],[139.7927855409396,35.59833707804644],[139.79284807584605,35.598418944753966],[139.79271428058365,35.59848722465309]]]}},{"type":"Feature","properties":{"height":7.0,"gml_id":"bldg_02aca5b7-bf8c-4bba-9640-2da1cf0c7b4b"},"geometry":{"type":"Polygon","coordinates":[[[139.79310467742627,35.59818629328381],[139.79307048727645,35.59814139293227],[139.79318407988828,35.59808374223862],[139.7932182700771,35.59812864255837],[139.79310467742627,35.59818629328381]]]}},{"type":"Feature","properties":{"height":2.8,"gml_id":"bldg_9abcc691-fca4-4b20-9c4e-e9c150544035"},"geometry":{"type":"Polygon","coordinates":[[[139.7926644315701,35.59863539539602],[139.79263112411275,35.59859103605156],[139.79267815102452,35.598567525798785],[139.79271145849813,35.59861188513044],[139.7926644315701,35.59863539539602]]]}},{"type":"Feature","properties":{"height":7.3,"gml_id":"bldg_4741f6f2-0fe5-4a3e-be26-67b58b318dd3"},"geometry":{"type":"Polygon","coordinates":[[[139.79407184258926,35.59695162561014],[139.79390867554898,35.59683367126341],[139.79409184768153,35.59666481160309],[139.7942550146479,35.596782766606474],[139.79407184258926,35.59695162561014]]]}},{"type":"Feature","properties":{"height":3.5,"gml_id":"bldg_7de70829-ab89-4c82-9f06-c1418a86cd13"},"geometry":{"type":"Polygon","coordinates":[[[139.79693949701493,35.59837626220895],[139.79696189544134,35.59838816724225],[139.7969498589543,35.59840330686345],[139.79692746048468,35.59839149196637],[139.79693949701493,35.59837626220895]]]}},{"type":"Feature","properties":{"height":2.8,"gml_id":"bldg_92963b60-5449-4c5f-9f34-4f89aa01b706"},"geometry":{"type":"Polygon","coordinates":[[[139.79271562427238,35.5986674117976],[139.792688821227,35.59863693597714],[139.79271222530662,35.59862324282911],[139.79273902835635,35.59865371864445],[139.79271562427238,35.5986674117976]]]}},{"type":"Feature","properties":{"height":2.3,"gml_id":"bldg_a5a7563d-b425-430f-a18d-d5ed45f7da60"},"geometry":{"type":"Polygon","coordinates":[[[139.79696074668036,35.59995143729865],[139.79698877265434,35.59996676928136],[139.79697154613373,35.59998767619266],[139.79694352015576,35.599972344206],[139.79696074668036,35.59995143729865]]]}},{"type":"Feature","properties":{"height":45.0,"gml_id":"bldg_f1821a5b-60b6-4285-bcdc-c4aaeb390c02"},"geometry":{"type":"Polygon","coordinates":[[[139.79799015437192,35.599891981836116],[139.7975948092515,35.599677966823656],[139.79715831007823,35.59944167397526],[139.79794884241863,35.598467512455315],[139.7979656137385,35.59847653122023],[139.7980659105267,35.59853091407879],[139.79863801331854,35.59884052532101],[139.79816197641784,35.59942709823388],[139.79828180459023,35.5994919426579],[139.79810501454742,35.59970975562499],[139.79812796510834,35.59972220143088],[139.79799015437192,35.599891981836116]]]}},{"type":"Feature","properties":{"height":15.1,"gml_id":"bldg_c1acaef5-2207-4a31-869c-5ae57573bb40"},"geometry":{"type":"Polygon","coordinates":[[[139.79708525893818,35.597704955152686],[139.7968158235891,35.598036042393225],[139.79662946640175,35.597934940606144],[139.79659073859202,35.59791392655181],[139.79625642247032,35.59773246564614],[139.79652585910353,35.59740137964029],[139.79708525893818,35.597704955152686]]]}},{"type":"Feature","properties":{"height":13.4,"gml_id":"bldg_233f745a-9d88-47bd-a7b6-456d7c567f59"},"geometry":{"type":"Polygon","coordinates":[[[139.79651541346692,35.598039646666635],[139.7964968685785,35.59804811401155],[139.7966002179697,35.598181370146406],[139.79645671153474,35.59825569051802],[139.79653568516744,35.59835748093406],[139.79647673701322,35.59838801984477],[139.7964629497475,35.59837016822048],[139.796437008141,35.59838359090556],[139.79616898422444,35.598038188256915],[139.7961386271076,35.598053862977416],[139.7960834784857,35.597982726727274],[139.7961277446656,35.597959845241235],[139.79589137848123,35.5976553745682],[139.79591974854972,35.59764060067635],[139.79590254231098,35.59761842127966],[139.7959651329612,35.59758599086822],[139.79610829814348,35.59777036826283],[139.796157090155,35.597745144563916],[139.79618775275094,35.59778463465032],[139.79612891528944,35.597815083289596],[139.7961836226349,35.59788567855433],[139.79632679748983,35.597811538678236],[139.79648264817772,35.59801223457118],[139.79649170137995,35.59800475584982],[139.79651541346692,35.598039646666635]]]}},{"type":"Feature","properties":{"height":19.2,"gml_id":"bldg_69854eb4-8591-4d78-a8db-c3cd5033614c"},"geometry":{"type":"Polygon","coordinates":[[[139.794928379693,35.59760216027744],[139.79488834563932,35.597544549055804],[139.7949503831072,35.59751572453188],[139.79499041719106,35.597573335733195],[139.794928379693,35.59760216027744]]]}},{"type":"Feature","properties":{"height":22.9,"gml_id":"bldg_0fc39f8c-7e45-4c55-844e-b71c50a29ab7"},"geometry":{"type":"Polygon","coordinates":[[[139.79326458052378,35.59843458776083],[139.79321836918186,35.59837237687934],[139.79328935047678,35.59833724650223],[139.79333556189837,35.59839936721849],[139.79326458052378,35.59843458776083]]]}}]}