{"type":"FeatureCollection","crs":{"type":"name","properties":{"name":"urn:ogc:def:crs:OGC:1.3:CRS84"}},"features":[{"type":"Feature","properties":{"height":5.7,"gml_id":"bldg_bc21375a-9713-4d69-8986-91a6a8f83451"},"geometry":{"type":"Polygon","coordinates":[[[139.77957815400978,35.559378107825005],[139.77958179113307,35.559372853441616],[139.7797162298808,35.55943502628055],[139.7796820692011,35.55948441356398],[139.7795476204809,35.55942222355656],[139.77957815400978,35.559378107825005]]]}},{"type":"Feature","properties":{"height":3.5,"gml_id":"bldg_037c6226-ad38-4725-b946-03b2253d0d0c"},"geometry":{"type":"Polygon","coordinates":[[[139.77894860752966,35.55998399219749],[139.77898972082582,35.55992292444452],[139.77904353371565,35.559947545814374],[139.77900243260927,35.560008573028405],[139.77894860752966,35.55998399219749]]]}},{"type":"Feature","properties":{"height":7.9,"gml_id":"bldg_00db2d87-f464-46b6-a985-b7c9fc82b659"},"geometry":{"type":"Polygon","coordinates":[[[139.78061172954108,35.5609672232603],[139.7805629275059,35.56099227857285],[139.78056037582044,35.56099589022602],[139.78055803902436,35.56099478860632],[139.7805490234723,35.560999416901495],[139.7804543916897,35.5609545988999],[139.78044799771817,35.56096340898291],[139.78041375446074,35.560946806583836],[139.7804046685672,35.5609594265588],[139.78035250735792,35.56093435583105],[139.78036169595686,35.56092156914801],[139.78030637770541,35.560894740204475],[139.78031190605785,35.560887116878526],[139.78023397940152,35.560850209433674],[139.78022722268832,35.56084700922832],[139.78019843801442,35.56083337744849],[139.7811530773208,35.55948976170995],[139.78121732500233,35.5595209406334],[139.7812189668134,35.55951862837643],[139.78123542447406,35.55952643161057],[139.78125227188895,35.55950299193357],[139.78145734812585,35.55960136700198],[139.78144326539274,35.559620976088524],[139.78148896628417,35.55964266065547],[139.78147838012015,35.55965755788145],[139.7815003358774,35.55965824787161],[139.78150452745504,35.55970999576531],[139.78061172954108,35.5609672232603]]]}},{"type":"Feature","properties":{"height":1.2,"gml_id":"bldg_b1b29ea8-0615-4d35-b479-3683300cb243"},"geometry":{"type":"Polygon","coordinates":[[[139.7797152468891,35.5636469708711],[139.77970641380787,35.56365868500373],[139.77969108505718,35.56365092623632],[139.77969991807973,35.563639302243686],[139.7797152468891,35.5636469708711]]]}},{"type":"Feature","properties":{"height":1.4,"gml_id":"bldg_bfa33ce0-9a55-44a7-ba28-e264001bd3af"},"geometry":{"type":"Polygon","coordinates":[[[139.7869241730692,35.55886592554645],[139.78691534041837,35.558879623275516],[139.78687916787763,35.5588641054349],[139.7868880005329,35.558850407708455],[139.7869241730692,35.55886592554645]]]}},{"type":"Feature","properties":{"height":4.8,"gml_id":"bldg_85f0487c-07c5-47a1-9c75-933469ec059b"},"geometry":{"type":"Polygon","coordinates":[[[139.78457498159744,35.56184968048487],[139.7845738856696,35.56183778169864],[139.78465430723452,35.561832766413886],[139.78465551348768,35.56184466524392],[139.78457498159744,35.56184968048487]]]}},{"type":"Feature","properties":{"height":1.5,"gml_id":"bldg_1670d1bd-1d7a-44d5-9d52-f0b9511a6b48"},"geometry":{"type":"Polygon","coordinates":[[[139.78552583482474,35.56081797005978],[139.78551578855632,35.5608312165056],[139.78549924672504,35.56082282701902],[139.7855092929951,35.56080958057457],[139.78552583482474,35.56081797005978]]]}},{"type":"Feature","properties":{"height":9.3,"gml_id":"bldg_707ba550-94c7-41b8-820d-16f18cb765c1"},"geometry":{"type":"Polygon","coordinates":[[[139.78484868627172,35.56182166750657],[139.7847604598872,35.56178124973965],[139.78470088820993,35.561785281978615],[139.7847046167579,35.561821879901444],[139.78456175495717,35.56183155720376],[139.7845507895427,35.561722755038986],[139.7847774926769,35.561707432789134],[139.7848860102962,35.561758404958105],[139.78489549453258,35.56176291571695],[139.78485298730152,35.561823652293285],[139.78484868627172,35.56182166750657]]]}},{"type":"Feature","properties":{"height":2.9,"gml_id":"bldg_b7e6ed51-339c-4432-940e-06685676c8af"},"geometry":{"type":"Polygon","coordinates":[[[139.7771481596304,35.56243244160921],[139.77718631641946,35.56244958578514],[139.7771740588939,35.56246769800509],[139.77713601241314,35.56245055387676],[139.7771481596304,35.56243244160921]]]}},{"type":"Feature","properties":{"height":8.7,"gml_id":"bldg_b020acca-93dc-4345-b276-fc4660561420"},"geometry":{"type":"Polygon","coordinates":[[[139.7852353289065,35.561277923844436],[139.7852409533461,35.561280449979236],[139.7852834606429,35.561218631592794],[139.7852751897799,35.56121430162566],[139.78531227519454,35.56118015373168],[139.78534094845327,35.56119359585545],[139.78521530611357,35.56137193080106],[139.78518718372945,35.5613595705354],[139.7852353289065,35.561277923844436]]]}},{"type":"Feature","properties":{"height":0.6,"gml_id":"bldg_3f138d10-c9ca-4c7e-8a22-796fc88e5e36"},"geometry":{"type":"Polygon","coordinates":[[[139.78613456650928,35.55982677119273],[139.78612761112078,35.559836683758974],[139.78611636249354,35.55983145129277],[139.78612331788295,35.55982153872717],[139.78613456650928,35.55982677119273]]]}},{"type":"Feature","properties":{"height":6.4,"gml_id":"bldg_5ff433a7-9831-48cc-980d-758c6b3fe178"},"geometry":{"type":"Polygon","coordinates":[[[139.7769046352268,35.559003342099196],[139.7769481508016,35.55894257091171],[139.77716181073154,35.559044870240506],[139.77711829416006,35.559105640602276],[139.7769046352268,35.559003342099196]]]}},{"type":"Feature","properties":{"height":9.4,"gml_id":"bldg_a35ac3c5-81c4-47b0-b509-bbb002c62eba"},"geometry":{"type":"Polygon","coordinates":[[[139.7852353289065,35.561277923844436],[139.7851424703859,35.56123651297689],[139.78508874597082,35.56124009705015],[139.7850923647356,35.561276063947645],[139.78495082786463,35.561285471825464],[139.78494008218937,35.56117739088599],[139.7851635843273,35.561162607457135],[139.7852751897799,35.56121430162566],[139.7852834606429,35.561218631592794],[139.7852409533461,35.561280449979236],[139.7852353289065,35.561277923844436]]]}},{"type":"Feature","properties":{"height":6.3,"gml_id":"bldg_a1f7fd8f-16ff-4d3f-96e6-ed80fc96e826"},"geometry":{"type":"Polygon","coordinates":[[[139.786272451467,35.55945527214974],[139.78627135500426,35.559443914207904],[139.78635364934615,35.55943889851767],[139.78635474582046,35.55945025645877],[139.786272451467,35.55945527214974]]]}},{"type":"Feature","properties":{"height":8.5,"gml_id":"bldg_d8989410-3c41-4f2b-98a3-6cc944ddf6a0"},"geometry":{"type":"Polygon","coordinates":[[[139.77711562520636,35.559112763043],[139.77700808947768,35.5592629358057],[139.77700772667913,35.55926276256935],[139.7769364201384,35.559363514550164],[139.7767200470883,35.55926127214359],[139.7767959008827,35.55915409010251],[139.77679649966598,35.55915437341973],[139.77690015447982,35.559009595648746],[139.77711562520636,35.559112763043]]]}},{"type":"Feature","properties":{"height":3.4,"gml_id":"bldg_a962cb6d-dca5-434d-9e56-31fbb495369a"},"geometry":{"type":"Polygon","coordinates":[[[139.7788898808297,35.5599536844021],[139.77893177603846,35.55988967758925],[139.7789790711088,35.559911941616555],[139.77893715605362,35.559975972774204],[139.7788898808297,35.5599536844021]]]}},{"type":"Feature","properties":{"height":1.0,"gml_id":"bldg_79ca13e6-1989-4500-811f-bba4767b5acd"},"geometry":{"type":"Polygon","coordinates":[[[139.7855026619541,35.560830309909086],[139.78549559635672,35.56083977169853],[139.78548291421635,35.56083345693756],[139.78548997981468,35.56082399514882],[139.7855026619541,35.560830309909086]]]}},{"type":"Feature","properties":{"height":2.6,"gml_id":"bldg_41e9e047-900f-4c17-a1ca-f70c4c8e677b"},"geometry":{"type":"Polygon","coordinates":[[[139.78694614104987,35.558837450073625],[139.78693565314197,35.55885222883549],[139.78689650402478,35.55883364512829],[139.78690710224677,35.55881886641223],[139.78694614104987,35.558837450073625]]]}},{"type":"Feature","properties":{"height":4.8,"gml_id":"bldg_cfdefddb-21b9-4ee0-9ea7-10b9c463fa22"},"geometry":{"type":"Polygon","coordinates":[[[139.77938158867371,35.56037296427649],[139.77933305791956,35.56035042222712],[139.77932605096717,35.56036024243491],[139.77928722052164,35.5603417339243],[139.77929397793437,35.56033226965586],[139.779197421627,35.56028740923821],[139.77932899438954,35.56009831338678],[139.7793847657655,35.560124219060086],[139.77939018260568,35.56011679312991],[139.7794053255924,35.56012416335773],[139.7794000931406,35.560131338784664],[139.779414412588,35.56013799023522],[139.77942007344512,35.56013021918053],[139.77944431082122,35.56014203642028],[139.779438946985,35.56014938575839],[139.779513151219,35.560183863715125],[139.77938158867371,35.56037296427649]]]}},{"type":"Feature","properties":{"height":3.0,"gml_id":"bldg_883c2024-e5f7-45c9-9b7e-fa064ffa12f4"},"geometry":{"type":"Polygon","coordinates":[[[139.78641163682715,35.559500125478294],[139.78638527987647,35.559487766175465],[139.78641475719118,35.5594457728765],[139.78644111413269,35.55945813217294],[139.78641163682715,35.559500125478294]]]}},{"type":"Feature","properties":{"height":3.5,"gml_id":"bldg_db505e29-1c75-4141-8ec7-7ac85312eaf2"},"geometry":{"type":"Polygon","coordinates":[[[139.7790265091374,35.560019939584926],[139.77907157724235,35.55995529687062],[139.77924771184817,35.56003727359027],[139.77920265486847,35.56010191817736],[139.77918879861508,35.560095469722356],[139.7791833594482,35.56010326340054],[139.77914026558096,35.56008319802948],[139.7791456959209,35.56007541156037],[139.77908132974082,35.56004545917575],[139.77907662704845,35.56005220396274],[139.77904963358816,35.56003963455034],[139.77905433627714,35.5600328969755],[139.7790265091374,35.560019939584926]]]}},{"type":"Feature","properties":{"height":15.7,"gml_id":"bldg_9722031e-f9fd-4553-b3fd-ea8f49e1e5c0"},"geometry":{"type":"Polygon","coordinates":[[[139.78431533718384,35.556906472381264],[139.78190279720795,35.56030562356639],[139.78186463109824,35.560287545230395],[139.78175874448073,35.56023736828521],[139.78175231966642,35.56024642089918],[139.78163090939137,35.56018887735104],[139.7816373364215,35.56017982384301],[139.78154000874088,35.56013367958709],[139.7815018494263,35.56011558040676],[139.78391440723735,35.55671643174041],[139.78405216872986,35.556781730760974],[139.7840586349605,35.556772620346955],[139.78418003519897,35.55683017409714],[139.7841735744977,35.556839276407345],[139.78431533718384,35.556906472381264]]]}},{"type":"Feature","properties":{"height":1.4,"gml_id":"bldg_84491976-c7a3-4798-bf19-dd19c658c73f"},"geometry":{"type":"Polygon","coordinates":[[[139.78442916735804,35.56236116001595],[139.78442011343463,35.562374587047344],[139.7844020268378,35.562366467202445],[139.78441108070854,35.56235313031132],[139.78442916735804,35.56236116001595]]]}},{"type":"Feature","properties":{"height":8.2,"gml_id":"bldg_7cfc4bbf-9c36-4d12-aca6-4b06fd4a5a50"},"geometry":{"type":"Polygon","coordinates":[[[139.78127293876472,35.56090821535833],[139.78138037891577,35.560757067091025],[139.78161886364444,35.56087024265428],[139.78158488544886,35.56091805040732],[139.78163041396763,35.560939667238074],[139.7813028969044,35.56140046188756],[139.78126128531386,35.5613807188128],[139.7812273199447,35.561428500326066],[139.78107364512738,35.561355568176985],[139.78110759841312,35.56130780112344],[139.78106943093246,35.561289679271304],[139.7813234947885,35.56093221684882],[139.78127293876472,35.56090821535833]]]}},{"type":"Feature","properties":{"height":5.2,"gml_id":"bldg_bcc42317-9311-49cd-b74c-3740d1532d21"},"geometry":{"type":"Polygon","coordinates":[[[139.77903736843095,35.56011275428009],[139.77906670199667,35.560126391092574],[139.7790256783491,35.56018531630643],[139.77900299954376,35.560217891331924],[139.77899046264653,35.56023589995789],[139.77895844381177,35.56022102340648],[139.77895169377825,35.56021788622965],[139.77888833546072,35.5601884371728],[139.77888159094638,35.5601853026987],[139.7788541221632,35.56017253742652],[139.7789303627429,35.56006302684409],[139.77896658634862,35.56007986131541],[139.77903736843095,35.56011275428009]]]}},{"type":"Feature","properties":{"height":13.5,"gml_id":"bldg_e67f9b14-7920-4db9-9adc-4cdaaca173f0"},"geometry":{"type":"Polygon","coordinates":[[[139.78022162178866,35.56018875784532],[139.78020643949193,35.56021073515345],[139.78014865068428,35.56018409523922],[139.78016422167158,35.56016153581183],[139.77946322900942,35.55982907870358],[139.77944912326896,35.559849314913315],[139.77929141492504,35.55977590364025],[139.77930624723464,35.55975462666896],[139.77930474970674,35.559753895872085],[139.77940338541285,35.559615043055594],[139.77938729530683,35.55960879463365],[139.77938873503098,35.55960030508603],[139.779394511632,35.559589310713214],[139.77940327394197,35.55958054771432],[139.77940761744884,35.55957802486384],[139.7794118887158,35.559576305119336],[139.7794266055842,35.55958235732244],[139.7794410312311,35.55956205004759],[139.77944075225034,35.55956189398244],[139.77953042860844,35.559437126678866],[139.780447889849,35.55987156536575],[139.78037344195138,35.559975908228694],[139.78037409146677,35.5599762366199],[139.78022274991952,35.56018929286645],[139.78022162178866,35.56018875784532]]]}},{"type":"Feature","properties":{"height":6.1,"gml_id":"bldg_f4ea96fc-fc01-4f7d-8e9c-a7a1b18ceb55"},"geometry":{"type":"Polygon","coordinates":[[[139.78496184803174,35.561303954736196],[139.78496075194573,35.56129223623028],[139.78504150366362,35.561287581374906],[139.7850424894486,35.56129929983592],[139.78496184803174,35.561303954736196]]]}},{"type":"Feature","properties":{"height":8.6,"gml_id":"bldg_8aea8d16-dc3d-4b4a-874b-0ec9aa4721eb"},"geometry":{"type":"Polygon","coordinates":[[[139.78484868627172,35.56182166750657],[139.78485298730152,35.561823652293285],[139.78489549453258,35.56176291571695],[139.7848860102962,35.561758404958105],[139.78492640465862,35.56172570073909],[139.7849545266971,35.561738782176405],[139.78482998540503,35.56191774811819],[139.78479789192775,35.56190484533142],[139.78484868627172,35.56182166750657]]]}},{"type":"Feature","properties":{"height":9.3,"gml_id":"bldg_1f0a20f4-a3d9-4bd9-ac05-fa08757099b9"},"geometry":{"type":"Polygon","coordinates":[[[139.7826043615645,35.55808679142702],[139.78259968906386,35.558093538169295],[139.78260925433906,35.558098096016906],[139.7826094904027,35.55815761941607],[139.78167408522347,35.55947714666682],[139.78161640225795,35.55950217156535],[139.7816019196275,35.55949529405668],[139.78159645441897,35.559502840852595],[139.78154609577575,35.559478508745876],[139.7815303998673,35.55950058155025],[139.78132535847374,35.559403171106794],[139.78134125205833,35.559380813574776],[139.78133461996703,35.559377780241604],[139.78133682825808,35.559374546105346],[139.78132297090548,35.559368020374784],[139.78132537015316,35.55936460063476],[139.78126327468433,35.55933515697193],[139.78138666714375,35.55916135009504],[139.7813182724737,35.559129493428586],[139.78148144666517,35.55889553041025],[139.78152206221802,35.55884299683008],[139.78153809749452,35.55885047444041],[139.78151226138056,35.55888389229047],[139.78150293136173,35.55889595879426],[139.78149748194897,35.558903007124535],[139.78150700208602,35.558907479407516],[139.7815054132645,35.55890976014279],[139.7815007737702,35.558916423927805],[139.78151172091424,35.558921516980185],[139.78150707812443,35.55892815913066],[139.78150438298613,35.55893201682292],[139.78151566867876,35.5589372713693],[139.78151074433808,35.5589443190244],[139.7815324114365,35.558954446438406],[139.78153082371904,35.55895672537168],[139.78152478862586,35.558965386939654],[139.78152554071173,35.558965737002154],[139.78225947486922,35.55793192039967],[139.78232218275417,35.55796164865442],[139.7823236821568,35.55795941113691],[139.7823389257351,35.55796623209479],[139.7823409573496,35.55796316281902],[139.78234796988446,35.55796626115846],[139.78236339689525,35.55794470192056],[139.78256654867138,35.558041775409976],[139.7825517532203,35.558062446168826],[139.7826043615645,35.55808679142702]]]}},{"type":"Feature","properties":{"height":7.5,"gml_id":"bldg_c203596a-f594-4c23-a222-1a2984aece4d"},"geometry":{"type":"Polygon","coordinates":[[[139.78654625672826,35.55942896798351],[139.7865540867595,35.559432396303656],[139.78659780480177,35.55937174971081],[139.78658832075138,35.55936723908423],[139.78659262765902,35.55935894796591],[139.78662143500875,35.55933065548387],[139.7866529749485,35.55934572091218],[139.786526014836,35.55952378635341],[139.7865017532833,35.559512239140496],[139.78654625672826,35.55942896798351]]]}},{"type":"Feature","properties":{"height":8.9,"gml_id":"bldg_79f9cf7a-fb90-439f-92cd-949d38347d5b"},"geometry":{"type":"Polygon","coordinates":[[[139.78654625672826,35.55942896798351],[139.7864553841434,35.55938945180458],[139.78639846192047,35.559393215497686],[139.7864021908154,35.55943035421694],[139.78626109858166,35.559439763810154],[139.78625013224664,35.55932915897556],[139.78647627656034,35.55931419386049],[139.78658832075138,35.55936723908423],[139.78659780480177,35.55937174971081],[139.7865540867595,35.559432396303656],[139.78654625672826,35.55942896798351]]]}},{"type":"Feature","properties":{"height":18.2,"gml_id":"bldg_1ab9da34-f9f3-4765-af19-ba9c14024304"},"geometry":{"type":"Polygon","coordinates":[[[139.78026999931484,35.55973104975735],[139.77999118304976,35.559600602869686],[139.77999088493578,35.559601019179944],[139.77972570600693,35.559474063383504],[139.77973984216166,35.55945433373478],[139.7797311425632,35.55945016634727],[139.77973064458536,35.55945088543507],[139.77971292761012,35.55944268211972],[139.77975272933423,35.55938527676625],[139.7797591518193,35.55938824699595],[139.78005228592255,35.55915932107567],[139.78005295410696,35.559159763953446],[139.78005361878627,35.55915883581546],[139.78007586564243,35.559169486553174],[139.78008246297318,35.55915993383171],[139.78012530087454,35.55917967876254],[139.78013191577358,35.559170241424034],[139.7801915010663,35.55919814318689],[139.78018960415292,35.559200854633296],[139.78025035071013,35.55922927427664],[139.7802650615366,35.55920934921681],[139.78027079556563,35.55920916515274],[139.78028190523304,35.559208620193644],[139.78029687940187,35.55921089828419],[139.78030704108622,35.559217692023104],[139.78031178156044,35.55922537124644],[139.78031204625293,35.55923214891421],[139.78038644933127,35.55926883032449],[139.7803722618563,35.559288051643236],[139.78042747606239,35.5593137736107],[139.78041397571462,35.55933315658452],[139.78055599385263,35.559399604402664],[139.78057654810925,35.55937073196205],[139.78063063177063,35.55939643531367],[139.7806071339244,35.55942948081311],[139.7806059594855,35.55942892414192],[139.7805895034709,35.55945240716677],[139.7806108418071,35.55946262383931],[139.7803965507605,35.559761522789536],[139.78040322797938,35.55976470221907],[139.7803748309917,35.55980452036687],[139.78032109012767,35.55977893333217],[139.78031403464922,35.55978899605094],[139.7802502980671,35.55975914912692],[139.78026999931484,35.55973104975735]]]}},{"type":"Feature","properties":{"height":4.0,"gml_id":"bldg_0b8c03f2-2e3a-4349-bcb1-921f585d579a"},"geometry":{"type":"Polygon","coordinates":[[[139.77700248054632,35.55945322561951],[139.77704525560875,35.559394748994436],[139.77707503469156,35.55940930141161],[139.77703225964302,35.55946777804712],[139.77700248054632,35.55945322561951]]]}},{"type":"Feature","properties":{"height":2.7,"gml_id":"bldg_344f5584-54bb-4174-aa3d-b5be4ed8c431"},"geometry":{"type":"Polygon","coordinates":[[[139.77714867792048,35.562480125355044],[139.77713895962543,35.56249535430824],[139.77710863224576,35.562482360160544],[139.77711835054495,35.56246713120975],[139.77714867792048,35.562480125355044]]]}}]}