{"type":"FeatureCollection","crs":{"type":"name","properties":{"name":"urn:ogc:def:crs:OGC:1.3:CRS84"}},"features":[{"type":"Feature","properties":{"height":6.8,"gml_id":"bldg_6d286033-7c5f-46f1-af3e-b8d82accba95"},"geometry":{"type":"Polygon","coordinates":[[[139.71316709161786,35.54085142746041],[139.71296908837337,35.540805889972475],[139.7129717444923,35.540799673017055],[139.71299997475126,35.54080141383419],[139.7129893023396,35.540784547149876],[139.71295402304287,35.54077666982696],[139.71295889468192,35.540763874919975],[139.71299880403353,35.540773018810704],[139.71301761810838,35.54080287366528],[139.71304738979464,35.54080632865437],[139.71307561481004,35.54081158487826],[139.71310273456305,35.54081846249966],[139.71312489003978,35.54082632669822],[139.71315045976806,35.54083725902884],[139.71316864178567,35.54084728260082],[139.71316709161786,35.54085142746041]]]}},{"type":"Feature","properties":{"height":2.2,"gml_id":"bldg_33fb4ccd-91fc-4d11-b749-3df71625c5f3"},"geometry":{"type":"Polygon","coordinates":[[[139.71353444126171,35.54093138587251],[139.7134251928023,35.54090198205015],[139.7134346020054,35.54087846506828],[139.71354385030241,35.54090795902126],[139.71353444126171,35.54093138587251]]]}},{"type":"Feature","properties":{"height":3.1,"gml_id":"bldg_94437c9e-f4d9-4817-aef1-8530891f7978"},"geometry":{"type":"Polygon","coordinates":[[[139.71281185597022,35.54152071721324],[139.7128417531629,35.541514166925815],[139.7128435100451,35.541519306616266],[139.71281361258093,35.541526037182265],[139.71281185597022,35.54152071721324]]]}},{"type":"Feature","properties":{"height":13.3,"gml_id":"bldg_4ae4f54d-78fd-49b7-a5dd-9d79f599bfce"},"geometry":{"type":"Polygon","coordinates":[[[139.7128941507892,35.54121108108839],[139.71296757541788,35.54122801042858],[139.71296292230178,35.541242157641264],[139.71294730112402,35.54128964541515],[139.71287365466029,35.541273527094106],[139.7128894973917,35.5412254085764],[139.7128941507892,35.54121108108839]]]}},{"type":"Feature","properties":{"height":3.6,"gml_id":"bldg_8e24e6cb-796d-40ee-8784-ea08300b67fe"},"geometry":{"type":"Polygon","coordinates":[[[139.71281185597022,35.54152071721324],[139.71274169176996,35.54153579045945],[139.71272116353293,35.541472221785554],[139.71282563761395,35.54144970128607],[139.71283288260406,35.541472333468],[139.71286134552832,35.54146614229936],[139.7128746288655,35.541507078770856],[139.7128417531629,35.541514166925815],[139.71281185597022,35.54152071721324]]]}},{"type":"Feature","properties":{"height":45.2,"gml_id":"bldg_7f1e8e56-2ace-4f70-aca9-c15bc16e01e3"},"geometry":{"type":"Polygon","coordinates":[[[139.71247417480433,35.54074068585241],[139.71247544834335,35.5407364397685],[139.71248510636175,35.540694264290316],[139.71252170358096,35.54070574863968],[139.71254573420862,35.54071334440551],[139.71257252194908,35.54072094292742],[139.71261111011927,35.540728553256656],[139.71265520859882,35.540738783125185],[139.71269831601498,35.54074802045473],[139.71274087512245,35.54075518401845],[139.71277737318226,35.54075927677471],[139.71276730627676,35.54077999873214],[139.71275834275013,35.54080036123496],[139.71274937921896,35.54082072373703],[139.7127412970147,35.54084171809421],[139.71272646154094,35.540880012427685],[139.71271201966323,35.54087639241485],[139.71270471496933,35.54089369183897],[139.71259766593732,35.540868706288954],[139.71258802889693,35.54089691021672],[139.71256454706605,35.540891027654276],[139.71257296949784,35.540863814043576],[139.7124638278738,35.540837740101644],[139.71244453387638,35.540833128169105],[139.7124580479556,35.54079357059658],[139.71246779882944,35.540763023173035],[139.71247417480433,35.54074068585241]]]}},{"type":"Feature","properties":{"height":18.1,"gml_id":"bldg_c166f147-5285-4d6c-8eb2-ffa753ff7140"},"geometry":{"type":"Polygon","coordinates":[[[139.7139746099872,35.54143750334117],[139.71394769903364,35.54143837809545],[139.7139441679547,35.541365271696336],[139.71397107875026,35.541364487081886],[139.7139746099872,35.54143750334117]]]}},{"type":"Feature","properties":{"height":4.3,"gml_id":"bldg_f9f7f335-be15-4790-8131-144c32b4fdf1"},"geometry":{"type":"Polygon","coordinates":[[[139.71332656634837,35.54144163758286],[139.71337249354343,35.54133504858602],[139.71353630748072,35.541382173957004],[139.71349038047524,35.54148876301576],[139.71332656634837,35.54144163758286]]]}},{"type":"Feature","properties":{"height":24.7,"gml_id":"bldg_bcf1e8f7-31e0-4cf2-b02d-9ddee3ce7c66"},"geometry":{"type":"Polygon","coordinates":[[[139.71330837828577,35.54113947283012],[139.71328147763361,35.5411334968655],[139.71336146375006,35.54089155265757],[139.71338836446168,35.54089743846535],[139.71330837828577,35.54113947283012]]]}},{"type":"Feature","properties":{"height":4.0,"gml_id":"bldg_28341215-7c52-4671-b2b5-32ffded9f756"},"geometry":{"type":"Polygon","coordinates":[[[139.7128825344557,35.54167799151276],[139.7128242862647,35.54169028329353],[139.71281286953118,35.54165412425853],[139.71287100851367,35.54164183327549],[139.7128825344557,35.54167799151276]]]}},{"type":"Feature","properties":{"height":2.3,"gml_id":"bldg_49d37662-3806-4911-816b-6289d149317c"},"geometry":{"type":"Polygon","coordinates":[[[139.71426722802602,35.541267519623005],[139.71427586276656,35.54124553417879],[139.71430441554241,35.54125304391895],[139.71429578080884,35.541275029365195],[139.71426722802602,35.541267519623005]]]}},{"type":"Feature","properties":{"height":2.3,"gml_id":"bldg_9dd0d54e-32ae-42bb-9666-5f861ba64e5f"},"geometry":{"type":"Polygon","coordinates":[[[139.71317507357472,35.541415166084555],[139.71323422553527,35.54124107604318],[139.71326741018413,35.541248590641466],[139.71320825828968,35.54142268069902],[139.71317507357472,35.541415166084555]]]}},{"type":"Feature","properties":{"height":32.1,"gml_id":"bldg_29f29317-dc46-4397-9570-31024d6437ce"},"geometry":{"type":"Polygon","coordinates":[[[139.71296757541788,35.54122801042858],[139.7128941507892,35.54121108108839],[139.71277541457684,35.54118374040485],[139.71282293326314,35.54104578475607],[139.71279052059808,35.541038360946224],[139.71282363974808,35.54094212535911],[139.71278935296036,35.54093424897996],[139.71283144407727,35.540811972121425],[139.71289527694816,35.54082663844124],[139.7129073502358,35.54079167647958],[139.71296908837337,35.540805889972475],[139.71316709161786,35.54085142746041],[139.7132915603911,35.540880035414915],[139.71323695374483,35.54103853593677],[139.71320288744485,35.54103065989481],[139.71318760200927,35.541074993163456],[139.7131575044728,35.54106811259399],[139.71309248570685,35.54125670916714],[139.71296757541788,35.54122801042858]]]}},{"type":"Feature","properties":{"height":42.6,"gml_id":"bldg_a3cf1070-3bd0-4ce2-98cb-58be388ff6ee"},"geometry":{"type":"Polygon","coordinates":[[[139.71390995151518,35.541235347206424],[139.71377061128894,35.54119473663204],[139.7137608727632,35.541217261781036],[139.71373750237584,35.54121047816545],[139.71374591240297,35.54119137699125],[139.7137224317394,35.541184593263374],[139.7134775944939,35.54111332047402],[139.71335170367303,35.54107659876772],[139.71340039525685,35.54096496470744],[139.71402268510363,35.541145950547204],[139.71398472824555,35.54123307761311],[139.71401548455455,35.54124203182986],[139.71401892890398,35.541299273640504],[139.71411675768337,35.541295404264346],[139.7141276239889,35.541479569423046],[139.71408549243986,35.54148124041487],[139.71408667622558,35.541501072212476],[139.71403285387728,35.54150309218216],[139.71403231579882,35.54149407772849],[139.71400011059382,35.54149530781374],[139.7139862359143,35.541257596972315],[139.71397014123852,35.54125289380397],[139.71390995151518,35.541235347206424]]]}},{"type":"Feature","properties":{"height":2.2,"gml_id":"bldg_a581d7d1-c2d7-4f1c-aa3b-94fe1ceaa095"},"geometry":{"type":"Polygon","coordinates":[[[139.71379714073294,35.54159957814563],[139.71376814740879,35.541591617152896],[139.7138041202023,35.54150403749817],[139.71383311349857,35.541511998482335],[139.71379714073294,35.54159957814563]]]}},{"type":"Feature","properties":{"height":2.2,"gml_id":"bldg_d26cc681-f767-4ec6-860a-a626246b4f07"},"geometry":{"type":"Polygon","coordinates":[[[139.71374687233717,35.54158483561683],[139.7137164477208,35.5415752506865],[139.71376601135213,35.54147037779367],[139.71379654622024,35.54147996282092],[139.71374687233717,35.54158483561683]]]}},{"type":"Feature","properties":{"height":4.9,"gml_id":"bldg_c26ef82c-01a8-4a5e-a36f-f782ee7866c6"},"geometry":{"type":"Polygon","coordinates":[[[139.71309724189524,35.54139516774389],[139.71311617586542,35.541344798798896],[139.71317868430916,35.54136045517895],[139.7131597503743,35.5414108241337],[139.71309724189524,35.54139516774389]]]}},{"type":"Feature","properties":{"height":2.3,"gml_id":"bldg_62dd1367-bdd1-4dc9-980b-a9bfae5ee481"},"geometry":{"type":"Polygon","coordinates":[[[139.7140836075521,35.54118999874352],[139.7140926838744,35.541167743331165],[139.71420380658452,35.54119795965255],[139.7141948405745,35.54122021518216],[139.7140836075521,35.54118999874352]]]}},{"type":"Feature","properties":{"height":22.2,"gml_id":"bldg_0c04e2f5-1226-4e9a-b86b-37c302ff09fd"},"geometry":{"type":"Polygon","coordinates":[[[139.71404588208074,35.541195369786465],[139.71401611728285,35.54118713767215],[139.71405308445765,35.54109802655394],[139.71408284909305,35.54110634879828],[139.71404588208074,35.541195369786465]]]}},{"type":"Feature","properties":{"height":2.3,"gml_id":"bldg_16a7d64c-cf94-4524-98e4-d163d41a5a4d"},"geometry":{"type":"Polygon","coordinates":[[[139.71333592816492,35.54115383238202],[139.71333172203114,35.54116410406755],[139.7132784762997,35.54114935838009],[139.71328279259012,35.54113917694526],[139.71333592816492,35.54115383238202]]]}},{"type":"Feature","properties":{"height":2.3,"gml_id":"bldg_deaea42f-6320-4dd6-8a73-c0eb45412d77"},"geometry":{"type":"Polygon","coordinates":[[[139.71326741274487,35.541172873701576],[139.71327405361893,35.541156925671494],[139.71332895295748,35.54117212370249],[139.71332220167375,35.5411881617649],[139.71326741274487,35.541172873701576]]]}},{"type":"Feature","properties":{"height":2.5,"gml_id":"bldg_373fd1d3-f01d-4199-a7d5-2f4ca0214a5b"},"geometry":{"type":"Polygon","coordinates":[[[139.71320295290212,35.540838843697195],[139.71308851526632,35.54081349066545],[139.7130937221792,35.540797721493014],[139.71320815992863,35.540822984380746],[139.71320295290212,35.540838843697195]]]}},{"type":"Feature","properties":{"height":2.2,"gml_id":"bldg_40df44ed-7315-4f82-bd9c-19474f471b4e"},"geometry":{"type":"Polygon","coordinates":[[[139.71331888345617,35.54119464848641],[139.71331179903058,35.541212218583325],[139.71325734000183,35.54119756181832],[139.71326442430365,35.54118008186367],[139.71331888345617,35.54119464848641]]]}},{"type":"Feature","properties":{"height":2.3,"gml_id":"bldg_f8d11080-f59b-4100-8a8c-840b114d3f8a"},"geometry":{"type":"Polygon","coordinates":[[[139.7132481504733,35.54122161983908],[139.71325434954346,35.54120612206636],[139.71330825782385,35.54122032758848],[139.71330205876296,35.54123582536395],[139.7132481504733,35.54122161983908]]]}},{"type":"Feature","properties":{"height":2.3,"gml_id":"bldg_bd4143f9-0ad3-474e-946e-bc7e217bb338"},"geometry":{"type":"Polygon","coordinates":[[[139.71324073813093,35.54123720654244],[139.71324483305457,35.54122756572399],[139.7132986297195,35.54124267253139],[139.71329464508656,35.54125231346143],[139.71324073813093,35.54123720654244]]]}},{"type":"Feature","properties":{"height":2.8,"gml_id":"bldg_4f578fa8-cbfa-4491-ba78-fdbc6cb8012e"},"geometry":{"type":"Polygon","coordinates":[[[139.71432575477846,35.541589644808425],[139.71433272327187,35.54157577024618],[139.71440580663628,35.54160017992819],[139.71439894857198,35.54161396446432],[139.71432575477846,35.541589644808425]]]}},{"type":"Feature","properties":{"height":2.5,"gml_id":"bldg_3ed4a6a2-0a72-43b0-8722-490c16b7ab8e"},"geometry":{"type":"Polygon","coordinates":[[[139.71422939506155,35.541420178096395],[139.71423736012193,35.541403600347046],[139.71426094997915,35.54141119533528],[139.71425298492287,35.54142777308616],[139.71422939506155,35.541420178096395]]]}},{"type":"Feature","properties":{"height":2.9,"gml_id":"bldg_e65c7b93-8253-4b57-92c1-84526246f765"},"geometry":{"type":"Polygon","coordinates":[[[139.71251892598568,35.54101357129899],[139.71249786930684,35.54100841316831],[139.71250872222888,35.540978406780724],[139.7125298891839,35.54098356592139],[139.71251892598568,35.54101357129899]]]}},{"type":"Feature","properties":{"height":2.1,"gml_id":"bldg_f65d2058-13a4-4bab-ba1c-7a4e2db5cee5"},"geometry":{"type":"Polygon","coordinates":[[[139.7125305860169,35.54110723762771],[139.71251118277587,35.541102621089586],[139.71255050106936,35.540991158261335],[139.71256990442092,35.540995684654085],[139.7125305860169,35.54110723762771]]]}},{"type":"Feature","properties":{"height":2.3,"gml_id":"bldg_fc97d46e-f4bd-49ee-97bd-a9445ca596f7"},"geometry":{"type":"Polygon","coordinates":[[[139.71252072078465,35.54114048911651],[139.71250010467273,35.54113569108314],[139.712509076819,35.54110964983866],[139.71252969305996,35.54111435773142],[139.71252072078465,35.54114048911651]]]}},{"type":"Feature","properties":{"height":2.2,"gml_id":"bldg_94dc24ca-8ce5-4a7a-85a7-f308820df41c"},"geometry":{"type":"Polygon","coordinates":[[[139.71487460179281,35.540270096256386],[139.71490226591428,35.54028175138776],[139.71488922168805,35.540302650879134],[139.71486144727757,35.540290995636475],[139.71487460179281,35.540270096256386]]]}},{"type":"Feature","properties":{"height":2.3,"gml_id":"bldg_8d658752-2a75-4f98-97ca-dfccddb2d01a"},"geometry":{"type":"Polygon","coordinates":[[[139.71542723947584,35.540492650754835],[139.71543200200404,35.540478773969504],[139.71545746903826,35.54048465791452],[139.71545270651407,35.54049853470083],[139.71542723947584,35.540492650754835]]]}},{"type":"Feature","properties":{"height":2.7,"gml_id":"bldg_9627fa4e-2f30-46b5-9e92-0f6ac5dc4b6d"},"geometry":{"type":"Polygon","coordinates":[[[139.71441846100015,35.54161948219832],[139.71442587275112,35.54160416584044],[139.71449818550025,35.541627673314444],[139.71449077376082,35.54164298967673],[139.71441846100015,35.54161948219832]]]}},{"type":"Feature","properties":{"height":4.0,"gml_id":"bldg_3f00add7-66c9-4070-b922-866f62138f37"},"geometry":{"type":"Polygon","coordinates":[[[139.7133494764299,35.541313211997775],[139.71338854491498,35.54122067788627],[139.71343925482864,35.5412349703079],[139.71345685211713,35.54119334348306],[139.713761111706,35.54127918766015],[139.7137435145557,35.541320814529065],[139.71379279142343,35.541334744823985],[139.71375372334657,35.54142727906548],[139.7133494764299,35.541313211997775]]]}},{"type":"Feature","properties":{"height":2.1,"gml_id":"bldg_2a036259-87e8-49c8-ba3f-25e12fcfe5ec"},"geometry":{"type":"Polygon","coordinates":[[[139.71451672411976,35.54019970601063],[139.71454013269158,35.54018043927517],[139.71456677614316,35.54021111285651],[139.71455662141005,35.54021696190571],[139.71451672411976,35.54019970601063]]]}},{"type":"Feature","properties":{"height":3.1,"gml_id":"bldg_8b7ae2c8-d37f-44c9-8a55-cc2536590b24"},"geometry":{"type":"Polygon","coordinates":[[[139.71427745619113,35.54113745882883],[139.71426627984664,35.54116286705452],[139.71419837351365,35.541143059501195],[139.71420955014332,35.54111747100356],[139.71427745619113,35.54113745882883]]]}},{"type":"Feature","properties":{"height":1.8,"gml_id":"bldg_fd5b251c-a738-4c8e-a6e7-e57f38dd512b"},"geometry":{"type":"Polygon","coordinates":[[[139.71311844566577,35.54078449567491],[139.71312342823614,35.54077125017575],[139.71314768179522,35.54077731367703],[139.71314258880957,35.54079064920636],[139.71311844566577,35.54078449567491]]]}},{"type":"Feature","properties":{"height":2.3,"gml_id":"bldg_80e27900-30d8-4cdb-8270-81baf57880ab"},"geometry":{"type":"Polygon","coordinates":[[[139.7165491435489,35.54096084388391],[139.716551812986,35.540945252383096],[139.71658246702557,35.54094879749324],[139.7165797977249,35.54096429885566],[139.7165491435489,35.54096084388391]]]}},{"type":"Feature","properties":{"height":2.1,"gml_id":"bldg_35aab19f-6b5d-4e4a-b2c6-88c5df087466"},"geometry":{"type":"Polygon","coordinates":[[[139.71718603859333,35.54119023231204],[139.71719366917932,35.54117572724618],[139.71722475356253,35.54118684430211],[139.717217012826,35.54120125912465],[139.71718603859333,35.54119023231204]]]}},{"type":"Feature","properties":{"height":2.9,"gml_id":"bldg_f3a22b7c-a82a-4e8b-8e74-e7fa5798fb08"},"geometry":{"type":"Polygon","coordinates":[[[139.7126017291723,35.539187613639484],[139.71262987261366,35.53917330967031],[139.7126484737167,35.539197756021956],[139.71262033027003,35.53921205999542],[139.7126017291723,35.539187613639484]]]}},{"type":"Feature","properties":{"height":2.2,"gml_id":"bldg_433651e6-9f7c-49a6-9328-3293ee055c78"},"geometry":{"type":"Polygon","coordinates":[[[139.71277301221346,35.53932533747833],[139.7127880362477,35.53930822604006],[139.71282605050857,35.53933043828571],[139.71281102647825,35.53934754972866],[139.71277301221346,35.53932533747833]]]}},{"type":"Feature","properties":{"height":37.0,"gml_id":"bldg_cf27dc73-36e2-4054-9fe1-4d84d64bdf93"},"geometry":{"type":"Polygon","coordinates":[[[139.71390995151518,35.541235347206424],[139.71397014123852,35.54125289380397],[139.71395883165604,35.541293715674776],[139.71393049025014,35.541292425668104],[139.71391285197998,35.54128745054614],[139.71389499915549,35.541278418944366],[139.71390995151518,35.541235347206424]]]}},{"type":"Feature","properties":{"height":1.7,"gml_id":"bldg_268faf6c-ec2f-4883-89af-4c7f9082771c"},"geometry":{"type":"Polygon","coordinates":[[[139.71741483096855,35.541301143410365],[139.7173973048405,35.541294726678125],[139.7174141127984,35.541263734943556],[139.71743174920616,35.541270151779365],[139.71741483096855,35.541301143410365]]]}},{"type":"Feature","properties":{"height":1.7,"gml_id":"bldg_f0258617-2855-4d31-ac92-accc8a2020ed"},"geometry":{"type":"Polygon","coordinates":[[[139.71321594551625,35.53952147175499],[139.71320256085474,35.53954859033489],[139.71316949230322,35.53953765054179],[139.71317281100193,35.539530803266075],[139.71316575640438,35.5395284526166],[139.713175822378,35.539508181316634],[139.71321594551625,35.53952147175499]]]}},{"type":"Feature","properties":{"height":2.2,"gml_id":"bldg_44921e6a-5f4f-4d18-bd25-084fe8f08db3"},"geometry":{"type":"Polygon","coordinates":[[[139.71774907017,35.54140278070522],[139.71776638444268,35.54140315785559],[139.71776580728397,35.541421095007074],[139.7177484930074,35.5414207178566],[139.71774907017,35.54140278070522]]]}},{"type":"Feature","properties":{"height":2.6,"gml_id":"bldg_2485f1f7-7427-41ae-9c76-d99c352b42b5"},"geometry":{"type":"Polygon","coordinates":[[[139.71365331032462,35.53975563763369],[139.71367032376466,35.53973555346597],[139.71370426268376,35.53975460651644],[139.7136873593973,35.53977478093742],[139.71365331032462,35.53975563763369]]]}},{"type":"Feature","properties":{"height":1.5,"gml_id":"bldg_5c6e0a3d-6d46-43a8-b8a2-b99b9fffd663"},"geometry":{"type":"Polygon","coordinates":[[[139.71440626359416,35.54009530603675],[139.71442202016271,35.54010478619368],[139.71440633435867,35.54012207745931],[139.71439057778855,35.540112597300336],[139.71440626359416,35.54009530603675]]]}},{"type":"Feature","properties":{"height":2.5,"gml_id":"bldg_8dcd0f67-e416-406a-8cec-8b2d5fd5a11d"},"geometry":{"type":"Polygon","coordinates":[[[139.71440875048373,35.54012893042376],[139.7144248369785,35.54013904188025],[139.7144116927465,35.54015291036152],[139.71439560625058,35.54014279890328],[139.71440875048373,35.54012893042376]]]}},{"type":"Feature","properties":{"height":1.7,"gml_id":"bldg_b3fd524c-f60f-48d3-8d3c-8da0da4ac07d"},"geometry":{"type":"Polygon","coordinates":[[[139.7145488365903,35.5401862167595],[139.7145549254453,35.540170448390704],[139.71457840694703,35.54017651084437],[139.71457231809617,35.540192279214345],[139.7145488365903,35.5401862167595]]]}},{"type":"Feature","properties":{"height":3.4,"gml_id":"bldg_8f273ec6-5f85-45bc-a1bc-470b573b22d5"},"geometry":{"type":"Polygon","coordinates":[[[139.71444399944525,35.54015726889813],[139.71447350340557,35.5401178169958],[139.71452011903534,35.54014111885319],[139.71453194276867,35.54012526599608],[139.71454549780725,35.54013194965183],[139.7145040597171,35.54018734445758],[139.71444399944525,35.54015726889813]]]}},{"type":"Feature","properties":{"height":4.2,"gml_id":"bldg_d92c89a7-5060-47dd-aa39-5563814ace7c"},"geometry":{"type":"Polygon","coordinates":[[[139.71416832775026,35.541175660213035],[139.7141110005138,35.54116145169521],[139.7141344745469,35.54109819716753],[139.71419180187584,35.54111231553519],[139.71416832775026,35.541175660213035]]]}},{"type":"Feature","properties":{"height":9.4,"gml_id":"bldg_c72ad280-86c0-4d01-8b9d-6ab81fa8bffc"},"geometry":{"type":"Polygon","coordinates":[[[139.7147567211768,35.54131036734469],[139.71465549635627,35.54152335687813],[139.71423848149706,35.54139107210352],[139.71428096304345,35.541301786085505],[139.7144314318748,35.54134961817999],[139.7144901761534,35.541225734660884],[139.7147567211768,35.54131036734469]]]}},{"type":"Feature","properties":{"height":3.2,"gml_id":"bldg_d0a34690-3204-408b-910d-3ef827a9a410"},"geometry":{"type":"Polygon","coordinates":[[[139.71571922655727,35.5415813669832],[139.7157021869125,35.54161947925113],[139.71562579233031,35.54159659948922],[139.71563198833857,35.54158290437615],[139.71561710624673,35.54157847302882],[139.71562806007222,35.541554146132725],[139.71571922655727,35.5415813669832]]]}},{"type":"Feature","properties":{"height":3.3,"gml_id":"bldg_c8c3e855-0d8c-4e4b-a55d-44a42de4ab41"},"geometry":{"type":"Polygon","coordinates":[[[139.71252191612595,35.54093172788279],[139.71253531746646,35.54089379269527],[139.7125956219164,35.54090800494304],[139.71258222060186,35.540945940137235],[139.71252191612595,35.54093172788279]]]}}]}