{"type":"FeatureCollection","crs":{"type":"name","properties":{"name":"urn:ogc:def:crs:OGC:1.3:CRS84"}},"features":[{"type":"Feature","properties":{"height":9.9,"gml_id":"bldg_cf567e64-70f8-43ea-b09d-22ed7f5e0264"},"geometry":{"type":"Polygon","coordinates":[[[139.7745931257414,35.580328195346056],[139.77462774811252,35.58036111283108],[139.77458016771547,35.580394440960596],[139.77454565568837,35.58036152351592],[139.7745931257414,35.580328195346056]]]}},{"type":"Feature","properties":{"height":7.6,"gml_id":"bldg_28a03e9f-5bb9-47cb-baaa-ccfc7576b776"},"geometry":{"type":"Polygon","coordinates":[[[139.77478156879656,35.58019812677217],[139.77482049321654,35.58023266878843],[139.77472290031656,35.580306084400746],[139.77468397590306,35.5802715423534],[139.77478156879656,35.58019812677217]]]}},{"type":"Feature","properties":{"height":10.2,"gml_id":"bldg_d8891dfd-3209-4cfd-be28-6467c9f94330"},"geometry":{"type":"Polygon","coordinates":[[[139.7686427295174,35.577912857047586],[139.76864611802762,35.57795251989974],[139.76855652137496,35.577957699831735],[139.76855313290875,35.577918036977145],[139.7686427295174,35.577912857047586]]]}},{"type":"Feature","properties":{"height":12.5,"gml_id":"bldg_aff8e28c-237d-4524-8529-abd611d95443"},"geometry":{"type":"Polygon","coordinates":[[[139.76812778920066,35.577782239021666],[139.7681269464805,35.577732932688505],[139.76817935622054,35.57773233005627],[139.76818008856455,35.57778172646813],[139.76812778920066,35.577782239021666]]]}},{"type":"Feature","properties":{"height":6.5,"gml_id":"bldg_28f93e06-48e7-4ede-a71a-30b87e5833a9"},"geometry":{"type":"Polygon","coordinates":[[[139.77116915691676,35.580100320245755],[139.77139039723264,35.57994197033333],[139.77160407998326,35.580141196300964],[139.77138294987768,35.58029954665691],[139.77116915691676,35.580100320245755]]]}},{"type":"Feature","properties":{"height":4.4,"gml_id":"bldg_eef52dd3-b0d9-4de1-a1d0-ff805d9f5595"},"geometry":{"type":"Polygon","coordinates":[[[139.76776712453108,35.57721425959768],[139.7677671357702,35.57720046837912],[139.76769387374378,35.57720033836985],[139.76769390183625,35.57716590539268],[139.7677669432359,35.57716594514319],[139.7677669560177,35.577150261012136],[139.76784628646516,35.57715030413512],[139.7678462343726,35.57721430260074],[139.76776712453108,35.57721425959768]]]}},{"type":"Feature","properties":{"height":7.4,"gml_id":"bldg_ae924be2-7c89-497a-921a-c1b4c4b995cb"},"geometry":{"type":"Polygon","coordinates":[[[139.76887470529743,35.57716122439798],[139.76892744580763,35.57716044133967],[139.76893000869043,35.577266806403266],[139.76887726811054,35.57726758946262],[139.76887470529743,35.57716122439798]]]}},{"type":"Feature","properties":{"height":8.0,"gml_id":"bldg_b9d102ee-48bd-4269-843e-864ad2486d8a"},"geometry":{"type":"Polygon","coordinates":[[[139.76960540452933,35.57777653925916],[139.76960531668524,35.57774814551713],[139.76976784064112,35.57774805105151],[139.76976792854256,35.57777644479349],[139.76960540452933,35.57777653925916]]]}},{"type":"Feature","properties":{"height":5.0,"gml_id":"bldg_4d543a32-0c59-4724-89f2-45047908d2bf"},"geometry":{"type":"Polygon","coordinates":[[[139.77169750217996,35.57716197966139],[139.77171655476255,35.57720805029062],[139.77166159650105,35.57722325563071],[139.7716425439464,35.57717718499292],[139.77169750217996,35.57716197966139]]]}},{"type":"Feature","properties":{"height":3.1,"gml_id":"bldg_ff0ba76d-d08b-404e-9f1a-99c1e758643a"},"geometry":{"type":"Polygon","coordinates":[[[139.7689206761879,35.57872533592011],[139.7689425354566,35.57870957332597],[139.76902456540438,35.578785243486486],[139.76900270613115,35.57880100609529],[139.7689206761879,35.57872533592011]]]}},{"type":"Feature","properties":{"height":34.9,"gml_id":"bldg_cd15a9fa-0e8b-4112-b0a1-5b7fad0b3cf9"},"geometry":{"type":"Polygon","coordinates":[[[139.77063571920357,35.580179005450795],[139.77026998659744,35.57984656348034],[139.77087641982718,35.57940132368176],[139.7711680579068,35.57966630190941],[139.7712421529208,35.579733763837346],[139.7707260277927,35.58011271032044],[139.77063571920357,35.580179005450795]]]}},{"type":"Feature","properties":{"height":2.8,"gml_id":"bldg_279a4c8a-59f9-480c-bbb1-e87386144808"},"geometry":{"type":"Polygon","coordinates":[[[139.76941747951528,35.57863996859847],[139.76940667513668,35.578629146224785],[139.76940370206933,35.578621572997015],[139.76940348791467,35.578613370261436],[139.76940614236366,35.57860534932459],[139.76941111294565,35.57859850141905],[139.76942480131962,35.578590125777595],[139.76944157424168,35.578587881201365],[139.76945106181165,35.57858959886508],[139.76945988557452,35.57859356964391],[139.76946705278942,35.578599432457196],[139.76947179174556,35.578606375648064],[139.7694738771188,35.57862025811316],[139.76946779831047,35.57863323486592],[139.76946128380786,35.57863909042996],[139.76945267412805,35.57864341252539],[139.76944285253575,35.578645480510275],[139.76943314299766,35.57864538522491],[139.76941747951528,35.57863996859847]]]}},{"type":"Feature","properties":{"height":28.4,"gml_id":"bldg_8dd7b429-a0d2-4a07-8ef2-dc7fdb3f37d4"},"geometry":{"type":"Polygon","coordinates":[[[139.76894440165913,35.57775644761667],[139.7688298736666,35.57775638638692],[139.76882993892568,35.577674991160926],[139.76894446680234,35.5776750523905],[139.76894440165913,35.57775644761667]]]}},{"type":"Feature","properties":{"height":8.8,"gml_id":"bldg_0a58b98b-7f2c-4aff-a246-3ce3d615fb1a"},"geometry":{"type":"Polygon","coordinates":[[[139.7640503201401,35.58293796978913],[139.7639780563937,35.58292575951543],[139.76398226199225,35.58291115947623],[139.76405220946884,35.5829222867525],[139.76407516129385,35.58292157883328],[139.76409624086799,35.582916723457046],[139.76411390386139,35.58290717890608],[139.76412671582244,35.582892944358306],[139.76413302526223,35.582869782351224],[139.76413414776084,35.58284760889106],[139.76410959489198,35.58278548927197],[139.76413199977472,35.582779192432234],[139.76415831735926,35.58284221444597],[139.76416172564328,35.58285654844513],[139.7641582827863,35.582882416258016],[139.76414656844057,35.58290341183689],[139.7641290100554,35.582919626711735],[139.76410251672607,35.58293259146163],[139.76407746451315,35.58293780511103],[139.7640503201401,35.58293796978913]]]}},{"type":"Feature","properties":{"height":17.1,"gml_id":"bldg_bb225f61-17ea-4083-a8a9-60d4a2c91f5b"},"geometry":{"type":"Polygon","coordinates":[[[139.77488479207219,35.58057576779727],[139.77485112068166,35.580600449463105],[139.7746692861684,35.580442978974645],[139.77468739148168,35.58042964726022],[139.77488479207219,35.58057576779727]]]}},{"type":"Feature","properties":{"height":2.9,"gml_id":"bldg_c8935de5-7df8-4fe4-9659-6589d297bb1b"},"geometry":{"type":"Polygon","coordinates":[[[139.7666349855467,35.58293203634148],[139.7666083128321,35.58289569570855],[139.76662884472177,35.58288579182241],[139.7666479142833,35.58290950883555],[139.76667031317584,35.58291024233444],[139.76668622278385,35.58288573342281],[139.76670806204467,35.58289602130086],[139.7666855225656,35.58293179387934],[139.7666349855467,35.58293203634148]]]}},{"type":"Feature","properties":{"height":19.2,"gml_id":"bldg_4101eb0e-325e-410d-b048-9475cc0b130a"},"geometry":{"type":"Polygon","coordinates":[[[139.76259200883365,35.58246578781129],[139.7625900735053,35.58228253481456],[139.76259856987593,35.58228244966212],[139.76259846888766,35.582271813242826],[139.76264712977596,35.58227148123397],[139.7626472377411,35.582274185456605],[139.76271443615002,35.58227368401269],[139.76271453857805,35.58228269793713],[139.76272182119268,35.58228261206488],[139.76272233064694,35.5823307463992],[139.76274682662103,35.582330580469154],[139.76274764441433,35.582404584774],[139.7627217139767,35.58240474986386],[139.7627223232495,35.582464872695006],[139.76259200883365,35.58246578781129]]]}},{"type":"Feature","properties":{"height":7.2,"gml_id":"bldg_a270a1c0-b7d1-43f6-8a73-73df0f39ba6f"},"geometry":{"type":"Polygon","coordinates":[[[139.76486141320976,35.58116306243314],[139.76486088138213,35.58113971621743],[139.7648603507057,35.58111501792232],[139.76485982041322,35.581089868934036],[139.76494963618057,35.5810909114465],[139.76497411622373,35.581109043203234],[139.76497243400945,35.58114095133594],[139.76495255428716,35.58116275361637],[139.76486141320976,35.58116306243314]]]}},{"type":"Feature","properties":{"height":17.7,"gml_id":"bldg_21593d26-13e7-49c6-8b2a-f79898005c01"},"geometry":{"type":"Polygon","coordinates":[[[139.77484295119228,35.58060648479058],[139.7748271642991,35.58061801487977],[139.77465007686763,35.580457121396975],[139.77466100634243,35.580449014236244],[139.77484295119228,35.58060648479058]]]}},{"type":"Feature","properties":{"height":14.5,"gml_id":"bldg_3ab109e9-3404-43a2-8aaa-c514f6313cea"},"geometry":{"type":"Polygon","coordinates":[[[139.774698100074,35.58042181040468],[139.77471962765696,35.580406046605674],[139.77489671511537,35.58056693998768],[139.77489550073028,35.58056784078572],[139.774698100074,35.58042181040468]]]}},{"type":"Feature","properties":{"height":33.3,"gml_id":"bldg_4c00fa3d-42a7-4031-9cbd-9bc9a12a25c5"},"geometry":{"type":"Polygon","coordinates":[[[139.77456183395984,35.57936117225186],[139.77444495047627,35.57925970917484],[139.77477702663094,35.57901054730661],[139.77483050624534,35.57905708484291],[139.7748453274982,35.579159219181015],[139.77459483427347,35.579348298503604],[139.77456183395984,35.57936117225186]]]}},{"type":"Feature","properties":{"height":2.7,"gml_id":"bldg_01b00dfe-3d02-4909-9f20-091daae75c53"},"geometry":{"type":"Polygon","coordinates":[[[139.7643531736881,35.582079663059204],[139.76435066853907,35.58204153297717],[139.7643738410243,35.582040554711185],[139.7643763461843,35.58207868479275],[139.7643531736881,35.582079663059204]]]}},{"type":"Feature","properties":{"height":3.0,"gml_id":"bldg_c679cd96-d44b-4947-af73-959442edd272"},"geometry":{"type":"Polygon","coordinates":[[[139.76434670708136,35.582028911299155],[139.76434496180067,35.58200538411281],[139.76437012064665,35.58200413656841],[139.76437197627578,35.582027663817534],[139.76434670708136,35.582028911299155]]]}},{"type":"Feature","properties":{"height":6.8,"gml_id":"bldg_a070ae68-3dc2-4cf9-8b9b-d037b07bccda"},"geometry":{"type":"Polygon","coordinates":[[[139.7626277028929,35.58253025788254],[139.76251758226638,35.582529652405135],[139.7625159559463,35.58249693112307],[139.7626277320503,35.58249708687983],[139.7626277028929,35.58253025788254]]]}},{"type":"Feature","properties":{"height":13.1,"gml_id":"bldg_80f294fd-102e-418e-9a2f-9b2955206110"},"geometry":{"type":"Polygon","coordinates":[[[139.77441135892386,35.57917595391017],[139.77433428477565,35.57910560802657],[139.77449568663567,35.578983999671635],[139.77457408649929,35.57905209263222],[139.77441135892386,35.57917595391017]]]}},{"type":"Feature","properties":{"height":7.6,"gml_id":"bldg_209101b8-572d-4ca6-b90f-11bcc3ada11b"},"geometry":{"type":"Polygon","coordinates":[[[139.7689092346533,35.57813239739911],[139.7689491764901,35.5781320581844],[139.76894911899709,35.57820389870534],[139.76869347079472,35.57820376188856],[139.76869352634333,35.57813462552812],[139.7687482536095,35.578133753475306],[139.7687860990679,35.57813341319141],[139.76882946131454,35.57813307584785],[139.76884071563526,35.5781329917309],[139.7689092346533,35.57813239739911]]]}},{"type":"Feature","properties":{"height":3.3,"gml_id":"bldg_eae583ce-a57f-4589-aa15-f2a0ec58dfe1"},"geometry":{"type":"Polygon","coordinates":[[[139.7697046961776,35.5828113777252],[139.76976111230977,35.582771836629384],[139.76977886407533,35.58278870191638],[139.76979796387698,35.58277528132792],[139.76988341482937,35.58285672153147],[139.76986917285603,35.58286662928416],[139.76987611922763,35.582873213061994],[139.7698147349712,35.58291617686135],[139.7697046961776,35.5828113777252]]]}},{"type":"Feature","properties":{"height":2.9,"gml_id":"bldg_13622283-55d8-4c48-9932-8dd1664c861b"},"geometry":{"type":"Polygon","coordinates":[[[139.7696702669438,35.583093313206966],[139.7696507238908,35.58310898700613],[139.7696223845492,35.58308535570771],[139.76964192760198,35.583069681913045],[139.7696702669438,35.583093313206966]]]}},{"type":"Feature","properties":{"height":16.8,"gml_id":"bldg_5c03d180-99d8-4331-ab86-428838cd0b73"},"geometry":{"type":"Polygon","coordinates":[[[139.7678597794027,35.57724639934387],[139.7678598291372,35.57718528531647],[139.76796199885416,35.57718534076619],[139.76796194919726,35.57724645479372],[139.7678597794027,35.57724639934387]]]}},{"type":"Feature","properties":{"height":7.9,"gml_id":"bldg_25ac6ddb-a3ea-4829-bafa-c41189a2d746"},"geometry":{"type":"Polygon","coordinates":[[[139.76785957018538,35.577367906227465],[139.76784765403585,35.57736789975463],[139.76784764060935,35.577384395133265],[139.76778761858404,35.57738427237277],[139.7677876995838,35.57728484940696],[139.76785974808016,35.57728488856141],[139.76785957018538,35.577367906227465]]]}},{"type":"Feature","properties":{"height":6.5,"gml_id":"bldg_0096011f-62df-4b85-a014-b2fadcbdcab6"},"geometry":{"type":"Polygon","coordinates":[[[139.7640440527884,35.57919730179694],[139.76420713119717,35.579197395426306],[139.76420711926943,35.57921127677795],[139.7640438198475,35.57921154357626],[139.7640440527884,35.57919730179694]]]}},{"type":"Feature","properties":{"height":8.9,"gml_id":"bldg_6d947014-7753-4ebe-bda9-e8cacc0f264b"},"geometry":{"type":"Polygon","coordinates":[[[139.76361367298375,35.579653606093515],[139.7636120806922,35.58009041722057],[139.76354731405985,35.58008803613631],[139.7635485742038,35.57965293745286],[139.76361367298375,35.579653606093515]]]}},{"type":"Feature","properties":{"height":8.2,"gml_id":"bldg_c3e1ca47-5089-4d3b-8281-73b26f7d6035"},"geometry":{"type":"Polygon","coordinates":[[[139.76375485738916,35.58009194193736],[139.76375633895745,35.57965468005078],[139.76382783772516,35.57965490157628],[139.76382680101455,35.58008855817336],[139.76375485738916,35.58009194193736]]]}},{"type":"Feature","properties":{"height":6.6,"gml_id":"bldg_051e1917-cf6e-43a2-ad6a-20bd5ad7244b"},"geometry":{"type":"Polygon","coordinates":[[[139.76966957567336,35.57755329956368],[139.76970995827463,35.57755332088438],[139.76970978456905,35.57763345411368],[139.76966951226268,35.57763343285116],[139.76966957567336,35.57755329956368]]]}},{"type":"Feature","properties":{"height":18.4,"gml_id":"bldg_a4461f80-e81c-49af-b165-dff5086758e0"},"geometry":{"type":"Polygon","coordinates":[[[139.7686854050337,35.57766851388513],[139.7686862143189,35.577622543573284],[139.76873012615636,35.57762446002798],[139.76873152526363,35.57766835833315],[139.7686854050337,35.57766851388513]]]}},{"type":"Feature","properties":{"height":19.5,"gml_id":"bldg_b4e2ed0b-0927-477d-980d-e53aca522f6c"},"geometry":{"type":"Polygon","coordinates":[[[139.76332663737958,35.57920013227479],[139.7633264160262,35.5790741182551],[139.76330876202016,35.579074198139644],[139.76330823727827,35.57878972011379],[139.7633250084502,35.57878972985525],[139.76332483923355,35.57873059877143],[139.7636450364481,35.57873024347714],[139.76364584342792,35.57919977640378],[139.76332663737958,35.57920013227479]]]}},{"type":"Feature","properties":{"height":2.8,"gml_id":"bldg_6d7b9633-a60f-4526-a4c7-8815db049173"},"geometry":{"type":"Polygon","coordinates":[[[139.77497380338102,35.58107671153184],[139.7749616741768,35.58106543832517],[139.77499611817203,35.58104066686566],[139.77500824737734,35.58105194006893],[139.77497380338102,35.58107671153184]]]}},{"type":"Feature","properties":{"height":2.9,"gml_id":"bldg_8cf53a8b-3008-4e30-ac69-3d7d6b298e68"},"geometry":{"type":"Polygon","coordinates":[[[139.76723452381611,35.58287359620954],[139.7671872997715,35.582870595728984],[139.7671626114302,35.58283614921855],[139.76718380543804,35.58282606532394],[139.76720110937703,35.582850141835465],[139.76721942574363,35.58285069271511],[139.76723588651336,35.582826634726096],[139.76725927032348,35.5828372839059],[139.76723452381611,35.58287359620954]]]}},{"type":"Feature","properties":{"height":3.9,"gml_id":"bldg_0048ff22-77d0-4f7f-9736-2c6fdb220200"},"geometry":{"type":"Polygon","coordinates":[[[139.7749782797023,35.58144655264834],[139.77496116772903,35.58145925391451],[139.7749259920661,35.581427688342856],[139.77494310410364,35.58141489694298],[139.7749782797023,35.58144655264834]]]}},{"type":"Feature","properties":{"height":7.7,"gml_id":"bldg_d7b74c00-5684-4906-9daf-5459dbc8e9a9"},"geometry":{"type":"Polygon","coordinates":[[[139.76800744252935,35.577202762175325],[139.76796352940167,35.57720273836987],[139.76796356982928,35.57715298181618],[139.76800748285658,35.57715309576026],[139.76800744252935,35.577202762175325]]]}},{"type":"Feature","properties":{"height":18.1,"gml_id":"bldg_d3f4f39e-fede-4d19-bb1a-25b1c702d183"},"geometry":{"type":"Polygon","coordinates":[[[139.77454136327745,35.580346738678905],[139.77447895153634,35.58029199404321],[139.77464907388645,35.58016822643699],[139.77471027172535,35.580223240811414],[139.77454136327745,35.580346738678905]]]}},{"type":"Feature","properties":{"height":7.0,"gml_id":"bldg_93695755-d47e-494f-91ae-3043b1905e4b"},"geometry":{"type":"Polygon","coordinates":[[[139.77488794743104,35.579573877850066],[139.7747791568293,35.57957048992155],[139.774781846201,35.57951379399044],[139.77482653197623,35.57951516776805],[139.77482698106232,35.579504531620245],[139.77489097546615,35.57950654571495],[139.77488794743104,35.579573877850066]]]}},{"type":"Feature","properties":{"height":22.1,"gml_id":"bldg_ce617e6b-fee7-46cb-922d-c1eacf58dd9a"},"geometry":{"type":"Polygon","coordinates":[[[139.77489602780554,35.580601733183705],[139.7749288856453,35.580633748338634],[139.77487998094387,35.58066734635933],[139.77484712310985,35.58063533119127],[139.77489602780554,35.580601733183705]]]}},{"type":"Feature","properties":{"height":4.2,"gml_id":"bldg_c325f14d-0ce7-4515-89c8-2bd919f7a7ea"},"geometry":{"type":"Polygon","coordinates":[[[139.7735591816462,35.57953041038736],[139.7737616282261,35.579710697848995],[139.77366226878397,35.57978519340002],[139.77345982230682,35.57960481563513],[139.7735591816462,35.57953041038736]]]}},{"type":"Feature","properties":{"height":6.3,"gml_id":"bldg_bf948944-93b5-4dfd-9921-253f4150b878"},"geometry":{"type":"Polygon","coordinates":[[[139.77330327518686,35.57898350188814],[139.77334308544945,35.57901218581355],[139.77330466167885,35.5790476813326],[139.77326496174945,35.579018997449644],[139.77330327518686,35.57898350188814]]]}},{"type":"Feature","properties":{"height":2.9,"gml_id":"bldg_fad51ec7-c43e-4169-8786-275e92498d36"},"geometry":{"type":"Polygon","coordinates":[[[139.77458584551113,35.577152244692826],[139.7745843809518,35.57719361765509],[139.7745934281828,35.577193892480196],[139.77459241720578,35.577218499860095],[139.77451375007195,35.57721656858711],[139.7745145365819,35.57719718914453],[139.77452887980309,35.577197556697215],[139.77453056894683,35.577150865660265],[139.77458584551113,35.577152244692826]]]}},{"type":"Feature","properties":{"height":7.1,"gml_id":"bldg_efd22de4-a9b4-4019-b185-ae9f798bf0f1"},"geometry":{"type":"Polygon","coordinates":[[[139.7671667461501,35.577272701995],[139.76716306394252,35.5771886005455],[139.76730407472496,35.57718462162491],[139.76730565850346,35.57727142608252],[139.7671667461501,35.577272701995]]]}},{"type":"Feature","properties":{"height":23.5,"gml_id":"bldg_ee0bc773-c4e1-488a-878f-e4ad39d22718"},"geometry":{"type":"Polygon","coordinates":[[[139.76263701669427,35.57908903948156],[139.7626387157149,35.57878788710016],[139.76263909670539,35.578731009805765],[139.76299978586863,35.57873248273974],[139.76299694889985,35.57920093187794],[139.76263636797364,35.5791994589979],[139.76263701669427,35.57908903948156]]]}},{"type":"Feature","properties":{"height":7.7,"gml_id":"bldg_906c54c5-e528-4e49-b90f-0c7a15ddac85"},"geometry":{"type":"Polygon","coordinates":[[[139.76813824976426,35.578216983686445],[139.76813996966513,35.578136941442935],[139.76832080999773,35.57813703911075],[139.76832221580983,35.57817237424307],[139.76834604791057,35.57817292792601],[139.76834613647546,35.57819987944777],[139.76832075849927,35.57820076715048],[139.76832074531507,35.578217082249644],[139.76813824976426,35.578216983686445]]]}},{"type":"Feature","properties":{"height":12.6,"gml_id":"bldg_91dd2cdb-1fd4-44bb-abad-21c69d384458"},"geometry":{"type":"Polygon","coordinates":[[[139.76864471939712,35.577908080763635],[139.76864641581236,35.577856612468395],[139.76869783210404,35.57785664004867],[139.7686978462979,35.577838972868264],[139.7687493729137,35.57783900048571],[139.7687493184991,35.57790678476951],[139.76864471939712,35.577908080763635]]]}},{"type":"Feature","properties":{"height":7.5,"gml_id":"bldg_1bbd39c4-bfed-4013-96ba-2ebc4ed2d733"},"geometry":{"type":"Polygon","coordinates":[[[139.77066309745427,35.57817776036956],[139.77066291118877,35.578133592304404],[139.77096368741823,35.57813257649887],[139.77096387384887,35.578176744563734],[139.77066309745427,35.57817776036956]]]}},{"type":"Feature","properties":{"height":8.6,"gml_id":"bldg_5c8bdf0f-4ffc-4179-8cf6-6cfdfb3815b6"},"geometry":{"type":"Polygon","coordinates":[[[139.77480716647636,35.579289360937565],[139.77478913464526,35.57920209792284],[139.77485965023632,35.57918825079037],[139.77487745884628,35.579279119234386],[139.77480716647636,35.579289360937565]]]}},{"type":"Feature","properties":{"height":3.2,"gml_id":"bldg_849c9138-d9bd-4198-9ad3-010a9f58b889"},"geometry":{"type":"Polygon","coordinates":[[[139.76889215412493,35.57810552693357],[139.76889272905194,35.57807650257603],[139.76894602068617,35.57807716202401],[139.7689454457784,35.578106186381824],[139.76889215412493,35.57810552693357]]]}},{"type":"Feature","properties":{"height":3.9,"gml_id":"bldg_36de55f8-6951-40e6-ab16-e039565fcd48"},"geometry":{"type":"Polygon","coordinates":[[[139.76757446080506,35.577913180408906],[139.76762190557042,35.57791257531053],[139.7676229635003,35.57796819147274],[139.7675755187758,35.57796870643283],[139.76757446080506,35.577913180408906]]]}},{"type":"Feature","properties":{"height":9.4,"gml_id":"bldg_126fc219-c0e2-4c3d-bda0-f44b40bd9b0d"},"geometry":{"type":"Polygon","coordinates":[[[139.77487192740725,35.57914733377638],[139.77485378664193,35.57905808766502],[139.77498829953524,35.57904156732635],[139.77500301992907,35.57913090190143],[139.77487192740725,35.57914733377638]]]}},{"type":"Feature","properties":{"height":25.2,"gml_id":"bldg_8c27b1cc-3044-43d6-91ce-0440722ee59d"},"geometry":{"type":"Polygon","coordinates":[[[139.76770258829615,35.57787890738692],[139.76787316677988,35.57787909027716],[139.76787321643204,35.57781806639483],[139.7680110251928,35.57781823129024],[139.76801082125098,35.57793351859436],[139.7678774256391,35.57793344623377],[139.76787744778684,35.577906224354514],[139.76784136809272,35.577906204757696],[139.76784131937012,35.577966056836345],[139.7678307271585,35.577966051081084],[139.76783071057247,35.57798642242098],[139.767702500645,35.57798635268451],[139.76770258829615,35.57787890738692]]]}},{"type":"Feature","properties":{"height":22.1,"gml_id":"bldg_c89f9bee-9566-4fe0-8276-77f9c10d579d"},"geometry":{"type":"Polygon","coordinates":[[[139.76747952887771,35.57780712545745],[139.7674794561258,35.577852870815015],[139.76746869842603,35.57785286493755],[139.7674159581504,35.57785279103966],[139.76741601634703,35.577781761764776],[139.76747956947094,35.57778179650085],[139.76747952887771,35.57780712545745]]]}},{"type":"Feature","properties":{"height":20.7,"gml_id":"bldg_6fe350e0-a7aa-43fc-a892-fb217242e4fd"},"geometry":{"type":"Polygon","coordinates":[[[139.76754798774172,35.577634186642136],[139.76752448633232,35.57763421888367],[139.7674930408339,35.57763420171251],[139.76747318055598,35.57763414579399],[139.76747320239753,35.577607464745704],[139.76742123459113,35.5776074363416],[139.76742127417313,35.57755912201062],[139.76747412462817,35.577559150896924],[139.7674741346633,35.57754689203674],[139.76754805908823,35.5775469324025],[139.76754798774172,35.577634186642136]]]}},{"type":"Feature","properties":{"height":5.2,"gml_id":"bldg_98ebd20f-1e26-4109-a24e-b3c7a467e14b"},"geometry":{"type":"Polygon","coordinates":[[[139.76428885424727,35.58026883065539],[139.764267338203,35.5802688183293],[139.76426738842798,35.58021031835743],[139.76428890445655,35.58021033068349],[139.76428885424727,35.58026883065539]]]}},{"type":"Feature","properties":{"height":7.9,"gml_id":"bldg_041d1cd6-43e6-4166-a4e8-5bd9e49ec131"},"geometry":{"type":"Polygon","coordinates":[[[139.76878360530634,35.577391029393596],[139.76871519805002,35.577390632188326],[139.76871544579583,35.57735692043931],[139.76878385295117,35.577357407783076],[139.76878360530634,35.577391029393596]]]}},{"type":"Feature","properties":{"height":7.1,"gml_id":"bldg_2c585d5a-0878-4acf-b608-ea1d456a0a42"},"geometry":{"type":"Polygon","coordinates":[[[139.76734810493787,35.577310930084984],[139.76729588705913,35.57734695697858],[139.76726810477518,35.577320080416634],[139.76732032264889,35.57728405353491],[139.76734810493787,35.577310930084984]]]}},{"type":"Feature","properties":{"height":3.9,"gml_id":"bldg_7ad253d4-0042-4fa0-9b28-c793935ea204"},"geometry":{"type":"Polygon","coordinates":[[[139.7714156796212,35.58035265515532],[139.77122523798653,35.5804913707443],[139.7711760604284,35.580447808414924],[139.7713094247285,35.58035079775532],[139.77135433519635,35.58034748572446],[139.77136591410587,35.58035614499061],[139.77139384502763,35.580336418975506],[139.7714156796212,35.58035265515532]]]}},{"type":"Feature","properties":{"height":4.3,"gml_id":"bldg_d878790f-04d3-4205-8ce5-28a3b819c8ae"},"geometry":{"type":"Polygon","coordinates":[[[139.76477915521323,35.58032094023607],[139.76477756020248,35.58025045088471],[139.76486550011805,35.5802505008672],[139.76488920835953,35.58026764067971],[139.76488608674106,35.580305407012254],[139.7648673159601,35.580320900204185],[139.76477915521323,35.58032094023607]]]}},{"type":"Feature","properties":{"height":10.6,"gml_id":"bldg_2d4631d1-6f9a-4111-8d05-2c4645bda25d"},"geometry":{"type":"Polygon","coordinates":[[[139.7653325493445,35.57504615582468],[139.76533229384458,35.574956828174344],[139.76544317705967,35.57495671039487],[139.76544332242725,35.57504594784425],[139.7653325493445,35.57504615582468]]]}},{"type":"Feature","properties":{"height":3.4,"gml_id":"bldg_4b095a0f-09a9-4a4c-8bdf-1b0765b5f415"},"geometry":{"type":"Polygon","coordinates":[[[139.77069637817934,35.579080336508625],[139.77071371085228,35.57906781623499],[139.77083301074185,35.57917703611156],[139.77081578840114,35.579189556459355],[139.77069637817934,35.579080336508625]]]}},{"type":"Feature","properties":{"height":4.2,"gml_id":"bldg_830daf80-6e06-4161-bd6c-f952fdff8f46"},"geometry":{"type":"Polygon","coordinates":[[[139.77087652010908,35.579272154986235],[139.77090831523762,35.57924900581167],[139.77095848313795,35.57929491237702],[139.77092668800566,35.57931806156465],[139.77087652010908,35.579272154986235]]]}},{"type":"Feature","properties":{"height":4.1,"gml_id":"bldg_76376a31-13bc-488d-ad6e-f7d4b7756a33"},"geometry":{"type":"Polygon","coordinates":[[[139.77080418183434,35.57921677232518],[139.770843482974,35.579189660958285],[139.7708852693648,35.57923015488751],[139.7708458578821,35.57925726621065],[139.77080418183434,35.57921677232518]]]}},{"type":"Feature","properties":{"height":3.0,"gml_id":"bldg_5588599e-2c19-4d1c-9634-2c747d7fbe87"},"geometry":{"type":"Polygon","coordinates":[[[139.7689650495161,35.5788407371597],[139.76900622832824,35.57881173448026],[139.76907304196897,35.57887486720632],[139.76903186307652,35.57890396004692],[139.7689650495161,35.5788407371597]]]}},{"type":"Feature","properties":{"height":4.0,"gml_id":"bldg_2551c829-45a7-466a-abcf-25419c102824"},"geometry":{"type":"Polygon","coordinates":[[[139.76885906420975,35.578642735930735],[139.76881647433297,35.57864271314335],[139.768816511922,35.578595841037995],[139.76885921211039,35.57859586388434],[139.76885906420975,35.578642735930735]]]}},{"type":"Feature","properties":{"height":16.0,"gml_id":"bldg_62a1cbce-6809-4716-b2ee-d80d095b8d8c"},"geometry":{"type":"Polygon","coordinates":[[[139.76263701669427,35.57908903948156],[139.76260490868722,35.579088930507716],[139.76260671816473,35.57878777819164],[139.7626387157149,35.57878788710016],[139.76263701669427,35.57908903948156]]]}},{"type":"Feature","properties":{"height":11.3,"gml_id":"bldg_3cd22f83-4e2d-4916-8c0b-c723741a3f5a"},"geometry":{"type":"Polygon","coordinates":[[[139.76375485738916,35.58009194193736],[139.7636120806922,35.58009041722057],[139.76361367298375,35.579653606093515],[139.76375633895745,35.57965468005078],[139.76375485738916,35.58009194193736]]]}},{"type":"Feature","properties":{"height":7.3,"gml_id":"bldg_0b5213e6-2d10-43f3-962c-8de21377b583"},"geometry":{"type":"Polygon","coordinates":[[[139.76420713119717,35.579197395426306],[139.7640440527884,35.57919730179694],[139.7639873394583,35.579197269184],[139.76398846659927,35.579041690449195],[139.76420759565872,35.57904208672527],[139.76420713119717,35.579197395426306]]]}},{"type":"Feature","properties":{"height":34.8,"gml_id":"bldg_bf0b1be5-c3ca-4494-8b17-dbd084605cc6"},"geometry":{"type":"Polygon","coordinates":[[[139.7693253141068,35.578821909732405],[139.7696286919907,35.57860411506262],[139.7697874599504,35.57875166578122],[139.76998352872823,35.57861088219004],[139.7708124396212,35.57938127972471],[139.77021341065253,35.57981146991965],[139.76922562294925,35.578893517021456],[139.7692898757141,35.578847400161536],[139.7693253141068,35.578821909732405]]]}},{"type":"Feature","properties":{"height":28.7,"gml_id":"bldg_df205b23-fbf8-4e24-852c-6d6f4ad685eb"},"geometry":{"type":"Polygon","coordinates":[[[139.7739150157363,35.58013487607407],[139.77395376565013,35.580106321206294],[139.7743016270295,35.579854644576805],[139.77435293360463,35.57985557107872],[139.7746430332796,35.580129824416986],[139.77426724135023,35.580401499123944],[139.7742283800066,35.580431496255315],[139.7739150157363,35.58013487607407]]]}},{"type":"Feature","properties":{"height":25.2,"gml_id":"bldg_91581fab-98bd-418f-8574-82f35c664757"},"geometry":{"type":"Polygon","coordinates":[[[139.76768152577958,35.57786474413949],[139.76761499353412,35.57786470788573],[139.76760506334827,35.57786470247158],[139.76760513212966,35.57778051295011],[139.76770288919064,35.57778056621371],[139.76770282051157,35.57786475573534],[139.76768152577958,35.57786474413949]]]}},{"type":"Feature","properties":{"height":22.6,"gml_id":"bldg_c110c13f-ba69-49c9-813a-1d7330de69a2"},"geometry":{"type":"Polygon","coordinates":[[[139.7678597794027,35.57724639934387],[139.76796194919726,35.57724645479372],[139.76796146031884,35.57757654252297],[139.76800802161745,35.57757665790314],[139.76800797499558,35.577634076240976],[139.7679530281242,35.57763404645167],[139.76795293670617,35.57774653952002],[139.76785915175458,35.57774648861676],[139.76785957018538,35.577367906227465],[139.76785974808016,35.57728488856141],[139.7678597794027,35.57724639934387]]]}},{"type":"Feature","properties":{"height":32.6,"gml_id":"bldg_a07a256e-44bd-451d-840d-888a4b803696"},"geometry":{"type":"Polygon","coordinates":[[[139.7693253141068,35.578821909732405],[139.7692898757141,35.578847400161536],[139.76926352468496,35.57882295857088],[139.7692990734119,35.578797468208],[139.7693253141068,35.578821909732405]]]}},{"type":"Feature","properties":{"height":32.9,"gml_id":"bldg_f18f763f-cfd8-4488-9309-b03a615c1331"},"geometry":{"type":"Polygon","coordinates":[[[139.7711680579068,35.57966630190941],[139.77087641982718,35.57940132368176],[139.7709067799201,35.57937907515149],[139.7711984180193,35.57964405330671],[139.7711680579068,35.57966630190941]]]}},{"type":"Feature","properties":{"height":31.6,"gml_id":"bldg_36cbbbf4-ada1-457b-8efa-b1b066036cf9"},"geometry":{"type":"Polygon","coordinates":[[[139.77026998659744,35.57984656348034],[139.77063571920357,35.580179005450795],[139.77060734588278,35.58019990286331],[139.77024161329916,35.57986746080795],[139.77026998659744,35.57984656348034]]]}},{"type":"Feature","properties":{"height":3.1,"gml_id":"bldg_6165db07-5786-48a6-bbbd-7ada78dc9b1d"},"geometry":{"type":"Polygon","coordinates":[[[139.76882946131454,35.57813307584785],[139.7687860990679,35.57813341319141],[139.76878611157917,35.57811781920123],[139.76882947490142,35.57811612977758],[139.76882946131454,35.57813307584785]]]}},{"type":"Feature","properties":{"height":2.7,"gml_id":"bldg_783f8c16-3177-42f8-b253-2c47da088c13"},"geometry":{"type":"Polygon","coordinates":[[[139.7689092346533,35.57813239739911],[139.76884071563526,35.5781329917309],[139.76884117186341,35.578114423400656],[139.76890869640033,35.578115631311306],[139.7689092346533,35.57813239739911]]]}},{"type":"Feature","properties":{"height":9.7,"gml_id":"bldg_0fc612dc-a8c0-46b2-b98f-0d53a16c99d7"},"geometry":{"type":"Polygon","coordinates":[[[139.7739150157363,35.58013487607407],[139.7742283800066,35.580431496255315],[139.77420894909204,35.580446810301474],[139.77389227307899,35.58015235176584],[139.7739150157363,35.58013487607407]]]}},{"type":"Feature","properties":{"height":4.4,"gml_id":"bldg_e02f19cf-82bb-4a99-8972-475668334e3d"},"geometry":{"type":"Polygon","coordinates":[[[139.7687482536095,35.578133753475306],[139.76869352634333,35.57813462552812],[139.76869298770072,35.578118400271435],[139.7687492602352,35.5781168079371],[139.7687482536095,35.578133753475306]]]}},{"type":"Feature","properties":{"height":32.4,"gml_id":"bldg_096ec6f0-f535-4b1e-9d2d-4461abdb3298"},"geometry":{"type":"Polygon","coordinates":[[[139.7707260277927,35.58011271032044],[139.7712421529208,35.579733763837346],[139.77128206453497,35.57977362568908],[139.77076263065462,35.58015067771074],[139.7707260277927,35.58011271032044]]]}},{"type":"Feature","properties":{"height":9.6,"gml_id":"bldg_0637981c-f4de-4d96-aa00-b7a4b5e280f7"},"geometry":{"type":"Polygon","coordinates":[[[139.7676529838572,35.577416468752425],[139.7675963817448,35.57741688859233],[139.76759544919952,35.577342884194074],[139.76765205133344,35.57734237421585],[139.7676529838572,35.577416468752425]]]}},{"type":"Feature","properties":{"height":7.4,"gml_id":"bldg_bd97851f-49fb-4b6a-bba8-a99e938bf039"},"geometry":{"type":"Polygon","coordinates":[[[139.7680495843436,35.5773461055744],[139.76804883123745,35.577322398682725],[139.76810223408793,35.57732134592808],[139.7681028768751,35.57734505275972],[139.7680495843436,35.5773461055744]]]}},{"type":"Feature","properties":{"height":5.5,"gml_id":"bldg_e94c4927-79e3-46ca-8743-fbf2ce000dc2"},"geometry":{"type":"Polygon","coordinates":[[[139.76805451756078,35.57752133791804],[139.76805409494438,35.5774982621771],[139.76808443733347,35.5774979180499],[139.76808474955058,35.57752108386971],[139.76805451756078,35.57752133791804]]]}},{"type":"Feature","properties":{"height":3.1,"gml_id":"bldg_417010b7-848d-46c9-878d-2ef44e160c76"},"geometry":{"type":"Polygon","coordinates":[[[139.769719765673,35.5772899407166],[139.76971985940148,35.57731094308855],[139.76960820024235,35.57731151508354],[139.7696079962798,35.57729042251451],[139.769719765673,35.5772899407166]]]}},{"type":"Feature","properties":{"height":16.3,"gml_id":"bldg_03aa0867-99ee-4802-83a6-0be2f418f2d2"},"geometry":{"type":"Polygon","coordinates":[[[139.76755932634933,35.57793579696869],[139.7675085720212,35.57793576926424],[139.76750861428002,35.577884119804914],[139.76755936857558,35.5778841475093],[139.76755932634933,35.57793579696869]]]}},{"type":"Feature","properties":{"height":12.0,"gml_id":"bldg_531a77a4-ac44-42d8-8814-d11be9b1d4d3"},"geometry":{"type":"Polygon","coordinates":[[[139.76749885718678,35.57794225394622],[139.76747502479157,35.57794215078921],[139.76747562229087,35.577886174975085],[139.7674994546695,35.577886278131956],[139.76749885718678,35.57794225394622]]]}},{"type":"Feature","properties":{"height":3.3,"gml_id":"bldg_f8b8ebc5-4212-48fa-876f-fb6ccb55c46a"},"geometry":{"type":"Polygon","coordinates":[[[139.7719524045815,35.57987068770792],[139.77198033567214,35.57985033058446],[139.772022234828,35.57988884112187],[139.77199430380333,35.579909108116254],[139.7719524045815,35.57987068770792]]]}},{"type":"Feature","properties":{"height":5.5,"gml_id":"bldg_4601cddf-c3d3-422d-8ae6-147de7af09db"},"geometry":{"type":"Polygon","coordinates":[[[139.77194782794874,35.57979523929679],[139.77196747905535,35.579780917251234],[139.77203628170642,35.57984431975486],[139.7720165203271,35.57985855161671],[139.77194782794874,35.57979523929679]]]}},{"type":"Feature","properties":{"height":2.7,"gml_id":"bldg_4e190a34-bbfc-4e4c-8147-c4097da90d9b"},"geometry":{"type":"Polygon","coordinates":[[[139.7739904613184,35.57732808413424],[139.7739900346068,35.577308253404595],[139.77407863412665,35.5773072153242],[139.77407895045903,35.57732713613798],[139.7739904613184,35.57732808413424]]]}},{"type":"Feature","properties":{"height":2.8,"gml_id":"bldg_31b76733-0768-43f3-a9c9-77801de85c8e"},"geometry":{"type":"Polygon","coordinates":[[[139.77399963578205,35.577305463830314],[139.7739998708101,35.57728599398127],[139.7740596718413,35.57728647409477],[139.77405943682768,35.57730594394394],[139.77399963578205,35.577305463830314]]]}},{"type":"Feature","properties":{"height":2.7,"gml_id":"bldg_257624ba-06fa-48ea-b5d5-d1e4a5659ddf"},"geometry":{"type":"Polygon","coordinates":[[[139.77399126597308,35.57728427710979],[139.77399105999714,35.57726435634997],[139.77405770242086,35.57726393844488],[139.77405779807867,35.577283859150356],[139.77399126597308,35.57728427710979]]]}},{"type":"Feature","properties":{"height":2.9,"gml_id":"bldg_d90e55fe-40b5-495f-895a-13332350eb08"},"geometry":{"type":"Polygon","coordinates":[[[139.77402449709209,35.57725662087541],[139.77402462111493,35.577238052358815],[139.77405783181533,35.577238068694065],[139.77405781813474,35.57725663726495],[139.77402449709209,35.57725662087541]]]}},{"type":"Feature","properties":{"height":2.7,"gml_id":"bldg_926afb43-2355-4756-8ae5-55019a97cbe0"},"geometry":{"type":"Polygon","coordinates":[[[139.77402186434594,35.57723588767301],[139.77402242744816,35.57722038408908],[139.77405994052378,35.57722130392781],[139.77405948776334,35.57723680756616],[139.77402186434594,35.57723588767301]]]}},{"type":"Feature","properties":{"height":3.0,"gml_id":"bldg_41ea3747-df9f-4820-961c-99d3c02332b6"},"geometry":{"type":"Polygon","coordinates":[[[139.7730399921121,35.57753664418049],[139.77303833715527,35.577536553213996],[139.77303821574145,35.57755133590354],[139.7730138317784,35.577551233565764],[139.77301395427796,35.57753500865723],[139.77298802569806,35.57753481540256],[139.77298802759114,35.57753229151931],[139.77298151789648,35.57753219812163],[139.7729816395911,35.57751705487732],[139.77298814935216,35.577517058136316],[139.7729885159871,35.57746955521333],[139.77299281897936,35.577469647506064],[139.77299282202156,35.57746559126506],[139.7730108065366,35.57746569040487],[139.77301080336017,35.577469926923236],[139.77304037296986,35.57747012199418],[139.7730399921121,35.57753664418049]]]}},{"type":"Feature","properties":{"height":2.8,"gml_id":"bldg_c0a750a9-8c8d-40a0-8424-de7be976ef9d"},"geometry":{"type":"Polygon","coordinates":[[[139.7730377427673,35.57744632405583],[139.77299813256104,35.57744630423658],[139.77299815905963,35.577410969870414],[139.77303776924845,35.57741098968964],[139.7730377427673,35.57744632405583]]]}},{"type":"Feature","properties":{"height":2.4,"gml_id":"bldg_cb284d3a-1df0-4122-8a7c-ac7434af4d1d"},"geometry":{"type":"Polygon","coordinates":[[[139.7735920675007,35.579523395872314],[139.77361514132573,35.57950555984462],[139.77363465865025,35.579522335308944],[139.77361158482472,35.57954017134035],[139.7735920675007,35.579523395872314]]]}},{"type":"Feature","properties":{"height":2.5,"gml_id":"bldg_b1010795-79e1-47c4-b407-a0878480ee2a"},"geometry":{"type":"Polygon","coordinates":[[[139.77363540111438,35.579562627671855],[139.77361577397753,35.5795451310438],[139.77364006171882,35.57952702519669],[139.77365968885655,35.57954452182082],[139.77363540111438,35.579562627671855]]]}},{"type":"Feature","properties":{"height":2.6,"gml_id":"bldg_bc0c0134-a3f1-4d29-adee-f7d5f60566ed"},"geometry":{"type":"Polygon","coordinates":[[[139.77364113225607,35.57957128382442],[139.77366254941347,35.57955561029598],[139.7737280459467,35.57961513423654],[139.7737066287194,35.57963089791512],[139.77364113225607,35.57957128382442]]]}},{"type":"Feature","properties":{"height":2.8,"gml_id":"bldg_f4c6fa47-8af5-403e-ad21-c82854cec35c"},"geometry":{"type":"Polygon","coordinates":[[[139.7742759371535,35.57907736604166],[139.77426788777518,35.57907024114054],[139.7742753947983,35.579064656219366],[139.7742676761677,35.57905789203505],[139.77427772246352,35.579050235167855],[139.77427573772027,35.5790484314215],[139.7742938430491,35.579034739208176],[139.77431159580212,35.57905043203558],[139.7742759371535,35.57907736604166]]]}},{"type":"Feature","properties":{"height":3.0,"gml_id":"bldg_b03ee927-66dc-4b3b-a4e0-499da95f2723"},"geometry":{"type":"Polygon","coordinates":[[[139.774327930444,35.57904395004612],[139.7743218659406,35.57903844861671],[139.77431866444775,35.57904079065557],[139.77430631496796,35.57902951727147],[139.7743095164607,35.57902717523294],[139.77430510602278,35.57902302669309],[139.77432707492034,35.579006902621686],[139.77435000974577,35.57902773588595],[139.774327930444,35.57904395004612]]]}},{"type":"Feature","properties":{"height":4.1,"gml_id":"bldg_bb668d2d-a3ed-406a-a453-62add861f3cd"},"geometry":{"type":"Polygon","coordinates":[[[139.77434648286095,35.579022415976844],[139.7743312665356,35.579008527170046],[139.7743523521996,35.57899312377129],[139.7743675685917,35.57900692243678],[139.77434648286095,35.579022415976844]]]}},{"type":"Feature","properties":{"height":2.9,"gml_id":"bldg_0f07d493-2b9a-4e97-a5b0-94d28a1ac54d"},"geometry":{"type":"Polygon","coordinates":[[[139.77438467921175,35.57899548319066],[139.7743672572031,35.578980151090484],[139.77439187601172,35.578961504419766],[139.77440929802103,35.57897683651643],[139.77438467921175,35.57899548319066]]]}},{"type":"Feature","properties":{"height":10.2,"gml_id":"bldg_4613c711-c76d-46d8-9a07-2d40bb439585"},"geometry":{"type":"Polygon","coordinates":[[[139.76806791427904,35.57787243547188],[139.76802686877477,35.57787331462901],[139.7680251498719,35.577816075614365],[139.768066195347,35.57781519645777],[139.76806791427904,35.57787243547188]]]}},{"type":"Feature","properties":{"height":7.6,"gml_id":"bldg_e9aeec67-6bd0-417c-a851-9a4e9eb59c67"},"geometry":{"type":"Polygon","coordinates":[[[139.77100281333256,35.58046700863145],[139.7708519769413,35.58032874794829],[139.7710511403976,35.58018381788324],[139.7712019768602,35.58032207832058],[139.77100281333256,35.58046700863145]]]}},{"type":"Feature","properties":{"height":2.4,"gml_id":"bldg_82b5d67c-bd43-45ab-9e2b-7ba11d2b3646"},"geometry":{"type":"Polygon","coordinates":[[[139.7736854896364,35.57956914245342],[139.77370701672143,35.57955400980362],[139.77373447165036,35.57957989318559],[139.7737129445635,35.57959502584025],[139.7736854896364,35.57956914245342]]]}},{"type":"Feature","properties":{"height":23.7,"gml_id":"bldg_491f5a04-e859-4d69-bb4f-918877bc8278"},"geometry":{"type":"Polygon","coordinates":[[[139.77137216660654,35.578828117136204],[139.7713534227656,35.57881071073072],[139.77147353591465,35.57872387872102],[139.7714922798307,35.578741194969425],[139.77137216660654,35.578828117136204]]]}},{"type":"Feature","properties":{"height":21.1,"gml_id":"bldg_8b5de0df-ca6d-475f-a463-d9c96350e629"},"geometry":{"type":"Polygon","coordinates":[[[139.76768152577958,35.57786474413949],[139.76768149459173,35.577902962936925],[139.76761496231467,35.577902926683116],[139.76761499353412,35.57786470788573],[139.76768152577958,35.57786474413949]]]}},{"type":"Feature","properties":{"height":43.8,"gml_id":"bldg_bdb50e5b-f3f0-42d9-9751-803a5b4f64d9"},"geometry":{"type":"Polygon","coordinates":[[[139.77122420755978,35.57882479599849],[139.77128349140358,35.57878201064646],[139.77135416672,35.57884757784201],[139.77153621284202,35.578716429356724],[139.77246382464065,35.579575742839346],[139.77209189260088,35.57984371705021],[139.77109349600568,35.57891892352094],[139.77118832821068,35.57885055717494],[139.77122420755978,35.57882479599849]]]}},{"type":"Feature","properties":{"height":28.1,"gml_id":"bldg_359ea302-600a-419d-a469-36f9e6f3b9d3"},"geometry":{"type":"Polygon","coordinates":[[[139.76680764369323,35.57776195759016],[139.76680453267153,35.57765469080196],[139.7667472677803,35.577655830987005],[139.76674437109682,35.57755631624351],[139.76693701916025,35.57755254654379],[139.7669392728168,35.57762934597211],[139.76698925542317,35.57762838196556],[139.76699032762963,35.577666150677814],[139.76709691314153,35.577664045962116],[139.76709959553085,35.577756349480644],[139.76680764369323,35.57776195759016]]]}},{"type":"Feature","properties":{"height":12.4,"gml_id":"bldg_48020956-ebd7-47ba-913a-7322e7ed5ab4"},"geometry":{"type":"Polygon","coordinates":[[[139.7673872416435,35.57721549459475],[139.76733473624515,35.57719860991817],[139.76736170368522,35.57714273867114],[139.7673962291946,35.57715393476303],[139.76738882415435,35.5771693444341],[139.76740669360717,35.57717512308661],[139.7673872416435,35.57721549459475]]]}},{"type":"Feature","properties":{"height":16.5,"gml_id":"bldg_9383f749-415e-43d9-a702-77bc9399816e"},"geometry":{"type":"Polygon","coordinates":[[[139.7672290081492,35.57803792371767],[139.76716413109222,35.57803752756783],[139.76716473933587,35.57796875206509],[139.7672296163374,35.57796914821458],[139.7672290081492,35.57803792371767]]]}},{"type":"Feature","properties":{"height":9.8,"gml_id":"bldg_78de14ca-eae5-4ce8-a1bf-1e716d215899"},"geometry":{"type":"Polygon","coordinates":[[[139.76810669129011,35.578219941191534],[139.76803486357892,35.57821873050063],[139.7680370283642,35.57813445198032],[139.76810896633597,35.578135662729565],[139.76810669129011,35.578219941191534]]]}},{"type":"Feature","properties":{"height":26.7,"gml_id":"bldg_9f60dfbc-e408-4344-95b9-2eabc0d1ac0f"},"geometry":{"type":"Polygon","coordinates":[[[139.76813714713748,35.57794377265841],[139.7680372937953,35.57794335805654],[139.76803767367093,35.57788314560202],[139.76813752686533,35.57788365034218],[139.76813714713748,35.57794377265841]]]}},{"type":"Feature","properties":{"height":18.4,"gml_id":"bldg_b7ad87c7-c36e-4f0c-8a52-e12ba768099a"},"geometry":{"type":"Polygon","coordinates":[[[139.76823176307033,35.57800800255737],[139.76804397276337,35.5780068193275],[139.76804445645956,35.57795462927525],[139.7682322465718,35.577955902642884],[139.76823176307033,35.57800800255737]]]}},{"type":"Feature","properties":{"height":12.3,"gml_id":"bldg_f28edb15-f6a2-424f-92b8-d23dfc4fdb02"},"geometry":{"type":"Polygon","coordinates":[[[139.768039498934,35.57767339380084],[139.76803706306077,35.5775479193866],[139.76823952991018,35.577545324726785],[139.76824196617207,35.577670708998646],[139.768039498934,35.57767339380084]]]}},{"type":"Feature","properties":{"height":15.0,"gml_id":"bldg_d1b5fa8a-7292-4b96-9607-0247bdf76aca"},"geometry":{"type":"Polygon","coordinates":[[[139.76488994131304,35.58212954529592],[139.76470701891208,35.58210203914189],[139.76471554909384,35.58206229285409],[139.7647741509596,35.58179082858311],[139.76494879619545,35.5818194116046],[139.76493550570873,35.581877723771804],[139.76496076802792,35.58188449850278],[139.76499243073707,35.58189055574822],[139.765030149573,35.58191148929468],[139.76504279401487,35.581964227569784],[139.76501325204254,35.58205948738208],[139.7649923672398,35.58209517044783],[139.76497437220306,35.58210624729767],[139.76494126424538,35.58211280863843],[139.76489271058108,35.5821169274576],[139.76488994131304,35.58212954529592]]]}},{"type":"Feature","properties":{"height":13.5,"gml_id":"bldg_29d6a897-5c39-418e-99db-d0bcd6be5c06"},"geometry":{"type":"Polygon","coordinates":[[[139.7635992946872,35.582493506491886],[139.76355884766795,35.582437687265994],[139.7638152786185,35.582313714518875],[139.76385572575364,35.582369533659985],[139.7635992946872,35.582493506491886]]]}},{"type":"Feature","properties":{"height":6.8,"gml_id":"bldg_9d0c1f6c-d74b-4458-8222-13fbfdfd1c88"},"geometry":{"type":"Polygon","coordinates":[[[139.76328207960884,35.579559038645165],[139.76328177936398,35.579523704105874],[139.7634158403311,35.57952297069128],[139.7634161406348,35.579558305230314],[139.76328207960884,35.579559038645165]]]}},{"type":"Feature","properties":{"height":6.1,"gml_id":"bldg_48056995-a31b-4de0-9594-26d551242a1a"},"geometry":{"type":"Polygon","coordinates":[[[139.76392213008478,35.57919732179114],[139.76378685665594,35.57919724382141],[139.76378713328262,35.578877251618735],[139.7639224061734,35.57887732958756],[139.76392213008478,35.57919732179114]]]}},{"type":"Feature","properties":{"height":7.3,"gml_id":"bldg_cbb69d6a-f135-4501-af88-9b8891ef855a"},"geometry":{"type":"Polygon","coordinates":[[[139.77122420755978,35.57882479599849],[139.77118832821068,35.57885055717494],[139.7711293390261,35.578797525192755],[139.77116521920624,35.57877068236964],[139.77122420755978,35.57882479599849]]]}},{"type":"Feature","properties":{"height":4.7,"gml_id":"bldg_06075ee2-3356-455c-ae8d-0bc4b04d353a"},"geometry":{"type":"Polygon","coordinates":[[[139.7666636546817,35.57763054593142],[139.7666817498581,35.57763028552185],[139.76668163041256,35.577641282379204],[139.7666890228636,35.577641286466424],[139.7666892352457,35.57765129198135],[139.76666407854327,35.577651638625454],[139.7666636546817,35.57763054593142]]]}},{"type":"Feature","properties":{"height":12.8,"gml_id":"bldg_1f140ceb-ccb2-4af4-ba2e-b774fa21033a"},"geometry":{"type":"Polygon","coordinates":[[[139.7669377069662,35.57738759306689],[139.76693758316716,35.57740390810703],[139.7667191206313,35.57740342702554],[139.7667193973501,35.57733573299947],[139.76688942278102,35.577336187391715],[139.7668905672936,35.57728634130966],[139.76693359719394,35.577287086129274],[139.7669334842556,35.577290240922316],[139.76693756656175,35.57729033330963],[139.7669373381561,35.577299707610884],[139.76700464145833,35.57730073618862],[139.76700338638432,35.577350942765726],[139.76695528112765,35.57735010503765],[139.76695436728926,35.57738787265833],[139.7669377069662,35.57738759306689]]]}},{"type":"Feature","properties":{"height":22.0,"gml_id":"bldg_d9658c08-7920-4637-afce-9ec9b2a6cbb4"},"geometry":{"type":"Polygon","coordinates":[[[139.76735969750547,35.57797462780083],[139.76723203660953,35.577977802858086],[139.76722704143074,35.57761156652264],[139.76713524303958,35.57761106545207],[139.76713226399323,35.577611063816065],[139.7670981706113,35.577610864810275],[139.7670964304988,35.57744618041596],[139.76713239987382,35.57744592975887],[139.76713537891405,35.57744593139487],[139.7671482881625,35.57744584834468],[139.76714813682554,35.57736156855829],[139.76727811133333,35.57736136943463],[139.7672780841728,35.57739445033022],[139.7673521184964,35.57739485143116],[139.76735520722016,35.577664728444475],[139.76741026466402,35.577665840231354],[139.7674104504033,35.57770712386488],[139.76735771040808,35.5777068245949],[139.7673586003095,35.57783256858904],[139.76735910527046,35.577889536532275],[139.76735969750547,35.57797462780083]]]}},{"type":"Feature","properties":{"height":7.3,"gml_id":"bldg_2b804e14-fa5e-4e24-a197-0bf9045b29bc"},"geometry":{"type":"Polygon","coordinates":[[[139.76703046107858,35.5781024441292],[139.76703105608718,35.578183749571956],[139.7667704428461,35.57818360594584],[139.76677216515105,35.57810230178153],[139.76703046107858,35.5781024441292]]]}},{"type":"Feature","properties":{"height":9.9,"gml_id":"bldg_55770d6c-5a12-4733-820e-cb7c0ddc3d40"},"geometry":{"type":"Polygon","coordinates":[[[139.76713705109833,35.57809556202932],[139.76713565334626,35.578185159138535],[139.76713477065957,35.5781851586538],[139.76713179159196,35.57818515701776],[139.76703105608718,35.578183749571956],[139.76703046107858,35.5781024441292],[139.76703058850012,35.578081712296054],[139.7671173111694,35.57808320218433],[139.76711674977207,35.57809501004692],[139.76713186546812,35.578095378904116],[139.76713484445824,35.57809547067882],[139.76713705109833,35.57809556202932]]]}},{"type":"Feature","properties":{"height":10.9,"gml_id":"bldg_c6f74ad7-715a-4b6f-80ff-1888e3938b70"},"geometry":{"type":"Polygon","coordinates":[[[139.77438287500706,35.58085531382437],[139.77436289271816,35.58087008679258],[139.77434723534387,35.580855296389394],[139.774073121886,35.580596463945454],[139.77411397066578,35.58056484534524],[139.77440903946953,35.58083621721879],[139.77438287500706,35.58085531382437]]]}},{"type":"Feature","properties":{"height":14.9,"gml_id":"bldg_0cbd56cf-ccbe-4798-a792-e3baa84afdb6"},"geometry":{"type":"Polygon","coordinates":[[[139.76740820475936,35.57788929297847],[139.76735910527046,35.577889536532275],[139.7673586003095,35.57783256858904],[139.767407810099,35.57783232509575],[139.76740820475936,35.57788929297847]]]}},{"type":"Feature","properties":{"height":5.2,"gml_id":"bldg_edac9eef-ff77-4342-81e6-aa787d076893"},"geometry":{"type":"Polygon","coordinates":[[[139.7749943766014,35.580855611330456],[139.7749756086826,35.58086966387862],[139.77496722830617,35.580862178311264],[139.7749617083212,35.580866322017265],[139.77494968909735,35.58085558969428],[139.77492763546113,35.58083592877987],[139.77497146404232,35.58080313953128],[139.77501391728217,35.580841018321195],[139.7749943766014,35.580855611330456]]]}},{"type":"Feature","properties":{"height":7.0,"gml_id":"bldg_49364ead-3950-463c-adbb-55e986b41e8e"},"geometry":{"type":"Polygon","coordinates":[[[139.7747315478746,35.580855483839876],[139.7745873679117,35.580960244934225],[139.77456288712693,35.58094022221583],[139.77452010461033,35.580900179779],[139.77458115511524,35.58085541063093],[139.77483661780133,35.58066858726497],[139.77490531386465,35.58072946418846],[139.7747315478746,35.580855483839876]]]}},{"type":"Feature","properties":{"height":32.4,"gml_id":"bldg_50f04e00-29d7-4a05-a783-528edcb3291b"},"geometry":{"type":"Polygon","coordinates":[[[139.77452998779685,35.58096499430546],[139.77449532202237,35.58099111760384],[139.77436289271816,35.58087008679258],[139.77438287500706,35.58085531382437],[139.77440903946953,35.58083621721879],[139.77411397066578,35.58056484534524],[139.77445102032985,35.58031316299244],[139.77483661780133,35.58066858726497],[139.77458115511524,35.58085541063093],[139.77452010461033,35.580900179779],[139.77456288712693,35.58094022221583],[139.7745586919159,35.58094337502383],[139.77452998779685,35.58096499430546]]]}},{"type":"Feature","properties":{"height":9.8,"gml_id":"bldg_c513b073-0fa4-453b-ba7b-4e1f3f9a5b7a"},"geometry":{"type":"Polygon","coordinates":[[[139.7745876912948,35.58097070117763],[139.7745590978428,35.58099186982669],[139.77452998779685,35.58096499430546],[139.7745586919159,35.58094337502383],[139.7745876912948,35.58097070117763]]]}},{"type":"Feature","properties":{"height":9.7,"gml_id":"bldg_cd780b9f-c54a-437b-b18a-567714966203"},"geometry":{"type":"Polygon","coordinates":[[[139.76290182952607,35.58084915220852],[139.76289997849412,35.58170303464834],[139.76285484924634,35.581702918131235],[139.76285426668167,35.581108453344235],[139.7628138824595,35.58110824944761],[139.76281545763354,35.58170289509267],[139.76276536305667,35.58170277563712],[139.7627672153594,35.580849073478205],[139.7627683158349,35.58034925519977],[139.7628159821944,35.58034928309446],[139.76281565439143,35.58084910182553],[139.7628155756117,35.58093897002861],[139.76285342233285,35.58093872174764],[139.76285372151236,35.580849124089376],[139.76285559382194,35.580349306261134],[139.76290281874745,35.58034942400206],[139.76290182952607,35.58084915220852]]]}},{"type":"Feature","properties":{"height":11.4,"gml_id":"bldg_0dc6e061-4b0c-417b-9143-d0d3356907ff"},"geometry":{"type":"Polygon","coordinates":[[[139.7638898366391,35.581840529593286],[139.7638202666812,35.58190439779684],[139.7630641013935,35.58190269741209],[139.76306139523527,35.5818427536318],[139.76382098044778,35.58184454614411],[139.76382139877364,35.580849686005905],[139.76382161617036,35.58021501974726],[139.76290183350045,35.58021448583082],[139.76290188811177,35.58015210989903],[139.76382299350774,35.58015336568684],[139.76389499049253,35.58021605356282],[139.76389300909884,35.5808497272803],[139.7638898366391,35.581840529593286]]]}},{"type":"Feature","properties":{"height":4.1,"gml_id":"bldg_7c20c541-ecc3-4702-bd2e-5da7f25276c2"},"geometry":{"type":"Polygon","coordinates":[[[139.76702274911503,35.57728524229069],[139.76697320843238,35.57728575586099],[139.76697258144307,35.577243300177734],[139.76702223235984,35.577242876807034],[139.76702274911503,35.57728524229069]]]}},{"type":"Feature","properties":{"height":5.9,"gml_id":"bldg_6c23ad10-6347-4f43-be7d-e33f6881dc38"},"geometry":{"type":"Polygon","coordinates":[[[139.76701464743658,35.577208710058464],[139.76693079254892,35.57720947514446],[139.76692996202482,35.57714628744186],[139.76701172056713,35.577145431064345],[139.76701182272805,35.57715534638017],[139.76702704902718,35.577155174478975],[139.76702746986166,35.57718005299816],[139.76701422965235,35.57718013585337],[139.76701464743658,35.577208710058464]]]}},{"type":"Feature","properties":{"height":22.6,"gml_id":"bldg_9c04ac03-629a-4d17-bb3e-03dd1e5a830a"},"geometry":{"type":"Polygon","coordinates":[[[139.76863947164117,35.57784795542521],[139.76863984041066,35.577800993352774],[139.76869556017854,35.577800482411234],[139.76869331602984,35.57784708292336],[139.76863947164117,35.57784795542521]]]}},{"type":"Feature","properties":{"height":7.0,"gml_id":"bldg_863a5fad-08f3-48f8-9e32-0e7b255bf42e"},"geometry":{"type":"Polygon","coordinates":[[[139.76769580221455,35.578217554828406],[139.76769587369643,35.57812994004228],[139.76800216657972,35.57812911490742],[139.76800209462624,35.578217721219445],[139.76769580221455,35.578217554828406]]]}},{"type":"Feature","properties":{"height":4.0,"gml_id":"bldg_d5db3fd1-ea9a-47dc-af44-203aeaac5426"},"geometry":{"type":"Polygon","coordinates":[[[139.7687266017397,35.5772044116998],[139.76867287166573,35.577200867480684],[139.76867210461276,35.57719428694238],[139.76863657698223,35.577194177741134],[139.76863560057103,35.57717353544923],[139.7686741078747,35.57717283500053],[139.76867455957168,35.57715994540521],[139.7687276315928,35.577158531641054],[139.7687266017397,35.5772044116998]]]}},{"type":"Feature","properties":{"height":3.4,"gml_id":"bldg_7512f183-c8a9-426c-a526-7e672a6c481d"},"geometry":{"type":"Polygon","coordinates":[[[139.77320469075167,35.578907465828394],[139.77317170098004,35.57890618742621],[139.77315660276807,35.57888220299539],[139.77317438391236,35.57885958705662],[139.77320737366492,35.57886086545805],[139.77322247188803,35.57888484988261],[139.77320469075167,35.578907465828394]]]}}]}