{"type":"FeatureCollection","crs":{"type":"name","properties":{"name":"urn:ogc:def:crs:OGC:1.3:CRS84"}},"features":[{"type":"Feature","properties":{"height":3.9,"gml_id":"bldg_b56a2959-c93f-4018-85be-735526918ed8"},"geometry":{"type":"Polygon","coordinates":[[[139.78382664293875,35.55627341462637],[139.78376311454142,35.556362904709395],[139.78374066831012,35.556352267184614],[139.7837268527827,35.55637148184981],[139.78371201440623,35.55636434484438],[139.7837179142063,35.556356152731745],[139.78369486498622,35.556344903807585],[139.78370265032967,35.556334249873224],[139.78369717964955,35.55633165792653],[139.78368308811648,35.55635125195852],[139.78366826408066,35.55634412577028],[139.78367635202994,35.55633288155152],[139.78368146098887,35.55633533904302],[139.78368743035043,35.55632703699086],[139.7836673991326,35.55631754431119],[139.78365363437894,35.55633668687779],[139.78363880924485,35.55632956158684],[139.78364689939727,35.556318326384826],[139.78365200725747,35.55632077396186],[139.7836576454258,35.55631292156851],[139.78364681324675,35.55630778278529],[139.78371035276638,35.55621828285204],[139.78382664293875,35.55627341462637]]]}},{"type":"Feature","properties":{"height":21.1,"gml_id":"bldg_de6ae96d-7cb8-47fd-8ebc-0bf2c9fe2059"},"geometry":{"type":"Polygon","coordinates":[[[139.7801547050062,35.55597324744048],[139.78009580211153,35.555946229309484],[139.78020739201088,35.55590864367238],[139.78034339890016,35.55571364171383],[139.78039000507144,35.55573535414991],[139.78038863158102,35.55573732308509],[139.78046837295557,35.55577490459365],[139.78046320475025,35.555782245054715],[139.78047717939367,35.5557888457545],[139.78047677198714,35.555789425170005],[139.78102586694843,35.55604736135126],[139.7810253414181,35.55604809395373],[139.781064815414,35.55606670675736],[139.78098220863276,35.55618382373658],[139.78102636116148,35.556205203148146],[139.78083526801774,35.55647501442042],[139.78079593497262,35.55645654582673],[139.78076788608521,35.556495788252775],[139.78076392247323,35.55650133368129],[139.7807578718593,35.556498445692434],[139.7805861071706,35.55641645141169],[139.78040970040755,35.55633224193436],[139.78024320628538,35.556252762552994],[139.7800622659016,35.55616638723199],[139.78009326731404,35.55612302691738],[139.78006027081472,35.55610751744123],[139.7801547050062,35.55597324744048]]]}},{"type":"Feature","properties":{"height":44.9,"gml_id":"bldg_736633b6-961e-42de-b1b9-d232daf1e351"},"geometry":{"type":"Polygon","coordinates":[[[139.7828772998019,35.552842800401606],[139.7828692846515,35.552854426793644],[139.78287230493805,35.55285580358022],[139.78290383464298,35.55287147573462],[139.78291819158272,35.55288535414505],[139.78292861310248,35.55290608418413],[139.7829350424021,35.552923964158296],[139.78293444997098,35.55294353130541],[139.78293024329943,35.55296256421967],[139.78292346479336,35.55297568022983],[139.7829096846746,35.55299533110035],[139.7828945158018,35.553006261332364],[139.782877119346,35.55301461806063],[139.78285702559165,35.55302013427581],[139.78284817214922,35.553022932993734],[139.782867240958,35.55303189088669],[139.7828339375412,35.553079553312735],[139.7828251005656,35.55307543115628],[139.78282729259192,35.553087206042754],[139.78282635987557,35.553102340907074],[139.7828244417358,35.55311112776372],[139.78281977402116,35.553123043999165],[139.78281389322552,35.55313282342967],[139.78280056093288,35.55314887071393],[139.78278459994183,35.55315997456832],[139.7827653161297,35.55317016932644],[139.78275062917348,35.55317415362378],[139.78271726400786,35.55321982571938],[139.78271200312827,35.55321725905376],[139.7827145345979,35.5532294685549],[139.78271410082343,35.55324922956558],[139.78271210475043,35.55327317688103],[139.78269777629208,35.55329639520125],[139.782668425967,35.55331762865574],[139.78264274441426,35.55332811275627],[139.78262107388616,35.55333086640725],[139.7825912365907,35.553321395560204],[139.78256626488064,35.5533116617455],[139.7825513467073,35.55331317971561],[139.7825354384035,35.55331059774098],[139.78252355465796,35.55330857902673],[139.78251481588038,35.5533043955945],[139.78251203280178,35.55330815141876],[139.7823455112902,35.553229741235974],[139.78232538165418,35.553218625783636],[139.78230389619333,35.55320264044043],[139.78229180173219,35.55319027725209],[139.78228197187792,35.55317947893455],[139.78227421292326,35.55316261693507],[139.78226994445097,35.55314838667195],[139.78226924721795,35.55313467171391],[139.78227091121875,35.55311450740237],[139.7822782844438,35.553099532111595],[139.78229327118473,35.55308201271256],[139.78231038439802,35.55306818540726],[139.782326744363,35.55305939835896],[139.78234192723414,35.55305436961082],[139.78235535472453,35.55305010359677],[139.78238344114862,35.55300768429236],[139.78238088373024,35.552999967305304],[139.78237878299626,35.55298347727316],[139.78238024533607,35.55297342287516],[139.7823832082214,35.55295917403775],[139.78238921678343,35.55294625964425],[139.78239934419148,35.552933032404894],[139.7824026484645,35.55293010337865],[139.78241177012632,35.55292003959561],[139.78242599335354,35.552911507626256],[139.78243485439694,35.552905412555795],[139.78245170214086,35.55289790567133],[139.78246490297118,35.55289619409126],[139.7824930246081,35.55285373060691],[139.7824899332417,35.55284265391271],[139.78248928185286,35.55282790057216],[139.7824905787044,35.55281613075577],[139.78249650424186,35.55279840379525],[139.78250219749563,35.55278694681201],[139.78251142711062,35.552777062443525],[139.78252267750872,35.55276706715336],[139.7825336805665,35.55275748910195],[139.78254559530168,35.55275046777833],[139.78255612556438,35.552745501041954],[139.78257434299934,35.55274181571326],[139.78260096071543,35.552740266607465],[139.78260990439497,35.552741267308484],[139.78261096660322,35.55274125243166],[139.78261472200404,35.55274180656399],[139.78261866829604,35.55274224900403],[139.78261936524507,35.5527424926727],[139.78262914583098,35.55274393630726],[139.78264073411208,35.55274735294445],[139.78266596698003,35.55275722927409],[139.7826638966019,35.55276077898317],[139.78267064619357,35.55276385556249],[139.78267913718787,35.55275155063598],[139.7828772998019,35.552842800401606]]]}},{"type":"Feature","properties":{"height":1.9,"gml_id":"bldg_da21bdc0-3744-40c9-8c73-9752d9dd634d"},"geometry":{"type":"Polygon","coordinates":[[[139.77501769521635,35.55339796815177],[139.77500236860925,35.55339056933348],[139.77501992410035,35.553366420550184],[139.7750351404026,35.55337381931293],[139.77501769521635,35.55339796815177]]]}},{"type":"Feature","properties":{"height":27.2,"gml_id":"bldg_8dde5e2c-2b32-4c7c-bed2-67761e11c5eb"},"geometry":{"type":"Polygon","coordinates":[[[139.7841473773826,35.554815717917144],[139.78414839195196,35.55481428241568],[139.78413599801988,35.554809177290956],[139.78420698607437,35.55471006587882],[139.7842187161571,35.55471485974614],[139.78424868039443,35.55472895888139],[139.78430091953044,35.55465587104079],[139.784303777772,35.554657232401624],[139.78430447025536,35.55465759954921],[139.78430252082686,35.55466000727245],[139.7846877419705,35.55484445442952],[139.7846896818551,35.554841400399155],[139.7846902188792,35.55484165841352],[139.7846930627722,35.55484305671634],[139.78463730659556,35.554921087432085],[139.7846500605519,35.55492738158482],[139.78462556288272,35.5549606167815],[139.78461336138204,35.55495459416799],[139.78460881410928,35.55496095434579],[139.78464141883768,35.55497745395182],[139.78459688759443,35.555036398627095],[139.78456603503946,35.55502079840432],[139.7845650944513,35.55502211405424],[139.78417296497383,35.55483493067765],[139.78417676047286,35.554829605006184],[139.7841473773826,35.554815717917144]]]}},{"type":"Feature","properties":{"height":116.1,"gml_id":"bldg_f2eb3281-210e-4278-add8-5c77db646ccd"},"geometry":{"type":"Polygon","coordinates":[[[139.7839793644703,35.5519510840108],[139.78364726750428,35.55179617967334],[139.7836357524454,35.55176184364416],[139.78377560995517,35.551563350876734],[139.78383268993443,35.55159021144138],[139.7838662757945,35.55157277879841],[139.7839343254388,35.55148039877768],[139.78391849361032,35.551447175124636],[139.7839594737702,35.55138849872612],[139.78423041831135,35.551514893366154],[139.78419743865766,35.55156213987049],[139.78423785190688,35.55158097737915],[139.7839793644703,35.5519510840108]]]}},{"type":"Feature","properties":{"height":4.2,"gml_id":"bldg_16fc1b30-bd05-4769-90d7-ff0b401cffe0"},"geometry":{"type":"Polygon","coordinates":[[[139.78292211764594,35.55243887159018],[139.78290811959576,35.55245968967257],[139.78306594493705,35.55253298998438],[139.78303357568612,35.55257953693701],[139.78287657068688,35.552506609201146],[139.7828754743806,35.552508237555934],[139.78282555201238,35.55248580537037],[139.782872193096,35.55241644843668],[139.78292211764594,35.55243887159018]]]}},{"type":"Feature","properties":{"height":10.5,"gml_id":"bldg_57c4bbea-aec8-422d-8805-6851c6d5c802"},"geometry":{"type":"Polygon","coordinates":[[[139.7847813907232,35.55589691436675],[139.7847862107318,35.55589015227311],[139.78509019944113,35.55603486633543],[139.78508700340737,35.556039353079896],[139.785100573812,35.55604568897457],[139.78508100645294,35.55607372791072],[139.78505580101347,35.55612442013463],[139.78503511462907,35.55614408289457],[139.7851368245093,35.55619146642367],[139.78505761648802,35.55630497568186],[139.78505451974726,35.55630941198713],[139.7850449952865,35.556304975134864],[139.7849520995959,35.55626169729421],[139.78493900873406,35.55628699767644],[139.7849003809176,35.556332508694055],[139.7848798032511,35.55636199031642],[139.78486271503024,35.55635402597338],[139.78485738274756,35.55636150717317],[139.7845533910231,35.55621678531907],[139.7845570982445,35.55621158038748],[139.78454935586825,35.556207961778064],[139.78455938033477,35.55619359586666],[139.78459620963082,35.55612549087804],[139.78461652687574,35.55610536202534],[139.78452352798777,35.55606203603784],[139.78460581673028,35.55594408722014],[139.78470200025265,35.55598889631546],[139.78471541642617,35.55596196006512],[139.78473790241262,35.55593783079339],[139.78477012619828,35.55589166463896],[139.7847813907232,35.55589691436675]]]}},{"type":"Feature","properties":{"height":22.5,"gml_id":"bldg_b8169c6c-d9b8-47e8-b87c-3d6d68616710"},"geometry":{"type":"Polygon","coordinates":[[[139.78248484281798,35.55697540711684],[139.78247242267173,35.556969532024446],[139.78247077432516,35.556971852409276],[139.7824063579393,35.556941272593086],[139.78236088459641,35.55700823659555],[139.78233666926295,35.556997260942644],[139.78233466982329,35.557000075139],[139.78230647173166,35.556986702801254],[139.78229375524637,35.5570045972283],[139.78224620969442,35.55698197292711],[139.7822676879689,35.556951726858706],[139.78225487531824,35.556945586568894],[139.78229953315812,35.55688271727699],[139.78231243406182,35.55688883506468],[139.7823922450797,35.55677772106884],[139.78250821619937,35.556614694066766],[139.78255090520872,35.556634951873626],[139.78256337038243,35.55661657777279],[139.78258043299704,35.556624643386236],[139.78260620699115,35.5566371943756],[139.78260215386263,35.55664319683174],[139.78261479469091,35.55664889713415],[139.7826063925721,35.55666128321049],[139.7826699839582,35.55669148128638],[139.78266526527958,35.55669812615628],[139.78267703589287,35.55670368366673],[139.78248484281798,35.55697540711684]]]}},{"type":"Feature","properties":{"height":3.2,"gml_id":"bldg_ab1a0ade-ffc7-400f-a07a-2321915fff9f"},"geometry":{"type":"Polygon","coordinates":[[[139.78051028137497,35.55663213536174],[139.7805454193274,35.55658355138623],[139.7805834581601,35.556602514358396],[139.7805632720361,35.5566295481385],[139.78059295460022,35.55664435474458],[139.78056383573178,35.55668335958817],[139.78051057866332,35.556691803929574],[139.78051088780214,35.55669137590456],[139.780502295228,35.55669260434058],[139.7804883244851,35.55668822196805],[139.78048180425913,35.55668151997693],[139.78048049030076,35.55667679701678],[139.78048110392763,35.55667294384191],[139.78051028137497,35.55663213536174]]]}},{"type":"Feature","properties":{"height":7.5,"gml_id":"bldg_cf881cdd-53dc-4817-95e7-343f9e863d52"},"geometry":{"type":"Polygon","coordinates":[[[139.78284527139,35.55645483707239],[139.78270148050444,35.55638682726278],[139.78288158313333,35.55613256732891],[139.78302537039644,35.556200595854186],[139.78284527139,35.55645483707239]]]}},{"type":"Feature","properties":{"height":2.3,"gml_id":"bldg_d8c14ddc-9f39-48bc-9028-bf8bf7aef20a"},"geometry":{"type":"Polygon","coordinates":[[[139.78287909377303,35.55264135198681],[139.78291844098933,35.55258564265019],[139.78316229184696,35.55270066720313],[139.78312294364048,35.552756375716505],[139.78287909377303,35.55264135198681]]]}},{"type":"Feature","properties":{"height":3.5,"gml_id":"bldg_0f52f68b-f2a7-4192-ac45-ef4ce2aee1be"},"geometry":{"type":"Polygon","coordinates":[[[139.78634914169342,35.55281588689916],[139.78625772322374,35.552945720048754],[139.7861731674734,35.552905950989725],[139.78618569708465,35.5528881552207],[139.78619483412527,35.55289245842793],[139.78625759028418,35.55280331284264],[139.786248465385,35.55279900694065],[139.7862645904509,35.552776109792646],[139.78634914169342,35.55281588689916]]]}},{"type":"Feature","properties":{"height":28.9,"gml_id":"bldg_afd00472-6cfb-4c64-b15f-118ec2e3e1c1"},"geometry":{"type":"Polygon","coordinates":[[[139.78248741333883,35.553509200781605],[139.78249790092806,35.5535300597825],[139.78250437091776,35.5535480596799],[139.78250377499077,35.553567749410504],[139.78249955266216,35.55358690939723],[139.7824927398026,35.553600083957676],[139.78247887778267,35.55361983840226],[139.7824636138305,35.553630837044466],[139.78244612011375,35.55363921800613],[139.78242589929908,35.55364477736196],[139.7824074872805,35.55365058716362],[139.78239452921292,35.553650203105974],[139.7823792683444,35.55364932861864],[139.7823691849611,35.55364861766676],[139.7823644838559,35.55365562399346],[139.78236999825793,35.55366023423424],[139.78237776294577,35.553666400324964],[139.7823846133106,35.55367592370968],[139.78238789419171,35.5536838654478],[139.78239196436706,35.553694295357964],[139.7823932462085,35.553697579666306],[139.78239597902333,35.55371228340664],[139.78239504064416,35.55372751200829],[139.7823930992435,35.55373635473354],[139.78238840933003,35.5537483313348],[139.78238252069568,35.553758141387206],[139.78236909329635,35.553774278720894],[139.78235304383648,35.55378545098524],[139.78233364948264,35.553795700611296],[139.78231107000627,35.553801808798475],[139.78229183143043,35.553802946323934],[139.7822739193433,35.55380305321697],[139.7822615232167,35.55380184100482],[139.78225678391678,35.55380990914934],[139.78226710580714,35.55381720757568],[139.78227403693265,35.55382461273226],[139.78227847063962,35.553835766616764],[139.78227915023731,35.55383903444622],[139.7822825460166,35.553855379902124],[139.78228257014135,35.55386430277994],[139.782282597877,35.55387448940919],[139.78228019120345,35.553898642959595],[139.78228010913324,35.55389934691107],[139.78226568660946,35.55392267871285],[139.7822361626823,35.55394404539208],[139.78221032972226,35.553954587024165],[139.78218853547472,35.55395733603764],[139.78215968561142,35.55395764288948],[139.78215654799286,35.553956867263146],[139.78216652725558,35.55396179399334],[139.78215716774503,35.55397445726609],[139.78208559825802,35.55393912209593],[139.7820905363511,35.5539324358749],[139.7820620824421,35.5539189479869],[139.78205622362813,35.55392688314289],[139.7819980694249,35.55389816262212],[139.78200330558846,35.5538910862293],[139.7819895770644,35.55388457865245],[139.78198527595546,35.55389041242498],[139.7819271207078,35.553861681052695],[139.78193079695302,35.55385671505521],[139.7819172128932,35.55385027603737],[139.781894549765,35.55384049168947],[139.7818741646729,35.553825085433644],[139.78186039032403,35.553812649375075],[139.78185163969673,35.55380281507106],[139.7818498438928,35.55380121433562],[139.78184491382507,35.55379015577077],[139.78184374603086,35.553787947766],[139.7818415169687,35.55378253756783],[139.78183773020166,35.553774044849156],[139.78183766787404,35.55377319300822],[139.7818374828525,35.553772744937966],[139.78183457147045,35.55375973031529],[139.781835675381,35.553746271219005],[139.78183538558213,35.55374235815767],[139.78183611894966,35.55374085765519],[139.78183623567736,35.55373943440892],[139.7818436598425,35.55372436091649],[139.78184489505477,35.55372290840194],[139.78184972488773,35.553713038431894],[139.78187346199783,35.553685354232776],[139.78189667394116,35.55367511261887],[139.78192313973116,35.55366670040845],[139.78195516440763,35.55366574055622],[139.78196855564778,35.553666619709176],[139.78197279076994,35.55366738138568],[139.7819783507645,35.55365927303908],[139.78196960483083,35.55365245930606],[139.78196796129447,35.55365078111758],[139.781961776933,35.55364687365784],[139.78195347405548,35.55363716935197],[139.78195223360828,35.55363473056118],[139.78195113571257,35.55363361056592],[139.7819501316792,35.55363059678849],[139.78194689175623,35.55362422527871],[139.78194618820615,35.55361876074758],[139.7819430770264,35.553609420111144],[139.78194414192126,35.55359138643835],[139.7819509766386,35.553566568652634],[139.78196672261475,35.55354528000258],[139.7819877597706,35.55353091628542],[139.78201163062008,35.55351648887052],[139.7820346228138,35.55351172759263],[139.78205836344918,35.553511226601834],[139.78207332373617,35.553512933887184],[139.78208047205234,35.5535135020979],[139.78208304079493,35.55350860593318],[139.7820744419105,35.553499525272095],[139.78207101353019,35.55349462926225],[139.78206546567745,35.55348889676182],[139.7820641947538,35.553485815267464],[139.7820610601986,35.553481991135996],[139.78205657559673,35.55346596340079],[139.78205652342035,35.55346475641624],[139.78205323260045,35.553451701975604],[139.782054585373,35.55343537475671],[139.78205805210624,35.55341641096702],[139.7820659000606,35.55340086441007],[139.7820804687935,35.55338518189529],[139.78209655141762,35.55337209422494],[139.78211229331234,35.55336403797157],[139.78212914156273,35.55335940206297],[139.7821472543304,35.55335751322684],[139.782164263154,35.55335534358693],[139.78218334550562,35.553356876836624],[139.78219853713318,35.55336074213436],[139.78221648854614,35.55336803388552],[139.7822528265436,35.5533851928379],[139.7822484557587,35.55339139165409],[139.7824412497674,35.55347944712602],[139.78247297921865,35.553495215023254],[139.78248741333883,35.553509200781605]]]}},{"type":"Feature","properties":{"height":8.5,"gml_id":"bldg_091488ca-57fe-4607-ac97-3c4e0a7b4398"},"geometry":{"type":"Polygon","coordinates":[[[139.7859251430095,35.55087678536411],[139.7859379987429,35.55085915920449],[139.7859604195098,35.55086972691231],[139.78595654601432,35.550875034585076],[139.7860718232149,35.55092602104838],[139.78604810671018,35.550958148151786],[139.78600581655311,35.55101543570693],[139.78599842948535,35.551025441855764],[139.78599528127964,35.55102404436484],[139.78588387236655,35.55097457819567],[139.78588079475696,35.55097879459428],[139.7858584401387,35.550968244925684],[139.78586111710223,35.550964474558576],[139.78586572359907,35.550958135084535],[139.7858730378217,35.55094822806807],[139.7859251430095,35.55087678536411]]]}},{"type":"Feature","properties":{"height":3.4,"gml_id":"bldg_524003d1-8592-4943-b7db-9a743a3893d0"},"geometry":{"type":"Polygon","coordinates":[[[139.78121598395845,35.55507618274247],[139.78117990006623,35.55512568142832],[139.78107745973634,35.55507582713182],[139.78111354477278,35.55502632757532],[139.78121598395845,35.55507618274247]]]}},{"type":"Feature","properties":{"height":32.3,"gml_id":"bldg_118bd0d2-d792-403d-b5a7-9004661e8f0b"},"geometry":{"type":"Polygon","coordinates":[[[139.78525201188282,35.55003890815457],[139.7848173779983,35.55065335857177],[139.78494527013692,35.55071341557929],[139.7849513123163,35.550720690428705],[139.7849527155622,35.55073128684632],[139.78491801671072,35.55078101980294],[139.7848792034477,35.550836647997606],[139.7848676105649,35.55084117643535],[139.78485568317421,35.550840710128455],[139.78484887858244,35.550837514664735],[139.78481660887883,35.55082236281882],[139.78472744465898,35.55078049514405],[139.78424987263335,35.55145562760601],[139.7842331435646,35.551466448306],[139.7842157359161,35.551470419957084],[139.78419347598134,35.55146932741552],[139.783640926941,35.55120896037644],[139.78362866261327,35.55119497203978],[139.78362239002428,35.551180499420845],[139.78362469852527,35.55116629264418],[139.7838735002097,35.55081522374098],[139.78386447608466,35.550810836573426],[139.78385716870503,35.55080742811916],[139.78385382655122,35.550805816862976],[139.78388137568828,35.55076644277387],[139.78387181668805,35.550761947220515],[139.78390716396666,35.550711662277976],[139.7839114081524,35.550713607417194],[139.7839166634876,35.55071601808853],[139.78394469167344,35.55067596543304],[139.78394804928146,35.550677550552706],[139.78395535003142,35.55068096530857],[139.7839652320009,35.55068578638985],[139.78427137195322,35.550253808675336],[139.78426389369886,35.5502503127409],[139.7842565907744,35.550246888988674],[139.78425323870906,35.55024527773939],[139.7842816904804,35.550204610425794],[139.7842795634973,35.55020353239787],[139.78427556203295,35.55020150714638],[139.78427118013957,35.5501993221937],[139.78430667688772,35.550149100287356],[139.78431695460534,35.55015420994636],[139.78434407386143,35.55011545122266],[139.78434744248258,35.55011703813862],[139.78435474760732,35.55012045828073],[139.78436310687997,35.55012436560186],[139.7846277951363,35.54975087310801],[139.78464276049758,35.54973764942969],[139.78465894673536,35.549731899678726],[139.78468254339253,35.54973233375668],[139.78524703876317,35.549999802911344],[139.78525332775203,35.550011158443745],[139.785256480984,35.55002437229607],[139.78525201188282,35.55003890815457]]]}},{"type":"Feature","properties":{"height":7.7,"gml_id":"bldg_2827d9a5-5a35-4e32-ac8b-d2ebaa4dccdb"},"geometry":{"type":"Polygon","coordinates":[[[139.78368149011908,35.55135980867814],[139.7837640140674,35.55139867276019],[139.78373056088486,35.551446112742106],[139.7836480357895,35.55140726756619],[139.78368149011908,35.55135980867814]]]}},{"type":"Feature","properties":{"height":80.1,"gml_id":"bldg_436f647c-5e0d-4869-af97-b4e9f91e09db"},"geometry":{"type":"Polygon","coordinates":[[[139.7825132191089,35.55350825077802],[139.78234568636316,35.553430556777464],[139.78237979857013,35.55338139942354],[139.7823703222349,35.553376643286015],[139.78236175237305,35.55336873266282],[139.78235793483324,35.55336349216517],[139.78235737819122,35.55335940322082],[139.78235638051598,35.55335155438861],[139.78235864412275,35.55334424867105],[139.782362290423,35.55333597634552],[139.78236926763344,35.5533297696129],[139.7823758507241,35.55332584503505],[139.78238496932147,35.55332244433489],[139.782392491933,35.55332065735089],[139.78240121130466,35.55332063669669],[139.7824078852708,35.55332126417944],[139.78241411413427,35.55332281900509],[139.78241888435807,35.55332508531332],[139.78244894249843,35.55328177805673],[139.78261646730616,35.5533594836304],[139.78258414597565,35.55340606202459],[139.78258578416668,35.55340748330609],[139.78259170441467,35.553413940657634],[139.78259555447772,35.55342186009519],[139.7825961443604,35.553429231917974],[139.78259535880233,35.55343481390109],[139.782592964873,35.5534406629205],[139.78258928498548,35.55344625269951],[139.78258319111376,35.55345275637412],[139.78257569936656,35.55345806241292],[139.78256605481064,35.553461162742835],[139.78255610032159,35.55346248810282],[139.7825460351172,35.55346097042854],[139.7825132191089,35.55350825077802]]]}},{"type":"Feature","properties":{"height":5.1,"gml_id":"bldg_4541a056-1b0a-44e6-91f7-edd922afcb73"},"geometry":{"type":"Polygon","coordinates":[[[139.7807444909997,35.554925522408155],[139.78078833143599,35.554866199369165],[139.78089164859523,35.554917197257545],[139.7808478082078,35.554976519432245],[139.7807444909997,35.554925522408155]]]}},{"type":"Feature","properties":{"height":21.6,"gml_id":"bldg_e5ee95ec-36bd-4fd6-b398-788bdbdbabab"},"geometry":{"type":"Polygon","coordinates":[[[139.78190673640526,35.5544356906177],[139.78159546870236,35.554288817358476],[139.78169099963287,35.554153593812494],[139.78196744154528,35.554284005222094],[139.78197720887476,35.55427019016108],[139.78200614921707,35.554283855849384],[139.78199639292635,35.55429766280492],[139.7820022471236,35.554300482143304],[139.7820777103693,35.55433617686829],[139.78202597894045,35.55440939737072],[139.78195047479034,35.55437377560899],[139.78190673640526,35.5544356906177]]]}},{"type":"Feature","properties":{"height":5.3,"gml_id":"bldg_608b07ac-e03c-466f-bddd-208187ef75dc"},"geometry":{"type":"Polygon","coordinates":[[[139.78518092163205,35.55375455277612],[139.78500131396385,35.553668252967576],[139.7850815882437,35.55355666859185],[139.78526117589868,35.55364296196466],[139.78518092163205,35.55375455277612]]]}},{"type":"Feature","properties":{"height":11.8,"gml_id":"bldg_ccacdfd5-a662-4c61-9729-346ed5b7b608"},"geometry":{"type":"Polygon","coordinates":[[[139.7805884247231,35.55544145979658],[139.780592032766,35.555443181228036],[139.78060091058597,35.55543063414875],[139.78128880901636,35.555755380443834],[139.78127810513885,35.555770528197804],[139.78127839624418,35.555770683362645],[139.7810987805738,35.55602270477657],[139.7810922896647,35.55603202594755],[139.7804017269696,35.55570214125282],[139.78040728927064,35.555694334948384],[139.78041680303005,35.55568098772757],[139.78031279152793,35.55563143135802],[139.78053106525022,35.55552206858379],[139.78057902579405,35.55545472054825],[139.7805884247231,35.55544145979658]]]}},{"type":"Feature","properties":{"height":8.5,"gml_id":"bldg_e12269a3-0571-4526-aab9-a5269a1d1f9e"},"geometry":{"type":"Polygon","coordinates":[[[139.7791034119516,35.55745449008483],[139.7791521445519,35.55747764707557],[139.77915293179151,35.55747653691652],[139.7794570007009,35.55762048277062],[139.77927651305495,35.55787509429827],[139.77918384849542,35.55783122532388],[139.77916848449715,35.55785298789753],[139.77904787785468,35.557796115427294],[139.7790539461756,35.557787517995365],[139.7789138140684,35.55772092772495],[139.7791034119516,35.55745449008483]]]}},{"type":"Feature","properties":{"height":15.7,"gml_id":"bldg_bd651000-63b5-4758-90f5-79bb60d7be65"},"geometry":{"type":"Polygon","coordinates":[[[139.77874549352848,35.5566985984313],[139.77906241928503,35.55625197635908],[139.7800384575386,35.554876478723756],[139.78018060057204,35.5549435418334],[139.78018399450272,35.55493871728402],[139.7803140192537,35.5549998428418],[139.78031050388566,35.55500483139452],[139.78044119472446,35.55506649343489],[139.77765864913525,35.55898526641464],[139.77758969711513,35.55899281524577],[139.77758933715714,35.55899331895637],[139.77758854539607,35.5589929409079],[139.77756215513494,35.558995831179594],[139.7774993738141,35.55896679899798],[139.77749312299682,35.55897572887828],[139.7773603523043,35.558913703961984],[139.7773662707711,35.55890524716398],[139.7773504210883,35.55889791781457],[139.77733079248927,35.558926655829865],[139.77731123249075,35.55891702801014],[139.77733055302457,35.558888730634614],[139.77726209938203,35.55885707535337],[139.77725444968337,35.55885353744533],[139.7772317012892,35.55884301755625],[139.7772257057006,35.55884024479478],[139.778218329099,35.55744148010774],[139.77869536094755,35.556769244728514],[139.77874549352848,35.5566985984313]]]}},{"type":"Feature","properties":{"height":9.6,"gml_id":"bldg_b7194b22-714e-4cc7-9c19-44c91bfd87e7"},"geometry":{"type":"Polygon","coordinates":[[[139.78244757663546,35.55782383220564],[139.7824256030213,35.557813781443045],[139.78243146578464,35.557805224316745],[139.78236772906806,35.55777508555067],[139.78331969899423,35.556437209799896],[139.7833994864689,35.55647492729831],[139.78340189205926,35.55647167066953],[139.7834605944963,35.55650061787906],[139.78346635094178,35.55649241310017],[139.78358645060163,35.55654870767005],[139.78357916838777,35.556559087781466],[139.7836739764582,35.556605838719676],[139.78367485845737,35.556660225374],[139.78277649252604,35.557921184603344],[139.7827207630095,35.55794519138405],[139.78270732833394,35.55793856503284],[139.78270339779286,35.55794424394343],[139.78265266745706,35.55792085499092],[139.78263750769017,35.557942070948656],[139.78243289490754,35.557844350663714],[139.78244757663546,35.55782383220564]]]}},{"type":"Feature","properties":{"height":10.4,"gml_id":"bldg_7683e83c-c886-482c-b106-87e2ac629c2e"},"geometry":{"type":"Polygon","coordinates":[[[139.78173837172147,35.55406192282049],[139.78172313576476,35.554054768271264],[139.78171174264878,35.55404778843237],[139.78170096739223,35.55403711585896],[139.7816913966422,35.554023007698795],[139.78168408561524,35.55400777827427],[139.78168102484324,35.553993819828264],[139.78168079849678,35.55398213500255],[139.78168401519196,35.55396796020754],[139.78169203515841,35.55395442385155],[139.7817028864767,35.55394278703639],[139.7817128376402,35.55393471934242],[139.78172809698245,35.55392600041121],[139.78174088500822,35.55391983676496],[139.78175600720527,35.553916852419775],[139.7817741296643,35.55391554143555],[139.78178923204953,35.55391593368765],[139.78180695972375,35.553919638769514],[139.78182239310522,35.55392506722928],[139.78210882056908,35.55406003911526],[139.78201399558,35.55419134224537],[139.78175419321383,35.55406935073967],[139.78174296993487,35.55408479036771],[139.78179790243436,35.55411147429334],[139.78176515112935,35.55415651811102],[139.78169453400565,35.55412221881511],[139.78173837172147,35.55406192282049]]]}},{"type":"Feature","properties":{"height":31.8,"gml_id":"bldg_f4fabe14-cef4-40fc-8778-ddfe74439d1d"},"geometry":{"type":"Polygon","coordinates":[[[139.78681111623882,35.550770464300776],[139.78683269791404,35.55078070521921],[139.7868506007011,35.55077260500853],[139.78687205307756,35.55077181734766],[139.78687871277972,35.55076244904964],[139.78738478648012,35.55100275736394],[139.7873770725972,35.55101364593484],[139.78738764629466,35.551026358679515],[139.7873879007565,35.551044333419455],[139.78741042866426,35.55105506044451],[139.78711153703668,35.55147548941445],[139.78713842507918,35.55148827964249],[139.78677323460917,35.55200230170737],[139.78674613140845,35.5519894419087],[139.78637385698852,35.55251304357167],[139.78634402890927,35.55249888191519],[139.78633434427195,35.55251251618703],[139.78632124548542,35.55251161509806],[139.78624020240235,35.55262604480928],[139.78588787056657,35.55245939543049],[139.78587882054867,35.55247224390252],[139.785797783084,35.552434148042316],[139.7858069545449,35.5524211238529],[139.78572255408153,35.55238119769387],[139.7858058673093,35.552263581902096],[139.78579455257403,35.55225818532049],[139.7858052893023,35.55224308043592],[139.78577451863507,35.55222844503617],[139.78681111623882,35.550770464300776]]]}},{"type":"Feature","properties":{"height":8.7,"gml_id":"bldg_cf5a154d-9dff-4f79-b558-180dd4050fd8"},"geometry":{"type":"Polygon","coordinates":[[[139.78092863953137,35.55513846958467],[139.7809848185278,35.55505886514096],[139.78114945902232,35.555136463311676],[139.78109328123736,35.555216067831644],[139.78106574334106,35.55520308939384],[139.78096260174283,35.55515447771404],[139.78092863953137,35.55513846958467]]]}},{"type":"Feature","properties":{"height":12.8,"gml_id":"bldg_a305f7cd-4c54-47bd-9bd7-23f76bf9e413"},"geometry":{"type":"Polygon","coordinates":[[[139.7803481615249,35.554691654358436],[139.78042841483074,35.55457970983289],[139.78062421614,35.554673475315525],[139.78052728968282,35.55480866854796],[139.78043315180366,35.55476357668021],[139.7804498152186,35.55474033622307],[139.7803481615249,35.554691654358436]]]}},{"type":"Feature","properties":{"height":13.9,"gml_id":"bldg_36a64b28-da0c-4585-8f7a-d90e45566027"},"geometry":{"type":"Polygon","coordinates":[[[139.78004815665037,35.55687816843266],[139.78005058581851,35.55688117744574],[139.780052131356,35.556885965412846],[139.78005147975415,35.55689049641415],[139.78004927546496,35.556896042596215],[139.78004253525222,35.55690175623495],[139.78003608116532,35.55690348405168],[139.78002763648843,35.55690287097872],[139.77998684208544,35.5568840562438],[139.7799236370267,35.5569728278306],[139.77982236765448,35.55692468293855],[139.779815788174,35.55693416264474],[139.77981074356242,35.55693624802556],[139.77976330834986,35.556913026975316],[139.77976178217912,35.55690734032697],[139.7797677610215,35.556898722987434],[139.77974345049648,35.556887163571865],[139.77973441351827,35.556899743865536],[139.77958968781695,35.55683030393566],[139.77975235435545,35.55660386865014],[139.77989707869344,35.556673299372775],[139.77988817646033,35.55668569405174],[139.78006739670195,35.55677091508739],[139.7800053643676,35.55685804129806],[139.780045451158,35.55687600209739],[139.78004815665037,35.55687816843266]]]}},{"type":"Feature","properties":{"height":35.2,"gml_id":"bldg_f81bee4b-981d-4781-a0b5-dda3c0cade0b"},"geometry":{"type":"Polygon","coordinates":[[[139.78401367179936,35.554937603430524],[139.78401605698159,35.55493873655278],[139.78403181419694,35.554916654418605],[139.78407617104918,35.55493779663714],[139.7840770895714,35.55493650081259],[139.7841690245791,35.554980010601824],[139.784191479392,35.554985090077935],[139.78422106206108,35.554990166143575],[139.7842491928741,35.554997474355574],[139.78427988107177,35.55500934463811],[139.78430304101497,35.55502303536509],[139.78432790266817,35.5550426417046],[139.78434492196172,35.555058199411775],[139.78435556128028,35.555068292999294],[139.78445714102918,35.55511636842327],[139.78445557226357,35.55511857889857],[139.78445826951008,35.555119890613895],[139.78450470077917,35.55514207371976],[139.78447618825535,35.55518200459122],[139.78447479110298,35.55518133879882],[139.78443894581005,35.555231678652646],[139.78443616258997,35.55524660365113],[139.7844539716024,35.55525509926725],[139.78439758674196,35.55533400756618],[139.78437763622378,35.55532449159962],[139.78436900270313,35.55532990455008],[139.784316135957,35.55540414773943],[139.78431563862682,35.55540391137293],[139.78430500710442,35.55541899182185],[139.78425803629997,35.555396876024766],[139.78425205158902,35.55540523488787],[139.7838729497535,35.55522405640664],[139.78387749820112,35.555217698060154],[139.78383167447777,35.55519610176782],[139.78384345423055,35.555179384906005],[139.78384203506084,35.55517865690129],[139.78389473209089,35.55510463558963],[139.78389621726436,35.55509667060957],[139.7838754155372,35.55508679365433],[139.78388431043246,35.55507428329636],[139.78387727400033,35.55507089659003],[139.78372487876584,35.554997546420985],[139.7837627266567,35.554945028939706],[139.783921773402,35.55502158983678],[139.78393158790962,35.55500778635644],[139.78395414846142,35.55501849961154],[139.78395750625546,35.55501647916739],[139.78401367179936,35.554937603430524]]]}},{"type":"Feature","properties":{"height":26.8,"gml_id":"bldg_91818541-e2b0-4387-bf21-b4ab05a93aa3"},"geometry":{"type":"Polygon","coordinates":[[[139.7869507773449,35.553791901628834],[139.78695110300188,35.553791442044776],[139.78695397560793,35.553792784419294],[139.78702112623247,35.55382418944725],[139.78701147276047,35.553837257708985],[139.78707225280306,35.55401958282921],[139.78707348055042,35.55402328801645],[139.78689818394227,35.55427406417088],[139.78674961307595,35.554305050761755],[139.78671582434595,35.55428904973521],[139.78671549316732,35.55428951472481],[139.78620815008927,35.55404903196544],[139.78647092242252,35.55367920358293],[139.78646943706255,35.553678495413834],[139.78652950759164,35.55359328502886],[139.7869507773449,35.553791901628834]]]}},{"type":"Feature","properties":{"height":4.2,"gml_id":"bldg_36a42ad1-7179-45e3-a12e-056e7c7783e8"},"geometry":{"type":"Polygon","coordinates":[[[139.78263255906333,35.552695811576676],[139.7827070618784,35.55258873960249],[139.78306537883694,35.55278784723436],[139.78300798063887,35.552870349240685],[139.78263255906333,35.552695811576676]]]}},{"type":"Feature","properties":{"height":7.5,"gml_id":"bldg_0aff1a4c-1300-49bc-b760-d1a65e8ea3ad"},"geometry":{"type":"Polygon","coordinates":[[[139.7850635341312,35.55446542283583],[139.78506097582112,35.55446420763835],[139.78510041959862,35.554408312859884],[139.78523983682558,35.55447402134248],[139.78518097316595,35.55455744499728],[139.78517046199275,35.55455250027668],[139.7851083753331,35.55452324155728],[139.78511429262443,35.554514849271975],[139.78505014644415,35.55448409339019],[139.7850635341312,35.55446542283583]]]}},{"type":"Feature","properties":{"height":1.6,"gml_id":"bldg_7fd50945-9329-4b0b-81d7-f64489245402"},"geometry":{"type":"Polygon","coordinates":[[[139.78731212287542,35.55830171389308],[139.78730417385287,35.558313608307515],[139.7872887345613,35.558306752748635],[139.7872965733289,35.5582947672527],[139.78731212287542,35.55830171389308]]]}},{"type":"Feature","properties":{"height":11.5,"gml_id":"bldg_9bd8beb8-13e8-42bc-bfac-800e2195da13"},"geometry":{"type":"Polygon","coordinates":[[[139.78132357357575,35.557888696177756],[139.78132846910478,35.55788177741542],[139.78134387996917,35.55785999655879],[139.78172318284442,35.55803915938023],[139.7817101601785,35.55805756920659],[139.78177071663487,35.558086060119024],[139.78130082772375,35.55875285269196],[139.78079297755195,35.558513883070646],[139.78093862386405,35.558307220738115],[139.7809842765784,35.55832869455448],[139.78124616247447,35.55796062344449],[139.7813099633713,35.557896134887784],[139.78131622475996,35.557899082431],[139.78132357357575,35.557888696177756]]]}},{"type":"Feature","properties":{"height":1.3,"gml_id":"bldg_a55912eb-a429-4b0e-b1b9-2a5e66260500"},"geometry":{"type":"Polygon","coordinates":[[[139.78728851136646,35.55831125961421],[139.78728254810088,35.558322795130834],[139.7872665565446,35.55831720040304],[139.7872725197605,35.55830575502618],[139.78728851136646,35.55831125961421]]]}},{"type":"Feature","properties":{"height":4.8,"gml_id":"bldg_d129b02a-06c1-44eb-a809-79b7829fb774"},"geometry":{"type":"Polygon","coordinates":[[[139.78132461335426,35.555712085881055],[139.78130665470664,35.55573750005044],[139.78130383616693,35.55573617018461],[139.78129096597434,35.55575461879846],[139.78119597670886,35.55571030506525],[139.7812091262294,35.55569148340649],[139.78105935908496,35.555620807241176],[139.78121693620625,35.55539777858691],[139.78146424681307,35.555514473787724],[139.78141037551418,35.55559071455173],[139.78142421228384,35.55559737277161],[139.78133970391167,35.55571935579409],[139.78132461335426,35.555712085881055]]]}},{"type":"Feature","properties":{"height":37.7,"gml_id":"bldg_bc1ec3e5-a98f-47e4-8cd8-efcbe62151c1"},"geometry":{"type":"Polygon","coordinates":[[[139.78220604037566,35.55752738987469],[139.78194218511192,35.55740223143585],[139.78224027034773,35.55698264555185],[139.78243287675278,35.55707394140684],[139.78245021522358,35.55704883599052],[139.782507815058,35.55707541975041],[139.78249009459864,35.557101061341086],[139.7825041578043,35.55710778623387],[139.78220604037566,35.55752738987469]]]}},{"type":"Feature","properties":{"height":19.6,"gml_id":"bldg_eea9bfdd-5585-4605-8516-944c3ea28afa"},"geometry":{"type":"Polygon","coordinates":[[[139.78450236798977,35.55723347443414],[139.78414166668594,35.55774283415907],[139.78430193866322,35.55781866489518],[139.7842434769297,35.557901241802625],[139.78423798737555,35.557898646267866],[139.78422462307054,35.557917517739156],[139.7842095372695,35.557910389709775],[139.78419286830115,35.55790186207568],[139.7841729105181,35.55789240286368],[139.78418591823788,35.557874019806185],[139.78418074740392,35.55787154518499],[139.78419255503022,35.55785486616639],[139.7841911401956,35.557854182335966],[139.7840960810698,35.557809218266314],[139.7840950069726,35.55780872386585],[139.78375534253956,35.55828836492907],[139.78391200588254,35.5583624865587],[139.78385250555624,35.55844651858815],[139.78384700274492,35.55844391581924],[139.7838331480608,35.558463479311705],[139.78381806108362,35.55845636024738],[139.78380173208942,35.55844735406143],[139.78378177310918,35.558437902897516],[139.78379494330184,35.558419290096225],[139.78379312264255,35.55841841409836],[139.78378978237993,35.55841680374449],[139.7838026334844,35.55839866313961],[139.78371088111425,35.5583552847724],[139.78370867888202,35.55835425808405],[139.78369426221937,35.55837461455286],[139.7836087394165,35.55833424120288],[139.78360766407098,35.55833576140457],[139.78347167677032,35.55827140367712],[139.78354388833782,35.55816932944904],[139.78354127150587,35.55816805560549],[139.78374464649454,35.557880875380896],[139.7837471398331,35.55788205542473],[139.78380804091873,35.55779597605605],[139.78380633607395,35.55779513706286],[139.7840096870927,35.55750798881287],[139.78401126623925,35.55750873580998],[139.78407302569266,35.557421445184495],[139.78407082240696,35.557420371629874],[139.7842741836614,35.55713323463742],[139.78427624580942,35.557134208978006],[139.78434622079524,35.557035304430535],[139.78447480285215,35.55709611121284],[139.78447583731395,35.55709465228106],[139.7845693729352,35.55713884565294],[139.7845490248244,35.5571675935759],[139.78470809293333,35.5572428554161],[139.7846502249039,35.55732457464485],[139.78464473647955,35.55732197822743],[139.7846323726091,35.55733942955867],[139.78461729901179,35.55733230519015],[139.78460026359025,35.55732428855181],[139.78458029707997,35.55731482579729],[139.78459267310586,35.55729735104008],[139.78458750229586,35.55729487733751],[139.78459870365322,35.557279046240645],[139.7845973152908,35.55727837594647],[139.78450236798977,35.55723347443414]]]}},{"type":"Feature","properties":{"height":7.7,"gml_id":"bldg_22072224-7ec4-406f-a923-55fdcceb9c42"},"geometry":{"type":"Polygon","coordinates":[[[139.78364516532883,35.55141340125177],[139.78372768380785,35.55145225183523],[139.78369422946753,35.55149970983396],[139.7836117109561,35.551460859227895],[139.78364516532883,35.55141340125177]]]}},{"type":"Feature","properties":{"height":3.1,"gml_id":"bldg_e4f8fa0b-511e-4515-bcc4-cc7354553e5a"},"geometry":{"type":"Polygon","coordinates":[[[139.7799140970036,35.556343749569685],[139.77995150273773,35.55629068866205],[139.7800009374445,35.55631397001672],[139.77994779502438,35.556389345103916],[139.77993062463946,35.55638125563386],[139.77993852447182,35.55637004042728],[139.77992235425958,35.5563624147136],[139.77993016575735,35.55635133377559],[139.7799140970036,35.556343749569685]]]}}]}