{"type":"FeatureCollection","crs":{"type":"name","properties":{"name":"urn:ogc:def:crs:OGC:1.3:CRS84"}},"features":[{"type":"Feature","properties":{"height":3.0,"gml_id":"bldg_a6846a67-9490-4ac4-94d8-fd84660dcebe"},"geometry":{"type":"Polygon","coordinates":[[[139.800734328956,35.52351358916642],[139.80071370339866,35.52353025940571],[139.80068317135016,35.523504921933764],[139.80070379690733,35.523488251699604],[139.800734328956,35.52351358916642]]]}},{"type":"Feature","properties":{"height":3.0,"gml_id":"bldg_346a0c4b-05b1-4b06-bcb4-2c36bf45675f"},"geometry":{"type":"Polygon","coordinates":[[[139.80069575059284,35.52348148905701],[139.80067677979048,35.52349608652835],[139.8006299353616,35.52345542090305],[139.80064890616285,35.52344082343898],[139.80069575059284,35.52348148905701]]]}},{"type":"Feature","properties":{"height":2.7,"gml_id":"bldg_29a904ed-3c64-42a0-a77b-f4301fb57389"},"geometry":{"type":"Polygon","coordinates":[[[139.80064196129706,35.5234369455566],[139.80062729202479,35.523448209022895],[139.80060392501616,35.523427741008454],[139.80061859428795,35.523416477544956],[139.80064196129706,35.5234369455566]]]}}]}