{"type":"FeatureCollection","crs":{"type":"name","properties":{"name":"urn:ogc:def:crs:OGC:1.3:CRS84"}},"features":[{"type":"Feature","properties":{"height":2.7,"gml_id":"bldg_bf7df1c5-62c3-445c-bf14-4b30be2f8d87"},"geometry":{"type":"Polygon","coordinates":[[[139.82032185707197,35.542034180253246],[139.82031953778184,35.542054461338445],[139.8202890991148,35.54205211442889],[139.82029141841255,35.542031833344275],[139.82032185707197,35.542034180253246]]]}},{"type":"Feature","properties":{"height":2.7,"gml_id":"bldg_794b2e96-bbef-4d9a-b0ad-845c7a5b8138"},"geometry":{"type":"Polygon","coordinates":[[[139.82044724924614,35.542055646863055],[139.8203295740771,35.54205302019278],[139.82033035008294,35.54202823197754],[139.82044802521585,35.54203085864707],[139.82044724924614,35.542055646863055]]]}}]}