{"type":"FeatureCollection","crs":{"type":"name","properties":{"name":"urn:ogc:def:crs:OGC:1.3:CRS84"}},"features":[{"type":"Feature","properties":{"height":2.1,"gml_id":"bldg_acb3952f-cb6f-451f-88b0-f35ef2754f43"},"geometry":{"type":"Polygon","coordinates":[[[139.66039447506947,35.5913145874396],[139.66036996807958,35.59131851836192],[139.66034667183482,35.59122131573427],[139.6603711787962,35.59121738481655],[139.66039447506947,35.5913145874396]]]}},{"type":"Feature","properties":{"height":2.3,"gml_id":"bldg_bb9d2c60-8ae5-4072-891f-0b0520d9f5ca"},"geometry":{"type":"Polygon","coordinates":[[[139.66076007948976,35.591570563699904],[139.66075394862267,35.59154774990744],[139.66075351107682,35.59154594651302],[139.66087594073647,35.59152403785215],[139.66087670663964,35.59152710365351],[139.66088250899188,35.591548745170684],[139.66076007948976,35.591570563699904]]]}}]}