{"type":"FeatureCollection","crs":{"type":"name","properties":{"name":"urn:ogc:def:crs:OGC:1.3:CRS84"}},"features":[{"type":"Feature","properties":{"height":2.7,"gml_id":"bldg_43e477bd-91f3-4629-988b-6a06048464f7"},"geometry":{"type":"Polygon","coordinates":[[[139.7700514166491,35.54110201313381],[139.77003885881504,35.54108334771554],[139.77009655832146,35.54105732773715],[139.7701092263791,35.54107608334654],[139.7700514166491,35.54110201313381]]]}},{"type":"Feature","properties":{"height":3.7,"gml_id":"bldg_1433dfa1-4431-4b5e-a09a-b107a338ffb9"},"geometry":{"type":"Polygon","coordinates":[[[139.77247555323677,35.541121011037774],[139.7724086740675,35.54108902830761],[139.77247415604612,35.540995299405935],[139.77254104512127,35.541027239739805],[139.77247555323677,35.541121011037774]]]}},{"type":"Feature","properties":{"height":23.5,"gml_id":"bldg_de6e6745-7a8e-41e7-8c1f-a2801d3994c8"},"geometry":{"type":"Polygon","coordinates":[[[139.7731525324179,35.540618141078006],[139.77309250033963,35.540589929061426],[139.77311019709234,35.54056562643612],[139.77317019057463,35.54059381769272],[139.77325478177374,35.54047729716047],[139.77678417391894,35.54215176680274],[139.77667960362714,35.542295933315145],[139.77668067635838,35.54229644310586],[139.77648014019292,35.5425787577033],[139.77635517627692,35.54275467937727],[139.77635783110463,35.54275593987682],[139.77623468022142,35.54292967459768],[139.77378879836544,35.54176876284775],[139.77277994442477,35.541289896854096],[139.7727792632348,35.541290867311936],[139.77270094087365,35.541252662093115],[139.77248680824385,35.54114820902948],[139.77247923224067,35.54114451310245],[139.77282258687913,35.54065475370139],[139.77294411393635,35.54056033693961],[139.77312884735576,35.54064964194657],[139.77315033791018,35.540619413650816],[139.7731512893351,35.54061985490666],[139.7731525324179,35.540618141078006]]]}},{"type":"Feature","properties":{"height":4.9,"gml_id":"bldg_fa4035fb-821e-4f3f-a089-b90ba7ae4226"},"geometry":{"type":"Polygon","coordinates":[[[139.77380755931,35.5403072504028],[139.7737103779429,35.54026134674146],[139.77379701201735,35.54013228124658],[139.77389421427213,35.54017813076577],[139.77380755931,35.5403072504028]]]}},{"type":"Feature","properties":{"height":7.1,"gml_id":"bldg_65f62efb-9ae5-45c8-9c67-d3fc39e55ab9"},"geometry":{"type":"Polygon","coordinates":[[[139.77113110557883,35.54101744913678],[139.77119782722727,35.54111423000753],[139.7711885037865,35.54112415855052],[139.77118047881262,35.54112068585593],[139.77117549864948,35.54112599880167],[139.7711835092776,35.5411294832073],[139.77116043852658,35.541154045983475],[139.77108209009913,35.54118927615893],[139.77109984362338,35.541215215684176],[139.77110264501525,35.54121930855099],[139.77100683059643,35.54126311993481],[139.7710083398531,35.541265255212586],[139.77100999562884,35.54126759788636],[139.77092440834295,35.541305096628236],[139.77085662419915,35.5412091145942],[139.77087110515762,35.54120276908003],[139.7708356234514,35.5411482885534],[139.77113110557883,35.54101744913678]]]}},{"type":"Feature","properties":{"height":8.4,"gml_id":"bldg_e9bd730a-cc4f-48c1-b8ae-09114a79a978"},"geometry":{"type":"Polygon","coordinates":[[[139.77391495119977,35.540451418942425],[139.7737830554528,35.54038911722085],[139.7740261685622,35.54004669603754],[139.77415808385325,35.54010890916969],[139.77391495119977,35.540451418942425]]]}},{"type":"Feature","properties":{"height":12.1,"gml_id":"bldg_ea087439-228a-4447-b166-454f5e6f3fcb"},"geometry":{"type":"Polygon","coordinates":[[[139.77308779233928,35.540594300267195],[139.77300845658382,35.540556644587234],[139.77305784756606,35.540485698124456],[139.77313711821725,35.54052334021895],[139.77308779233928,35.540594300267195]]]}},{"type":"Feature","properties":{"height":3.9,"gml_id":"bldg_de71230b-e8b1-4eb2-bae1-852d3e1c73d7"},"geometry":{"type":"Polygon","coordinates":[[[139.7720254744552,35.541427918190394],[139.77198363001156,35.541408973073864],[139.77202546631074,35.541347321066176],[139.77206729307767,35.541366277877486],[139.7720254744552,35.541427918190394]]]}},{"type":"Feature","properties":{"height":6.7,"gml_id":"bldg_c725fa13-faf4-4ac0-bf2c-b8a5634e80c9"},"geometry":{"type":"Polygon","coordinates":[[[139.77136223945635,35.54124715734836],[139.77126472588068,35.54109742283699],[139.77136289907295,35.54105346282783],[139.77146043372747,35.54120320358153],[139.77136223945635,35.54124715734836]]]}},{"type":"Feature","properties":{"height":16.3,"gml_id":"bldg_7ec89ebb-e179-4da0-adc1-8e69255e6d07"},"geometry":{"type":"Polygon","coordinates":[[[139.774803891201,35.54087521438437],[139.7747933659208,35.54087025071433],[139.77479013656028,35.540873592412275],[139.7747492020043,35.54093144104451],[139.77411595942252,35.54063017205439],[139.77419092695996,35.54052420775866],[139.77419249024538,35.54052495127295],[139.77434537883022,35.54030754891875],[139.77434915589268,35.540309279637555],[139.77438035456623,35.540264979718444],[139.77437622582553,35.540263076662654],[139.77453154438342,35.54004222021166],[139.77461614931516,35.54008191640916],[139.7746155917935,35.54008272468707],[139.77473600887058,35.540139618778724],[139.77473682139927,35.540138463587915],[139.77487370980677,35.54020258479873],[139.77488206016287,35.540190888767484],[139.77516408061103,35.54033082574366],[139.77516147636538,35.540334489550595],[139.77518113656384,35.54034384467289],[139.77517487482288,35.5403527519211],[139.77523980340214,35.54038341704969],[139.77491093289473,35.5408503319622],[139.77487727780493,35.54083443942351],[139.77484019327525,35.54082407074945],[139.774803891201,35.54087521438437]]]}}]}