{"type":"FeatureCollection","crs":{"type":"name","properties":{"name":"urn:ogc:def:crs:OGC:1.3:CRS84"}},"features":[{"type":"Feature","properties":{"height":5.5,"gml_id":"bldg_b7fc6e8e-482e-4f7a-aea7-087e71ef655a"},"geometry":{"type":"Polygon","coordinates":[[[139.7635776312826,35.54532621558086],[139.76356065954855,35.5452474781859],[139.7641076149601,35.545168696260774],[139.7641245872202,35.54524742456643],[139.7635776312826,35.54532621558086]]]}},{"type":"Feature","properties":{"height":32.4,"gml_id":"bldg_83b16e40-b566-43d4-8696-aa4fb3fffe0a"},"geometry":{"type":"Polygon","coordinates":[[[139.7698235005741,35.54378771202163],[139.77018484394958,35.543959453850874],[139.770035353066,35.54416956842273],[139.77002256538591,35.5441634953404],[139.7700217296194,35.54416461082516],[139.76993679026097,35.544124069354204],[139.7699361388845,35.5441249208274],[139.7697463806218,35.54403429860673],[139.76974663125543,35.544033947195906],[139.7697300158573,35.54402600528081],[139.76972545933188,35.54402382421251],[139.76968850465366,35.54407562034459],[139.76964761711042,35.54405615032017],[139.7696845928029,35.54400430102942],[139.76968371964372,35.54400388322397],[139.76968465592935,35.544002573995236],[139.7696741724867,35.54399758466405],[139.7698235005741,35.54378771202163]]]}},{"type":"Feature","properties":{"height":3.0,"gml_id":"bldg_4d2deaa8-cdf8-423a-8666-ec3dae06de25"},"geometry":{"type":"Polygon","coordinates":[[[139.7648419002258,35.54341376250575],[139.7648331985734,35.54340068737524],[139.7648852744257,35.54337737088433],[139.76489408637215,35.543390446073744],[139.7648419002258,35.54341376250575]]]}},{"type":"Feature","properties":{"height":7.3,"gml_id":"bldg_768aa4e2-1fe3-427d-844f-aaf19e0761f4"},"geometry":{"type":"Polygon","coordinates":[[[139.76438699338536,35.54505132381007],[139.76435386958872,35.545055487326415],[139.7643475126981,35.545021709431964],[139.764380636482,35.545017545015945],[139.76438699338536,35.54505132381007]]]}},{"type":"Feature","properties":{"height":5.8,"gml_id":"bldg_8ddb826d-cefb-420f-b7e7-bd7441692b26"},"geometry":{"type":"Polygon","coordinates":[[[139.7661456133674,35.54519717556383],[139.76625330750787,35.54518296558103],[139.76625846759669,35.545213922253225],[139.76615078444482,35.545228132246685],[139.7661456133674,35.54519717556383]]]}},{"type":"Feature","properties":{"height":42.1,"gml_id":"bldg_96c5aebd-2cb5-40e5-8cb3-55fcc563a6ed"},"geometry":{"type":"Polygon","coordinates":[[[139.77199110817028,35.541461510039646],[139.7723838496798,35.5416477611114],[139.77238104218858,35.54165162396247],[139.77240433769,35.54166352059563],[139.77240990478418,35.54167974126355],[139.77240929145248,35.54167992934475],[139.7724531264837,35.541763501559814],[139.7724652363156,35.54176001207223],[139.77246628646657,35.54175970973436],[139.77249982368994,35.541814731433824],[139.7725003193637,35.54181554383857],[139.77250886921792,35.541835358956845],[139.77249319083805,35.54183988595413],[139.77249540770498,35.541844112800824],[139.7724946178608,35.541844372003425],[139.77250318063946,35.54186167855305],[139.77248443203115,35.54189375866942],[139.77244601965722,35.54187877436239],[139.772463856141,35.54184824689092],[139.7724621359506,35.54184496675653],[139.77246111836396,35.541845957774704],[139.77245879769194,35.541846291921324],[139.77245675481336,35.54184533541398],[139.7724559532912,35.54184353492845],[139.77245675643172,35.54184173435154],[139.77245879855326,35.54184077359652],[139.77246002811125,35.541840948185936],[139.77238023542648,35.54168882132245],[139.77237318432063,35.5416909783964],[139.77236514005205,35.541673512552734],[139.77235996557766,35.54168061561435],[139.77235327802327,35.54167746276724],[139.7723497072969,35.54169159569868],[139.7723482700124,35.54169193840244],[139.77238792345017,35.54181419899939],[139.77239002747885,35.5418145020292],[139.77239153508,35.541815972060924],[139.7723915347318,35.54181789022411],[139.77239118045253,35.54181823527844],[139.77239654377,35.54183850670175],[139.772394270949,35.541844106806636],[139.77238373221832,35.54187006969889],[139.77234139764673,35.54185859790572],[139.77235484341622,35.541825501063556],[139.77235577707435,35.54182320118185],[139.77234071789454,35.54182706594886],[139.77233301086352,35.54180699254531],[139.77233280309733,35.54180610186437],[139.77231968189724,35.54174993125851],[139.77231947523217,35.54174904328226],[139.77232054187726,35.541748805854276],[139.7723349388297,35.54174559877135],[139.77231973281212,35.54169872317206],[139.77231709209295,35.54169935010664],[139.7723123635901,35.54168405558901],[139.77232557752615,35.54166435062148],[139.7722872481973,35.54164620241741],[139.77203335911233,35.54152602255911],[139.77203189173412,35.54152533405066],[139.7720190046134,35.5415430398638],[139.77189758509328,35.541714340912954],[139.77178642092935,35.54186928679431],[139.77179365636653,35.54187274462301],[139.77179326332111,35.541873303285826],[139.77184865109234,35.541899485442386],[139.7717301098614,35.54206696767827],[139.77173729019694,35.54207039122918],[139.7717401275447,35.54206648424041],[139.7719988148238,35.542190264603825],[139.77199329797006,35.54219792633829],[139.77201086360577,35.54220623529383],[139.77201306855056,35.54222755344627],[139.77200814620056,35.542227892571],[139.7720285153497,35.54244196741689],[139.77204870130578,35.54244178027188],[139.77204980528558,35.54244177001619],[139.7720498101142,35.54244267141111],[139.77205008274424,35.54249022180485],[139.77205024098257,35.5425112739061],[139.77204068567875,35.54251132313351],[139.7720406857227,35.54251271488349],[139.77203837240077,35.54251495727354],[139.7720379477486,35.54251501925377],[139.7720414726226,35.54253373034711],[139.77202568127095,35.542561860186886],[139.77198826049383,35.54254641743095],[139.7720089459516,35.5425130728253],[139.77200835692364,35.54251174928165],[139.77200957326227,35.54250901868103],[139.7719898881954,35.54222651677399],[139.7719770830266,35.5422204483951],[139.77194404037255,35.54226634400591],[139.77196131163652,35.54227454284884],[139.77196165086434,35.5422983028261],[139.77195613538382,35.54229835770821],[139.7719323736377,35.54240171279481],[139.77194110250352,35.54240360475465],[139.77194217431483,35.54240383695816],[139.7719332460813,35.54244936535186],[139.7719330711465,35.5424502594441],[139.7719270250537,35.5424707296926],[139.77192296048773,35.542469928087776],[139.77192296007064,35.54247047523278],[139.77192064674662,35.54247271762059],[139.77191971802912,35.54247285055371],[139.77190443554585,35.54251048041211],[139.7718697850227,35.54250108466962],[139.77188566307163,35.542462006581324],[139.77188551884265,35.542461682907934],[139.77188674512698,35.542458930680205],[139.771889861851,35.54245746480129],[139.77189036581052,35.542457532662496],[139.77193858971174,35.542297118376254],[139.77192614284976,35.54229120431256],[139.77191956391596,35.54230031944877],[139.7716608631762,35.54217653260086],[139.77166313860178,35.54217337167959],[139.77165690086198,35.54217040290822],[139.77132845225853,35.54263444979935],[139.77129989768923,35.54270477887802],[139.77129035496537,35.54276006267566],[139.7712718485789,35.54295640436093],[139.7712806908463,35.54295717509465],[139.771281113517,35.542952530437184],[139.7716199840613,35.542973043346514],[139.77175628500956,35.54298201066512],[139.7717470184824,35.54299520141622],[139.77185359453821,35.54304490358751],[139.77185712391008,35.543043243219216],[139.77186872600936,35.5430449122021],[139.77187628943489,35.54305228133393],[139.77187628818726,35.54305536229241],[139.77196301326117,35.54311577090231],[139.77196789243266,35.543111378196066],[139.77196863628183,35.543110709741434],[139.7720105169822,35.543138236131966],[139.77201137789987,35.54313880174277],[139.77203045244383,35.543152956089614],[139.77202872966933,35.54315450741148],[139.77206057561182,35.54317874310764],[139.77202980075023,35.54320498682927],[139.7719904819895,35.54316878043916],[139.77199188821757,35.5431672569],[139.7719902466209,35.54316648176892],[139.77198902121197,35.543163730096104],[139.7719899547396,35.54316163573513],[139.77186184015324,35.54307025855002],[139.77185710387528,35.54307094119386],[139.77184691364877,35.54306612977453],[139.77184289063305,35.54305709126473],[139.7718436783337,35.54305532403593],[139.77173905807757,35.54300653235983],[139.77173455895752,35.543012936257426],[139.7717513862295,35.54302070493853],[139.7717560703908,35.54303770128092],[139.7717502054177,35.54304618940219],[139.77181955709514,35.54334733581436],[139.7718204893635,35.543346899114624],[139.77182403474077,35.543347405702725],[139.7718263391514,35.543349651344975],[139.77182633911897,35.543352582672824],[139.77182391215365,35.543354846633875],[139.7718274525646,35.543366191560686],[139.77180753811348,35.5433975859107],[139.77177342886225,35.5433793648856],[139.77179247105357,35.54335360019249],[139.77177323462212,35.54335500465885],[139.77177094010906,35.543334037101936],[139.77177087793302,35.54333313657926],[139.77176619047253,35.54326559556266],[139.77176612939948,35.54326469504053],[139.771767230135,35.543264615378575],[139.77177528601865,35.54326403268462],[139.77173097289975,35.54304545576119],[139.77171643218654,35.543038740170495],[139.77168397775392,35.54308493706915],[139.7717093735992,35.54309663389709],[139.7716989287653,35.54311180440113],[139.7716959093251,35.54330175236637],[139.7716987654717,35.543302163959666],[139.7717010654688,35.54330440599651],[139.77170106543596,35.543307331916004],[139.77170072990992,35.543307658949956],[139.7717032949294,35.54330802712752],[139.77168811568086,35.543347328187295],[139.77165141400434,35.543337226445864],[139.77166915722145,35.54330544972216],[139.7716688148135,35.543304681560805],[139.7716700411181,35.54330192933567],[139.77167034562353,35.543301785268596],[139.77164694549455,35.543302183434655],[139.77164639914034,35.54328113924969],[139.77164750424078,35.54328112088573],[139.77166737509876,35.54328078401238],[139.7716728134768,35.543280687640035],[139.77167851815256,35.543109898339566],[139.77166939394886,35.54310569589014],[139.7716615638274,35.54311681056087],[139.77160253709326,35.54308747969984],[139.77127092729452,35.543068559633255],[139.7712710496895,35.54306715983389],[139.77126148838485,35.543066322927736],[139.77125563053576,35.54312846731036],[139.77124080198462,35.54318186086347],[139.77121643153208,35.54323494843465],[139.7709838597985,35.543563731147],[139.77099227060006,35.54356774218403],[139.7709944677202,35.54356466686794],[139.7711869611334,35.54365425644731],[139.77125341879434,35.54368577540819],[139.7712513828626,35.54368864259032],[139.7712745673815,35.543700555605824],[139.77127923326447,35.54372258803399],[139.7712776747154,35.543722808974486],[139.77132959984561,35.54400062043715],[139.77134464153016,35.54399858381246],[139.77134573019705,35.54399843564235],[139.7713499504164,35.54401920678989],[139.7713334902641,35.54402143378111],[139.77133428768232,35.544025695973545],[139.77133733422767,35.544025227013044],[139.77133740677493,35.54402554343901],[139.7713394457931,35.54402583834112],[139.77134130718062,35.54402765109637],[139.77134130646255,35.5440300172506],[139.77133943015096,35.54403183259137],[139.77133886871522,35.54403191613223],[139.77134302810782,35.544050038958275],[139.77132141486354,35.54408140981619],[139.77128387251392,35.54406412523847],[139.77130584902307,35.544032229963776],[139.7713053877095,35.54403119402683],[139.77130637871383,35.54402897170335],[139.77130669094564,35.54402882403563],[139.77125019999914,35.543726587891854],[139.77123126531848,35.54371699093429],[139.77120400321652,35.54375540324434],[139.7712139784121,35.54376023624012],[139.77122085383095,35.54379024712996],[139.7712180378264,35.5437906783478],[139.77123752374317,35.54399085064359],[139.7712377093497,35.54399043429596],[139.77124022595453,35.54398925116239],[139.77124308543532,35.543989658261204],[139.77124494348197,35.54399150887471],[139.7712456460166,35.54399151734895],[139.77125193155396,35.5440070443619],[139.77123669142287,35.54404188614146],[139.77119617482995,35.54403003990684],[139.77121109458207,35.543995919081084],[139.77121096875143,35.54399462011008],[139.7712101353062,35.54399274929186],[139.77121067002946,35.54399155071564],[139.77121025203448,35.54398725987329],[139.77119835994546,35.54398820110975],[139.77119587806123,35.54396724877129],[139.77119565485884,35.543966361686344],[139.77118557015754,35.54392617332506],[139.77118534806175,35.543925281733685],[139.77118646092404,35.543925221012536],[139.77120412112373,35.54392426922822],[139.7711915124559,35.543794735369545],[139.77119006529682,35.54379495636632],[139.77118701904283,35.54377933276723],[139.77117524948537,35.54379589158688],[139.77110875316674,35.54376436805656],[139.77091629156143,35.54367477837036],[139.77091835621192,35.54367186974469],[139.7709101107354,35.54366798858865],[139.77055421549252,35.544171106109886],[139.7705624235183,35.54417497014401],[139.77056475647962,35.54417169930466],[139.7707564790809,35.54426381576373],[139.77082371990164,35.54429563012001],[139.77080550661574,35.544321315763156],[139.7708181763605,35.54432740132069],[139.77082791386394,35.54434582181039],[139.77082066476012,35.544348372598236],[139.77090434599398,35.54448762424969],[139.77091990639565,35.54448241324357],[139.7709296718168,35.54450186583305],[139.7709157176407,35.54450654765323],[139.77091630252602,35.5445075196567],[139.77091665999384,35.544507353084164],[139.77091955919147,35.54450776561954],[139.77092144151894,35.544509600025386],[139.7709214413675,35.54451121892561],[139.77092976556736,35.544528909448836],[139.7709185419778,35.54455944911598],[139.77088221185187,35.54455034517565],[139.7708947437851,35.5445208481986],[139.77089412609354,35.544520937116594],[139.77089159697192,35.54451974326525],[139.7708905994856,35.544517500085085],[139.77089159824305,35.54451525793856],[139.77089237386338,35.544514892374956],[139.7708049276615,35.54435390980402],[139.77079669229877,35.544356807115015],[139.770789719034,35.54434358187821],[139.77078435421157,35.54435112194539],[139.7707800214085,35.54434909336835],[139.77076941986456,35.544363956332546],[139.77080936686278,35.544485992198],[139.7708103747977,35.54448613784472],[139.77081094897306,35.54448669700556],[139.77081154465273,35.54448654858469],[139.7708119694837,35.544487691770186],[139.77081225601995,35.544487971350314],[139.77081225674155,35.5444884626094],[139.77081929176188,35.544507401801454],[139.77080540968115,35.54453712432008],[139.77077166256527,35.5445265992889],[139.77078515248223,35.54449770855565],[139.77078411784882,35.544497857650114],[139.77078158321717,35.54449666108942],[139.77078058353123,35.54449441430163],[139.77078158450144,35.544492166748825],[139.77078413312455,35.54449096831782],[139.77078702791,35.54449137995271],[139.77078750069575,35.54449183990791],[139.7707865093375,35.5444888107161],[139.7707660452495,35.544494273353486],[139.77075805375495,35.544474270019236],[139.77077800597894,35.54446895584737],[139.77077984820028,35.5444684619387],[139.77074734687093,35.54436917655906],[139.77074415794607,35.54436976080891],[139.77073839509984,35.54434875087318],[139.7707487228306,35.544334272664045],[139.77071797989808,35.54431974158699],[139.77052541715756,35.5442271703283],[139.77052656432576,35.54422555202539],[139.77051841472806,35.544221715962436],[139.77015841387058,35.544730628783626],[139.77016493621935,35.54473370234189],[139.77016576098342,35.544732558005926],[139.77035847887876,35.54482518670028],[139.77042473211583,35.544856609556334],[139.77040124419332,35.54488974058701],[139.7704179441164,35.544884385116596],[139.7704303045535,35.544909540404014],[139.77042947054525,35.544909813992156],[139.77047762808346,35.54499977639924],[139.77049208535217,35.54499502097821],[139.77049311131694,35.54499468258943],[139.7705194745202,35.54504073041759],[139.7705199437192,35.54504154912599],[139.77052887068737,35.54506127893814],[139.77051310094683,35.54506604089093],[139.7705133619549,35.54506652868002],[139.7705147223354,35.54506588940031],[139.7705176138321,35.54506630013851],[139.77051949175532,35.54506813004122],[139.77051949099553,35.54507051872979],[139.77051810138275,35.54507187189682],[139.7705275070016,35.54508878961508],[139.77051877832284,35.5451188564092],[139.7704811054485,35.54511155713762],[139.77048977665868,35.545081657975196],[139.7704883294844,35.54508186634397],[139.77048579483952,35.54508066887576],[139.77048479295019,35.545078420281804],[139.77048579504023,35.54507617092948],[139.77048834589343,35.54507497070323],[139.77049124400637,35.54507538324832],[139.77049200002517,35.545076119178205],[139.77040694017936,35.5449172125819],[139.77040367143894,35.544918286236936],[139.77039433902806,35.54489948283452],[139.7703853780104,35.544912098547876],[139.7703845257619,35.54491172041973],[139.7703745596859,35.54492614470151],[139.77037229181644,35.54492652931329],[139.770408656562,35.54504817312676],[139.77040948183728,35.5450477859588],[139.7704123755379,35.54504819760207],[139.7704142545605,35.54505002840839],[139.77041425489978,35.545052417998924],[139.77041369199114,35.545052964850214],[139.77042140933295,35.54506668085267],[139.77041285833593,35.54509937799395],[139.77037691048008,35.54509482973702],[139.77038491671198,35.54506206110395],[139.770382452545,35.5450624158675],[139.77037991900445,35.545061219299036],[139.77037891932204,35.54505897340951],[139.77037992031046,35.54505672586026],[139.77038093094365,35.545056249551465],[139.77036936277008,35.54505882059185],[139.77036262444722,35.54503852403378],[139.77036242661995,35.54503763425651],[139.7703514679981,35.54498847111695],[139.77035127237622,35.544987582242186],[139.77035234787348,35.544987370075354],[139.7703648710756,35.544984896885595],[139.77034860825427,35.544930530844624],[139.77034363570965,35.54493137104896],[139.7703378138291,35.54490836538317],[139.77034756793373,35.54489422042521],[139.77031887665996,35.54488058630301],[139.77012641117346,35.544788045113506],[139.77012907983897,35.54478428139742],[139.77012261371274,35.544781236711266],[139.7699192329819,35.54506874071031],[139.77007269369085,35.54536889742586],[139.77004423537437,35.54540954158308],[139.77010202062348,35.545538163578016],[139.77011307685913,35.545534524145616],[139.77013723154775,35.54558816602421],[139.77013761359194,35.54558901533567],[139.77014437394521,35.5456093335494],[139.77013493468053,35.545611427043404],[139.77013638800958,35.545614633154926],[139.77013834318987,35.545614994736354],[139.77014022111584,35.545616826447564],[139.77014022144766,35.54561921513648],[139.7701391022397,35.545620304332886],[139.77014562078685,35.5456339385982],[139.77012838720756,35.54566698811746],[139.7700912655699,35.54565406883463],[139.7701046607609,35.54562838168055],[139.77010425173185,35.5456281885682],[139.7701032520508,35.54562594177522],[139.77010425305332,35.54562369512988],[139.77010689325692,35.545622505775384],[139.77002461243578,35.545437566377075],[139.77001224374874,35.54545523257465],[139.77004247925365,35.54568502318],[139.77004364176867,35.54568496700243],[139.77004437855246,35.54568772654993],[139.77004476453752,35.545689174388016],[139.7700483406878,35.54570257004806],[139.77003470480815,35.545732751409524],[139.76999870200305,35.54572201044859],[139.77001175679072,35.5456972731935],[139.77000981323653,35.54569755340722],[139.7700072796823,35.54569635592966],[139.77000627890092,35.54569410823392],[139.77000728100987,35.545691861589994],[139.7700098296839,35.545690661372866],[139.77001272671498,35.54569107212607],[139.770014246468,35.54569255391105],[139.77001571221618,35.54568977839343],[139.76999962316975,35.545690854319076],[139.7699975386176,35.545669872424774],[139.76999746763633,35.54566897189691],[139.76999405293301,35.54562559872715],[139.76999398415768,35.54562469820043],[139.7699950849222,35.545624624864466],[139.770011006305,35.545623558766664],[139.76999257110162,35.54548332764569],[139.7699562445294,35.5455351926827],[139.76956160574858,35.54557066893748],[139.769294001029,35.54594759199686],[139.76930062928525,35.54595071343129],[139.76930246327132,35.54594814633954],[139.76949483963355,35.54603854436861],[139.76956325887113,35.54607096758084],[139.76954019311876,35.54610351636084],[139.76954577523324,35.546096249588],[139.76957088308615,35.54612284942075],[139.76956745742714,35.54612423124592],[139.76962012548978,35.54621302996109],[139.769628082455,35.54620961518545],[139.76962906107747,35.54620919565381],[139.76965712525478,35.54625338408689],[139.7696576341707,35.546254185693],[139.76966797536048,35.54627346831985],[139.769658073838,35.54627701187173],[139.76966036816663,35.54628087915296],[139.7696615597391,35.546280351566494],[139.769672849008,35.546297397438806],[139.76965952519603,35.54633432403485],[139.76962241341076,35.546325387864876],[139.7696333132395,35.54629515192575],[139.769632012277,35.54629453829204],[139.76963136491054,35.54629308220218],[139.76963201347667,35.54629162679691],[139.76963366957827,35.54629084796777],[139.76963555095395,35.546291112168],[139.7696360755396,35.54629162443568],[139.76963676510783,35.54629131832669],[139.76954283018725,35.546134168686066],[139.76954185158453,35.54613456387944],[139.7695283510723,35.5461202273099],[139.76952299042424,35.54612776822223],[139.76950766777563,35.546120539964086],[139.76951454040756,35.546143774273474],[139.76950867416326,35.54614493126016],[139.76955053897746,35.54625751562435],[139.76955203510923,35.546256795302185],[139.76955307307998,35.54625803436363],[139.76955444305423,35.546259242953326],[139.76955444235548,35.5462601254156],[139.76956281976368,35.54627175329436],[139.769556853446,35.5463073533154],[139.76952356578326,35.546303647210266],[139.76952918859396,35.546270086858925],[139.76952874296316,35.54627015062197],[139.7695271035322,35.5462693763603],[139.7695264561664,35.54626792207265],[139.76952710473353,35.54626646756933],[139.76952875862906,35.54626568964184],[139.76953063779794,35.54626595384254],[139.76953142798254,35.54626672404929],[139.76953378913527,35.546265586840576],[139.76953313429172,35.54626382607578],[139.76951807423504,35.54626757871391],[139.7695100983682,35.54624611776052],[139.7695111551755,35.54624585421204],[139.76952515510888,35.54624236962857],[139.76949026686663,35.54614855682977],[139.76948520367347,35.5461495546941],[139.76947996235964,35.54613176925951],[139.76948709060952,35.54611079674286],[139.7694544983692,35.54609533593497],[139.76926218036283,35.546004948690026],[139.76926355062275,35.54600301412961],[139.76925688046572,35.54599987644585],[139.76889438739045,35.546510441670314],[139.7689005427017,35.54651333932856],[139.7689024529399,35.54651061634308],[139.76909508105774,35.54660177230558],[139.7691116593624,35.546577977180384],[139.7691588857132,35.5465999079466],[139.7691421914513,35.546623903125464],[139.76916426275702,35.54663416730292],[139.76915118582508,35.54665295796859],[139.76916451297973,35.546634345010254],[139.76920969148347,35.5466559736018],[139.76920336578297,35.5466648065819],[139.76926513307072,35.546692449045764],[139.76926760234733,35.54669128575943],[139.7692820159559,35.54669336211038],[139.76929032559042,35.54670145831812],[139.76939364730163,35.5467340822356],[139.7693941942253,35.546732854829955],[139.76939604783666,35.546731982364115],[139.76939815198816,35.54673227823485],[139.76939951635833,35.54673360670837],[139.76939951498176,35.54673534098547],[139.7693990547047,35.54673578963457],[139.769422773844,35.54674327925282],[139.76942559787824,35.54673843036017],[139.76945590596713,35.546748633047436],[139.769476033155,35.54674325338441],[139.76945546666036,35.54678244041574],[139.76944537523866,35.546772234920084],[139.76944199877656,35.54677551780289],[139.76942758295726,35.546777594181954],[139.76941491505482,35.54677161394445],[139.76941106167598,35.5467629567378],[139.76939000212815,35.54675630682194],[139.76939000171308,35.546756829628976],[139.76938862309723,35.54675816295781],[139.76938651736413,35.54675846921578],[139.76938468057423,35.546757602004206],[139.76938395503805,35.546755972804476],[139.7693845704652,35.54675459219858],[139.7692831166221,35.54672255787439],[139.76928200180467,35.54672363985383],[139.76926758709345,35.54672571621436],[139.76925491810889,35.54671973505805],[139.7692510350245,35.54671101022603],[139.76918988515746,35.54668363038849],[139.7691758093867,35.546703284058715],[139.76922234447852,35.546781792992704],[139.76922968784115,35.54677894038597],[139.7692306862995,35.546778553318255],[139.7692567086482,35.54682032863047],[139.76925720984175,35.54682113203687],[139.7692684985907,35.54684159241733],[139.76926291282405,35.54684364822851],[139.76927320716453,35.54686218180585],[139.7692530988448,35.54689231186058],[139.76922197747143,35.54687845084233],[139.76923382716,35.54686067268174],[139.76922969158176,35.546853231296936],[139.76923105741253,35.546852723638025],[139.76922500493612,35.546842520271],[139.76922408609087,35.5468426522871],[139.7692222470957,35.5468417841705],[139.7692215215635,35.54684015316701],[139.76922224748566,35.5468385229352],[139.76922254980153,35.546838380676036],[139.76913895309826,35.54669744956561],[139.76913578885492,35.54669876391315],[139.76912846887558,35.5466875070406],[139.7691286974293,35.54668719618211],[139.76912769194308,35.54668671520492],[139.76912506181753,35.54669041942626],[139.7691183069247,35.54670081338395],[139.76911124327853,35.54670282243017],[139.7691726753437,35.546879911015594],[139.76917392984475,35.54687932127144],[139.7691760351022,35.54687961714664],[139.76917739836682,35.54688094742482],[139.76917739808837,35.54688268170247],[139.76917601946613,35.54688401593023],[139.76917419059654,35.54688428176917],[139.76917898615605,35.546898103557986],[139.76918734748813,35.546909159069266],[139.76917267123042,35.546941842037086],[139.76913933181953,35.54693079756816],[139.7691510830465,35.54691066132255],[139.7691463917131,35.54690307361368],[139.769152430514,35.5468999814485],[139.7691515314862,35.546897388567245],[139.76913355071247,35.546901168446865],[139.7691267398011,35.54687942956055],[139.76912652653772,35.54687854518166],[139.7691146915998,35.54682937336586],[139.76911448054324,35.54682848808674],[139.7691155582663,35.5468282858475],[139.76912682636652,35.54682617988671],[139.76908321328526,35.54670030162967],[139.76907791124145,35.546688199422306],[139.76908878563688,35.546673574725666],[139.76905580602644,35.54665822898315],[139.76886317233243,35.546567036900086],[139.76886397066573,35.546565889855096],[139.7688572629963,35.54656272959465],[139.768495984974,35.5470715761681],[139.7685030355543,35.54707489708049],[139.76850519091033,35.54707187587268],[139.76869780498558,35.5471623996772],[139.76876599994813,35.547194709640465],[139.76875166765427,35.54721492378771],[139.76877283655577,35.547229709834895],[139.76877107241458,35.547249657590754],[139.76881712867018,35.547331022927914],[139.76882896329494,35.547326740437256],[139.768829972774,35.5473263750122],[139.76883042321555,35.547327198223776],[139.76886054992858,35.547382292072754],[139.76887182833343,35.54740186821764],[139.76885984123277,35.54740647783611],[139.76886086220975,35.54740828386958],[139.76886411228506,35.54740725621786],[139.76887338111078,35.54742687185077],[139.76886119078966,35.54745938394077],[139.76882383625818,35.547450036362065],[139.76883630621197,35.547416805114786],[139.76882757998516,35.54740139115601],[139.7688257742687,35.547401651593646],[139.76882393747164,35.54740078257085],[139.76882321194032,35.54739915426929],[139.7688239378749,35.54739752494144],[139.76882508536272,35.547396983818864],[139.76874527628976,35.5472560103066],[139.76874284061196,35.547256505668834],[139.7687290120118,35.54724688131268],[139.76872571493746,35.54725150729139],[139.7687165033924,35.54724717387266],[139.76871114758882,35.547263609683554],[139.76870962970918,35.547263909934955],[139.76872755170172,35.547323912565496],[139.76873415631246,35.54732225033191],[139.7687352120357,35.54732198408551],[139.76875182421918,35.54736767281128],[139.76875213896503,35.54736853831587],[139.76875833826486,35.547389555780676],[139.76875034291353,35.547391133441316],[139.76875922359483,35.5474064735743],[139.76875186001217,35.54743720258098],[139.76871573088007,35.54743333788935],[139.76872595338608,35.54739561291284],[139.76872260797742,35.547383489204734],[139.76872088830015,35.54738373706745],[139.76871904929806,35.54738286894324],[139.76871832377046,35.54738123883827],[139.76871905081066,35.54737960861024],[139.76872090444425,35.547378736154904],[139.76872130918207,35.54737878594831],[139.76869063636644,35.54726765495273],[139.76869015761682,35.54726774934223],[139.76867837952173,35.54725244911439],[139.76869299444635,35.54723604080337],[139.76865723658454,35.54721907816992],[139.7684649289492,35.54712866083048],[139.76846596136448,35.54712720473679],[139.76845886226954,35.54712386216276],[139.76793722134184,35.54785855985721],[139.76789077308902,35.54826307199809],[139.76731126818845,35.547988782640225],[139.76734038279048,35.54794820260315],[139.76748949652944,35.54774036641796],[139.76748920105615,35.547740225639515],[139.7675300954313,35.54768278244159],[139.7672826516768,35.547564521585365],[139.76749455113242,35.547268343705376],[139.7676355163994,35.54733567702887],[139.76812830908236,35.546643919004225],[139.76812889784063,35.54664417171229],[139.76828843935877,35.54641898112558],[139.7681447034324,35.546350373391206],[139.7681371918597,35.546360738942276],[139.76797755687085,35.546283451021544],[139.76797796211468,35.54628286984342],[139.76797738882092,35.54628259190402],[139.76804024462348,35.546192429077145],[139.7679021294892,35.54612690775629],[139.76769453771078,35.54602842694295],[139.76768906733744,35.54603642291696],[139.7675103112043,35.545954887421765],[139.76745073240636,35.54603887272467],[139.76743688285447,35.546032384149555],[139.76733240536888,35.54598288115931],[139.76817771582583,35.544792278415144],[139.76805406518355,35.544733719308624],[139.768015977929,35.54471565461789],[139.76802490076207,35.54470295523023],[139.7679658225253,35.54467477454816],[139.76796609415524,35.54467438439263],[139.76789034998012,35.5446381434041],[139.76787343465833,35.54463019386013],[139.7679165011386,35.544569850999686],[139.7678253051346,35.54452726209582],[139.76783679976225,35.5445107043576],[139.767928244925,35.544553396146725],[139.76793680101534,35.54454140686333],[139.76789580957265,35.54452244727955],[139.7679744710249,35.54440890010663],[139.76801725065806,35.5444286836036],[139.7680840539099,35.54433508224945],[139.7680999393074,35.54434275898671],[139.76810073428285,35.544341658816904],[139.76823402394714,35.544405331272245],[139.76824175973252,35.544394322238716],[139.76840534839187,35.544471655227724],[139.76895595862112,35.543696114044195],[139.76896870426415,35.54370215296468],[139.76906098313083,35.543745928720256],[139.7688891969762,35.543987782434954],[139.76906170669145,35.54406929906142],[139.7692875722947,35.54417602958824],[139.76929311224933,35.5441786483705],[139.76944863729452,35.543965117133375],[139.76950146963267,35.543990804141096],[139.76950246994946,35.543989418329346],[139.76960476611885,35.54403708757492],[139.7696043321944,35.54403770479927],[139.76971328716252,35.54409030087548],[139.76971383034171,35.54408959627333],[139.77002393210034,35.54423757607379],[139.77075870806527,35.543207457296745],[139.7707953564517,35.54322489481325],[139.7708429493315,35.54315768012267],[139.77081168005847,35.54314262869074],[139.77085495839017,35.54308255979896],[139.77088566869304,35.5430973477238],[139.77094147137265,35.54301856967555],[139.7710144308961,35.543053046899054],[139.77101491116852,35.54305237380714],[139.7710479736552,35.54266812190044],[139.77104810173574,35.54266650486857],[139.77097356289443,35.54263104342759],[139.77128204206772,35.54219806904652],[139.7713529513434,35.5422317959575],[139.7716552438461,35.54180663158357],[139.77167391838424,35.54181553517353],[139.77169703802318,35.54182657913569],[139.77171773556722,35.541836467172054],[139.77182867789622,35.54168184484001],[139.77195021474677,35.54151011034923],[139.77198472288026,35.541462637137876],[139.77199110817028,35.541461510039646]]]}},{"type":"Feature","properties":{"height":9.0,"gml_id":"bldg_44852dd3-031a-4fc0-9a3e-f36e3e110a66"},"geometry":{"type":"Polygon","coordinates":[[[139.76386738195666,35.54534533911284],[139.7638745190695,35.54538221015596],[139.76385962816755,35.54538409540257],[139.76386775385714,35.54542565335226],[139.7638840787034,35.54542358955348],[139.76389385115837,35.545473982992156],[139.76383351521292,35.545481790343885],[139.7638157274968,35.5453897479709],[139.7637603552424,35.54539692717315],[139.76375321810266,35.54536014626257],[139.76386738195666,35.54534533911284]]]}},{"type":"Feature","properties":{"height":3.8,"gml_id":"bldg_a350f669-94d8-44f1-937b-9e9a3bf48b27"},"geometry":{"type":"Polygon","coordinates":[[[139.76659790096417,35.543011455111575],[139.7665830146009,35.542995158712905],[139.76661254251349,35.54297712917847],[139.7666274399082,35.54299342557965],[139.76659790096417,35.543011455111575]]]}},{"type":"Feature","properties":{"height":5.1,"gml_id":"bldg_b68b9aa4-0a77-4322-82ae-24f7782eec52"},"geometry":{"type":"Polygon","coordinates":[[[139.76345196569747,35.54541541668536],[139.76346294349756,35.545474554359394],[139.76343558953744,35.54547787365756],[139.76342461057584,35.545418826119615],[139.76345196569747,35.54541541668536]]]}},{"type":"Feature","properties":{"height":5.4,"gml_id":"bldg_3a07ccb8-152e-4075-ab97-1c20237cdbae"},"geometry":{"type":"Polygon","coordinates":[[[139.7700685498651,35.54290745635709],[139.77009301160606,35.542918742902046],[139.7700852804841,35.54292993414095],[139.77010187711446,35.54293765696026],[139.7701006592688,35.542939406825695],[139.77011966166623,35.54294803680333],[139.77010205155622,35.54297394981305],[139.77013682277578,35.54298975502578],[139.77013729202713,35.54298908103019],[139.7701609655202,35.543000017407905],[139.77012063390114,35.54305830283898],[139.77010225339765,35.54304980388962],[139.77010202152957,35.54305013998739],[139.7700968343359,35.54304779004174],[139.77009368860436,35.54305241884473],[139.77007765405315,35.5430451614377],[139.77008083178643,35.54304051011712],[139.77004282586387,35.543023242033726],[139.77004184653583,35.543024611636156],[139.76979335101757,35.5429067329771],[139.76978280589637,35.54290181122642],[139.76984203778738,35.54281675639249],[139.76989532679485,35.54284154658723],[139.7699020608939,35.542831809683264],[139.76993276811677,35.542845963269386],[139.7699259743799,35.54285580831077],[139.76997184931312,35.54287715395835],[139.76997531849688,35.542872131419855],[139.76999979456343,35.54288340266762],[139.76999626575463,35.542888515314736],[139.77001571115582,35.54289756378753],[139.77002190864502,35.54288859368013],[139.77004636817503,35.5428998712195],[139.77004012430248,35.54290892333049],[139.77006086070955,35.5429185718995],[139.7700685498651,35.54290745635709]]]}},{"type":"Feature","properties":{"height":21.4,"gml_id":"bldg_a51ef926-e19d-405c-b242-a576132eeae5"},"geometry":{"type":"Polygon","coordinates":[[[139.76689047893777,35.54829127126469],[139.76688778499633,35.548282566844776],[139.7669060975602,35.54827150424003],[139.76690715550257,35.54827124432064],[139.76697144944083,35.548255499959744],[139.7669717862359,35.54825635826987],[139.76697552625524,35.54826582584085],[139.76697586415335,35.548266684151564],[139.7669748117156,35.548266956694064],[139.76691143820608,35.548283337946174],[139.76691039128414,35.548283608688344],[139.7669121378307,35.54828825722528],[139.76699780062182,35.548266782754595],[139.76699725672782,35.548264274784046],[139.76702241252923,35.54826056587281],[139.7670415140612,35.5482691377924],[139.76706162723718,35.54824123184962],[139.76714587296507,35.54812274062036],[139.7665887805615,35.54785855206617],[139.7665051145847,35.54797686926386],[139.76653158376868,35.54798930781047],[139.7665028982228,35.5480280373326],[139.7664776794618,35.54801597084639],[139.7664657494505,35.54803257958289],[139.7664581917494,35.5480289770365],[139.76644370910924,35.54804873111316],[139.7664220020964,35.548048653268715],[139.76642208208722,35.548049284287195],[139.76621331006322,35.548068911442776],[139.76620298457553,35.548069881902144],[139.76610312481884,35.54807926924729],[139.7661000396365,35.54807955867666],[139.7661005081433,35.5480851376504],[139.76610160893142,35.54808508057508],[139.76616528585907,35.54808180524936],[139.76616540533146,35.54808270310193],[139.76616655629232,35.54809125614639],[139.7661666768684,35.54809215309819],[139.76616557386836,35.54809221738401],[139.76610304149924,35.54809584218654],[139.76610194180867,35.54809590557223],[139.7660881969616,35.548097140025796],[139.7660818764671,35.548092588079065],[139.7660809428281,35.54808135441642],[139.7660753680997,35.54808187862129],[139.76607583902558,35.548084558721136],[139.7660514173402,35.54808749535205],[139.7660146113258,35.548071170439286],[139.7660349819147,35.54804048041207],[139.76607079896937,35.548056335142064],[139.76607138520288,35.54805961563304],[139.76609840508897,35.54805707525629],[139.7660971868136,35.54805650039056],[139.76609656922003,35.54805511190315],[139.76609718802905,35.54805372320376],[139.76609877027354,35.5480529804379],[139.766100565661,35.548053230223005],[139.76610172722116,35.548054362117064],[139.7661017270901,35.54805584039922],[139.76610067733571,35.548056861991974],[139.76641156583955,35.548027635137885],[139.7664091502484,35.548021167213946],[139.76643066215598,35.548015785223576],[139.7664227593898,35.54801199769824],[139.7664267445401,35.54800643561908],[139.76640241548424,35.54799881978107],[139.76640243803527,35.547998227579306],[139.76616526109393,35.54798321462847],[139.76616526165864,35.54798386002516],[139.76616407945266,35.54798500142982],[139.76616227591745,35.547985265434335],[139.76616070594324,35.5479845227145],[139.76616013918604,35.547983012567855],[139.76613277777227,35.547981157582726],[139.76613270128593,35.547982938689906],[139.76611214511297,35.547983642937524],[139.76607653738753,35.54797337606297],[139.76609129849058,35.54794384208653],[139.76613374128831,35.5479565897901],[139.7661336590128,35.547958699902004],[139.76613534312048,35.54795880630331],[139.76613535007732,35.54795839977958],[139.7661526954016,35.54794335440154],[139.7661681819379,35.54794456458333],[139.76616927485009,35.54794469138689],[139.7662311275731,35.5479517918304],[139.7662310948307,35.547952700414925],[139.76623077024868,35.54796234692728],[139.7662307397137,35.54796325371025],[139.76622963797308,35.547963132310684],[139.76616792289983,35.54795628343134],[139.76616682998295,35.547956162036115],[139.76616675553154,35.547960794246116],[139.7664032662647,35.54797576355747],[139.76640328864795,35.54797537326731],[139.7664226571145,35.547974464596535],[139.7664424046592,35.54798458285643],[139.76646253354355,35.54795651927752],[139.76646414431698,35.547957276438325],[139.76654773081702,35.547839085419504],[139.76599405238056,35.54757651039061],[139.76601262881752,35.54755056338701],[139.76600450670725,35.54754668557239],[139.76581881710445,35.547654457600714],[139.76584012864126,35.54766436500829],[139.76581191582116,35.547704672068],[139.76578508073916,35.54769214572299],[139.7657732794739,35.5477089969383],[139.7657674923916,35.54770630754879],[139.76575733255274,35.547721539881415],[139.76572919319807,35.54772418141162],[139.76572888292856,35.547721962011444],[139.76539569241945,35.5477738364318],[139.76539731064722,35.54778273858583],[139.7653983927813,35.54778256342409],[139.76545696486,35.547773007403414],[139.76545804699532,35.547772830438376],[139.76545820727273,35.5477737229063],[139.7654603074436,35.5477853015625],[139.76546046882171,35.54778619673522],[139.76545938557265,35.54778638631914],[139.7654013666626,35.5477965339655],[139.7654002867228,35.547796722649366],[139.76538803597055,35.54779846985533],[139.76537191661808,35.54779306233728],[139.76536917862092,35.54777796338579],[139.76536829394536,35.54777810080008],[139.7653687882108,35.54778054024441],[139.76535717507625,35.5477821507951],[139.76533796619358,35.54778481259149],[139.7653014883842,35.54776676959301],[139.76531740655608,35.54774526505849],[139.76532141479947,35.547739858969436],[139.765349986707,35.547753989972385],[139.76536292241713,35.54775219898816],[139.76536339915313,35.54775449870693],[139.76537888649017,35.54775208810037],[139.76537922242164,35.5477513329235],[139.76538080687422,35.547750588365474],[139.76538260556075,35.54775083906453],[139.76538319845568,35.54775141719067],[139.76572555661295,35.54769812554883],[139.7657252792805,35.547696086445434],[139.76574220413934,35.5476944995687],[139.7657319144245,35.54768969389019],[139.76574039408604,35.54767756591208],[139.76571926800327,35.54767667521153],[139.76571938871746,35.547674773342834],[139.76545766898596,35.54768217005759],[139.76545766888336,35.54768360056607],[139.76545648446515,35.547684742863986],[139.76545468093587,35.54768500505515],[139.76545310986955,35.54768426412826],[139.76545249008862,35.547682870227895],[139.7654527398257,35.54768230970287],[139.76542797821452,35.54768300876237],[139.76539843389077,35.54768544300554],[139.7653690457131,35.547675363309295],[139.76538490891045,35.54764445992382],[139.76542616351438,35.547658583632455],[139.76542670576632,35.547662976419296],[139.76543231655913,35.5476628173283],[139.7654317513792,35.54765814689992],[139.76544153119565,35.5476463198383],[139.76545488899714,35.547644903159345],[139.76545600076503,35.54764489837679],[139.76552236270354,35.54764463104266],[139.7655224479747,35.54764553158086],[139.76552345608505,35.547655984685306],[139.76552354245916,35.54765688522413],[139.76552243619975,35.547656897221536],[139.76545799197808,35.54765750455842],[139.76545688571866,35.54765751655521],[139.76545712670946,35.547659481724665],[139.7654582948695,35.54766061723427],[139.7654582936328,35.54766208469917],[139.76572066624624,35.54765468023654],[139.76572083268488,35.547652178066656],[139.76575707733303,35.54765370731299],[139.76577133008442,35.54763332311597],[139.76577085710858,35.54763310201002],[139.7660063083826,35.547495858003415],[139.7660399507242,35.54751239929149],[139.76615550562542,35.54735103078012],[139.76735597659535,35.547919469363],[139.76735008345057,35.54792768683007],[139.7673496406643,35.54792830404103],[139.7673065722215,35.54798832757049],[139.7673150130918,35.54799232535678],[139.76731609686593,35.54799283884194],[139.76789433278512,35.54826655330136],[139.76790466332096,35.54817927085091],[139.76820077632604,35.548319458730106],[139.7709134670264,35.549603860154576],[139.77079498552433,35.54977103300528],[139.77083328742526,35.549785010007476],[139.77084954700368,35.550030045445034],[139.7708489757653,35.55002991444729],[139.77085121356467,35.550040037330014],[139.7708769431668,35.550052132007295],[139.77085725547323,35.55008007755876],[139.77081664224986,35.550060994787465],[139.7707974127725,35.55008828976216],[139.77078337041354,35.55008170322362],[139.7707923824673,35.55009208922185],[139.7707604789346,35.550110561107985],[139.77075909483088,35.550108975743825],[139.77062928891132,35.5501829044276],[139.7706300130169,35.550183609692134],[139.77063001272674,35.550185398953715],[139.7706294243949,35.550185971932635],[139.77062984313017,35.55018647963367],[139.77063077882468,35.550186002382844],[139.77068442015548,35.55015862616569],[139.77068503503315,35.55015937463993],[139.77069119044674,35.55016683594941],[139.7706918075305,35.550167584424756],[139.77069087954828,35.55016807339816],[139.7706387006282,35.550195617135884],[139.77063777485128,35.55019610611003],[139.77061173125148,35.55021045713793],[139.77060300171613,35.55019988288261],[139.7705900234957,35.5502063318948],[139.77053826512224,35.5501952052198],[139.77054697549434,35.5501680986094],[139.7705815678206,35.550175530559684],[139.77059340952712,35.550169653340525],[139.77059475484893,35.55017146403422],[139.77060753517384,35.55016418563854],[139.77060679747206,35.550162527596186],[139.77060756204602,35.5501608387866],[139.77060947310108,35.55015993658662],[139.77061163027813,35.55016024688591],[139.7706126695939,35.55016126059034],[139.77074102996252,35.55008814963714],[139.77073888880278,35.550085681417656],[139.77076261562186,35.55007193940175],[139.77075580283855,35.55006873412445],[139.77076019752147,35.550062494270136],[139.77074120366225,35.55006191924001],[139.77065122130543,35.55007837967791],[139.77065122077153,35.55007906563641],[139.77064979906854,35.550080444026094],[139.77064762927176,35.550080761990664],[139.77064573395603,35.55007986772657],[139.77064553686762,35.550079425942364],[139.77063086300987,35.5500821251911],[139.77063153023593,35.55008505235565],[139.7706076711515,35.55008873024294],[139.77056379191245,35.5500698602187],[139.77058237965204,35.55004099832916],[139.7706108444815,35.55005322969526],[139.77062374860958,35.550051244331925],[139.7706244246533,35.55005417871223],[139.77063051283523,35.550053058744616],[139.77062690715377,35.550040388716035],[139.77064130087496,35.55003765597064],[139.77064238082974,35.55003747084549],[139.77070370217194,35.55002696634744],[139.7707039496573,35.550027845332515],[139.77070634097694,35.550036260161114],[139.77070659066828,35.55003713914734],[139.77070550740822,35.55003731976438],[139.77064518794361,35.550047329018966],[139.77064411130252,35.55004750783611],[139.77064493737862,35.55005040714005],[139.7707358850104,35.550033684902964],[139.7707356247073,35.550032267780686],[139.7707566815822,35.55002940777859],[139.77077668972464,35.55003907476534],[139.7707925460048,35.55001642922351],[139.7707787777049,35.5498118053462],[139.7707691145922,35.54980753585045],[139.77075142563555,35.549832472677075],[139.77022512821628,35.54958293843325],[139.77014125594673,35.54970160414809],[139.77016771071305,35.549714176193326],[139.770140000073,35.54975309457026],[139.77011362136204,35.54974057483958],[139.7701010082542,35.549758268848294],[139.77009888912374,35.5497572798121],[139.7700879688323,35.54977246523356],[139.77006121350115,35.549784460434694],[139.77006009089135,35.5497827850605],[139.76989631403288,35.54983905760461],[139.7698986115026,35.549843280930304],[139.76989963642515,35.54984294705328],[139.76996231115987,35.54982250400144],[139.76996275721365,35.54982332900893],[139.76996790394378,35.54983279722414],[139.7699683511013,35.5498336213308],[139.76996732397325,35.549833955207255],[139.76990562459935,35.549853963402704],[139.76990459967882,35.54985429457558],[139.76989542474695,35.54985763120682],[139.7698872471863,35.54986060420004],[139.76988357299592,35.549853851747],[139.7698787985328,35.54984507599268],[139.7698640335182,35.5498501015913],[139.76984335154663,35.54985731355244],[139.76980401053072,35.54984505734604],[139.7698178165316,35.54981553684116],[139.76985497942076,35.54982467488521],[139.76987558627656,35.54981759538705],[139.76987629893065,35.54981602373557],[139.76987821108935,35.549815120646294],[139.7698803682529,35.54981543276146],[139.7698807628135,35.549815816961804],[139.7700445054293,35.54975956244842],[139.77004224699814,35.54975618284824],[139.77007022153217,35.54974364204776],[139.77005866342688,35.5497381438058],[139.77006248060343,35.549732781628755],[139.7700451922658,35.54973329356047],[139.76991233958555,35.549744586699575],[139.76991233845834,35.54974601810846],[139.76991091454053,35.549747399192505],[139.76990874033797,35.549747717141486],[139.76990684173077,35.54974682106121],[139.76990609745786,35.54974512695537],[139.7698865625741,35.549746777942715],[139.76988663782058,35.54974926762525],[139.7698668513707,35.54974963038879],[139.76982475029,35.54973938824733],[139.76984016035524,35.54970659563211],[139.76988559504196,35.5497176669996],[139.76988565538647,35.54971947161685],[139.76988807435933,35.5497192655696],[139.76988506767486,35.5497038547022],[139.76990832615442,35.54970082293932],[139.76990943027513,35.549700760422674],[139.76997689750522,35.54969687303443],[139.76997706996775,35.549697767305275],[139.7699793011259,35.54970917107833],[139.76997947579514,35.549710064448945],[139.769978371663,35.54971014138849],[139.76991215902333,35.54971476136719],[139.7699110615096,35.54971483740822],[139.76991153828126,35.54971727141565],[139.77003803077588,35.54970651757666],[139.77003766931975,35.54970471009723],[139.7700652292974,35.54970036813606],[139.77008050756547,35.54970745567909],[139.77009904455082,35.549681539582735],[139.77018296974668,35.549562946937314],[139.76948714357084,35.54923299126162],[139.76939876332153,35.549350958205444],[139.7694252465408,35.549363521415344],[139.76939740196408,35.549402742420305],[139.76937222853255,35.54939084061901],[139.76936076691044,35.54940702172586],[139.7693568704863,35.54940519343968],[139.76933034798415,35.54942817836692],[139.7693274721047,35.5494259693329],[139.7692527607024,35.54948542509119],[139.76925353995077,35.54948611416832],[139.76926345302297,35.54949491341026],[139.769264202513,35.54949557542976],[139.7692144935423,35.54953639555895],[139.7692137154419,35.54953703513309],[139.7691988010275,35.54954824682016],[139.76918692716595,35.54953770594317],[139.7691792324122,35.54954382319852],[139.7691797624721,35.549544409384914],[139.76916332999542,35.54955609078625],[139.76911191321943,35.54955582184052],[139.76911768996936,35.54952612767637],[139.76916089961838,35.54952354926379],[139.76916205230484,35.54952482444464],[139.76917651763856,35.54951383156125],[139.76917616752314,35.54951304355891],[139.769176802842,35.54951164583888],[139.7691783861927,35.54951089942781],[139.76918006030394,35.54951113918721],[139.76930993027537,35.549412444557746],[139.76930800678036,35.549410962550375],[139.76932957356826,35.54939226291664],[139.76931874984416,35.54938713456377],[139.76932532757374,35.549377859132306],[139.76932295594293,35.549376796034316],[139.76930593476095,35.54938126060327],[139.7693057918938,35.54938060882142],[139.7692090916983,35.54940141563441],[139.76920909098348,35.549402313419854],[139.76920791211006,35.549403453053095],[139.76920611296484,35.54940371710539],[139.76920454403563,35.54940297713007],[139.76920430732184,35.54940244518323],[139.76918254210378,35.54940712805261],[139.76918286895676,35.54940804133597],[139.7691633931662,35.54941313104595],[139.7691200322089,35.549402203831484],[139.76913080227044,35.549373632754396],[139.76917417315846,35.549384537435536],[139.76917437566934,35.54938508288508],[139.76917983627962,35.549383905869014],[139.76917146287164,35.549364151928046],[139.76919523600364,35.54935741766042],[139.76919632917955,35.54935724337193],[139.76925948078875,35.54934714440378],[139.76925984408177,35.54934800542562],[139.7692632766809,35.54935610264581],[139.76926363997757,35.54935695916069],[139.7692625611102,35.54935717131582],[139.769201376748,35.54936919940807],[139.76920030449878,35.54936941066479],[139.7692042236948,35.54937864840554],[139.76930078490372,35.549357825297534],[139.76930042446043,35.549356153926446],[139.76932433854643,35.549353850047005],[139.76933777302574,35.549360311140106],[139.76935806821646,35.54933171535126],[139.76944644965005,35.549213694354044],[139.76877088424243,35.54889333967268],[139.76868505213577,35.549012830815556],[139.7687098923465,35.549024617204246],[139.76868259964104,35.54906306314534],[139.76865680570302,35.54905085258558],[139.76864358722187,35.54906946734113],[139.76863708442357,35.5490664063326],[139.7686258244614,35.54908131471388],[139.76859841375864,35.54908535716477],[139.76835100807023,35.549165528156045],[139.76835323700521,35.54916981457206],[139.768354313692,35.54916957087519],[139.76842228402128,35.54915409093063],[139.7684226759931,35.54915493754819],[139.76842544184842,35.54916087199547],[139.76842583382245,35.549161715908845],[139.76842477917052,35.54916199026553],[139.76835957060587,35.54917889229251],[139.76835851043867,35.549179166645644],[139.76834955055728,35.549182552852045],[139.76834363357176,35.54918478781815],[139.76833386417792,35.54918263002976],[139.76832872242576,35.549172749810715],[139.76831991738982,35.54917560157326],[139.7683201078564,35.54917602983688],[139.76829609038367,35.54918346598432],[139.76825792887757,35.549165898910246],[139.7682777105291,35.54913717142219],[139.76830871427478,35.54915142922812],[139.76830998157507,35.549154163831716],[139.76833470637516,35.54914630711294],[139.7683349052674,35.54914586193277],[139.76833649303197,35.54914511373232],[139.76833786827228,35.54914530196301],[139.7685890005155,35.549065500767014],[139.76858864385088,35.549064637042505],[139.768607840652,35.549052551576196],[139.76860334118692,35.54905042007435],[139.76860850115938,35.54904315041783],[139.76859859706414,35.54903843533096],[139.76858094500886,35.54904154286504],[139.76858018737403,35.54903867693475],[139.76848801027634,35.5490599353939],[139.7684894363354,35.549064129433795],[139.7683979508066,35.549085306169246],[139.76836569202484,35.5490927730467],[139.76836400888033,35.54908870506163],[139.76834976578616,35.54909351261995],[139.76831177089846,35.5490799938015],[139.76832691541995,35.549051572981675],[139.76836165529093,35.549063937162],[139.76836343263574,35.54906744813796],[139.76837272344176,35.54906536732356],[139.76836522037567,35.549048501852795],[139.76838295911324,35.54904323105748],[139.76838403797942,35.549043018008824],[139.76844869712158,35.54903026477743],[139.76844915417487,35.54903110241602],[139.76845352429433,35.549039075772065],[139.76845398134992,35.549039910706476],[139.76845289805684,35.549040142682614],[139.76838885687957,35.549053873357394],[139.76838779013343,35.549054101736296],[139.76839098623896,35.54906127763223],[139.76857525340301,35.54902001187637],[139.76857441441925,35.54901681058472],[139.76860547375753,35.54901130984366],[139.7686246303526,35.54902041877044],[139.7686438866024,35.54899334679571],[139.7687311278218,35.54887448741072],[139.7680404370032,35.548546951751],[139.76803837196658,35.54854597262303],[139.76795105401936,35.54866478099344],[139.76797648155758,35.54867697708398],[139.7679488842459,35.54871537221807],[139.76792272901488,35.548702849423336],[139.7679118095597,35.5487180346507],[139.7679071282226,35.54871580657521],[139.76789448388791,35.54873352557798],[139.76787527091165,35.5487396905832],[139.76787508584306,35.54873941014998],[139.76764045182128,35.54883151833955],[139.7676397486861,35.54883219490148],[139.767638572793,35.54883236822943],[139.76764236662288,35.548838195087995],[139.76764335850473,35.5488377981147],[139.7676971110033,35.54881626069219],[139.76769767618643,35.54881703799928],[139.7677034767707,35.548824991429356],[139.76770404305694,35.54882576873701],[139.76770304456076,35.548826162101655],[139.7676497943926,35.54884709857228],[139.76764880030993,35.5488474892347],[139.76763706835416,35.54885265773208],[139.76762849447576,35.548850682618834],[139.76762275119856,35.54884279321522],[139.7675931328186,35.548854439274635],[139.76754979402529,35.548833210405],[139.76756939332196,35.548806492133764],[139.76759625611646,35.548819643660536],[139.76761952494348,35.54881048107933],[139.76762068695123,35.548812455759915],[139.76762408958706,35.54881108479489],[139.76762469406071,35.548809667235474],[139.76762627520307,35.54880892444906],[139.76762806950993,35.54880917330942],[139.76762835054083,35.54880944658418],[139.76786102724273,35.548718109847606],[139.7678604081546,35.548717159444834],[139.76787249432135,35.548713106139175],[139.7678797227517,35.54870266293543],[139.76787075481369,35.548698361134015],[139.76787606824428,35.548690963594154],[139.76785430630903,35.548693107006294],[139.76785404746946,35.54869131399803],[139.76769691455507,35.54875009484419],[139.76769741600216,35.54875058276994],[139.76769741589817,35.5487520637561],[139.76769623480558,35.54875320517625],[139.76769443456772,35.54875346830405],[139.76769286566585,35.548752727407596],[139.76769243850023,35.54875176899592],[139.76767468542945,35.548758409797166],[139.7676750334151,35.548759082424695],[139.76764944399505,35.548768239245724],[139.76760711006406,35.54875372090204],[139.7676233007063,35.548722189135894],[139.76766247995118,35.54873562498754],[139.76766384994184,35.54873818298132],[139.76767151773177,35.54873542258913],[139.76766064262225,35.548716449586934],[139.76767430037683,35.54871120641888],[139.7676753241934,35.548710869855924],[139.76773985442952,35.54868962943122],[139.7677402993513,35.54869045444648],[139.76774471775062,35.548698626161006],[139.76774516377466,35.54869945207823],[139.7677441355504,35.54869978413242],[139.7676806228001,35.548720327436314],[139.76767960009155,35.54872065769019],[139.76768479657648,35.54872956085901],[139.7676858100728,35.54872970743619],[139.76768623768055,35.54873012321046],[139.76785108839763,35.54867077418567],[139.76785093708924,35.548669668096124],[139.767872949717,35.54866440690745],[139.7678897228302,35.54867195164464],[139.76790927162853,35.548644753749706],[139.76791099599112,35.54864556323343],[139.76799803485653,35.548526844879625],[139.7672060649135,35.54815128556073],[139.76718750292233,35.54814248320673],[139.7671030025584,35.548260847228676],[139.76712898546344,35.54827336379764],[139.76710087785352,35.54831233084357],[139.7670755784801,35.54830016528551],[139.76706350837736,35.54831689298712],[139.76706103211953,35.548315718014436],[139.7670627767795,35.54831730902796],[139.76703364576562,35.54833863796695],[139.76703176994607,35.548336936009726],[139.7668906850498,35.548429148229786],[139.7668989062853,35.548437367140494],[139.76689974500738,35.54843678620502],[139.76694809068707,35.548403308106465],[139.76694894044311,35.54840272086699],[139.7669495541638,35.54840347657096],[139.76695540488785,35.548410689121255],[139.76695602191452,35.54841144843259],[139.76690850132863,35.54844615738824],[139.76690767692705,35.54844675996506],[139.76689296368878,35.54845595867242],[139.76687785404778,35.54845499667413],[139.7668712715519,35.54844841288809],[139.7668672953858,35.54844443555985],[139.76686440078367,35.54844632688655],[139.7668656503843,35.54844771571832],[139.76684565830354,35.54845972204887],[139.76680623017586,35.54845816613448],[139.7668078754459,35.548430528574855],[139.76683610677165,35.548431634830095],[139.7668458892849,35.548425757743075],[139.76684666506037,35.548426608183036],[139.76686216326476,35.54841647877652],[139.76686272791764,35.54841521263265],[139.76686431788806,35.54841446355132],[139.76686508876557,35.548414566734884],[139.7670117796651,35.548318692569865],[139.76701008019288,35.54831714304447],[139.76703148258395,35.54830148412178],[139.7670216139979,35.54829673106599],[139.7670261169657,35.54829048689862],[139.76700373762296,35.54829377728941],[139.76700351126254,35.54829274867713],[139.76694371354472,35.54830773836162],[139.76692053247766,35.54831354858634],[139.76690089260688,35.548318471985475],[139.76690098393752,35.548318731636556],[139.76688076370257,35.548323909806484],[139.76683899957868,35.548319699820134],[139.76684313840067,35.54829230701008],[139.76687422354735,35.548295433045645],[139.76689047893777,35.54829127126469]]]}},{"type":"Feature","properties":{"height":23.3,"gml_id":"bldg_bf21df24-716d-4330-8013-97127cbcfcd3"},"geometry":{"type":"Polygon","coordinates":[[[139.76906952251323,35.543769770589314],[139.7694480666657,35.543950368251494],[139.76932853268244,35.544117669063986],[139.7689500012462,35.54393707284091],[139.76906952251323,35.543769770589314]]]}},{"type":"Feature","properties":{"height":8.6,"gml_id":"bldg_30b8986d-baac-430c-a22c-02ac06bd588c"},"geometry":{"type":"Polygon","coordinates":[[[139.7669208625003,35.545203267550754],[139.766906240331,35.54512816723131],[139.76708280678577,35.545105313119166],[139.76709742469956,35.54518041882359],[139.7669208625003,35.545203267550754]]]}},{"type":"Feature","properties":{"height":9.9,"gml_id":"bldg_264284e2-7781-4651-9943-b449b94dacad"},"geometry":{"type":"Polygon","coordinates":[[[139.7642964070432,35.54418183423896],[139.76405358406404,35.54428331793358],[139.76391502610267,35.5442208979719],[139.76327789630685,35.54448639513589],[139.76331328307893,35.54454312226525],[139.7632844759821,35.544555121091996],[139.7632355204589,35.54447664358876],[139.76391583411484,35.54419193670709],[139.7640543601427,35.54425295859057],[139.7642815075463,35.544157991998176],[139.7642964070432,35.54418183423896]]]}},{"type":"Feature","properties":{"height":3.7,"gml_id":"bldg_b0a6a1cb-b35d-4039-8310-b0f8c0a54b67"},"geometry":{"type":"Polygon","coordinates":[[[139.76665644937535,35.54302879423058],[139.76662984562157,35.543044960412296],[139.7666095821436,35.543022701937836],[139.76663619692954,35.5430065276541],[139.76665644937535,35.54302879423058]]]}},{"type":"Feature","properties":{"height":19.1,"gml_id":"bldg_9b1093cd-a72c-4b0d-a2cd-ac400eb4110b"},"geometry":{"type":"Polygon","coordinates":[[[139.77127915803052,35.54860178091215],[139.77126186971995,35.5486126004308],[139.7712627833825,35.54861349057455],[139.7712627830634,35.548615335722864],[139.77126131945326,35.54861675466115],[139.77125908461784,35.54861708071586],[139.7712571308954,35.54861615758657],[139.77125692499956,35.54861569506672],[139.77111723676705,35.54870311934868],[139.77110822953827,35.548716613940506],[139.77110911601432,35.54871700199629],[139.7711049154211,35.548723411426536],[139.77112642096887,35.54872324494846],[139.77112644583082,35.5487253280771],[139.77127114259002,35.54872809779609],[139.77127060454328,35.548727844228175],[139.7712698327084,35.54872610955363],[139.77127061714685,35.54872437027173],[139.77127258553418,35.548723441950145],[139.771274808845,35.54872376218697],[139.77127626034726,35.54872517631587],[139.7712762600278,35.54872702236554],[139.77127507787563,35.54872817373553],[139.7712914631369,35.54872848683728],[139.77129139973323,35.548726318056644],[139.77132583456105,35.548725581303934],[139.77135429054843,35.54874024624959],[139.77133261348268,35.54876835671851],[139.77130871528564,35.548756057560816],[139.7712935416741,35.54875638417139],[139.77129390025075,35.54876625639575],[139.77126742330833,35.548766892674145],[139.7712663181721,35.54876685965522],[139.77119748318643,35.54876480598967],[139.77119638025624,35.54876477297125],[139.77119638646644,35.54876387158294],[139.77119645481076,35.54875248524054],[139.77112675015087,35.54875115580525],[139.7711267704395,35.54875344805434],[139.77108570826053,35.54875376759057],[139.77111459705375,35.549013376941026],[139.77122772001945,35.549067507026706],[139.77106914058058,35.5492890070979],[139.77073609686477,35.54912963722288],[139.770735753449,35.54913014542939],[139.77054794482981,35.54917230772423],[139.7704091127264,35.54936309327637],[139.7703541435308,35.549337297404286],[139.77049207094262,35.549146959434765],[139.7704425752478,35.54898917840613],[139.77028225186913,35.54891245837975],[139.7704408194858,35.5486909674366],[139.77048995321357,35.54871447790738],[139.77048558811254,35.548499129589324],[139.77044114072996,35.54847873767087],[139.7704700720483,35.5484366136028],[139.77049201514566,35.548446658429505],[139.77049456586255,35.548442942419946],[139.77049097710304,35.54844121618769],[139.77050819075185,35.5484173220558],[139.77052084567666,35.54842340763303],[139.77052787577614,35.548413648322736],[139.77052994303858,35.54841463642319],[139.7706418813205,35.548331298824024],[139.77063829078358,35.548327607561575],[139.77057870957793,35.54837272817474],[139.77057789843147,35.54837334160026],[139.77056784797074,35.54836391863027],[139.77056712275805,35.548363240406324],[139.77056793390378,35.54836262788226],[139.7706273483009,35.54831784340666],[139.77062816165233,35.54831722998194],[139.77064888443752,35.54830374512133],[139.77066072508612,35.548315875894026],[139.77066096926436,35.54831532797484],[139.77066333595917,35.5483142123807],[139.77066459759757,35.54831438700496],[139.77066741285267,35.54831229092982],[139.77066708663224,35.54831196625932],[139.77068900045194,35.5482972471043],[139.77073003690782,35.54829850602632],[139.77072838668877,35.5483342453457],[139.77068823916383,35.548333022940575],[139.77068731119775,35.54833210033491],[139.77068302927222,35.548335289036494],[139.77068373572845,35.54833597626391],[139.77068373510167,35.54833819999659],[139.77068197346495,35.54833990811977],[139.77067928306556,35.54834029972865],[139.77067745725097,35.54833943795103],[139.77055747159767,35.54842877736598],[139.77054053839166,35.54845231109429],[139.77054871275263,35.54845605792839],[139.77056317458388,35.548449069757375],[139.77056422016872,35.548450501711436],[139.77065618833257,35.5484055791239],[139.77065652311083,35.548404828438734],[139.77065889201566,35.54840371104306],[139.77065976876926,35.54840382958105],[139.77066612197333,35.54840072758896],[139.7706666486323,35.54840143635643],[139.770682912235,35.54839500075895],[139.77072224473648,35.548401864552496],[139.7707131835313,35.548436508437675],[139.77067528134086,35.54842990228103],[139.77068368506147,35.54843939559639],[139.77066223931243,35.548452107594336],[139.77066129702405,35.54845258033517],[139.7705913006146,35.54848772344532],[139.77059069237245,35.5484869695655],[139.77058228387207,35.54847654059684],[139.77058322505616,35.54847607056022],[139.7706517747938,35.54844182178452],[139.77065271928663,35.54844135084768],[139.7706493240627,35.54843753619651],[139.7705795027337,35.54847164459339],[139.77058161701885,35.54847456980787],[139.77054344821298,35.54849303657854],[139.77052720449453,35.548489491960176],[139.77053216519883,35.548734676646546],[139.7710676393973,35.54899090715379],[139.77104734799377,35.54876306907211],[139.77100124021678,35.54874288202047],[139.77102736473728,35.548703066636016],[139.77105493591156,35.548715112652786],[139.77106604474324,35.548698163215064],[139.7710717759753,35.54870065581778],[139.77108732358013,35.54867736467627],[139.7710967958049,35.54868157996526],[139.77118381683184,35.5486271131942],[139.77117552441945,35.54861906400059],[139.77117481354676,35.548618374069626],[139.77117563020036,35.54861776785407],[139.77122829331864,35.54857864484981],[139.77122911217873,35.54857803683226],[139.77124997710519,35.54856468985504],[139.77126153117408,35.54857674380244],[139.77128028140083,35.548563829300754],[139.77132427294902,35.548567776589415],[139.77131916904864,35.54860571714028],[139.77127956251147,35.548602174127005],[139.77127915803052,35.54860178091215]]]}},{"type":"Feature","properties":{"height":36.5,"gml_id":"bldg_c8125973-3a67-4ce1-977e-a3a6f861df5b"},"geometry":{"type":"Polygon","coordinates":[[[139.76729587357087,35.543921731757926],[139.7672832202068,35.54388934591823],[139.76719475948403,35.54390303284935],[139.76709160156616,35.54389533692952],[139.767011266668,35.54386643019567],[139.76696469844651,35.54383947998985],[139.76696344380144,35.54384028243984],[139.76696489944842,35.54384182191749],[139.76694121143768,35.54385675576429],[139.76686695254983,35.543778263086885],[139.7668896584869,35.54376392904059],[139.76686285961694,35.5437182605578],[139.76685787797905,35.543672698743414],[139.76687035132684,35.54358215625918],[139.76692605194825,35.543486523985685],[139.76700829481658,35.54338368523209],[139.76709173470212,35.543300232421096],[139.7671328400759,35.543272169411495],[139.76711895392336,35.54325714819741],[139.76711734624809,35.54325541213447],[139.76721552002672,35.54317773082771],[139.7674884472349,35.54299839220905],[139.76762255777385,35.54292178300983],[139.7677733876573,35.542843793705195],[139.7677741422274,35.542844898321086],[139.7677761137966,35.542848064181534],[139.7677812486999,35.542856295783906],[139.76790685406957,35.5428032575609],[139.76807130947955,35.54274565395277],[139.7681949405269,35.54272648778526],[139.7683332518183,35.5427374368121],[139.76841987904493,35.54277457757292],[139.76843669739688,35.542787483747134],[139.76843979143385,35.54278552398226],[139.768439113744,35.54278480701064],[139.76846280777562,35.54276987737682],[139.7685370893169,35.54284840965984],[139.76851467855056,35.542862554885055],[139.76851558981102,35.54286357034266],[139.76854293214075,35.54293505463459],[139.7685420942047,35.543015646774506],[139.76850737377504,35.54309745020347],[139.7684382787852,35.54319562063804],[139.76833398485246,35.543305140424295],[139.76829041613362,35.54334265271174],[139.76833538202075,35.543376442210516],[139.7682995963664,35.54340841423149],[139.76822188078978,35.54346965435242],[139.7681248040033,35.54354311043979],[139.76801511768977,35.543611204447394],[139.76789234355854,35.54368026655922],[139.76779586445767,35.54372873791298],[139.76779141679734,35.5437311025518],[139.7676968253134,35.54378007061748],[139.7675537334824,35.54384613771378],[139.7674288260244,35.54388908034733],[139.76729587357087,35.543921731757926]]]}},{"type":"Feature","properties":{"height":4.4,"gml_id":"bldg_4a73e15a-66ac-4f3f-8990-af64b00478b4"},"geometry":{"type":"Polygon","coordinates":[[[139.7660596933909,35.54508652055095],[139.76634282900244,35.545049425440354],[139.76635834841906,35.54513245857704],[139.76623233206516,35.54514898044592],[139.76622448294808,35.54510894706086],[139.76606755728358,35.54512857036906],[139.7660596933909,35.54508652055095]]]}},{"type":"Feature","properties":{"height":5.2,"gml_id":"bldg_c055f885-b936-4443-8451-c7eaca2fe545"},"geometry":{"type":"Polygon","coordinates":[[[139.76977773798424,35.542899268431896],[139.7696359403986,35.54283206061718],[139.76967351415752,35.54277911734451],[139.7698152907283,35.542846323301745],[139.76977773798424,35.542899268431896]]]}},{"type":"Feature","properties":{"height":5.5,"gml_id":"bldg_6ffc2d5e-b0b4-4324-844a-cd7bba96ec4d"},"geometry":{"type":"Polygon","coordinates":[[[139.76729716726663,35.54428765623149],[139.76697096872266,35.54420318167264],[139.76695569911556,35.544199227875204],[139.76703081276148,35.544093367333375],[139.76742650274468,35.54419580030855],[139.76735140934076,35.54430170257037],[139.7673262741931,35.544295193383135],[139.76729716726663,35.54428765623149]]]}},{"type":"Feature","properties":{"height":12.1,"gml_id":"bldg_3130e92c-a11e-4c7f-965c-5fa9445f4774"},"geometry":{"type":"Polygon","coordinates":[[[139.76820081256932,35.5439004904469],[139.7682438329508,35.543920979785184],[139.76819841741207,35.54398466296149],[139.76821798894136,35.54399329534749],[139.76812292507427,35.54412982202406],[139.7681016005434,35.54412042429403],[139.76808164420513,35.54414840623189],[139.76810282319946,35.54415775431013],[139.76798893792434,35.544318906644065],[139.76796696399364,35.54430921378336],[139.76794062004157,35.54434615387524],[139.7679653837097,35.54435793858134],[139.76794175313105,35.54439183343849],[139.76786890306687,35.544357149807105],[139.7678693866989,35.54435645599769],[139.7678246134263,35.54433492266431],[139.76815116173395,35.54387307301443],[139.76820213644578,35.54389861987166],[139.76820081256932,35.5439004904469]]]}},{"type":"Feature","properties":{"height":15.4,"gml_id":"bldg_43d681d8-4751-4607-b694-d9de4d9241df"},"geometry":{"type":"Polygon","coordinates":[[[139.7670250046851,35.54698355491441],[139.7670908925236,35.54701460981955],[139.76726353381184,35.54709602899762],[139.76726530773712,35.54709687457359],[139.76719690371974,35.54719373488546],[139.76724279584326,35.54721641923148],[139.76721561102653,35.5472550028241],[139.76716966596044,35.54723230311517],[139.7670639732341,35.54738195091696],[139.76682366408505,35.54726865068887],[139.7670250046851,35.54698355491441]]]}},{"type":"Feature","properties":{"height":11.8,"gml_id":"bldg_9059fc40-6bfd-4aea-a225-0d6c3de24674"},"geometry":{"type":"Polygon","coordinates":[[[139.7673115493971,35.547048315786036],[139.7673353265631,35.547060241595005],[139.76733984276188,35.54705388835344],[139.76744455226958,35.54710324903603],[139.76734379533463,35.5472454578934],[139.76734228157588,35.54724476119062],[139.76732254799128,35.54727286840314],[139.76727451945578,35.54724880559079],[139.76729349887887,35.54722175710828],[139.76723909672822,35.547196103440136],[139.76731563187153,35.54708804686234],[139.76729222072066,35.547076307838076],[139.7673115493971,35.547048315786036]]]}},{"type":"Feature","properties":{"height":9.4,"gml_id":"bldg_952dc564-c75d-455c-9325-290c1adbab56"},"geometry":{"type":"Polygon","coordinates":[[[139.77029442923376,35.54349022924638],[139.7703619845376,35.543522189152355],[139.77030036784495,35.54360915573967],[139.77007222046484,35.54350121893861],[139.77013382849145,35.543414260574394],[139.77022264930105,35.54345627140903],[139.77023018919837,35.54344566416448],[139.77030189735706,35.5434797247186],[139.77029442923376,35.54349022924638]]]}},{"type":"Feature","properties":{"height":18.8,"gml_id":"bldg_10c2f0e9-b80c-4c43-a7c4-8e267f8f2a37"},"geometry":{"type":"Polygon","coordinates":[[[139.76823640506203,35.54439991879638],[139.76805520174943,35.54431383344106],[139.76824456165537,35.54404693081113],[139.76855725407492,35.54419550439006],[139.76837297175334,35.544455240566954],[139.76824141566618,35.544392911374274],[139.76823640506203,35.54439991879638]]]}},{"type":"Feature","properties":{"height":12.7,"gml_id":"bldg_da77512a-f8e7-4585-9318-833aed4ed86b"},"geometry":{"type":"Polygon","coordinates":[[[139.76750358027994,35.54478328777492],[139.76774285123264,35.54444891244068],[139.76783413577488,35.544492318116724],[139.76764687096562,35.54475407066796],[139.7678788955643,35.54464999590208],[139.76774708011965,35.5448358454174],[139.76757202000056,35.54485858234129],[139.766977075475,35.54569592904703],[139.76688556930222,35.54565270198526],[139.76743711081053,35.54487609485594],[139.76728720929722,35.54489557305806],[139.76727051245726,35.544813537233196],[139.76750358027994,35.54478328777492]]]}},{"type":"Feature","properties":{"height":9.5,"gml_id":"bldg_365572ee-2135-4ace-9c97-3f283a1076cc"},"geometry":{"type":"Polygon","coordinates":[[[139.7672624008869,35.546294938947774],[139.76724341930668,35.54628588938865],[139.76728465683786,35.54622892238276],[139.7673029008458,35.54623761728459],[139.76730494801993,35.5462347402613],[139.76739892696781,35.5462790193761],[139.7672079669293,35.54654928008622],[139.76712935217867,35.54651224202853],[139.76712886081276,35.54651292861933],[139.76710410972848,35.54650127986247],[139.7671427904225,35.54644622515783],[139.7671303664453,35.54644029709473],[139.76717515515625,35.54637843571685],[139.76718651192456,35.54638384398829],[139.7672488216649,35.546297686160464],[139.7672575578488,35.54630179318207],[139.7672624008869,35.546294938947774]]]}},{"type":"Feature","properties":{"height":6.5,"gml_id":"bldg_d28a8ac7-44e6-4729-8e93-7a3d08022783"},"geometry":{"type":"Polygon","coordinates":[[[139.76368742186943,35.54543284159893],[139.76362835412502,35.54544082985888],[139.76361299928612,35.5453670690911],[139.76367201202822,35.545358854557364],[139.76368742186943,35.54543284159893]]]}},{"type":"Feature","properties":{"height":3.0,"gml_id":"bldg_0efd8da7-04db-49d5-b01c-8c696e793952"},"geometry":{"type":"Polygon","coordinates":[[[139.76308997914134,35.54499867313017],[139.76307326369812,35.54500606382096],[139.76306381324872,35.544991771250764],[139.76308052868984,35.544984380561274],[139.76308997914134,35.54499867313017]]]}},{"type":"Feature","properties":{"height":31.2,"gml_id":"bldg_79191207-58ef-40fc-96e6-7daa2f144813"},"geometry":{"type":"Polygon","coordinates":[[[139.7678419948302,35.54674024161538],[139.76776076046295,35.54670146286132],[139.76803401303914,35.54631905413451],[139.7681152416434,35.546357826393944],[139.76811452282502,35.54635883376128],[139.7682545647314,35.54642510493312],[139.76813582393197,35.54659275015252],[139.76815542963732,35.546602174887134],[139.76810964421432,35.546665761351974],[139.768090575383,35.54665663435977],[139.76765795177596,35.54726736736358],[139.76757395266984,35.54722765674481],[139.76753756879503,35.547210432034454],[139.76752454596934,35.54720426932407],[139.76774521999786,35.54689270631141],[139.7678505979877,35.54674391855761],[139.76784220793562,35.5467399460746],[139.7678419948302,35.54674024161538]]]}},{"type":"Feature","properties":{"height":3.8,"gml_id":"bldg_431f1e03-d6fb-49ab-a1e3-181439301170"},"geometry":{"type":"Polygon","coordinates":[[[139.76519151728937,35.54549581581731],[139.76528372293356,35.54536255201085],[139.76535913251615,35.54539738827189],[139.76526703724775,35.545530652197584],[139.76519151728937,35.54549581581731]]]}},{"type":"Feature","properties":{"height":6.6,"gml_id":"bldg_dce56b7f-803d-4a17-b1c1-ef4887b82801"},"geometry":{"type":"Polygon","coordinates":[[[139.7629552773575,35.545764544308],[139.76297187441472,35.54585246854877],[139.76266509309266,35.545892455181274],[139.7626484908516,35.54580452638906],[139.7629552773575,35.545764544308]]]}},{"type":"Feature","properties":{"height":21.8,"gml_id":"bldg_d0f9c5d4-ae6e-40eb-bb73-eb588865453c"},"geometry":{"type":"Polygon","coordinates":[[[139.76746522235925,35.544161657798625],[139.76760439630854,35.544229329135376],[139.76742013811824,35.54442876974615],[139.7673159653719,35.5445415400156],[139.76678658160785,35.5447197246821],[139.76668126289786,35.544669747422965],[139.76583756031124,35.54426942060127],[139.7659131976819,35.544162936386],[139.76685909817385,35.544611750861854],[139.76711565830882,35.54452661130543],[139.7672289219183,35.54449114056833],[139.76746522235925,35.544161657798625]]]}},{"type":"Feature","properties":{"height":48.3,"gml_id":"bldg_2b41e06e-a5df-4348-ba9f-26c23178d778"},"geometry":{"type":"Polygon","coordinates":[[[139.76557097048942,35.54363803514989],[139.76574346704072,35.54356603860146],[139.76655251405631,35.54306892079013],[139.76661916711447,35.54314138455614],[139.76663159184434,35.54313375663602],[139.76665907291357,35.543163625946946],[139.76631136695298,35.5433772894313],[139.76637230918098,35.543407464942504],[139.766146684799,35.543694441901124],[139.76617342910637,35.54370849057422],[139.7660205168226,35.5439029717318],[139.76584568803653,35.54412533761213],[139.76591184351616,35.544160078215704],[139.76582856356245,35.54426599928914],[139.76576251827584,35.54423131278573],[139.76562147281254,35.544410718876286],[139.7655946181254,35.544396615035396],[139.76527468819768,35.54480352160214],[139.7646413796755,35.54488167376449],[139.76461650660679,35.54488474235439],[139.76461570519479,35.544880397187995],[139.76459729585403,35.54488262214851],[139.76458411091707,35.54481124240897],[139.76460803537802,35.544808280550754],[139.76459270969553,35.544725290562624],[139.76460602310357,35.54472364860342],[139.76459249783989,35.54465044785694],[139.76458147871165,35.54465181169116],[139.76456807427002,35.54457923297051],[139.76457827715183,35.54457797683916],[139.76457398464137,35.54455475543249],[139.7645352153179,35.54449306818495],[139.76451630491624,35.54450096260384],[139.7644424237,35.54438271185711],[139.76446120168058,35.54437487957006],[139.76444218064714,35.54434451071961],[139.76441715805993,35.54435494355708],[139.7643534208589,35.54425294163637],[139.76434343609986,35.544257109370236],[139.7642964070432,35.54418183423896],[139.7642815075463,35.544157991998176],[139.76427802498415,35.544152411287875],[139.76475238217725,35.543954420778064],[139.76551341196418,35.543636767886056],[139.76555843652545,35.543617981142624],[139.76557097048942,35.54363803514989]]]}},{"type":"Feature","properties":{"height":3.1,"gml_id":"bldg_164bb1b9-fc6b-4c14-b1e8-cc87ebab1666"},"geometry":{"type":"Polygon","coordinates":[[[139.76476809003984,35.54344590026658],[139.76475938831925,35.54343291527001],[139.7648131190731,35.543408968776845],[139.76482171051154,35.54342195370696],[139.76476809003984,35.54344590026658]]]}},{"type":"Feature","properties":{"height":18.7,"gml_id":"bldg_4c7a01aa-887a-4936-b3cb-93cc4d300d3b"},"geometry":{"type":"Polygon","coordinates":[[[139.769011156929,35.54348484903639],[139.7689632446031,35.54358392524331],[139.76892139642024,35.5436629495922],[139.76886954775713,35.543746761282705],[139.7688241510185,35.543824893123116],[139.7687552095157,35.54392390931531],[139.7686767722303,35.54402395517377],[139.76861047260633,35.544104126388156],[139.76858229561478,35.54413606922091],[139.76853928220086,35.54418482225166],[139.7684634409768,35.544148824943996],[139.76846526241155,35.54414676083428],[139.76842473836302,35.5441281838708],[139.76842376149253,35.544129190200074],[139.7683481915689,35.54409333538566],[139.76841293765384,35.54402525475423],[139.76843373085597,35.54400011530091],[139.7683498687522,35.544018533356045],[139.7683469070125,35.544009556597786],[139.76844346341625,35.54398834925742],[139.76847701401167,35.54394778843122],[139.76851738703914,35.54389627033304],[139.76844221405773,35.54391278126976],[139.76843926223611,35.54390380632173],[139.76852649964042,35.54388464186241],[139.7685535846069,35.54385007991024],[139.76862053771433,35.5437539021508],[139.76866809702744,35.5436789444466],[139.76871857098575,35.54359735043168],[139.768758836475,35.54352135218022],[139.7688061403607,35.54342348179092],[139.76883380076865,35.54336548838789],[139.76891503598895,35.54339136841707],[139.7689145499058,35.54339238763212],[139.76895562876715,35.54340504438466],[139.76895765152292,35.543400817033174],[139.76898715494215,35.543410210864764],[139.76903888131224,35.5434266870606],[139.769011156929,35.54348484903639]]]}},{"type":"Feature","properties":{"height":4.4,"gml_id":"bldg_ce57a297-bf48-4ec4-bd41-c1df31704513"},"geometry":{"type":"Polygon","coordinates":[[[139.76248401606574,35.546614947894795],[139.7625650421571,35.54660282938782],[139.76258844911686,35.54670755419952],[139.76250740968766,35.546719673615506],[139.76248401606574,35.546614947894795]]]}},{"type":"Feature","properties":{"height":3.1,"gml_id":"bldg_0d13f516-25a9-4e70-9999-2d1f2ce25e84"},"geometry":{"type":"Polygon","coordinates":[[[139.76304123515789,35.54501893506186],[139.76302472981638,35.54502568588001],[139.76301646980895,35.545012196239135],[139.7630329751484,35.545005445422085],[139.76304123515789,35.54501893506186]]]}},{"type":"Feature","properties":{"height":4.8,"gml_id":"bldg_6f1a4ca3-ed68-45f8-ab5d-12f53c431cde"},"geometry":{"type":"Polygon","coordinates":[[[139.76356063456223,35.54539091667809],[139.7636161175189,35.545383277921644],[139.76362126874682,35.545408024109314],[139.76356579669337,35.545415789069274],[139.76356063456223,35.54539091667809]]]}},{"type":"Feature","properties":{"height":12.4,"gml_id":"bldg_379fba88-49d0-43b1-b5c6-3014bc2ac3ab"},"geometry":{"type":"Polygon","coordinates":[[[139.76796934495172,35.5444141055721],[139.76789796329035,35.54451459822415],[139.7678940667278,35.54452006034884],[139.76765954053567,35.544407093882626],[139.76763419024488,35.54444252912315],[139.76756526212995,35.54440924009618],[139.76759055394152,35.54437386072441],[139.76754529347608,35.544352055702774],[139.7676225926784,35.54424047755505],[139.76797322164754,35.544408648842456],[139.76796934495172,35.5444141055721]]]}},{"type":"Feature","properties":{"height":22.7,"gml_id":"bldg_0e2ad577-9c14-4038-8ec4-cf15c114678f"},"geometry":{"type":"Polygon","coordinates":[[[139.76788314141402,35.54465445288638],[139.7681455637326,35.54477903941983],[139.76804127202138,35.5449276955651],[139.76794173674816,35.5449948458191],[139.7676610114576,35.54539232703637],[139.76761280323086,35.54536941172593],[139.7675720160918,35.545426707204825],[139.76745179454713,35.54536865864307],[139.76749211251192,35.54531196778218],[139.7674645185572,35.545298834755044],[139.76745107517914,35.545317749432364],[139.7674015002777,35.54529382373151],[139.7677223460176,35.544843136844094],[139.7677533979025,35.544839466139734],[139.76788314141402,35.54465445288638]]]}},{"type":"Feature","properties":{"height":3.0,"gml_id":"bldg_80a83b38-1c6a-4faa-ab79-93a9502009fe"},"geometry":{"type":"Polygon","coordinates":[[[139.7630058311783,35.54503242628625],[139.76299132252112,35.54503868159725],[139.76298303987656,35.54502585987239],[139.76299755956978,35.54501959465351],[139.7630058311783,35.54503242628625]]]}},{"type":"Feature","properties":{"height":2.9,"gml_id":"bldg_f6a22865-ccda-4228-a044-018a73201ff3"},"geometry":{"type":"Polygon","coordinates":[[[139.7726566417956,35.54686442027695],[139.77263238625073,35.546852599837095],[139.77266539818575,35.54680700602419],[139.7726897640825,35.54681873637381],[139.7726566417956,35.54686442027695]]]}},{"type":"Feature","properties":{"height":14.4,"gml_id":"bldg_2870da8f-c063-4889-ab3d-9102b27463e6"},"geometry":{"type":"Polygon","coordinates":[[[139.7631671247025,35.54452050341045],[139.7631741857719,35.54451760413477],[139.7631701328192,35.54451104865613],[139.76320600088866,35.54449625964743],[139.76322384266177,35.544525168652456],[139.7631884600223,35.5445397686564],[139.7631838233639,35.54453225736311],[139.763176298897,35.54453536278854],[139.7631671247025,35.54452050341045]]]}},{"type":"Feature","properties":{"height":30.6,"gml_id":"bldg_e3d380ed-210b-43f0-8ebc-a6b30b6d9500"},"geometry":{"type":"Polygon","coordinates":[[[139.7696803721276,35.54320723096113],[139.76996256728577,35.543341495944254],[139.7698131677512,35.54355117583944],[139.76956449521725,35.543900481928425],[139.7692823703287,35.54376637470798],[139.7693135893249,35.5437225124118],[139.76919471671,35.543665951782415],[139.7691958605789,35.54366434520838],[139.76924516944706,35.54359510213131],[139.76924681016558,35.54359279994598],[139.76936566176374,35.54364934879543],[139.76960624354686,35.54331132425855],[139.7696803721276,35.54320723096113]]]}},{"type":"Feature","properties":{"height":2.8,"gml_id":"bldg_015a6053-f0dd-4c16-8f94-78159811399c"},"geometry":{"type":"Polygon","coordinates":[[[139.7625106697109,35.54436924375273],[139.76250285017449,35.544356709809634],[139.76255503602349,35.54433519717829],[139.7625627452765,35.54434773105334],[139.7625106697109,35.54436924375273]]]}},{"type":"Feature","properties":{"height":10.3,"gml_id":"bldg_bb3ea4e0-7b93-4837-a228-09ddbe7dd612"},"geometry":{"type":"Polygon","coordinates":[[[139.76373264534809,35.545428018220086],[139.76373077943728,35.54541756099626],[139.76380699871459,35.545408050209645],[139.76382072191421,35.54548125114881],[139.7636379497388,35.5455042212879],[139.76362609267673,35.545441387414705],[139.76373264534809,35.545428018220086]]]}},{"type":"Feature","properties":{"height":9.5,"gml_id":"bldg_6cfee7ef-994a-41ba-b9ed-52067a2f32af"},"geometry":{"type":"Polygon","coordinates":[[[139.7674546325904,35.54706608655627],[139.76723870899062,35.546962978984986],[139.76730604989797,35.5468670239622],[139.7675219788314,35.54697014403685],[139.7674546325904,35.54706608655627]]]}},{"type":"Feature","properties":{"height":4.5,"gml_id":"bldg_2e65f25e-a247-4367-b6d3-fecf4aa6f2ef"},"geometry":{"type":"Polygon","coordinates":[[[139.76655850290445,35.54639873680083],[139.76646738274283,35.54635749089952],[139.76654504926753,35.54624465894772],[139.76663615275064,35.546285961569545],[139.76655850290445,35.54639873680083]]]}},{"type":"Feature","properties":{"height":3.8,"gml_id":"bldg_8aae7776-bfd5-448e-9635-e435e625d802"},"geometry":{"type":"Polygon","coordinates":[[[139.76753337734172,35.544351261384676],[139.7675828143839,35.54437452173221],[139.76754592938113,35.544426898639806],[139.7676284009441,35.544465756647185],[139.76761457337693,35.54448535619414],[139.76761542448583,35.544485757777466],[139.76757540918595,35.54454248580974],[139.76743916338398,35.544478281895586],[139.76747917874778,35.54442155390798],[139.7674827011481,35.54442320898467],[139.76753337734172,35.544351261384676]]]}},{"type":"Feature","properties":{"height":23.7,"gml_id":"bldg_1284e10b-498e-44cc-8cc5-a655fc3cdbe4"},"geometry":{"type":"Polygon","coordinates":[[[139.77090694183104,35.54283299567605],[139.7704883854242,35.543425463584704],[139.77021800676053,35.54329785558954],[139.77068901969847,35.542631157357356],[139.77082076132052,35.542693320841806],[139.77083701555074,35.542670453729514],[139.77084324891615,35.5426733855837],[139.77097506550132,35.54273583377807],[139.77095895699074,35.54275855315576],[139.77096061288205,35.54275935985702],[139.77090694183104,35.54283299567605]]]}},{"type":"Feature","properties":{"height":12.7,"gml_id":"bldg_a99b3edb-930b-4116-a725-3989b5f6a2d1"},"geometry":{"type":"Polygon","coordinates":[[[139.76692489851376,35.54494449994859],[139.76690820203277,35.544862464074626],[139.7672680088718,35.54481353586165],[139.76728470570924,35.544895571686844],[139.76692489851376,35.54494449994859]]]}},{"type":"Feature","properties":{"height":8.9,"gml_id":"bldg_901de98a-51a9-456a-a86d-43bd2bd55782"},"geometry":{"type":"Polygon","coordinates":[[[139.7673219110815,35.546619463586545],[139.76734303386388,35.546629450850716],[139.7672976726496,35.546694091867174],[139.7671221118349,35.54661109279295],[139.7671674863686,35.54654646356707],[139.7671693451875,35.546547331725904],[139.76717425763889,35.546540591108894],[139.76725916126807,35.54658038182826],[139.7672662646834,35.54657027030122],[139.7673335197006,35.546602921288326],[139.7673219110815,35.546619463586545]]]}},{"type":"Feature","properties":{"height":10.0,"gml_id":"bldg_fbc81474-6897-4ab0-80f8-20457f4e4aa4"},"geometry":{"type":"Polygon","coordinates":[[[139.76674484276862,35.54515148015782],[139.76687801517042,35.545135695430176],[139.7668898427443,35.54519718770061],[139.76675666032216,35.54521296612582],[139.76674484276862,35.54515148015782]]]}},{"type":"Feature","properties":{"height":12.9,"gml_id":"bldg_239605b1-d4cc-4662-b7bc-00933f862a0d"},"geometry":{"type":"Polygon","coordinates":[[[139.76774896650218,35.54429891059159],[139.7676467213537,35.544249124234604],[139.76764618409396,35.54424930872736],[139.7676460896979,35.54424875341835],[139.7676968253134,35.54378007061748],[139.76779141679734,35.5437311025518],[139.76776048737287,35.54407938369261],[139.7678589479469,35.543939706075165],[139.767950027986,35.54398305566956],[139.7679157835368,35.544031586983614],[139.7679323912137,35.5440393110075],[139.7678693170678,35.544125933024176],[139.76786983410716,35.54412620011694],[139.76780145858655,35.544221858379565],[139.7678033603539,35.544222748185696],[139.76774896650218,35.54429891059159]]]}}]}