{"type":"FeatureCollection","crs":{"type":"name","properties":{"name":"urn:ogc:def:crs:OGC:1.3:CRS84"}},"features":[{"type":"Feature","properties":{"height":2.8,"gml_id":"bldg_c9057c92-6d29-4b13-8278-1ac20469bb4e"},"geometry":{"type":"Polygon","coordinates":[[[139.80299747930295,35.545662416028996],[139.8030149020077,35.54567125405332],[139.803002101865,35.54568810686689],[139.802984679158,35.54567926884076],[139.80299747930295,35.545662416028996]]]}},{"type":"Feature","properties":{"height":3.1,"gml_id":"bldg_7e384012-813f-4ab5-9e0f-8f4ad36d3070"},"geometry":{"type":"Polygon","coordinates":[[[139.80269466107933,35.54555254991121],[139.80272035484685,35.54556328300285],[139.8027103122485,35.54557932523284],[139.80272409645795,35.54558509764206],[139.80271272954027,35.5456033028771],[139.80269971726437,35.54559780108034],[139.80268923321822,35.545614564310036],[139.80266276753707,35.54560347045866],[139.80269466107933,35.54555254991121]]]}},{"type":"Feature","properties":{"height":7.0,"gml_id":"bldg_7b2ef1a2-35f3-4e7a-b9f5-6b10e6fe48d1"},"geometry":{"type":"Polygon","coordinates":[[[139.8041024383568,35.545191981951824],[139.8041333155986,35.54520343711317],[139.8041199616626,35.545227591189345],[139.80410970599792,35.54522380285729],[139.80410319462536,35.545235429238296],[139.80408257303853,35.545227762404494],[139.8041024383568,35.545191981951824]]]}},{"type":"Feature","properties":{"height":2.9,"gml_id":"bldg_7cc48426-20ac-40a0-99ea-f6c8d6f41e71"},"geometry":{"type":"Polygon","coordinates":[[[139.8030530977813,35.545578239983875],[139.8030768062273,35.545589333057855],[139.80302240324343,35.545667470092155],[139.80299869478196,35.54565637700761],[139.8030530977813,35.545578239983875]]]}}]}