{"type":"FeatureCollection","crs":{"type":"name","properties":{"name":"urn:ogc:def:crs:OGC:1.3:CRS84"}},"features":[{"type":"Feature","properties":{"height":1.8,"gml_id":"bldg_b47f0e7f-e05b-4b06-9a2c-bb47ddf80bbb"},"geometry":{"type":"Polygon","coordinates":[[[139.7848146769002,35.53990693918605],[139.784798228162,35.539934334911706],[139.7847778306653,35.539926124025506],[139.78479438969214,35.53989872834699],[139.7848146769002,35.53990693918605]]]}},{"type":"Feature","properties":{"height":3.1,"gml_id":"bldg_93fce453-1e4e-459e-b4ed-3fe18a78cbf4"},"geometry":{"type":"Polygon","coordinates":[[[139.7751977291029,35.5400102489919],[139.77506548249312,35.53994779526228],[139.77523135676995,35.53971358705839],[139.77536363073668,35.53977598293244],[139.7751977291029,35.5400102489919]]]}},{"type":"Feature","properties":{"height":16.0,"gml_id":"bldg_ae7f1207-dd09-45bc-8881-40533f3700bb"},"geometry":{"type":"Polygon","coordinates":[[[139.77849467736633,35.53830005697697],[139.77917345181436,35.53862163103191],[139.77916962913025,35.53862702956105],[139.77926068928994,35.538670556329414],[139.77800910244392,35.54042798701998],[139.7779237077419,35.54038713094597],[139.7779218564913,35.54038972790945],[139.77792139013783,35.54038951226229],[139.77758087632716,35.54023739221251],[139.7772124167913,35.540053639138186],[139.77721187327265,35.54005338108689],[139.77721293966158,35.540051875355694],[139.77707566503577,35.53998735459637],[139.77707670492995,35.53998588941668],[139.77705792435523,35.53997697218881],[139.7783113522336,35.538213152192796],[139.7783280676408,35.538221087570335],[139.77832964175516,35.53821888257929],[139.77849652525973,35.538297433861864],[139.77849467736633,35.53830005697697]]]}},{"type":"Feature","properties":{"height":3.0,"gml_id":"bldg_5bcd9566-2bc9-4ea2-8868-2ecd9e6f5f3d"},"geometry":{"type":"Polygon","coordinates":[[[139.78740951464798,35.535107675447065],[139.78741822420855,35.535111735034526],[139.78742120414913,35.53510740947951],[139.78743597729482,35.53511435583349],[139.7874207467094,35.53513607362301],[139.78743287393337,35.53514175701896],[139.78742128545957,35.53515824811148],[139.78740761476803,35.53515184301174],[139.78739161156108,35.53517473231496],[139.78737915360702,35.53516886851015],[139.78738489268542,35.53516066801475],[139.7873754113884,35.53515624757336],[139.78740951464798,35.535107675447065]]]}},{"type":"Feature","properties":{"height":2.0,"gml_id":"bldg_77bdf5c8-7f71-43fa-977f-a8557f1de60a"},"geometry":{"type":"Polygon","coordinates":[[[139.7846764826145,35.54010464910986],[139.78465487311033,35.54009454478904],[139.78477010805275,35.53993071801978],[139.78479171752747,35.539940822320204],[139.7846764826145,35.54010464910986]]]}},{"type":"Feature","properties":{"height":4.7,"gml_id":"bldg_18b21c65-4d74-4792-81a5-36b268ee16d4"},"geometry":{"type":"Polygon","coordinates":[[[139.77610967221491,35.54072854987352],[139.7757201624373,35.541282342347145],[139.77556832331607,35.54121227026244],[139.77595784924029,35.540658473773824],[139.77610967221491,35.54072854987352]]]}},{"type":"Feature","properties":{"height":11.5,"gml_id":"bldg_d818b853-c26d-4e90-b570-374ee4cc10a0"},"geometry":{"type":"Polygon","coordinates":[[[139.77644020977826,35.54119340304891],[139.7764526112212,35.541174841111065],[139.77651259883396,35.54120271160703],[139.77651372706742,35.541201125687515],[139.77686598766041,35.54136836156873],[139.77720299011645,35.541528362851494],[139.77692562451375,35.54192121627083],[139.77623888870215,35.5415946655996],[139.7762238915127,35.541614085312055],[139.77617698069997,35.54159183294317],[139.77616117142307,35.541583801252244],[139.77617583926468,35.54156226762571],[139.77643967727528,35.5411931558161],[139.77644020977826,35.54119340304891]]]}},{"type":"Feature","properties":{"height":3.2,"gml_id":"bldg_365251b8-4a9c-4e13-b238-eae7a7fd9461"},"geometry":{"type":"Polygon","coordinates":[[[139.77509606766353,35.53959502469222],[139.7751729811645,35.539488198974794],[139.7752708133705,35.53953526186942],[139.7751910988711,35.53964805171629],[139.77514704808405,35.53962724435042],[139.77501883672602,35.53980492898847],[139.7749248408959,35.53975966062003],[139.7750549979639,35.53957562490505],[139.77509606766353,35.53959502469222]]]}},{"type":"Feature","properties":{"height":9.2,"gml_id":"bldg_abe3af3a-a271-4a76-a3f0-3a84aa48eb04"},"geometry":{"type":"Polygon","coordinates":[[[139.776986327635,35.54007723493803],[139.77704478356958,35.53999505340527],[139.7770487157324,35.539989525195324],[139.77722976448365,35.540075703391416],[139.77723061780475,35.54007451394983],[139.77757130295203,35.54023526410485],[139.77800409426007,35.540439490100034],[139.77722909612166,35.541529536894586],[139.77645643300562,35.54116489784815],[139.77645602675352,35.54116546823812],[139.77643386154534,35.54115623383091],[139.77644010080775,35.54114781506271],[139.7764353105152,35.541145553912656],[139.7762789233092,35.541071752414794],[139.77628055494617,35.54106945914231],[139.7763538813832,35.54096637358333],[139.776986327635,35.54007723493803]]]}},{"type":"Feature","properties":{"height":2.1,"gml_id":"bldg_190c9e94-8873-4707-a354-606797c8ad59"},"geometry":{"type":"Polygon","coordinates":[[[139.77652720077782,35.53850751321977],[139.77651772788374,35.538491463960575],[139.77653703247884,35.53848390135167],[139.77654650537585,35.53849995060938],[139.77652720077782,35.53850751321977]]]}},{"type":"Feature","properties":{"height":3.8,"gml_id":"bldg_8a3e0e2c-9a3e-4b17-bb60-6a744badeb13"},"geometry":{"type":"Polygon","coordinates":[[[139.7765597856091,35.53954520137065],[139.7765405310804,35.53957212141832],[139.77636619287276,35.53948882530161],[139.77640099837194,35.53944012775923],[139.77657534754815,35.53952341031053],[139.7765597856091,35.53954520137065]]]}},{"type":"Feature","properties":{"height":2.1,"gml_id":"bldg_4da7bf4e-fd18-4517-b269-0ad118fb41ff"},"geometry":{"type":"Polygon","coordinates":[[[139.77666520597427,35.53844637355474],[139.77665253604107,35.53842870029611],[139.7766722831286,35.538419154808615],[139.7766850634094,35.53843673797774],[139.77666520597427,35.53844637355474]]]}},{"type":"Feature","properties":{"height":2.9,"gml_id":"bldg_19692c09-30b1-4986-9830-09c7d9e75492"},"geometry":{"type":"Polygon","coordinates":[[[139.78492444459937,35.539847581504425],[139.78494759776748,35.53985813709316],[139.7849342416765,35.53987778209932],[139.784944826012,35.53988256372906],[139.7849348917346,35.53989716230782],[139.7849245279104,35.53989247090504],[139.78491393143997,35.53990788046985],[139.78489055774935,35.539897234646865],[139.78492444459937,35.539847581504425]]]}}]}