{"type":"FeatureCollection","crs":{"type":"name","properties":{"name":"urn:ogc:def:crs:OGC:1.3:CRS84"}},"features":[{"type":"Feature","properties":{"height":13.6,"gml_id":"bldg_6245d164-28f4-4cd3-bd0a-78847ec7dc93"},"geometry":{"type":"Polygon","coordinates":[[[139.82523813506282,35.5416136600764],[139.82526383348682,35.54159536352573],[139.8252961442059,35.54162556234077],[139.82529746766266,35.54162529201114],[139.8253028717215,35.54162475153546],[139.82530827572637,35.54162475189519],[139.8253136796774,35.541625293090334],[139.82531897328892,35.54162637511356],[139.8253240462662,35.541628088096815],[139.8253287883504,35.541630161615],[139.82533319952364,35.541632775946695],[139.82533716950914,35.54163584094534],[139.82534058803,35.54163926646443],[139.82534356537207,35.54164305251128],[139.82534588098142,35.541647018792766],[139.82534753484916,35.54165125544824],[139.82534852698402,35.5416556723384],[139.8253488574038,35.541660089184745],[139.82534852610846,35.54166450598728],[139.8253475330978,35.54166892274599],[139.8253458783986,35.54167306904306],[139.8253435619928,35.541677125156966],[139.82534058389828,35.541680910809156],[139.82533716469567,35.54168433587494],[139.82533319410805,35.54168731020766],[139.82532878241233,35.541689923953875],[139.8253240399034,35.541692086981584],[139.82531896659032,35.54169370915147],[139.82531367275007,35.541694880610116],[139.82530826868663,35.54169542108626],[139.82530286467698,35.541695420726526],[139.82529746072132,35.54169487953092],[139.8252921671146,35.54169370736749],[139.82528709412486,35.54169208452219],[139.8252823520471,35.541689920863114],[139.82527794087238,35.54168730652958],[139.82527397087756,35.54168433166828],[139.8252705523576,35.54168090614733],[139.82526757501762,35.5416771200987],[139.82526525942023,35.54167306367644],[139.8252636055474,35.541668917159136],[139.825262613417,35.54166450026828],[139.8252622830019,35.541660083421704],[139.825262614302,35.54165566661941],[139.8252636073171,35.54165124986139],[139.82526526202918,35.541647013426164],[139.825267578429,35.54164304745302],[139.82526835052914,35.541642055972616],[139.82523813506282,35.5416136600764]]]}}]}