{"type":"FeatureCollection","crs":{"type":"name","properties":{"name":"urn:ogc:def:crs:OGC:1.3:CRS84"}},"features":[{"type":"Feature","properties":{"height":3.0,"gml_id":"bldg_55d586e2-f900-42eb-b1f8-25c100d1d7d4"},"geometry":{"type":"Polygon","coordinates":[[[139.82517041155404,35.541692887934055],[139.8251400855423,35.541667196184264],[139.82516721804143,35.541645744877144],[139.82519754405376,35.54167143662021],[139.82517041155404,35.541692887934055]]]}},{"type":"Feature","properties":{"height":7.3,"gml_id":"bldg_1a11be40-707e-4d56-b387-acac66cc62b0"},"geometry":{"type":"Polygon","coordinates":[[[139.82538657467083,35.541665139475455],[139.8254186651312,35.5416929044824],[139.82539230480018,35.54171318408621],[139.82536021434078,35.541685419072344],[139.82538657467083,35.541665139475455]]]}},{"type":"Feature","properties":{"height":8.3,"gml_id":"bldg_bbb4c465-a04c-4237-9422-c68db771412e"},"geometry":{"type":"Polygon","coordinates":[[[139.82507842601385,35.54176210863497],[139.82504909250494,35.54173713804472],[139.8250767765185,35.54171532623899],[139.82510622030483,35.5417403869694],[139.82507842601385,35.54176210863497]]]}}]}