{"type":"FeatureCollection","crs":{"type":"name","properties":{"name":"urn:ogc:def:crs:OGC:1.3:CRS84"}},"features":[{"type":"Feature","properties":{"height":48.6,"gml_id":"bldg_bdc161ef-9ae3-4a6c-b554-8a2ce507e6c8"},"geometry":{"type":"Polygon","coordinates":[[[139.7947773163045,35.53277508427939],[139.7947753645712,35.532777156861684],[139.7947455169082,35.532845997593135],[139.79476226269358,35.53285142573599],[139.79474223986347,35.532891442126015],[139.7947278370251,35.53288677640829],[139.79471733617265,35.53291099260194],[139.79454633035365,35.53285996840491],[139.7945464462704,35.53285969982676],[139.79454475224674,35.53286015268315],[139.79454474821253,35.532857078928295],[139.7945496345162,35.532852348181166],[139.79459273870668,35.53275294728886],[139.79460583611365,35.53272269259928],[139.794607340785,35.53271927589767],[139.7947783342094,35.532770309920686],[139.79477685049417,35.53277373113806],[139.7947773163045,35.53277508427939]]]}},{"type":"Feature","properties":{"height":6.9,"gml_id":"bldg_7263c902-41e5-44bd-bce1-4d308a26d9da"},"geometry":{"type":"Polygon","coordinates":[[[139.7952788378548,35.532665125662916],[139.79536477259478,35.53270561542315],[139.79532179888926,35.532766577587154],[139.79523586410505,35.53272608959945],[139.7952788378548,35.532665125662916]]]}},{"type":"Feature","properties":{"height":20.2,"gml_id":"bldg_f6dddfcb-dfbd-4a3f-b256-993935806dc7"},"geometry":{"type":"Polygon","coordinates":[[[139.79575836519945,35.53325739000526],[139.79576191830745,35.533392061169145],[139.79527550429623,35.53340063054923],[139.79527181102105,35.53326092684481],[139.795269237197,35.533260970200836],[139.7952539051338,35.53324361082337],[139.7952486357537,35.533218943415534],[139.79525216792237,35.53319543257098],[139.7952636917072,35.53317416241024],[139.7952497973386,35.53315743536297],[139.79524449144282,35.53313304737519],[139.79524803794072,35.53310954464749],[139.79526061913188,35.53308851008446],[139.7952672521556,35.533088435559655],[139.7952642566437,35.53297504195577],[139.7957506824102,35.532966499665164],[139.79575381077368,35.53308496904818],[139.79576422304484,35.53308456396055],[139.79577716775214,35.53309955817386],[139.79578310322606,35.5331221083921],[139.79577939126293,35.53315079319792],[139.79576653050665,35.53316859172349],[139.79577893580557,35.533191073647984],[139.79578256579066,35.53321526188222],[139.79577994962938,35.533237535413605],[139.7957679625529,35.53325701170525],[139.79575836519945,35.53325739000526]]]}},{"type":"Feature","properties":{"height":30.1,"gml_id":"bldg_8bba10da-0963-41ef-9d81-b82f74f36f13"},"geometry":{"type":"Polygon","coordinates":[[[139.79418428462964,35.53279468244564],[139.79423042153016,35.53281621098352],[139.7941781275091,35.532891113380224],[139.79413078776219,35.53286903007432],[139.79412910607468,35.532871320871244],[139.7941410879063,35.532876929633275],[139.79410585042325,35.53292343371325],[139.79409468441892,35.53291822543213],[139.79407858918594,35.532940157420164],[139.79408916965403,35.53294533216067],[139.79402718745314,35.53303007996806],[139.79402018782318,35.53302665869933],[139.7940178686786,35.533033606789516],[139.79400007455126,35.53302293929978],[139.7939864609857,35.53304149095566],[139.79397025899254,35.53303354258518],[139.79396348365594,35.533042774253566],[139.7939506916256,35.53303649457237],[139.79395746255133,35.53302726470603],[139.7939327516593,35.53301513378836],[139.79394961054817,35.53299216817053],[139.7939476933415,35.532991230996124],[139.79394427786892,35.53298956230186],[139.79394058091776,35.532992978279005],[139.7939191874188,35.533022993117456],[139.79391864927544,35.533023005561105],[139.793914694612,35.533021234832276],[139.7939112780921,35.533019451659705],[139.79393435111487,35.53298708112745],[139.7939370661836,35.53298457343489],[139.7939723917912,35.532936259434365],[139.79395031912154,35.53292547426092],[139.7939492851667,35.53292688280209],[139.7939139662949,35.532909556386535],[139.79401557403176,35.53277110478666],[139.79401780543745,35.53277219890501],[139.79402155608088,35.532767195587994],[139.79405567449209,35.532758692136056],[139.79406522832755,35.5327456791174],[139.79410160884845,35.532763513319296],[139.79410987824204,35.532752245879514],[139.79418748910118,35.53279031262621],[139.79418428462964,35.53279468244564]]]}},{"type":"Feature","properties":{"height":17.1,"gml_id":"bldg_4dfee8ef-eb9e-440f-9226-749af195b61a"},"geometry":{"type":"Polygon","coordinates":[[[139.79431024279367,35.5332701905598],[139.7943692102177,35.5332967124091],[139.7943600287878,35.53331035744813],[139.79441779718744,35.533337680225245],[139.79442641029217,35.533324874196296],[139.79448539102654,35.53335139779566],[139.79447607277365,35.53336524200739],[139.7944788896418,35.53336658058347],[139.79438154118284,35.53350415237241],[139.7940380860559,35.53334171343647],[139.7937161473363,35.533189438396555],[139.79384512299208,35.53300718908785],[139.7941670490987,35.53315946198106],[139.7941354404225,35.53320413290913],[139.7941892154514,35.53322956697933],[139.79419805921876,35.533216422117206],[139.79425702766835,35.53324294582468],[139.79424748867575,35.53325712887161],[139.7943017521791,35.533282793806585],[139.79431024279367,35.5332701905598]]]}},{"type":"Feature","properties":{"height":4.3,"gml_id":"bldg_1290f570-9df8-4956-bef3-6d0976c835be"},"geometry":{"type":"Polygon","coordinates":[[[139.79636246227483,35.53308230875351],[139.7964326572955,35.53311595314706],[139.79642214917857,35.53313059938639],[139.79643008497192,35.533134403894564],[139.79640878955632,35.53316408568843],[139.79640085376022,35.533160282981655],[139.79639013487326,35.533175223007945],[139.79631996186865,35.53314158941345],[139.79633068076953,35.53312663767518],[139.79632067559155,35.533121840090644],[139.79634196000347,35.53309215290039],[139.79635196628263,35.533096948680736],[139.79636246227483,35.53308230875351]]]}},{"type":"Feature","properties":{"height":7.6,"gml_id":"bldg_ede55277-ede8-44fe-9ed1-827c5fd4c3fe"},"geometry":{"type":"Polygon","coordinates":[[[139.7963883547024,35.5333323210058],[139.79638776435684,35.53333314379761],[139.79632388777242,35.53342221258127],[139.79631890899392,35.53342915629357],[139.79628818003042,35.53341442889894],[139.7962862434713,35.53341712707752],[139.7961441717733,35.533349030816076],[139.79621747199675,35.533246786647446],[139.79624926656365,35.533205464810784],[139.7963737024798,35.533265119400916],[139.79634286572707,35.53330515166904],[139.7963604969344,35.53331360403787],[139.79635763348108,35.53331759633519],[139.7963883547024,35.5333323210058]]]}},{"type":"Feature","properties":{"height":10.2,"gml_id":"bldg_943bee21-394f-4efa-b7ab-bfa6fbfd36a4"},"geometry":{"type":"Polygon","coordinates":[[[139.79544996170492,35.532795933047694],[139.79542305240395,35.532834091417676],[139.7953562358174,35.53280261174601],[139.79536300342633,35.53279301673473],[139.79532947774146,35.53277721825921],[139.79540066602746,35.532676485549736],[139.79541137842557,35.53266152307327],[139.79541225159846,35.53266193438349],[139.79541698990784,35.5326552105723],[139.79547091936283,35.53268063510797],[139.79546273933337,35.53269223257954],[139.79550757106827,35.532713354592175],[139.79546929385347,35.53276763714905],[139.79544996170492,35.532795933047694]]]}},{"type":"Feature","properties":{"height":12.5,"gml_id":"bldg_9b519583-dd03-44fa-ae02-5c81743fdf88"},"geometry":{"type":"Polygon","coordinates":[[[139.7946993787792,35.53310733209349],[139.79459034360215,35.53305563642615],[139.79457071584397,35.533083302914434],[139.7945619521538,35.53307914737551],[139.79453104229592,35.5331227126222],[139.79454203301742,35.53312792801755],[139.79453016607724,35.53314465677629],[139.79451917204514,35.53313944318159],[139.79451264930904,35.53314863620203],[139.79434339959465,35.53306837106408],[139.79447910801065,35.53287707956359],[139.79459643143585,35.53293258458206],[139.79476629747717,35.53301300009663],[139.7946993787792,35.53310733209349]]]}}]}