{"type":"FeatureCollection","crs":{"type":"name","properties":{"name":"urn:ogc:def:crs:OGC:1.3:CRS84"}},"features":[{"type":"Feature","properties":{"height":2.5,"gml_id":"bldg_5569b810-c5ac-456d-b2f3-049620bd00f4"},"geometry":{"type":"Polygon","coordinates":[[[139.75221959820664,35.55166159820971],[139.7521926823259,35.55166437441267],[139.75218873715872,35.551638952532784],[139.7522155427317,35.55163617625647],[139.75221959820664,35.55166159820971]]]}},{"type":"Feature","properties":{"height":23.7,"gml_id":"bldg_cea8c1bd-3e9c-4bb6-adfa-629ef5b0e676"},"geometry":{"type":"Polygon","coordinates":[[[139.75025891826647,35.55614783648592],[139.75062375899356,35.556304298236554],[139.75061591468753,35.55631655176283],[139.7511686363085,35.55655354461439],[139.75116510080852,35.556559130824446],[139.75124867639067,35.556594972941554],[139.75119210977087,35.55668300024193],[139.751228274435,35.55669852878511],[139.7511693876047,35.55679016005402],[139.7511213150606,35.55676948545067],[139.75111479667137,35.55677957657609],[139.7504908472469,35.55651206757924],[139.75048642776903,35.5565190953864],[139.75012114520686,35.556362542781386],[139.75025891826647,35.55614783648592]]]}},{"type":"Feature","properties":{"height":2.2,"gml_id":"bldg_59765f5a-08ee-49af-b201-621f107aa8e1"},"geometry":{"type":"Polygon","coordinates":[[[139.75456488558197,35.55167324862919],[139.75454789575977,35.55167702337166],[139.7545368979164,35.55164420555389],[139.75455388773221,35.55164043081293],[139.75456488558197,35.55167324862919]]]}},{"type":"Feature","properties":{"height":2.7,"gml_id":"bldg_7a7382da-8632-4bd5-9b35-e95a117cace1"},"geometry":{"type":"Polygon","coordinates":[[[139.7507038170806,35.55170554844187],[139.75067921409266,35.55171157089922],[139.750665244733,35.55167388318152],[139.75068984780296,35.55166777058793],[139.7507038170806,35.55170554844187]]]}},{"type":"Feature","properties":{"height":3.3,"gml_id":"bldg_41d71e24-e195-41de-ad48-f54f6790a40f"},"geometry":{"type":"Polygon","coordinates":[[[139.7500602110117,35.556193039346226],[139.75010318755534,35.55612762808608],[139.75013196435935,35.556140177271395],[139.75008887743348,35.55620567860451],[139.7500602110117,35.556193039346226]]]}},{"type":"Feature","properties":{"height":9.2,"gml_id":"bldg_98190eb6-7879-44f6-bdbc-53ef547b8494"},"geometry":{"type":"Polygon","coordinates":[[[139.75199918510143,35.55388004289272],[139.75199941116915,35.55387463470147],[139.75200151283408,35.55386877708002],[139.75200570997237,35.55386319128908],[139.75201189155294,35.55385859836607],[139.7520192848213,35.55385562876301],[139.75202722778107,35.553854462311406],[139.75203461749925,35.553855008128444],[139.752040902919,35.553856815147434],[139.7520465253414,35.55385979352695],[139.75205170518956,35.55386412369379],[139.75205555995288,35.55386989519223],[139.75205731815083,35.55387647652894],[139.7520567597238,35.553883326721284],[139.75205399597456,35.55388945431458],[139.75204968917265,35.5538944090598],[139.75204461170858,35.55389792106031],[139.75203876303647,35.55390053115006],[139.7520315919169,35.55390196854003],[139.75202354001524,35.55390178283252],[139.75201560032775,35.55389970427983],[139.75200865509296,35.55389591375516],[139.75200358618486,35.55389095268787],[139.7520005043716,35.55388545212635],[139.75199918510143,35.55388004289272]]]}},{"type":"Feature","properties":{"height":8.4,"gml_id":"bldg_5c65b31c-5f13-4c01-88cb-823b4936d1d2"},"geometry":{"type":"Polygon","coordinates":[[[139.75148229577601,35.550093220352004],[139.7514813139107,35.550082583269486],[139.75133913153576,35.55009150058433],[139.75133073051902,35.550002347282444],[139.75157946564644,35.549986651692265],[139.7515888498278,35.5500865321989],[139.75148229577601,35.550093220352004]]]}},{"type":"Feature","properties":{"height":7.7,"gml_id":"bldg_434ac90d-b37d-4158-a88d-221782f9658c"},"geometry":{"type":"Polygon","coordinates":[[[139.75148477352528,35.55025988926224],[139.75149422320558,35.55029523020955],[139.7514342104168,35.5503059160191],[139.75143256218644,35.550299785439755],[139.7513812644555,35.55030894477698],[139.7513779680029,35.55029668361684],[139.7513652814881,35.55029892847158],[139.75136077644433,35.55028206939447],[139.75148477352528,35.55025988926224]]]}},{"type":"Feature","properties":{"height":5.8,"gml_id":"bldg_24ecaaa9-d9c7-4cd1-8d84-bb3c49ebb025"},"geometry":{"type":"Polygon","coordinates":[[[139.75192993092753,35.551136523028944],[139.75147397970298,35.5512213958122],[139.75146903806314,35.55119993935107],[139.75192498926245,35.551114976447025],[139.75192993092753,35.551136523028944]]]}},{"type":"Feature","properties":{"height":4.2,"gml_id":"bldg_18528e0c-6608-4248-8fff-8f7e22895778"},"geometry":{"type":"Polygon","coordinates":[[[139.75168511167587,35.55000511165285],[139.7517065112469,35.55000323321925],[139.75173485692437,35.550221659488635],[139.75171345729592,35.550223537927124],[139.75168511167587,35.55000511165285]]]}},{"type":"Feature","properties":{"height":2.3,"gml_id":"bldg_6f68f051-e5be-4b27-8bb4-8fe7300a4729"},"geometry":{"type":"Polygon","coordinates":[[[139.7525082370679,35.55255570137777],[139.75250733068717,35.552579587627086],[139.7524689471277,35.55257848022312],[139.7524699638205,35.55255459404808],[139.7525082370679,35.55255570137777]]]}},{"type":"Feature","properties":{"height":34.3,"gml_id":"bldg_c4ae0787-315e-4287-b222-abcfb72f35a1"},"geometry":{"type":"Polygon","coordinates":[[[139.75691927140383,35.55624920036974],[139.75681386361697,35.55612569893498],[139.75679477924933,35.55613655127967],[139.7564377899241,35.555717817616184],[139.75643092961855,35.555721735190446],[139.75638935328925,35.55567339684574],[139.75639646302747,35.55566932709798],[139.7563962658021,35.5556690962162],[139.7564855962582,35.55561830755392],[139.75652276831275,35.555597084566365],[139.75662049395186,35.55554162203354],[139.75695241691054,35.55593089808061],[139.75695671918157,35.555910748421745],[139.75723847253207,35.55623946260937],[139.75730343761646,35.55623894923633],[139.75731110744596,35.556248012143584],[139.75731562820238,35.556253404406476],[139.75691036401105,35.556256382410666],[139.75704049971748,35.556181658441446],[139.75692827795157,35.55605034404911],[139.75692808856365,35.556051150673454],[139.75703888976142,35.556181122898295],[139.75691927140383,35.55624920036974]]]}},{"type":"Feature","properties":{"height":22.3,"gml_id":"bldg_242d2881-4590-49d9-9457-f169d391ff2f"},"geometry":{"type":"Polygon","coordinates":[[[139.7519481414998,35.550579655913864],[139.75193931538504,35.55058190343433],[139.75194316551986,35.550592091752755],[139.7519010208444,35.550602789853166],[139.751897060781,35.55059224090273],[139.75186771404077,35.550599612486835],[139.751832953012,35.55050755696379],[139.7519131601565,35.55048723970843],[139.7519481414998,35.550579655913864]]]}},{"type":"Feature","properties":{"height":6.2,"gml_id":"bldg_6ba9be6b-5b4a-42fe-a6d5-33325d1ccecc"},"geometry":{"type":"Polygon","coordinates":[[[139.75485762542698,35.557994936165926],[139.75495156421206,35.557975344263454],[139.75497501775826,35.558050330820606],[139.75488107778818,35.558069922740266],[139.75485762542698,35.557994936165926]]]}},{"type":"Feature","properties":{"height":33.2,"gml_id":"bldg_db4bd02c-be3f-4b12-9cd9-6c10e6686cae"},"geometry":{"type":"Polygon","coordinates":[[[139.75460418457988,35.55702821755237],[139.7543355680689,35.55708158263191],[139.754346430141,35.557128657637975],[139.75427474222005,35.55714376662845],[139.75426371665557,35.55709585141323],[139.75406889079932,35.55713454186022],[139.7540940344998,35.55721491731849],[139.75400985062925,35.55723250036681],[139.75398444086488,35.55715131256364],[139.75398097544237,35.55715200074788],[139.75385576122113,35.55673770875705],[139.75448133471946,35.55661371772062],[139.75450484833186,35.55669297611321],[139.75453172974517,35.55668760697666],[139.75461001306644,35.556949377660494],[139.75458254131718,35.556954861806574],[139.75458758776028,35.5569718734338],[139.7546354232503,35.5569618766995],[139.7546515349805,35.55701347107023],[139.75460293709992,35.557023612436815],[139.75460418457988,35.55702821755237]]]}},{"type":"Feature","properties":{"height":5.7,"gml_id":"bldg_112f70e3-ecd5-4133-be88-d2cac6e59c7b"},"geometry":{"type":"Polygon","coordinates":[[[139.75443370141596,35.552387515166835],[139.7544185311873,35.55233522456906],[139.75446652094388,35.552325971640784],[139.75446410219294,35.552317947679946],[139.75449190317693,35.55231255751555],[139.7545093819052,35.552372871992134],[139.75443370141596,35.552387515166835]]]}},{"type":"Feature","properties":{"height":2.8,"gml_id":"bldg_10622c50-9dea-4a38-8af9-de38aa7c1bd2"},"geometry":{"type":"Polygon","coordinates":[[[139.7570288564014,35.55715528774439],[139.75704321287918,35.55713780985964],[139.7570940381,35.55716560482467],[139.75707979193533,35.55718308278516],[139.7570288564014,35.55715528774439]]]}},{"type":"Feature","properties":{"height":8.0,"gml_id":"bldg_7e0525af-d71c-4662-8802-3673f7c5d898"},"geometry":{"type":"Polygon","coordinates":[[[139.75113759026766,35.55163184071196],[139.7511218162899,35.55152492499017],[139.75130713786498,35.55150657268351],[139.75132302238464,35.55161348845671],[139.75113759026766,35.55163184071196]]]}},{"type":"Feature","properties":{"height":9.3,"gml_id":"bldg_8318d69d-9ea9-4f7a-b56c-afbd0404768e"},"geometry":{"type":"Polygon","coordinates":[[[139.75078377550997,35.5518217023598],[139.75084445703683,35.55180542871119],[139.75085292859814,35.55182643691481],[139.75086738182404,35.551822570819326],[139.75087970419162,35.55185304625919],[139.75086723690947,35.551856372879804],[139.75088307992223,35.55189559421876],[139.7508951060108,35.551892267294896],[139.75092470156102,35.55196566074502],[139.75091521318993,35.551968178154524],[139.75092159434672,35.55198404699582],[139.75085616851217,35.552001579384935],[139.75078377550997,35.5518217023598]]]}},{"type":"Feature","properties":{"height":11.8,"gml_id":"bldg_bae29222-a6c7-4119-b25f-27834d0f529c"},"geometry":{"type":"Polygon","coordinates":[[[139.75119082715963,35.55469651531951],[139.7516582764574,35.55471395928036],[139.751670858913,35.55448871031311],[139.75169126429586,35.5544894452436],[139.7516778947869,35.554730558152734],[139.75167756277293,35.55473055792789],[139.75161116244567,35.55472807918841],[139.75152799660987,35.55472495806564],[139.75152271681813,35.55481896951134],[139.75133333231244,35.55481190015977],[139.751335129759,35.55477990201999],[139.7512141310864,35.554775402860905],[139.7512175012354,35.55471555282761],[139.7511898160362,35.55471454244059],[139.75119082715963,35.55469651531951]]]}},{"type":"Feature","properties":{"height":3.8,"gml_id":"bldg_75661644-d551-4603-a1bc-e3db339b5c29"},"geometry":{"type":"Polygon","coordinates":[[[139.75078924577082,35.55132729316235],[139.75080308192028,35.551387335273255],[139.75073998086899,35.55139702709093],[139.75072614467246,35.55133707511197],[139.75078924577082,35.55132729316235]]]}},{"type":"Feature","properties":{"height":40.3,"gml_id":"bldg_aadd7070-6f36-4b3c-9857-c52e1b01edfb"},"geometry":{"type":"Polygon","coordinates":[[[139.751670858913,35.55448871031311],[139.7516582764574,35.55471395928036],[139.75119082715963,35.55469651531951],[139.75103574609943,35.55469073081149],[139.7510390051526,35.55463178209708],[139.75043191745254,35.55460919202293],[139.75042528675866,35.554728441426406],[139.74917923409546,35.554682057990185],[139.74916876100295,35.55467655219832],[139.74916268460154,35.55468583227872],[139.74832511321415,35.55430170303016],[139.74853423983004,35.55430942196532],[139.74856755002708,35.554310707333656],[139.7485762079787,35.55415432216004],[139.74904839647138,35.55417186970813],[139.74905098259254,35.55412490906749],[139.74905143220067,35.55411688700573],[139.74906577099895,35.55411743786179],[139.74906610728422,35.55411230017058],[139.75167930435168,35.554209645517616],[139.75167907908414,35.55421424245699],[139.7516861381983,35.55421451765432],[139.751670858913,35.55448871031311]]]}},{"type":"Feature","properties":{"height":41.4,"gml_id":"bldg_afc75240-d25a-4ba2-9849-354adb7b11a9"},"geometry":{"type":"Polygon","coordinates":[[[139.75188851552696,35.553806685133324],[139.75188210465478,35.55392890937179],[139.75134020795252,35.55390916220158],[139.751343692311,35.55384534611496],[139.750785141476,35.55382477387336],[139.75078649070065,35.55379980627669],[139.75078750023923,35.55378340165836],[139.75067764316972,35.553779360283315],[139.75067651923527,35.553799730941066],[139.75067550588025,35.55381983125736],[139.7501766267474,35.553801460425454],[139.75017673919075,35.553799387304565],[139.75017887542714,35.55376017828554],[139.75006857721175,35.5537561360514],[139.75006621789356,35.55379768853001],[139.7492256352896,35.55376672825969],[139.74922878419702,35.55370886117795],[139.75171843546204,35.55380044067621],[139.75188851552696,35.553806685133324]]]}},{"type":"Feature","properties":{"height":48.5,"gml_id":"bldg_183a0aa2-dfb8-4e4d-a4f8-4d19d7857b1d"},"geometry":{"type":"Polygon","coordinates":[[[139.756246312296,35.556327444448826],[139.756245490833,35.556324810061206],[139.756244194483,35.556325076945306],[139.75618695759556,35.556138837438546],[139.7563436080418,35.55610667860822],[139.7564008485885,35.55629290722747],[139.75640022412847,35.55629304203758],[139.7564008982205,35.556295222029405],[139.756246312296,35.556327444448826]]]}},{"type":"Feature","properties":{"height":9.0,"gml_id":"bldg_d6ccb561-2c4e-4556-8646-45f4d3545513"},"geometry":{"type":"Polygon","coordinates":[[[139.75263969990803,35.551140335242515],[139.7525177030849,35.55114665341682],[139.75251519877918,35.55111420166092],[139.75250538165218,35.5511147359154],[139.7525042932311,35.55110022279001],[139.75251333817513,35.55109977815717],[139.75251007110006,35.55105804156185],[139.75263272967157,35.55105163369886],[139.75263969990803,35.551140335242515]]]}},{"type":"Feature","properties":{"height":4.3,"gml_id":"bldg_1d8d220b-52ef-4d69-be1b-99f0d225d8f1"},"geometry":{"type":"Polygon","coordinates":[[[139.75018899555823,35.558273446453555],[139.75018893104885,35.5582290980232],[139.75023095865717,35.5582290368584],[139.75023102318968,35.558273385288764],[139.75018899555823,35.558273446453555]]]}},{"type":"Feature","properties":{"height":6.0,"gml_id":"bldg_c7442218-dc21-4822-a97a-743bdc9c9aa9"},"geometry":{"type":"Polygon","coordinates":[[[139.7542504539865,35.552981320632846],[139.75432004677023,35.55296633556445],[139.7543405401796,35.553029888928656],[139.7543437252536,35.55302920325404],[139.754368182953,35.55310510916456],[139.75427211539213,35.55312580794673],[139.75424765999463,35.55304989030044],[139.75425029675912,35.553049319646675],[139.7542298133432,35.55298576627394],[139.7542504539865,35.552981320632846]]]}},{"type":"Feature","properties":{"height":3.0,"gml_id":"bldg_7cb5c32f-f5b4-47ca-b1b4-01ecf7add221"},"geometry":{"type":"Polygon","coordinates":[[[139.75228444157648,35.55474277559965],[139.75233352407943,35.55474542261414],[139.7523300614118,35.554788416614585],[139.75228097888277,35.554785769598645],[139.75228444157648,35.55474277559965]]]}},{"type":"Feature","properties":{"height":6.5,"gml_id":"bldg_de7b854a-fc9a-422e-a1ca-11786582288b"},"geometry":{"type":"Polygon","coordinates":[[[139.7519034363444,35.55181363004734],[139.75189685254776,35.55177982344093],[139.75187820945214,35.5517822446041],[139.75183749892287,35.55157408592528],[139.75185018498718,35.55157247199483],[139.7518386632147,35.55151351323874],[139.75194677077621,35.55149943441604],[139.75200547718046,35.55180017804952],[139.7519034363444,35.55181363004734]]]}},{"type":"Feature","properties":{"height":26.0,"gml_id":"bldg_3292ab13-cfdd-4d1e-8294-843f5ccc0155"},"geometry":{"type":"Polygon","coordinates":[[[139.7560459743862,35.554060433677996],[139.75616694633845,35.55398954106711],[139.75616312746345,35.55398514073816],[139.75624921759723,35.55393562292549],[139.7569177360673,35.554713703351354],[139.7568319494936,35.55476254037606],[139.7568281051544,35.554758162587284],[139.7566947542628,35.55483607702791],[139.75657016987293,35.55477304376257],[139.75653277545655,35.55479420533171],[139.75654267072733,35.55480586030371],[139.75649304357086,35.55483397731096],[139.75644414920873,35.55486166390024],[139.75643369082394,35.5548494524032],[139.75642699057067,35.55485333041875],[139.75638558582781,35.554877536985295],[139.75622861835538,35.55496797688081],[139.75623433474135,35.55497443990039],[139.75622994770706,35.55497699614275],[139.75623056032404,35.554977699619066],[139.75611480333797,35.555043874137745],[139.75597268420915,35.555074811603745],[139.75580259130865,35.55487830559168],[139.75577187684576,35.554793912081244],[139.75577160019867,35.554793688358444],[139.7557373119904,35.55468866061137],[139.75574294836576,35.55468537416302],[139.75565267051095,35.55440277156223],[139.75565239230298,35.55440188080911],[139.75565217348048,35.554401174879324],[139.7555889209774,35.55419230534967],[139.755971352127,35.553973387205666],[139.7560459743862,35.554060433677996]]]}},{"type":"Feature","properties":{"height":12.9,"gml_id":"bldg_3fd84134-4f08-48af-bb5e-02cd02371470"},"geometry":{"type":"Polygon","coordinates":[[[139.75258806685204,35.55126352083243],[139.75256937886584,35.55120086164066],[139.75263424748744,35.551188015179434],[139.75265282522227,35.55125067428756],[139.75258806685204,35.55126352083243]]]}},{"type":"Feature","properties":{"height":6.2,"gml_id":"bldg_cc3ecd07-bc23-4cdc-b3e0-3822cf10bef2"},"geometry":{"type":"Polygon","coordinates":[[[139.75053938320585,35.55211250378449],[139.7505356470909,35.552098800077744],[139.75055958655466,35.55209457997643],[139.75056332276614,35.55210819354343],[139.75053938320585,35.55211250378449]]]}},{"type":"Feature","properties":{"height":11.3,"gml_id":"bldg_89ef1c0d-3c5d-4067-bcba-720c9b3e11d3"},"geometry":{"type":"Polygon","coordinates":[[[139.750595192532,35.55125613055647],[139.75066811379108,35.5512428399829],[139.75068800379003,35.55131505503636],[139.75047883734584,35.551353400890335],[139.7504590580096,35.55128100560079],[139.7504639120897,35.551280107545836],[139.750595192532,35.55125613055647]]]}},{"type":"Feature","properties":{"height":13.1,"gml_id":"bldg_7d12a567-8690-4152-80da-93db00663057"},"geometry":{"type":"Polygon","coordinates":[[[139.75197016080733,35.55105623623909],[139.75196718219823,35.55105677506386],[139.7519605886905,35.551032613334414],[139.75192278694283,35.550893142621504],[139.7524314654793,35.55080127267216],[139.75247575141987,35.550964904857054],[139.75197016080733,35.55105623623909]]]}},{"type":"Feature","properties":{"height":3.1,"gml_id":"bldg_cf4d98d7-e0f7-42ab-8d3c-32a2a8c2a284"},"geometry":{"type":"Polygon","coordinates":[[[139.75479157579426,35.55817964836592],[139.7547446590768,35.55802968328443],[139.75484977335515,35.55800772628651],[139.7548966891501,35.558157694031344],[139.75479157579426,35.55817964836592]]]}},{"type":"Feature","properties":{"height":2.8,"gml_id":"bldg_e367094f-225b-4d97-a763-9e18215ebc13"},"geometry":{"type":"Polygon","coordinates":[[[139.7504417870631,35.55145063551379],[139.7504156397597,35.55145683713423],[139.75039704849465,35.55140896048754],[139.75042429914603,35.55140239907333],[139.7504417870631,35.55145063551379]]]}},{"type":"Feature","properties":{"height":6.0,"gml_id":"bldg_d59feacf-5b36-4cb3-9f56-9bec065bf531"},"geometry":{"type":"Polygon","coordinates":[[[139.75452782774366,35.55155766609195],[139.75453464504469,35.55157939407002],[139.75454479470062,35.5515772373639],[139.7545495226691,35.55159247396076],[139.75454235171148,35.55159400163997],[139.75455015862758,35.5516188851321],[139.75448959172778,35.55163164529678],[139.7544834340244,35.551612171225145],[139.75446611348966,35.55161576546169],[139.75445280876065,35.551573391382625],[139.75452782774366,35.55155766609195]]]}},{"type":"Feature","properties":{"height":5.6,"gml_id":"bldg_fdb1bead-7943-40db-ab02-4e5cc49cc75c"},"geometry":{"type":"Polygon","coordinates":[[[139.75018173531697,35.55227243484008],[139.7501123591431,35.552269772945266],[139.75012288440445,35.552117805709415],[139.7501922600746,35.55212082905555],[139.75018173531697,35.55227243484008]]]}},{"type":"Feature","properties":{"height":8.2,"gml_id":"bldg_d1e43ca2-befa-4258-93da-97cd062f43f7"},"geometry":{"type":"Polygon","coordinates":[[[139.7519605886905,35.551032613334414],[139.75196718219823,35.55105677506386],[139.75197016080733,35.55105623623909],[139.75198181130344,35.551096986974954],[139.75192665121463,35.551107586162516],[139.75190796605764,35.55104267339126],[139.7519605886905,35.551032613334414]]]}},{"type":"Feature","properties":{"height":5.3,"gml_id":"bldg_9b3b6b2e-4c39-4b73-89d9-8866c5789600"},"geometry":{"type":"Polygon","coordinates":[[[139.75105594451273,35.55122363519142],[139.75101089199083,35.55105729779742],[139.75111878409913,35.55103772108322],[139.75116383683311,35.55120405843772],[139.75105594451273,35.55122363519142]]]}},{"type":"Feature","properties":{"height":2.7,"gml_id":"bldg_80b1079a-cbfa-4191-bb68-cca9d698ce51"},"geometry":{"type":"Polygon","coordinates":[[[139.75261653313902,35.55279500304113],[139.75263781156727,35.552804662164625],[139.7526014689449,35.55285809031122],[139.752580190507,35.55284843118138],[139.75261653313902,35.55279500304113]]]}},{"type":"Feature","properties":{"height":6.1,"gml_id":"bldg_0e7c59c1-e119-41f1-9cf1-d850fb2206f1"},"geometry":{"type":"Polygon","coordinates":[[[139.75240353482727,35.55115559075616],[139.75238529853317,35.551082655980096],[139.75242843246141,35.55107556393934],[139.75242557619768,35.55106411435658],[139.7524876848233,35.55105369987778],[139.75250866736323,35.55113790386757],[139.75240353482727,35.55115559075616]]]}},{"type":"Feature","properties":{"height":3.1,"gml_id":"bldg_958c7bfb-7af9-4604-8d89-c63ed160c4d9"},"geometry":{"type":"Polygon","coordinates":[[[139.75932652603748,35.55430363903247],[139.75930334995888,35.554317145664655],[139.75926731873452,35.55427592998648],[139.75929049480726,35.55426242336112],[139.75932652603748,35.55430363903247]]]}},{"type":"Feature","properties":{"height":4.8,"gml_id":"bldg_2282842b-0341-4867-b666-9d8907bd36f1"},"geometry":{"type":"Polygon","coordinates":[[[139.75061876051225,35.551398566503],[139.75061381955254,35.55137665931259],[139.75065496748482,35.55137046793536],[139.75065990845536,35.551392375124124],[139.75061876051225,35.551398566503]]]}},{"type":"Feature","properties":{"height":7.5,"gml_id":"bldg_35ba2c6a-305e-4047-b3b3-1d67b188b492"},"geometry":{"type":"Polygon","coordinates":[[[139.75130450952543,35.55192121072987],[139.7512866022909,35.55185089005497],[139.75143012695946,35.55182665007272],[139.7514480344057,35.551896880587684],[139.75130450952543,35.55192121072987]]]}},{"type":"Feature","properties":{"height":6.8,"gml_id":"bldg_f5c0bb71-6c86-4600-b9e8-e501f79b1cc2"},"geometry":{"type":"Polygon","coordinates":[[[139.75138480386926,35.550204923938026],[139.75137720789868,35.550176527657804],[139.75167076287352,35.55012390529567],[139.75169427768785,35.55021153644083],[139.75140072231704,35.5502642489981],[139.75139655561037,35.55024874043608],[139.75138480386926,35.550204923938026]]]}},{"type":"Feature","properties":{"height":2.2,"gml_id":"bldg_f64e1091-4b84-4c63-986f-337190f14abc"},"geometry":{"type":"Polygon","coordinates":[[[139.75005796090164,35.55826190837071],[139.7500739554453,35.55826209969457],[139.75007326740038,35.55828742827713],[139.75005738325342,35.558287146890414],[139.75005796090164,35.55826190837071]]]}},{"type":"Feature","properties":{"height":3.1,"gml_id":"bldg_79513618-2044-4fa6-8ac9-de0a2144f612"},"geometry":{"type":"Polygon","coordinates":[[[139.75051200266316,35.55020739505768],[139.75049038037562,35.55021125618673],[139.75042852240276,35.549978564609745],[139.75045014463078,35.549974703491564],[139.75051200266316,35.55020739505768]]]}},{"type":"Feature","properties":{"height":35.8,"gml_id":"bldg_a3c54966-a133-4845-b6ee-26b990a20988"},"geometry":{"type":"Polygon","coordinates":[[[139.753716169657,35.553584982848605],[139.7537318715796,35.553584567759046],[139.7537484914591,35.55372006405739],[139.75379551331872,35.554085253838196],[139.75346658202787,35.55410910174018],[139.7534324845348,35.55312931616247],[139.7536290243903,35.55312468689462],[139.7536626512455,35.5531410747681],[139.75366783188045,35.55328959132875],[139.75369139022595,35.55328949331599],[139.753716169657,35.553584982848605]]]}},{"type":"Feature","properties":{"height":5.5,"gml_id":"bldg_effde226-4975-48ff-9c87-eaec39331bc6"},"geometry":{"type":"Polygon","coordinates":[[[139.7570282859017,35.55717529824508],[139.75706522116184,35.55719389025135],[139.75702678561785,35.557245245172155],[139.7569875348345,35.55722566015895],[139.7569946034616,35.55721620003785],[139.75695700653637,35.55719742731287],[139.7569695973555,35.55718075956973],[139.7570092890844,35.55720061528506],[139.7570282859017,35.55717529824508]]]}},{"type":"Feature","properties":{"height":10.2,"gml_id":"bldg_3c17135f-4bd9-4868-aa69-0cc3692a4f9b"},"geometry":{"type":"Polygon","coordinates":[[[139.7516885099848,35.55666188430603],[139.75165003119395,35.55664401071854],[139.751673892088,35.55660977405277],[139.75171237077646,35.556627737771706],[139.7516885099848,35.55666188430603]]]}},{"type":"Feature","properties":{"height":14.2,"gml_id":"bldg_54240e9c-072d-485a-af63-f89f16d8fdfa"},"geometry":{"type":"Polygon","coordinates":[[[139.75077115867086,35.553799795779554],[139.75076619186697,35.55391048314665],[139.75068512191723,35.553908083990336],[139.7506899761247,35.553799740165054],[139.7506903136001,35.55379334052289],[139.7507713834345,35.55379573967563],[139.75077115867086,35.553799795779554]]]}},{"type":"Feature","properties":{"height":8.9,"gml_id":"bldg_f879db01-b0a6-4fbb-8842-174e4a3cabe5"},"geometry":{"type":"Polygon","coordinates":[[[139.75223388357043,35.55160527088327],[139.75220675776464,35.55148798167028],[139.7524139319261,35.55145603135859],[139.7524366650652,35.55155438836842],[139.75234565390934,35.55156847911412],[139.75234993663787,35.55158732106183],[139.75223388357043,35.55160527088327]]]}},{"type":"Feature","properties":{"height":28.2,"gml_id":"bldg_2d338e26-50e6-487d-9e07-89fbb94de7a5"},"geometry":{"type":"Polygon","coordinates":[[[139.7553879745284,35.553471892373274],[139.75550519695543,35.55344899074133],[139.7555303224402,35.55353482025287],[139.7554131009991,35.55355772100809],[139.7553879745284,35.553471892373274]]]}},{"type":"Feature","properties":{"height":3.8,"gml_id":"bldg_ac08e699-7c39-4a65-8fe3-3472f765fbb0"},"geometry":{"type":"Polygon","coordinates":[[[139.75371957200053,35.555315788360446],[139.7537135967154,35.55531587815954],[139.7537136749592,35.55532375996906],[139.75366919984356,35.55532408844475],[139.75366911687354,35.55531652842847],[139.7536524507214,35.55531677160816],[139.7536519848563,35.55529374798611],[139.75365012947432,35.55529380895592],[139.7536499597164,35.55529035291284],[139.75361568342748,35.555290625912384],[139.75361519405993,35.55525012882107],[139.75361575992758,35.555250122885454],[139.75359013134369,35.555233870995615],[139.7536175816754,35.55520492837347],[139.7536623212557,35.55523267209387],[139.75368073407935,35.55521847203578],[139.75371804139888,35.5552461927977],[139.75371957200053,35.555315788360446]]]}},{"type":"Feature","properties":{"height":5.8,"gml_id":"bldg_bc5cc1f6-1888-476d-9a5f-d042bd632432"},"geometry":{"type":"Polygon","coordinates":[[[139.7571620970077,35.55716618867358],[139.75718988098842,35.557180358048285],[139.7571740876443,35.55720089976936],[139.75718048238392,35.55720414881298],[139.75716502046558,35.557224149907995],[139.75712687264408,35.55720465577584],[139.75714244521632,35.557184294199494],[139.75714652452922,35.55718646011356],[139.7571620970077,35.55716618867358]]]}},{"type":"Feature","properties":{"height":5.7,"gml_id":"bldg_f3573fc0-66ac-4062-ae49-4444bef303c4"},"geometry":{"type":"Polygon","coordinates":[[[139.75398420059773,35.55323349726777],[139.7543863494296,35.55315367176889],[139.75451575455045,35.553589355292786],[139.75411358602273,35.55366917940046],[139.7540705409282,35.55352425075732],[139.7539946029529,35.553539323446984],[139.75397376105997,35.55346912925482],[139.75399303679987,35.553465298409755],[139.75397282267826,35.55339720757417],[139.75397899968578,35.55339598574812],[139.75397666349045,35.55338815202671],[139.75400444845906,35.5533826321651],[139.7539872108436,35.5533251742914],[139.75401005334464,35.55332059312928],[139.75398420059773,35.55323349726777]]]}},{"type":"Feature","properties":{"height":2.6,"gml_id":"bldg_1a53b988-0e26-478a-8475-0deb597dbfe4"},"geometry":{"type":"Polygon","coordinates":[[[139.7524380406309,35.551502649449],[139.75243744719893,35.55143459403121],[139.75246061010833,35.55143451942942],[139.75246120365037,35.551502484708095],[139.7524380406309,35.551502649449]]]}},{"type":"Feature","properties":{"height":2.5,"gml_id":"bldg_7ade5568-5af0-4656-b993-2e45a8b02b58"},"geometry":{"type":"Polygon","coordinates":[[[139.75688176500682,35.556513134316965],[139.7568786870493,35.55650195512601],[139.75691553578548,35.55649512791964],[139.75691861374784,35.556506307109665],[139.75688176500682,35.556513134316965]]]}},{"type":"Feature","properties":{"height":3.2,"gml_id":"bldg_eb8deb58-61bc-4440-a40c-55f02e98d064"},"geometry":{"type":"Polygon","coordinates":[[[139.75005913335173,35.55819484576752],[139.75001125969635,35.558194632415635],[139.75001143726402,35.558129642321596],[139.750079387085,35.558129779398456],[139.7500792303581,35.55817466851079],[139.75005926454423,35.5581746547229],[139.75005913335173,35.55819484576752]]]}},{"type":"Feature","properties":{"height":2.4,"gml_id":"bldg_444df093-efb1-4d18-90f7-5d058795cfb1"},"geometry":{"type":"Polygon","coordinates":[[[139.75130017743683,35.55779764269359],[139.75131859939887,35.55779711439178],[139.7513200004376,35.55782947524688],[139.75130146825214,35.557829913334906],[139.75130017743683,35.55779764269359]]]}},{"type":"Feature","properties":{"height":5.9,"gml_id":"bldg_a1ca869b-bb8f-4663-87e0-432568fb6a91"},"geometry":{"type":"Polygon","coordinates":[[[139.75090557369677,35.551256252988054],[139.75084368826427,35.551263782352834],[139.7508389714504,35.5512383598995],[139.750848679043,35.551237104592985],[139.7508413300152,35.55119707780457],[139.75089350799513,35.55119062347368],[139.75090557369677,35.551256252988054]]]}},{"type":"Feature","properties":{"height":15.8,"gml_id":"bldg_d4ea796b-562d-45fc-a547-ee94aff74582"},"geometry":{"type":"Polygon","coordinates":[[[139.75326117577185,35.55788391063901],[139.75323678248986,35.55788588741033],[139.7531988529708,35.557573449427885],[139.7533604302646,35.55756033241226],[139.75339838797447,35.55787277757477],[139.75333628284943,35.55787782202806],[139.75333936266446,35.55790334242327],[139.75326427540082,35.557909449077044],[139.75326117577185,35.55788391063901]]]}},{"type":"Feature","properties":{"height":9.4,"gml_id":"bldg_4f565582-cc18-40c9-a88e-6a2b9a7f2bbc"},"geometry":{"type":"Polygon","coordinates":[[[139.75362702578107,35.55282932595789],[139.7536296534941,35.55292259189542],[139.75348768096805,35.552925297687075],[139.75348504238838,35.55283203264081],[139.75355143609943,35.55283076416367],[139.75362702578107,35.55282932595789]]]}},{"type":"Feature","properties":{"height":6.7,"gml_id":"bldg_ddac95fc-0246-4a99-90f1-1d05689b9075"},"geometry":{"type":"Polygon","coordinates":[[[139.75094423541708,35.550230135797015],[139.750922174373,35.550123846702576],[139.7509655273115,35.55011792714195],[139.75097035679462,35.55014100605495],[139.75100907669716,35.55013562414878],[139.7510263083526,35.55021883431706],[139.75094423541708,35.550230135797015]]]}},{"type":"Feature","properties":{"height":2.8,"gml_id":"bldg_66009c32-3cd2-49e6-a289-ed0796928546"},"geometry":{"type":"Polygon","coordinates":[[[139.7513138366877,35.5502358862482],[139.75135597390835,35.550232399476556],[139.75136078901392,35.55026972034414],[139.75131865168214,35.550273297256474],[139.7513138366877,35.5502358862482]]]}},{"type":"Feature","properties":{"height":8.5,"gml_id":"bldg_0e32c0fb-7984-408c-a6be-9e21c11f2cee"},"geometry":{"type":"Polygon","coordinates":[[[139.75238717209555,35.5517425655869],[139.75222478327333,35.551770129168],[139.7521997338624,35.55167195084157],[139.75224970805,35.55166351138152],[139.7522469614551,35.55165269284305],[139.75232672163875,35.551639135448816],[139.75233023761987,35.55165265867523],[139.75236289178144,35.55164718212207],[139.75238717209555,35.5517425655869]]]}},{"type":"Feature","properties":{"height":25.8,"gml_id":"bldg_c3559174-419d-4dc7-b632-4e1beb28e32a"},"geometry":{"type":"Polygon","coordinates":[[[139.7574398411505,35.555322112933844],[139.75808105056402,35.556071255654636],[139.75781948608778,35.55622083018521],[139.7577477280858,35.55613706769568],[139.757734594661,35.55614457795864],[139.7577513425114,35.55616322921005],[139.75775615009317,35.556160389238485],[139.7577764866009,35.55618331172026],[139.75777184125494,35.5561860589511],[139.75778521728952,35.5562009555967],[139.75772807103732,35.55623518703149],[139.75771441619324,35.55622001437934],[139.75770490586308,35.55622563759704],[139.75768456385404,35.55620271059296],[139.75769392077166,35.55619717922242],[139.75767651840562,35.55617778931378],[139.75766131562412,35.55618648179572],[139.75766749918336,35.55619371572808],[139.75758611053232,35.55624015292987],[139.75756540715437,35.556251962557184],[139.75755508496755,35.55623999642376],[139.75748124787546,35.55623945873869],[139.75748050853835,35.556238593840256],[139.75739372544902,35.55623859780476],[139.75733814234474,35.55627016643054],[139.7573113038509,35.5562386017526],[139.75723927967798,35.55623860499518],[139.75695198390932,35.55590246525037],[139.75695844473842,35.55588825171283],[139.75679692936765,35.555699954311464],[139.75689428239764,35.55564419115813],[139.75697264471944,35.5557354867568],[139.75698600434802,35.55572789829858],[139.75697223124723,35.55571436962243],[139.7570001288652,35.55569769984666],[139.75701442652158,35.555711754362285],[139.75704875759638,35.5556922537744],[139.75706289339408,35.55566408885879],[139.7570488847449,35.555647697226355],[139.75715096091915,35.555589469747694],[139.75715877630114,35.555598502110264],[139.7572455151199,35.5555488992793],[139.75718138203862,35.55547386941895],[139.7574398411505,35.555322112933844]]]}},{"type":"Feature","properties":{"height":7.0,"gml_id":"bldg_3b859963-72a6-48f0-a0f3-cdd3d14e73b4"},"geometry":{"type":"Polygon","coordinates":[[[139.7524049998994,35.55134407260209],[139.75239841692664,35.55130927449078],[139.7524229063762,35.55130622619623],[139.75242060223385,35.55129414601054],[139.7524952841204,35.55128473149468],[139.7525041714693,35.55133142950694],[139.7524049998994,35.55134407260209]]]}},{"type":"Feature","properties":{"height":39.8,"gml_id":"bldg_1174d412-63b5-4611-a8fc-cc3221c84301"},"geometry":{"type":"Polygon","coordinates":[[[139.75198837611208,35.553005866909814],[139.7519750032752,35.553250315055486],[139.75192558987942,35.5532485690623],[139.75193896277486,35.55300421106126],[139.75198837611208,35.553005866909814]]]}},{"type":"Feature","properties":{"height":3.2,"gml_id":"bldg_596fe7b9-4c2e-4abe-ab35-064884ffe32b"},"geometry":{"type":"Polygon","coordinates":[[[139.75079354613786,35.551328558053484],[139.75081704379377,35.55132469815434],[139.7508284673287,35.551371127607396],[139.75080496965975,35.55137498750872],[139.75079354613786,35.551328558053484]]]}},{"type":"Feature","properties":{"height":2.6,"gml_id":"bldg_1807d479-18a0-4d51-96af-e744472e8f8e"},"geometry":{"type":"Polygon","coordinates":[[[139.75692649265912,35.556572834703985],[139.75692341708833,35.55655913162308],[139.7569461434088,35.55655572073998],[139.75694932928954,35.55656942389022],[139.75692649265912,35.556572834703985]]]}},{"type":"Feature","properties":{"height":3.3,"gml_id":"bldg_52591178-f693-4e3b-a346-d27f7daba285"},"geometry":{"type":"Polygon","coordinates":[[[139.7508144937119,35.551983432915165],[139.7507542539839,35.55199898573797],[139.75075612399854,35.552003944668535],[139.75074045715832,35.552008080336556],[139.7507384770295,35.55200294105212],[139.7506517581623,35.55202541639308],[139.75056683172986,35.55180632013886],[139.75072945667338,35.5517642465589],[139.7508144937119,35.551983432915165]]]}},{"type":"Feature","properties":{"height":7.0,"gml_id":"bldg_bd59302f-a9e7-4a27-96f3-5ebf7f081885"},"geometry":{"type":"Polygon","coordinates":[[[139.75216973166118,35.55145379403526],[139.7521585700981,35.55136554034337],[139.75219078023395,35.551362767710586],[139.7521900142259,35.55135672787538],[139.75223402735153,35.551352971642956],[139.75223654507622,35.551371992686455],[139.75226290881804,35.55136975693689],[139.75227253937314,35.55144502955965],[139.75216973166118,35.55145379403526]]]}},{"type":"Feature","properties":{"height":35.2,"gml_id":"bldg_b073e36a-a093-4554-9747-64209509a467"},"geometry":{"type":"Polygon","coordinates":[[[139.75496633878302,35.55468884434803],[139.7549674939021,35.55468859811777],[139.75495575224326,35.554648764348336],[139.7555099709008,35.55454227339447],[139.75556342724232,35.55472731829234],[139.7555805967237,35.554784844389964],[139.7555717100334,35.55478662431375],[139.75557136700345,35.5547854667071],[139.75554694645177,35.55479044015193],[139.75558635869615,35.55492338281201],[139.75558123187182,35.55492441610523],[139.75558843883218,35.55494872043721],[139.75519585107892,35.5550274347831],[139.75518839467978,35.55500226493151],[139.75506653260524,35.555026414366544],[139.75496633878302,35.55468884434803]]]}},{"type":"Feature","properties":{"height":11.4,"gml_id":"bldg_54d3de12-d84c-4178-ac04-aecdc6b226cb"},"geometry":{"type":"Polygon","coordinates":[[[139.7524136263213,35.55022337884721],[139.75240287568442,35.550165141762115],[139.75257529185103,35.55014398452511],[139.75258593231237,35.55020222152136],[139.7524136263213,35.55022337884721]]]}},{"type":"Feature","properties":{"height":2.5,"gml_id":"bldg_f892b9b0-d5a2-4732-9549-8c7f0ab4e623"},"geometry":{"type":"Polygon","coordinates":[[[139.7509168755965,35.55142157582225],[139.7509405972805,35.55141546257476],[139.7509586375623,35.551462076814026],[139.7509349168767,35.551468280204794],[139.7509168755965,35.55142157582225]]]}},{"type":"Feature","properties":{"height":8.6,"gml_id":"bldg_d1a04233-3357-4cd3-bd3c-6e9cfbf3c325"},"geometry":{"type":"Polygon","coordinates":[[[139.74992202169267,35.55095234869661],[139.7499000494078,35.5508679632929],[139.75012344381093,35.5508291775627],[139.75014541631947,35.550913562926546],[139.74992202169267,35.55095234869661]]]}},{"type":"Feature","properties":{"height":38.4,"gml_id":"bldg_a135d1f6-de85-4a8e-b49b-cb4ae46c29d5"},"geometry":{"type":"Polygon","coordinates":[[[139.75023717192892,35.55007073535677],[139.75032542590563,35.550055111935116],[139.7503722309074,35.550231456259205],[139.7502839766534,35.550247169853456],[139.75023717192892,35.55007073535677]]]}},{"type":"Feature","properties":{"height":6.4,"gml_id":"bldg_a580c010-4aeb-412f-bfb1-533ef512cc65"},"geometry":{"type":"Polygon","coordinates":[[[139.75462403649178,35.55255176300309],[139.75441644275006,35.55259342841523],[139.754376861174,35.55245407001362],[139.75458445348602,35.552412392048055],[139.75462403649178,35.55255176300309]]]}},{"type":"Feature","properties":{"height":11.3,"gml_id":"bldg_2362d1b4-5721-4556-8737-c4a66ffcf43b"},"geometry":{"type":"Polygon","coordinates":[[[139.75132361485356,35.55038182812675],[139.75140303698697,35.55037422029157],[139.75140938868032,35.550419023746834],[139.75132996659508,35.550426541447045],[139.75132361485356,35.55038182812675]]]}},{"type":"Feature","properties":{"height":2.6,"gml_id":"bldg_990aa432-0162-4015-b722-33bcdbd4b7e6"},"geometry":{"type":"Polygon","coordinates":[[[139.75697003017666,35.55660810664437],[139.75696409356073,35.5565871004915],[139.75702389028945,35.55657578083343],[139.75702982692016,35.55659678698342],[139.75697003017666,35.55660810664437]]]}},{"type":"Feature","properties":{"height":2.8,"gml_id":"bldg_41c83849-d861-4db8-a02c-d47eb392528d"},"geometry":{"type":"Polygon","coordinates":[[[139.7513034922845,35.557900403411736],[139.75135147800484,35.55789872340757],[139.75135418311356,35.55795037489467],[139.75130619736248,35.55795205489984],[139.7513034922845,35.557900403411736]]]}},{"type":"Feature","properties":{"height":9.0,"gml_id":"bldg_90926945-7781-4fb9-821e-b2fec14281ff"},"geometry":{"type":"Polygon","coordinates":[[[139.75200558633367,35.55289347509059],[139.75200592279023,35.5528879768338],[139.7520079141277,35.55288211913686],[139.75201211121396,35.55287653334474],[139.7520182927183,35.55287194042055],[139.75202579619688,35.55286897089085],[139.7520336286671,35.55286789450313],[139.7520410182948,35.55286844031976],[139.75204730363774,35.55287024733859],[139.75205303638364,35.55287313565354],[139.75205810586766,35.5528774657464],[139.75206196058437,35.55288323724553],[139.75206371867048,35.55288990872221],[139.75206316034198,35.5528966687767],[139.75206039662723,35.55290279637118],[139.7520562001798,35.55290775119186],[139.7520511226873,35.552911353332334],[139.75204516387694,35.552913873209526],[139.75203799284537,35.552915310600234],[139.7520299410424,35.55291512489325],[139.75202200136093,35.55291313647978],[139.75201516651197,35.55290934602937],[139.75200998745535,35.552904294748224],[139.75200690457626,35.55289879418526],[139.75200558633367,35.55289347509059]]]}},{"type":"Feature","properties":{"height":31.6,"gml_id":"bldg_6803f4cc-bdcc-49ab-a648-ec2878d8b580"},"geometry":{"type":"Polygon","coordinates":[[[139.75453192966216,35.556414590424964],[139.75451313404747,35.55641855236932],[139.7545212216911,35.55644333957841],[139.75438169110438,35.556473733313645],[139.75437324936283,35.556447877715996],[139.75412179670786,35.55650059194392],[139.75397003618366,35.55598043502395],[139.7539946906232,35.55597476618034],[139.75387163225253,35.55557292284444],[139.75387438607083,35.555572306305415],[139.7542389884066,35.555493110095746],[139.75424165945626,35.55549252864826],[139.75428189121402,35.55562030638738],[139.7543717635841,35.55590568687325],[139.754408063486,35.55602095970306],[139.7544982545274,35.55630736606695],[139.75453133067194,35.55641236540231],[139.75453192966216,35.556414590424964]]]}},{"type":"Feature","properties":{"height":6.1,"gml_id":"bldg_52b284ff-3fd4-434c-b86d-38d0f65149b6"},"geometry":{"type":"Polygon","coordinates":[[[139.75230587823344,35.55251292978023],[139.7523612031891,35.55255866745982],[139.75228514405984,35.55262018135352],[139.75222981910522,35.55257444363949],[139.75230587823344,35.55251292978023]]]}},{"type":"Feature","properties":{"height":7.5,"gml_id":"bldg_4971428c-4bde-4e9b-b8e6-4df9b6629229"},"geometry":{"type":"Polygon","coordinates":[[[139.7514471138478,35.55052424171635],[139.75143377227343,35.55041137848583],[139.75150624374587,35.55040565878308],[139.75151542926676,35.55048390576656],[139.7514471138478,35.55052424171635]]]}},{"type":"Feature","properties":{"height":47.9,"gml_id":"bldg_7e18d49d-f1b7-49ee-8778-e8b5d6d3b0c3"},"geometry":{"type":"Polygon","coordinates":[[[139.75188885263364,35.5538005559047],[139.75188851552696,35.553806685133324],[139.75171843546204,35.55380044067621],[139.74922878419702,35.55370886117795],[139.74922934531114,35.55369966738491],[139.74894102614428,35.55368909994414],[139.74897172206175,35.5531322422666],[139.74926224517438,35.55314290130936],[139.74929046660148,35.552629578948604],[139.75195424331505,35.55272758454579],[139.75193896277486,35.55300421106126],[139.75192558987942,35.5532485690623],[139.7519750032752,35.553250315055486],[139.75221743743657,35.553259221879316],[139.75218766177377,35.55380075736471],[139.7521873248715,35.553806706316195],[139.752023531836,35.553800646798386],[139.7518891884639,35.5537956886221],[139.75188885263364,35.5538005559047]]]}},{"type":"Feature","properties":{"height":2.8,"gml_id":"bldg_fb78a90c-3b80-4228-ae62-c76c9641ea67"},"geometry":{"type":"Polygon","coordinates":[[[139.75063226265226,35.5517837401204],[139.75062302248142,35.55175939622752],[139.7506739941169,35.55174654128938],[139.7506831240021,35.55177088510282],[139.75063226265226,35.5517837401204]]]}},{"type":"Feature","properties":{"height":8.1,"gml_id":"bldg_d8d798f5-adde-4070-a502-1cd439e4b88e"},"geometry":{"type":"Polygon","coordinates":[[[139.75101253258157,35.551610392434405],[139.75100070189944,35.551530521117684],[139.75109501743643,35.55152112087387],[139.7511068481187,35.55160108232065],[139.75101253258157,35.551610392434405]]]}},{"type":"Feature","properties":{"height":9.4,"gml_id":"bldg_ee496c53-4385-46f1-be1c-0957362cb540"},"geometry":{"type":"Polygon","coordinates":[[[139.75008031490484,35.55029786787451],[139.7500113013195,35.55005300236606],[139.75020623459415,35.550016270005734],[139.75027524874116,35.55026113540488],[139.75008031490484,35.55029786787451]]]}},{"type":"Feature","properties":{"height":3.0,"gml_id":"bldg_bb407698-5be1-4130-8e6a-74966920c8d3"},"geometry":{"type":"Polygon","coordinates":[[[139.75038731853388,35.55003974073586],[139.75032543120133,35.550049974009006],[139.75031214089586,35.549995971527146],[139.7503740281886,35.54998573826068],[139.75038731853388,35.55003974073586]]]}},{"type":"Feature","properties":{"height":17.6,"gml_id":"bldg_a4fcc5b8-9107-49d5-b36e-113d345b2962"},"geometry":{"type":"Polygon","coordinates":[[[139.7551388578922,35.55779896198469],[139.7547440580586,35.55788260939055],[139.75475296735573,35.55791115500886],[139.75470744382298,35.557920691783835],[139.75446712246298,35.55715353118123],[139.75448988349265,35.55714874616433],[139.75451264668519,35.55714400260849],[139.75452202327025,35.5571739312852],[139.75491931099845,35.55708873041304],[139.75493417327803,35.5571368022011],[139.75501618086216,35.55711997065558],[139.75519353320806,35.557693172433815],[139.75511140370054,35.55771004277869],[139.7551388578922,35.55779896198469]]]}},{"type":"Feature","properties":{"height":11.3,"gml_id":"bldg_bd567b3f-5668-497a-8287-c103fa1f346c"},"geometry":{"type":"Polygon","coordinates":[[[139.75198734045955,35.5514104945012],[139.75203245852586,35.55140484616672],[139.75204079603444,35.55144965092022],[139.75199567794357,35.55145529925776],[139.75198734045955,35.5514104945012]]]}},{"type":"Feature","properties":{"height":2.5,"gml_id":"bldg_6bb96710-74d5-4ed6-9be2-a1f30fdb41f3"},"geometry":{"type":"Polygon","coordinates":[[[139.75027888505633,35.55186876881827],[139.75028216904147,35.551893018495704],[139.75024289851393,35.55189668714414],[139.7502395042407,35.55187243738966],[139.75027888505633,35.55186876881827]]]}},{"type":"Feature","properties":{"height":10.5,"gml_id":"bldg_c3190025-af59-4f46-b6c5-5e5a852cb8d6"},"geometry":{"type":"Polygon","coordinates":[[[139.74998985262656,35.550635196080385],[139.75006200124304,35.55062199547677],[139.75008167032254,35.55069384992825],[139.75000952164484,35.55070705054338],[139.74998985262656,35.550635196080385]]]}},{"type":"Feature","properties":{"height":38.2,"gml_id":"bldg_fa29e22c-e989-40af-9756-d649da48e33a"},"geometry":{"type":"Polygon","coordinates":[[[139.7519971134783,35.55167208475478],[139.7519576092474,35.5514705972195],[139.75208755905763,35.551453468279526],[139.7521269529424,35.55165531625509],[139.7519971134783,35.55167208475478]]]}},{"type":"Feature","properties":{"height":2.9,"gml_id":"bldg_8e5c4927-05a5-4aab-8323-580916e94462"},"geometry":{"type":"Polygon","coordinates":[[[139.7593438238265,35.55432519288368],[139.7593299178469,35.55433365742154],[139.7593163642337,35.554318776157324],[139.75933038051522,35.554310311688695],[139.7593438238265,35.55432519288368]]]}},{"type":"Feature","properties":{"height":35.1,"gml_id":"bldg_1e4364c7-bb86-4bb7-9161-b835fe7939cd"},"geometry":{"type":"Polygon","coordinates":[[[139.7517485362623,35.55119913725102],[139.75191699490134,35.55116725172953],[139.75196634318505,35.55134134364467],[139.75184322586782,35.551364606530875],[139.75182531080443,35.55130167733025],[139.75172690522996,35.55132026956615],[139.75173284009358,35.551341275992954],[139.75163013196413,35.55136067648989],[139.7515927643291,35.551228597381915],[139.75161063621925,35.551225184209784],[139.7517485362623,35.55119913725102]]]}},{"type":"Feature","properties":{"height":2.6,"gml_id":"bldg_4a35526c-26bb-470c-87c2-cc253883d7da"},"geometry":{"type":"Polygon","coordinates":[[[139.75708287378808,35.55719020571645],[139.7570907153182,35.55717993482727],[139.75712081488572,35.557195007072224],[139.7571129732726,35.557205368102295],[139.75708287378808,35.55719020571645]]]}},{"type":"Feature","properties":{"height":2.4,"gml_id":"bldg_1ea9bb70-c56e-4d8a-9d0f-6a0648dbe6e8"},"geometry":{"type":"Polygon","coordinates":[[[139.751361792005,35.5562191701646],[139.7513718456965,35.55620358294741],[139.751564247798,35.5562837570361],[139.75155419413366,35.556299344269185],[139.751361792005,35.5562191701646]]]}},{"type":"Feature","properties":{"height":5.1,"gml_id":"bldg_185833e2-4fc4-4c0d-9bcb-9b8c666c8782"},"geometry":{"type":"Polygon","coordinates":[[[139.75125516634267,35.55682915853232],[139.75125685461308,35.55690433562193],[139.75120368599144,35.556905110668666],[139.75120315588208,35.55688410791668],[139.75115660576128,35.55688479731174],[139.75115692094923,35.55690021129841],[139.75112625524844,35.55690064108958],[139.75112583233673,35.55688270313691],[139.75108413579855,35.55688330567405],[139.7510846615491,35.55690854495733],[139.75102708056568,35.55690940705528],[139.75102539416838,35.55683260746163],[139.75125516634267,35.55682915853232]]]}},{"type":"Feature","properties":{"height":5.5,"gml_id":"bldg_16457e3e-242c-4a12-bf81-45704e8bde92"},"geometry":{"type":"Polygon","coordinates":[[[139.7568111695274,35.55651263883932],[139.75683466832476,35.55650886791135],[139.75683939316087,35.55652816066059],[139.75681589435808,35.55653193158947],[139.7568111695274,35.55651263883932]]]}},{"type":"Feature","properties":{"height":15.8,"gml_id":"bldg_51322b66-4e6c-431b-b461-1bd98171e56c"},"geometry":{"type":"Polygon","coordinates":[[[139.75581067633325,35.55380159883715],[139.75576942176244,35.55380997687309],[139.75570318077862,35.55382249963016],[139.75566186105885,35.55383092806518],[139.75560420718602,35.553842210577066],[139.75559905835638,35.55384325827935],[139.75559644574574,35.55383478802981],[139.7555962874045,35.55383427593783],[139.75545181959842,35.55386300197461],[139.75537407193892,35.553601903585644],[139.75555765442508,35.55356541666374],[139.7556302471579,35.55355098172271],[139.75562829504878,35.55354501956802],[139.75563424015456,35.5535269135585],[139.75565047727508,35.553513658253344],[139.75567264715167,35.55350880863],[139.7556948032535,35.55351366697162],[139.7557110192139,35.55352692695367],[139.7557134761284,35.5535344317115],[139.75584869375996,35.553507542759355],[139.7559262911382,35.553768134169275],[139.75591153425933,35.55377107584802],[139.75591499349676,35.553782388719206],[139.75588333047037,35.553788864708075],[139.75586430746836,35.55379141063442],[139.75584503804814,35.55379556267756],[139.75581067633325,35.55380159883715]]]}},{"type":"Feature","properties":{"height":6.6,"gml_id":"bldg_df5554f0-7e53-4985-8d07-cf670930bbc5"},"geometry":{"type":"Polygon","coordinates":[[[139.75594010223182,35.55334107403555],[139.755957833578,35.55340272071033],[139.75589648011876,35.55341442734674],[139.7558447666159,35.55342427336706],[139.75582707820527,35.55336279706638],[139.75587877852303,35.55335285910317],[139.75594010223182,35.55334107403555]]]}},{"type":"Feature","properties":{"height":28.5,"gml_id":"bldg_ffc41c1d-358b-4b48-bb5f-5aba63192f3b"},"geometry":{"type":"Polygon","coordinates":[[[139.75477706065382,35.554725370818595],[139.7549372757307,35.55469362355725],[139.75497033686625,35.55480488925735],[139.7550217707813,35.554978063562366],[139.75503788061914,35.55503258741617],[139.75501260063837,35.55503761427786],[139.75501744393358,35.55505252191519],[139.7549696081505,35.555062900994336],[139.75496449103014,35.55504714677149],[139.75480763798168,35.555078228325925],[139.7548123822612,35.555092834842476],[139.75476457732537,35.5551032012408],[139.75475955590548,35.55508775624866],[139.7547396498648,35.555091701280766],[139.7547446679852,35.5551071327507],[139.75469685200355,35.55511749731215],[139.75469156225648,35.555101230074136],[139.7544743796014,35.55514426573306],[139.7544382945678,35.55502277165018],[139.75441679944757,35.555027431293276],[139.75440416360252,35.55498856317785],[139.7544266847585,35.55498368156496],[139.7543737780557,35.55480529600552],[139.75452069927996,35.55477616814548],[139.75451580109672,35.554761101806974],[139.7545656667705,35.55475029066448],[139.75457085089593,35.55476623243797],[139.75465722444704,35.554749116436746],[139.75465226355612,35.554733856263816],[139.7547021281006,35.55472303605019],[139.75470737823727,35.55473917887102],[139.75472691239594,35.554735308416944],[139.7547219547921,35.55472005816427],[139.7547718193187,35.55470923792178],[139.75477706065382,35.554725370818595]]]}},{"type":"Feature","properties":{"height":43.5,"gml_id":"bldg_3b1edf4a-933d-44cf-ad88-035cda420216"},"geometry":{"type":"Polygon","coordinates":[[[139.7502765382263,35.55082892255427],[139.750173472702,35.550447022250445],[139.75018825539618,35.550444328271],[139.75016342295703,35.550352459389444],[139.7505589135931,35.55028116106557],[139.75058242770584,35.550368341728436],[139.7505961072101,35.550365827220105],[139.7507003830144,35.550752505371236],[139.7502765382263,35.55082892255427]]]}},{"type":"Feature","properties":{"height":12.4,"gml_id":"bldg_5dfa6e32-2cd0-44f1-8de9-513c2948a805"},"geometry":{"type":"Polygon","coordinates":[[[139.7514157818075,35.5582296673798],[139.75141380205963,35.55811555006356],[139.75147811261567,35.55811478248951],[139.75148009245473,35.55822889980483],[139.7514157818075,35.5582296673798]]]}},{"type":"Feature","properties":{"height":2.7,"gml_id":"bldg_1911ff0f-19d9-4929-b646-21eb85273007"},"geometry":{"type":"Polygon","coordinates":[[[139.75695969345367,35.55657429796286],[139.75695474976936,35.5565531121603],[139.75701642014073,35.55654341619517],[139.7570214742323,35.5565645119261],[139.75695969345367,35.55657429796286]]]}},{"type":"Feature","properties":{"height":2.7,"gml_id":"bldg_13a9cd68-4b16-4952-b7d2-6bd101f08680"},"geometry":{"type":"Polygon","coordinates":[[[139.7513021190787,35.55784073045802],[139.7513279315887,35.557840297321725],[139.75132931087305,35.557894021105156],[139.75130349834583,35.55789445424174],[139.7513021190787,35.55784073045802]]]}},{"type":"Feature","properties":{"height":6.1,"gml_id":"bldg_5c32c3b6-4792-487b-8bd9-00b056bda553"},"geometry":{"type":"Polygon","coordinates":[[[139.75094555283977,35.55185336168594],[139.7509220107834,35.55179268198913],[139.7509695624594,35.55178045556234],[139.75095636136052,35.55174637396719],[139.75104032170947,35.55172452749697],[139.7510536329557,35.551758789436406],[139.7510756987639,35.55175303558919],[139.75109913062497,35.55181371518132],[139.75094555283977,35.55185336168594]]]}},{"type":"Feature","properties":{"height":5.6,"gml_id":"bldg_1bfbfaf1-942b-4a34-b28a-22e8395b4642"},"geometry":{"type":"Polygon","coordinates":[[[139.7569577482993,35.55653175201189],[139.75694906780808,35.55649623083524],[139.7569541426575,35.55649542279882],[139.75694480255817,35.55645755849051],[139.7569676394971,35.556453787117256],[139.756977418694,35.55649390517758],[139.75701592149656,35.55648761982212],[139.75702416292847,35.5565208863391],[139.7569577482993,35.55653175201189]]]}},{"type":"Feature","properties":{"height":5.8,"gml_id":"bldg_864eb7b7-558a-4acd-a11c-fde4543c6698"},"geometry":{"type":"Polygon","coordinates":[[[139.75242546039027,35.55008150781537],[139.7524158921495,35.55005400896345],[139.75255942231803,35.55002075371909],[139.7525689905135,35.5500483426989],[139.75242546039027,35.55008150781537]]]}},{"type":"Feature","properties":{"height":23.3,"gml_id":"bldg_8d6bbc49-f7b2-425d-84b5-640a8a9ddf9d"},"geometry":{"type":"Polygon","coordinates":[[[139.75607481787108,35.55531310016394],[139.75603241632035,35.55526420500648],[139.7560410998895,35.55525918982838],[139.75598811879703,35.55519797217493],[139.75600959815102,35.55518556208656],[139.75600675545485,35.55518227559673],[139.7562075322069,35.55506630599833],[139.75620706722512,35.55506578199306],[139.7562236749221,35.55505625590369],[139.75648515072933,35.555363937598926],[139.75648578642068,35.55536358465902],[139.75649083382638,35.555369502799856],[139.75661838257238,35.55552093468169],[139.756623388063,35.55552687262073],[139.75649442659457,35.555599367758155],[139.75649234852293,35.55559697955207],[139.75645969156398,35.555615554419816],[139.75638587133517,35.5556579988759],[139.75630282750737,35.55556188738108],[139.7563002736486,35.555563355015856],[139.75622210780355,35.5554728901858],[139.75622407783146,35.55547175389094],[139.75608280944564,35.555308489263794],[139.75607481787108,35.55531310016394]]]}},{"type":"Feature","properties":{"height":6.6,"gml_id":"bldg_903ac595-cfe7-4628-9f5d-73ac11592339"},"geometry":{"type":"Polygon","coordinates":[[[139.75116046834341,35.551694773393244],[139.75115488391023,35.551654747829346],[139.7512091564722,35.55164964687646],[139.751214740932,35.5516896724379],[139.75116046834341,35.551694773393244]]]}},{"type":"Feature","properties":{"height":3.0,"gml_id":"bldg_b6661ef1-9524-449b-a023-297595d07bf5"},"geometry":{"type":"Polygon","coordinates":[[[139.75047391778344,35.551417937104574],[139.75043729049958,35.55142566389251],[139.7504301445337,35.551402853787806],[139.75046666150882,35.55139512692621],[139.75047391778344,35.551417937104574]]]}},{"type":"Feature","properties":{"height":6.0,"gml_id":"bldg_70022f36-2409-4f0a-9cfe-d19048f2b4de"},"geometry":{"type":"Polygon","coordinates":[[[139.7508288707749,35.55119265246438],[139.75082470297016,35.5511696641416],[139.75083805078341,35.55116805077028],[139.75083465128247,35.551148758676604],[139.75088704964455,35.55114248477741],[139.75089461707316,35.55118467505119],[139.7508288707749,35.55119265246438]]]}},{"type":"Feature","properties":{"height":8.1,"gml_id":"bldg_7dba2a93-77cf-4e2d-a04c-fe3674123d12"},"geometry":{"type":"Polygon","coordinates":[[[139.75148781751847,35.55030351866053],[139.7514944024895,35.55033588307232],[139.7514867909453,35.550336869436435],[139.75149052246923,35.55035517020955],[139.75142234898286,35.550364498387175],[139.75141301970956,35.55031924221378],[139.75142868416995,35.55031708951592],[139.7514275866027,35.550311770562594],[139.75148781751847,35.55030351866053]]]}},{"type":"Feature","properties":{"height":4.2,"gml_id":"bldg_18cb367c-4808-4b94-8c63-09c6b06cc5e8"},"geometry":{"type":"Polygon","coordinates":[[[139.75251744090835,35.550088960904176],[139.75250974126584,35.550067863189554],[139.75256799250494,35.550053660238554],[139.75257569216137,35.55007475794953],[139.75251744090835,35.550088960904176]]]}},{"type":"Feature","properties":{"height":8.3,"gml_id":"bldg_79547a21-bf87-4c90-a1c0-15c57ec56655"},"geometry":{"type":"Polygon","coordinates":[[[139.7524091338609,35.55129143414145],[139.75239322060165,35.5512117404945],[139.75242399823225,35.551207524612074],[139.7524153285521,35.55116380132947],[139.75245779928025,35.55115815105896],[139.75245670163363,35.55115283211563],[139.75250016513232,35.55114709235692],[139.75250642067738,35.55117846495825],[139.75255683400403,35.551171738307325],[139.75257636947362,35.551269191762366],[139.7524091338609,35.55129143414145]]]}},{"type":"Feature","properties":{"height":37.4,"gml_id":"bldg_b3bdf555-3840-45fb-9253-14c6cd331e19"},"geometry":{"type":"Polygon","coordinates":[[[139.75241800035303,35.550370849376925],[139.75241868433767,35.5502389763087],[139.7525074742776,35.55023858516079],[139.75250736949846,35.55023308660441],[139.75256593782845,35.550232765291526],[139.7525676864311,35.5504688408069],[139.75198410036649,35.55057796753516],[139.75197091223885,35.55053081588156],[139.75194984133228,35.55053476778324],[139.75193544423746,35.55048337877118],[139.7519579492763,35.55047915742245],[139.75195201450808,35.55045806086466],[139.75241800035303,35.550370849376925]]]}},{"type":"Feature","properties":{"height":4.7,"gml_id":"bldg_29d900ba-0739-4a4c-b8d5-3d42b0e6d170"},"geometry":{"type":"Polygon","coordinates":[[[139.75171506407315,35.55114124529533],[139.75170836143192,35.55111600180935],[139.75190042592152,35.55108205908814],[139.7519081215818,35.55110703281685],[139.75171506407315,35.55114124529533]]]}},{"type":"Feature","properties":{"height":2.6,"gml_id":"bldg_5db60b9d-9002-4af1-8013-a39237d1475d"},"geometry":{"type":"Polygon","coordinates":[[[139.75553796000372,35.55040499213591],[139.75556179745877,35.55039139650582],[139.75559771396934,35.55043342449376],[139.75557387650792,35.55044702013085],[139.75553796000372,35.55040499213591]]]}},{"type":"Feature","properties":{"height":26.5,"gml_id":"bldg_2f05a75f-e42c-4a02-9da9-08a32a617d95"},"geometry":{"type":"Polygon","coordinates":[[[139.75484427247653,35.55694729583589],[139.7546828840477,35.55643997298341],[139.75512650811947,35.55634619966448],[139.75525976603984,35.55676759672716],[139.7552842273335,35.55676219610993],[139.75530355438187,35.556823406704694],[139.75527904807237,35.556828572935174],[139.75528691517263,35.55685357357812],[139.75504068983903,35.55690571440936],[139.75504675620084,35.55692552189082],[139.75497158592947,35.55694091657872],[139.754965659199,35.55692159773777],[139.75484427247653,35.55694729583589]]]}},{"type":"Feature","properties":{"height":2.8,"gml_id":"bldg_c65b3ac2-2e88-4363-b2ed-980994815042"},"geometry":{"type":"Polygon","coordinates":[[[139.75707257638717,35.55723121245633],[139.75708317833124,35.557218058865075],[139.75713146817387,35.557244139569306],[139.7571207559271,35.557257293095006],[139.75707257638717,35.55723121245633]]]}},{"type":"Feature","properties":{"height":35.4,"gml_id":"bldg_70471bba-9888-4600-91bb-2ac82609249e"},"geometry":{"type":"Polygon","coordinates":[[[139.75048117473065,35.55562103663533],[139.75054094920665,35.55552426836909],[139.7502321170056,35.55539677959565],[139.75024404998942,35.55537731778695],[139.75023699347614,35.555374428474835],[139.75062392315965,35.55474849857376],[139.750834955268,35.55483562732721],[139.75086776996056,35.5547824677363],[139.75212592273118,35.55530189158105],[139.75203654037423,35.55544650450881],[139.75212298329515,35.555482167681184],[139.75210762584777,35.55550703571126],[139.75212614940347,35.55551461986739],[139.75173933809168,35.556140464455794],[139.75048117473065,35.55562103663533]]]}},{"type":"Feature","properties":{"height":5.2,"gml_id":"bldg_0622aec1-e77f-43f8-bf41-3cbd3c883353"},"geometry":{"type":"Polygon","coordinates":[[[139.75250852556704,35.551608880572104],[139.75253334735834,35.55160448039165],[139.75256048696923,35.55170851909148],[139.75253566523776,35.551712829138374],[139.75250852556704,35.551608880572104]]]}},{"type":"Feature","properties":{"height":3.9,"gml_id":"bldg_38a0d17f-399b-465f-8b78-6432b31e1287"},"geometry":{"type":"Polygon","coordinates":[[[139.75125652658286,35.557009707908165],[139.75123225872554,35.55701005194219],[139.75123078474715,35.55694109459163],[139.7512550525837,35.55694075055785],[139.75125652658286,35.557009707908165]]]}},{"type":"Feature","properties":{"height":2.9,"gml_id":"bldg_8a1d6418-792c-47e3-8c4d-05c96c9b115c"},"geometry":{"type":"Polygon","coordinates":[[[139.75047372082258,35.55021575169598],[139.75045209853099,35.55021961281817],[139.75039035095955,35.54998692129788],[139.75041197319163,35.549983060186534],[139.75047372082258,35.55021575169598]]]}},{"type":"Feature","properties":{"height":14.7,"gml_id":"bldg_416fbd17-559a-46c0-930d-05eb3a4fa09b"},"geometry":{"type":"Polygon","coordinates":[[[139.7515634420468,35.550451217836454],[139.75155164027498,35.55045111969374],[139.75154657087919,35.55044687971714],[139.75151828740272,35.550277308855286],[139.7515946195234,35.55027014949268],[139.75161675520755,35.55041249415848],[139.75160660168714,35.550418526597866],[139.7515704180788,35.55042436111097],[139.7515721672857,35.550439685946365],[139.75157205113112,35.55044545477088],[139.75156884846876,35.55044941872028],[139.7515634420468,35.550451217836454]]]}},{"type":"Feature","properties":{"height":9.1,"gml_id":"bldg_ceee9471-7116-4478-8fd1-c747e8f9d4d7"},"geometry":{"type":"Polygon","coordinates":[[[139.75493997609647,35.553167338403405],[139.75493835986245,35.553167662754674],[139.75495939803452,35.55323756756527],[139.7549732601462,35.55323478767159],[139.75501841177763,35.553384867013754],[139.75491417266812,35.553405787247826],[139.75491948428805,35.553424444983015],[139.75488708369662,35.55343061916655],[139.75488185340507,35.55341227156128],[139.75469920947117,35.55344892392318],[139.75469907863794,35.55344848756475],[139.75460730814825,35.553466898981014],[139.75456386905753,35.553322522803896],[139.75456538159492,35.55332221641773],[139.7545423933282,35.553245834674286],[139.75454162658195,35.55324598740968],[139.75453189706687,35.55321309831738],[139.7545072344026,35.55321793077801],[139.75450025454555,35.553193110927694],[139.7544831838351,35.55313272281065],[139.7545067498717,35.5531281005634],[139.7544969292284,35.5530948093878],[139.75489525486697,35.55301616862376],[139.7549172065251,35.55309033040484],[139.75493394109589,35.55308731171228],[139.75494221015038,35.55311362598064],[139.7549250199496,35.55311672640462],[139.75493997609647,35.553167338403405]]]}},{"type":"Feature","properties":{"height":10.7,"gml_id":"bldg_dff6259e-953b-4299-9bfa-677f60494564"},"geometry":{"type":"Polygon","coordinates":[[[139.7526464559563,35.55144392825805],[139.7525289848107,35.55144529182096],[139.7525285288715,35.55145998418859],[139.7524711722157,35.55146102740801],[139.75246852670048,35.55134952356733],[139.75252687578717,35.55134866129237],[139.75252760980243,35.55138661034558],[139.75258695160704,35.55138574870683],[139.75258599877344,35.55134599672542],[139.75264456845443,35.55134513454122],[139.7526464559563,35.55144392825805]]]}},{"type":"Feature","properties":{"height":6.8,"gml_id":"bldg_a6deeb88-9229-478b-8e77-2ae49b55700d"},"geometry":{"type":"Polygon","coordinates":[[[139.75250426021012,35.55289137664657],[139.75251961775837,35.55286578744223],[139.75258323591189,35.552891339422025],[139.75256787837898,35.55291692863439],[139.75250426021012,35.55289137664657]]]}},{"type":"Feature","properties":{"height":2.8,"gml_id":"bldg_57a712e2-448c-4bee-ae97-74aa3fb93664"},"geometry":{"type":"Polygon","coordinates":[[[139.7505840401434,35.550194554620596],[139.7505613146104,35.55019868542263],[139.75053439543905,35.55009780126927],[139.75055712085228,35.55009376061125],[139.7505840401434,35.550194554620596]]]}},{"type":"Feature","properties":{"height":6.0,"gml_id":"bldg_13aa2deb-1925-4efc-8da9-0e55930df001"},"geometry":{"type":"Polygon","coordinates":[[[139.75713537567577,35.557311295605096],[139.75711409705255,35.55730001477906],[139.75712613486908,35.557284879033524],[139.75714741348997,35.557296159857465],[139.75713537567577,35.557311295605096]]]}},{"type":"Feature","properties":{"height":30.7,"gml_id":"bldg_d08b4af6-3c01-47e6-81a7-b9e5c9bd8c78"},"geometry":{"type":"Polygon","coordinates":[[[139.7517485362623,35.55119913725102],[139.75161063621925,35.551225184209784],[139.75160327290777,35.55119885950274],[139.75174095194618,35.55117317205772],[139.7517485362623,35.55119913725102]]]}},{"type":"Feature","properties":{"height":3.4,"gml_id":"bldg_e3459603-910b-4424-a726-9c467e4a8ac3"},"geometry":{"type":"Polygon","coordinates":[[[139.75103204391309,35.55021874809274],[139.75102480794718,35.55017601721237],[139.75105966598048,35.55017207487975],[139.75106679166709,35.55021480568283],[139.75103204391309,35.55021874809274]]]}},{"type":"Feature","properties":{"height":4.5,"gml_id":"bldg_c9a1f60b-2156-41ad-ba3f-f0d1f22b99d8"},"geometry":{"type":"Polygon","coordinates":[[[139.75172228789882,35.55032567152275],[139.7517147830019,35.55033026353808],[139.7517226053641,35.55033892218759],[139.75165991745655,35.550377188868005],[139.7516203644869,35.5503338952963],[139.75169066757257,35.55029103669745],[139.75172228789882,35.55032567152275]]]}},{"type":"Feature","properties":{"height":6.9,"gml_id":"bldg_586686b8-0aab-4da5-a443-d4c4a8c5cc50"},"geometry":{"type":"Polygon","coordinates":[[[139.75610084253077,35.55636364313355],[139.75611283403518,35.55640259898654],[139.75609683430298,35.556405886024265],[139.75612144571872,35.556484171307005],[139.755918669436,35.556524866151605],[139.7558577451028,35.556331153404884],[139.7559574544221,35.55631113355513],[139.75606052535068,35.55629044784701],[139.75608459677608,35.55636697958859],[139.75610084253077,35.55636364313355]]]}},{"type":"Feature","properties":{"height":8.6,"gml_id":"bldg_578a109b-5f33-441e-ad0b-3fd450bd7a20"},"geometry":{"type":"Polygon","coordinates":[[[139.75110794145587,35.55020618039453],[139.75110190721736,35.55017471772779],[139.75109694318968,35.55017534531631],[139.75108882407795,35.550133334950104],[139.75121943332906,35.55011656794684],[139.75123347649625,35.550190040889966],[139.75110794145587,35.55020618039453]]]}},{"type":"Feature","properties":{"height":5.1,"gml_id":"bldg_51751e11-9048-4df5-89a9-3cfafa52adea"},"geometry":{"type":"Polygon","coordinates":[[[139.75180456817912,35.55109010683372],[139.7517603963894,35.55092395058879],[139.75179393313763,35.5509180240904],[139.75183810517575,35.5510840000452],[139.75180456817912,35.55109010683372]]]}},{"type":"Feature","properties":{"height":2.6,"gml_id":"bldg_41e8438f-eddd-4772-9228-dfeca1224958"},"geometry":{"type":"Polygon","coordinates":[[[139.75068141462458,35.551716890614124],[139.7507127479187,35.551708889707946],[139.75073188853435,35.5517591102965],[139.75070044492296,35.551767111131966],[139.75068141462458,35.551716890614124]]]}},{"type":"Feature","properties":{"height":31.1,"gml_id":"bldg_758878fe-a706-46eb-ad87-6b555685e183"},"geometry":{"type":"Polygon","coordinates":[[[139.75155771563368,35.55065952544086],[139.7515439785411,35.550610119891296],[139.7515793912469,35.55060320319438],[139.75157477776514,35.550584451131236],[139.75162698684076,35.55054689850948],[139.75182820089867,35.5505167479413],[139.75185049122888,35.55061573575083],[139.75155771563368,35.55065952544086]]]}},{"type":"Feature","properties":{"height":26.4,"gml_id":"bldg_4da75545-9e34-4134-a1b7-dc7fd5957826"},"geometry":{"type":"Polygon","coordinates":[[[139.75718138203862,35.55547386941895],[139.75700960398055,35.55557211692344],[139.7570120808911,35.5555750110531],[139.75694887105152,35.55561182257025],[139.75692357088403,35.55562643159923],[139.7567842222489,35.55570689055639],[139.75631224838187,35.55515740976573],[139.75631270087848,35.555157149552926],[139.75622544475158,35.55505568104698],[139.75659118874077,35.55484429493607],[139.75666190111266,35.554927848342956],[139.7568973106418,35.55479323271085],[139.75686598194912,35.554757439361154],[139.7569092107972,35.55473218907358],[139.75694088001967,35.55476831794524],[139.7569578042779,35.55475864683087],[139.7574398411505,35.555322112933844],[139.75718138203862,35.55547386941895]]]}},{"type":"Feature","properties":{"height":15.2,"gml_id":"bldg_dbb32410-d420-4825-9eeb-67a4034074c5"},"geometry":{"type":"Polygon","coordinates":[[[139.75346359746155,35.55803866844062],[139.75349064838605,35.55818435188239],[139.7534778024771,35.558185956863234],[139.75348806139422,35.55824022643314],[139.75350079366615,35.558238649319065],[139.75352772951956,35.558383708008336],[139.75338026605945,35.55840202480863],[139.7533161368226,35.55805698786995],[139.75335217789498,35.55805249942467],[139.75334839561054,35.55803232560997],[139.75336537859215,35.55803018165138],[139.75339406559704,35.55802660502947],[139.75341221467943,35.558024314910824],[139.75341605205304,35.55804456988516],[139.75346359746155,35.55803866844062]]]}},{"type":"Feature","properties":{"height":3.0,"gml_id":"bldg_dfcd2eec-7ff2-44f0-815d-1e04ebe1ef52"},"geometry":{"type":"Polygon","coordinates":[[[139.7505396907522,35.55020407892443],[139.75051696530693,35.550208119579054],[139.7504900460953,35.55010732555507],[139.75051277151346,35.55010328490541],[139.7505396907522,35.55020407892443]]]}},{"type":"Feature","properties":{"height":5.1,"gml_id":"bldg_cf5af6e4-0d83-4ac1-973a-53c7041357f4"},"geometry":{"type":"Polygon","coordinates":[[[139.75404260446982,35.553677971781795],[139.75402400927723,35.55361569599159],[139.75401953667347,35.553600985057976],[139.75401500014686,35.55360189968959],[139.7539969363567,35.55354104032878],[139.75402965614924,35.55353454569948],[139.7540562982052,35.55352925943597],[139.75406134882067,35.55352825770587],[139.7540790862938,35.55358898343688],[139.75406967454833,35.553590880987464],[139.754073273714,35.55360320175842],[139.75407910211726,35.55360204459828],[139.75409056033695,35.553599773413374],[139.75410945762403,35.55366447593568],[139.75404260446982,35.553677971781795]]]}},{"type":"Feature","properties":{"height":3.7,"gml_id":"bldg_17e91699-2d2f-4fd1-b7fb-fd05d073f671"},"geometry":{"type":"Polygon","coordinates":[[[139.75119811540458,35.550254646555665],[139.75118503919066,35.55020641322076],[139.75120390354806,35.55020300078429],[139.75121697986467,35.550251143978144],[139.75119811540458,35.550254646555665]]]}},{"type":"Feature","properties":{"height":6.6,"gml_id":"bldg_f20d4c68-eccd-4a4f-bfa6-861c702fa3ce"},"geometry":{"type":"Polygon","coordinates":[[[139.75158584850192,35.55184802856992],[139.7515360927053,35.5515326882738],[139.7516464037698,35.551521135109965],[139.75165396587175,35.55156900409321],[139.75166852693587,35.551567481591036],[139.75170436456355,35.551794656376956],[139.75168263325187,35.551796895141045],[139.75168898978075,35.551837191619796],[139.75158584850192,35.55184802856992]]]}},{"type":"Feature","properties":{"height":6.8,"gml_id":"bldg_87671cb4-8d58-4b28-9d29-b47eb6873f6e"},"geometry":{"type":"Polygon","coordinates":[[[139.75161940583115,35.550300362895676],[139.75160534070469,35.55024816281527],[139.75169635268935,35.550231909286104],[139.7517060222321,35.550268061617935],[139.75164810541924,35.55027847853549],[139.7516523907506,35.550294526201036],[139.75161940583115,35.550300362895676]]]}},{"type":"Feature","properties":{"height":6.9,"gml_id":"bldg_037f5109-f98a-4afd-aee8-6e9dfb457d4f"},"geometry":{"type":"Polygon","coordinates":[[[139.75495795219368,35.557973041758906],[139.75481446888222,35.55800353797746],[139.75481363640068,35.55800092160146],[139.75475203104853,35.55801378756921],[139.75472978365565,35.557924969023176],[139.7547857521609,35.55791327390578],[139.75478411804917,35.55790808083458],[139.7549275912742,35.557877584645],[139.75495795219368,35.557973041758906]]]}},{"type":"Feature","properties":{"height":3.2,"gml_id":"bldg_559a911e-473c-4a23-a432-6f38b8af1455"},"geometry":{"type":"Polygon","coordinates":[[[139.7546051528488,35.55189078056472],[139.7546310782276,35.5518857496995],[139.7546454790537,35.55193533559958],[139.7546196639597,35.551940366539824],[139.7546051528488,35.55189078056472]]]}},{"type":"Feature","properties":{"height":7.3,"gml_id":"bldg_aa2ca5e9-12c3-458e-a899-0e5dc2bedb8d"},"geometry":{"type":"Polygon","coordinates":[[[139.75185556950385,35.55039318571249],[139.7519072029583,35.55037924902724],[139.75194009979498,35.55046057671806],[139.75188835599621,35.55047451334263],[139.75185556950385,35.55039318571249]]]}},{"type":"Feature","properties":{"height":23.7,"gml_id":"bldg_c3ea2f5c-c228-4db6-8c5f-cbd7dcddc499"},"geometry":{"type":"Polygon","coordinates":[[[139.75101016080308,35.55069358600247],[139.7510246688404,35.55074380339015],[139.75092096797422,35.550763833581485],[139.75081226847436,35.55038760873106],[139.7511863618975,35.55031539231321],[139.75121208081575,35.550404377137525],[139.7511845008682,35.55040976669833],[139.75125198554474,35.55064345323297],[139.75118744840492,35.550655938621254],[139.7511940429371,35.550678838447496],[139.75114671566973,35.550688000388725],[139.75114144012747,35.55066960841453],[139.75101016080308,35.55069358600247]]]}},{"type":"Feature","properties":{"height":4.6,"gml_id":"bldg_f13ebd03-93e1-4e1a-97c5-f62f367a61dc"},"geometry":{"type":"Polygon","coordinates":[[[139.75464994924562,35.552592606610304],[139.75469452110104,35.552584285202286],[139.75472683073176,35.55269807981991],[139.75468232157016,35.55270652206694],[139.75468249630148,35.55270718470316],[139.75445936323487,35.5527519705813],[139.75442678129897,35.552637273422846],[139.75464994924562,35.552592606610304]]]}},{"type":"Feature","properties":{"height":15.4,"gml_id":"bldg_d897496d-da48-4b7a-a59f-d50d6a3ad5ce"},"geometry":{"type":"Polygon","coordinates":[[[139.75015953202097,35.55379937543645],[139.75015458886463,35.553886356221135],[139.75007484333366,35.55388323645563],[139.75007967310495,35.553799320324075],[139.75008146962836,35.55376867428321],[139.75016121513923,35.553771703905234],[139.75015953202097,35.55379937543645]]]}},{"type":"Feature","properties":{"height":33.8,"gml_id":"bldg_a035d69d-52b4-4325-8788-6b5ebc0383b2"},"geometry":{"type":"Polygon","coordinates":[[[139.75111088278794,35.55845183274428],[139.75026361126817,35.55844160710826],[139.75027952684135,35.55755600240214],[139.75025669346437,35.557555716254726],[139.7502576288462,35.557504427804496],[139.75027869728947,35.55750471273599],[139.75028045473982,35.55740502020408],[139.75035292580657,35.557405881352686],[139.7503521101772,35.55744806584716],[139.75068214594174,35.55745207837207],[139.75068038880255,35.557551951187634],[139.75079720307255,35.55755338329248],[139.7508011815701,35.55733092294347],[139.75084475245635,35.55733140345481],[139.75084439696948,35.557355380188206],[139.75113053064797,35.55735882060842],[139.75111088278794,35.55845183274428]]]}},{"type":"Feature","properties":{"height":4.1,"gml_id":"bldg_00686b32-c207-45c2-b277-91e636f93901"},"geometry":{"type":"Polygon","coordinates":[[[139.75161116244567,35.55472807918841],[139.75167756277293,35.55473055792789],[139.75167666434695,35.55474633165311],[139.75216396743622,35.554765049043986],[139.75215947650415,35.554843196576],[139.75160511080733,35.5548219098365],[139.75161116244567,35.55472807918841]]]}},{"type":"Feature","properties":{"height":48.8,"gml_id":"bldg_237a5ac3-443c-4ef5-af21-4a3b22914a18"},"geometry":{"type":"Polygon","coordinates":[[[139.75247415319527,35.55244679051361],[139.75214094885558,35.55243313588824],[139.7521418457098,35.55241880437772],[139.75210147736908,35.55241715468585],[139.75210214990125,35.55240651872694],[139.75203398694225,35.55240376861588],[139.75206179922176,35.55195020747366],[139.7521641533875,35.551954332676],[139.75216538749135,35.55193369165475],[139.75250233978255,35.551947529003066],[139.75250110576485,35.55196817002782],[139.75260886439943,35.551972568892765],[139.75258105519296,35.55242613016355],[139.75251333340245,35.552423380618905],[139.75251266092445,35.552434016580136],[139.75247504999035,35.55243245900057],[139.75247415319527,35.55244679051361]]]}},{"type":"Feature","properties":{"height":2.9,"gml_id":"bldg_7547ffe5-9a30-471c-8c5f-9b54fd987fee"},"geometry":{"type":"Polygon","coordinates":[[[139.75091547786246,35.55170956927974],[139.7508812643286,35.551622020828724],[139.75095198504866,35.5516036807904],[139.7509861985595,35.55169131936076],[139.75091547786246,35.55170956927974]]]}},{"type":"Feature","properties":{"height":4.0,"gml_id":"bldg_ec348440-c235-4ecc-a1d4-8f3e21c4a9f9"},"geometry":{"type":"Polygon","coordinates":[[[139.75110883962265,35.55170312113442],[139.7510756972942,35.55164649117854],[139.75111354518162,35.55163164404074],[139.75114668743862,35.55168836412543],[139.75110883962265,35.55170312113442]]]}},{"type":"Feature","properties":{"height":5.4,"gml_id":"bldg_c36e6619-932e-48a5-be1e-9d8c55be0185"},"geometry":{"type":"Polygon","coordinates":[[[139.7572340922083,35.55720355168731],[139.757261434305,35.55721844187868],[139.75724376472868,35.55724006409319],[139.75725093094255,35.55724403473203],[139.75723414492245,35.557264485695356],[139.75719456503316,35.5572429174835],[139.7572122345381,35.55722138541519],[139.75721730610715,35.55722409278738],[139.7572340922083,35.55720355168731]]]}},{"type":"Feature","properties":{"height":7.5,"gml_id":"bldg_68de8406-310a-4f27-93b1-d8b5f5f8e68f"},"geometry":{"type":"Polygon","coordinates":[[[139.75132516370246,35.5503772320853],[139.75132144754454,35.550343878085464],[139.75139888235756,35.55033816182271],[139.7514027089367,35.55037142575612],[139.75132516370246,35.5503772320853]]]}},{"type":"Feature","properties":{"height":2.3,"gml_id":"bldg_aaa397da-d573-4945-bb88-72ffcf71401d"},"geometry":{"type":"Polygon","coordinates":[[[139.75675376521238,35.55624112797805],[139.756725898688,35.55620863498625],[139.75680179284745,35.55616518028251],[139.75682965827588,35.55619768227023],[139.75675376521238,35.55624112797805]]]}},{"type":"Feature","properties":{"height":20.0,"gml_id":"bldg_767fdc5b-7693-4286-88c7-4ccf49a7f28b"},"geometry":{"type":"Polygon","coordinates":[[[139.75135273446224,35.55059755082465],[139.75134799210755,35.55059709690482],[139.75134358440945,35.55059294750879],[139.75132863733134,35.5504321291681],[139.7514148964158,35.55042605833953],[139.751427787057,35.55054847601143],[139.7514026372969,35.550550261708146],[139.75140416661228,35.55056486528336],[139.75135273446224,35.55059755082465]]]}},{"type":"Feature","properties":{"height":8.2,"gml_id":"bldg_ae4ddf04-4fdd-41bd-9f6c-b7740213d542"},"geometry":{"type":"Polygon","coordinates":[[[139.7525632402079,35.551712757473226],[139.75253599725636,35.551601777994364],[139.7526199488972,35.551588042936274],[139.75264719205015,35.551698932257516],[139.7525632402079,35.551712757473226]]]}},{"type":"Feature","properties":{"height":4.4,"gml_id":"bldg_01cc02eb-11cf-4d03-a935-bc008f29c223"},"geometry":{"type":"Polygon","coordinates":[[[139.75457965343753,35.55306179592548],[139.75457882010448,35.55305898214062],[139.7545004766134,35.55307443757169],[139.75447822749598,35.55299918393603],[139.754556558784,35.55298372941262],[139.75455558367452,35.55298039362966],[139.7547268186978,35.55294656891887],[139.75475089084227,35.553027958563135],[139.75457965343753,35.55306179592548]]]}},{"type":"Feature","properties":{"height":47.8,"gml_id":"bldg_65b86b5a-80f4-4869-a97f-e1015a9764b6"},"geometry":{"type":"Polygon","coordinates":[[[139.75018173531697,35.55227243484008],[139.75132947680785,35.55231567636276],[139.75132004183848,35.55248233711252],[139.75097481414852,35.55246930206007],[139.750969646282,35.55256232206298],[139.75103979373898,35.55256498399102],[139.75103350257632,35.55267684229633],[139.74994619868625,35.5526358031044],[139.74995249154247,35.55252376457908],[139.7500242945435,35.55252642824263],[139.75002968837393,35.55243034370769],[139.74930614516606,35.552402980225956],[139.74931536021327,35.55223965462725],[139.74962242415944,35.552251315855756],[139.74983209689424,35.552259213196365],[139.7501123591431,35.552269772945266],[139.75018173531697,35.55227243484008]]]}},{"type":"Feature","properties":{"height":2.1,"gml_id":"bldg_403fef32-c099-41cd-a343-993f500408d7"},"geometry":{"type":"Polygon","coordinates":[[[139.750055566757,35.55833699249984],[139.7500567172999,35.55829111254623],[139.75007127774538,35.55829139301894],[139.75007023751934,35.55833727304887],[139.750055566757,35.55833699249984]]]}},{"type":"Feature","properties":{"height":5.8,"gml_id":"bldg_aa4fa4c0-bd40-4f03-811c-b5986961c7c7"},"geometry":{"type":"Polygon","coordinates":[[[139.7569090552978,35.556582288250524],[139.75691377767498,35.55660419502679],[139.75690517259108,35.556605451518976],[139.7569094557969,35.55662519468035],[139.75688441285254,35.55662878436573],[139.75687969022513,35.556607148005305],[139.75686943029007,35.5566086738627],[139.75686514735173,35.556588660282934],[139.7569090552978,35.556582288250524]]]}},{"type":"Feature","properties":{"height":33.0,"gml_id":"bldg_f4dd5f01-9667-4a77-8a18-b04f5ace2aa9"},"geometry":{"type":"Polygon","coordinates":[[[139.75163013196413,35.55136067648989],[139.75173284009358,35.551341275992954],[139.75174361286682,35.551377338922684],[139.75164123458535,35.551397731182206],[139.75163013196413,35.55136067648989]]]}},{"type":"Feature","properties":{"height":5.0,"gml_id":"bldg_cdee3c5d-5409-4935-9b15-8b8254e8647b"},"geometry":{"type":"Polygon","coordinates":[[[139.7568249878402,35.55659710787549],[139.75682982204324,35.556617392223494],[139.75682441618054,35.55661829018364],[139.7568306784567,35.55664479503037],[139.7568019944527,35.55664937391762],[139.75679606139067,35.55662467205888],[139.7567869046001,35.556626108470454],[139.75678174120262,35.55660402113127],[139.7568249878402,35.55659710787549]]]}},{"type":"Feature","properties":{"height":8.6,"gml_id":"bldg_bafc7c30-2455-4203-a731-8aa580269b0e"},"geometry":{"type":"Polygon","coordinates":[[[139.750595192532,35.55125613055647],[139.7504639120897,35.551280107545836],[139.75043402918243,35.55116506951219],[139.75055957039132,35.55114451390108],[139.750595192532,35.55125613055647]]]}},{"type":"Feature","properties":{"height":3.0,"gml_id":"bldg_0388ce10-fafe-47ad-b435-0a6b44097a7f"},"geometry":{"type":"Polygon","coordinates":[[[139.75687521645952,35.55655576592399],[139.7568713706383,35.55654007929472],[139.7569238844888,35.556531549377304],[139.7569277304054,35.55654714586597],[139.75687521645952,35.55655576592399]]]}},{"type":"Feature","properties":{"height":20.8,"gml_id":"bldg_be360528-d9c7-47fb-acef-4e2e4be96e0e"},"geometry":{"type":"Polygon","coordinates":[[[139.75472985597727,35.55348487243722],[139.7550478924059,35.553422057707984],[139.75507128118332,35.5535011365741],[139.75464291442032,35.553585739037814],[139.75464188208474,35.55358225809466],[139.75461845833507,35.55358675516748],[139.75460727650662,35.55354777714225],[139.75463034171023,35.55354333482238],[139.75461683689875,35.55349760927348],[139.7547271778613,35.55347581532035],[139.75472985597727,35.55348487243722]]]}},{"type":"Feature","properties":{"height":4.0,"gml_id":"bldg_d8a5096b-f82a-4ed7-bdc2-afca925b5dc2"},"geometry":{"type":"Polygon","coordinates":[[[139.75203647101452,35.55180055950618],[139.7520099950963,35.55180450777311],[139.75199122891152,35.551710389900784],[139.75201582961705,35.55170653051241],[139.75203647101452,35.55180055950618]]]}},{"type":"Feature","properties":{"height":10.6,"gml_id":"bldg_12033c4b-1668-4d63-9a7e-558547cc7638"},"geometry":{"type":"Polygon","coordinates":[[[139.75053399810668,35.5516643285252],[139.75050935944785,35.55159778895195],[139.75083030191,35.55151832600984],[139.75085505101703,35.551584955733176],[139.75053399810668,35.5516643285252]]]}},{"type":"Feature","properties":{"height":8.2,"gml_id":"bldg_b4b998da-851c-4cc9-b6c3-0702bc5ac2b7"},"geometry":{"type":"Polygon","coordinates":[[[139.75227871512763,35.55144602524122],[139.75226633561982,35.551362277695446],[139.7522875151216,35.55136021873322],[139.75228510505346,35.55134381179704],[139.75231544027454,35.5513408575925],[139.75231752180943,35.55135492069074],[139.75233859109957,35.5513527715064],[139.75234121996388,35.55137098137047],[139.7524092812713,35.55136426663399],[139.75240698039028,35.55134894144273],[139.75244989105474,35.55134464355699],[139.7524622712939,35.551427850250185],[139.75227871512763,35.55144602524122]]]}},{"type":"Feature","properties":{"height":6.2,"gml_id":"bldg_8ce59ee0-4173-423a-ae5e-245ad80823b4"},"geometry":{"type":"Polygon","coordinates":[[[139.75139655561037,35.55024874043608],[139.75137569679424,35.550252423767205],[139.75136393954816,35.550208608164816],[139.75138480386926,35.550204923938026],[139.75139655561037,35.55024874043608]]]}}]}