{"type":"FeatureCollection","crs":{"type":"name","properties":{"name":"urn:ogc:def:crs:OGC:1.3:CRS84"}},"features":[{"type":"Feature","properties":{"height":9.2,"gml_id":"bldg_2acd8878-7dc0-45f6-bc1a-1ab6c50f6ec8"},"geometry":{"type":"Polygon","coordinates":[[[139.6247374384413,35.77539010860454],[139.62467814793192,35.775391988736054],[139.624675110821,35.77532672530756],[139.62473440128196,35.77532484517738],[139.6247374384413,35.77539010860454]]]}},{"type":"Feature","properties":{"height":9.3,"gml_id":"bldg_63dfc1ef-d17b-456f-9307-799ba5f93baf"},"geometry":{"type":"Polygon","coordinates":[[[139.6247746942452,35.77518556544993],[139.62477393835746,35.77517853356373],[139.6248513797278,35.77517226820706],[139.62486004239352,35.77524349033301],[139.62482917652028,35.775245960621454],[139.62483015127395,35.7752538942425],[139.62478313327665,35.77525768854915],[139.6247823764461,35.775251017203765],[139.62474310257005,35.775254193974355],[139.62473519918768,35.775188741834455],[139.6247746942452,35.77518556544993]]]}},{"type":"Feature","properties":{"height":8.4,"gml_id":"bldg_d1741687-0324-4919-a5a5-13ad0ced122e"},"geometry":{"type":"Polygon","coordinates":[[[139.6247844352428,35.77569097252801],[139.62484572655168,35.77568540025452],[139.62484409920626,35.775673229130845],[139.62490992657467,35.77566721401023],[139.62492773078,35.77579577819245],[139.6249037230674,35.77579798997692],[139.624904264814,35.77580231742332],[139.62483069292367,35.77580904019877],[139.62483004175004,35.7758042618845],[139.62480050224352,35.775807004871226],[139.6247844352428,35.77569097252801]]]}},{"type":"Feature","properties":{"height":23.1,"gml_id":"bldg_af4b672d-782f-48ea-8c82-244b77f977ea"},"geometry":{"type":"Polygon","coordinates":[[[139.6246364311927,35.780096991707744],[139.6247215643628,35.780027464668485],[139.62495269954107,35.780215347248365],[139.62498650913574,35.780187644091356],[139.62511554356973,35.78029251489466],[139.62502841494089,35.78036375132805],[139.625011416386,35.78034993115088],[139.62499999870494,35.78035928546428],[139.6249290240889,35.78030165603693],[139.6249087382469,35.780318295949165],[139.6246364311927,35.780096991707744]]]}},{"type":"Feature","properties":{"height":8.0,"gml_id":"bldg_3f574b8a-d809-4428-89f4-1f72d17ce735"},"geometry":{"type":"Polygon","coordinates":[[[139.6246885051917,35.77540723961766],[139.6246969502897,35.775477019205674],[139.62468732535476,35.77547781372823],[139.62468819302202,35.77548439513066],[139.62464360894512,35.77548792319814],[139.62464155145327,35.77547106427497],[139.6246218591553,35.775472652542646],[139.62462023420363,35.775459580063945],[139.6246169152854,35.775459844710895],[139.62461593960828,35.77545227162914],[139.62459812786977,35.775453773021],[139.6245970444144,35.77544511812508],[139.624591844706,35.77544555977813],[139.62458816322288,35.77541526783409],[139.6246885051917,35.77540723961766]]]}},{"type":"Feature","properties":{"height":2.4,"gml_id":"bldg_28fe2db3-63ae-41fd-8cc4-bfaf39420240"},"geometry":{"type":"Polygon","coordinates":[[[139.62473184999263,35.77926583740986],[139.62472085563266,35.7792402198509],[139.62475273575052,35.779231171460474],[139.62476373011947,35.779256789016586],[139.62473184999263,35.77926583740986]]]}},{"type":"Feature","properties":{"height":4.7,"gml_id":"bldg_1812fb40-c491-4cce-b420-ae8ddeb12221"},"geometry":{"type":"Polygon","coordinates":[[[139.6247335836959,35.777247074824],[139.6246238248879,35.77725995404962],[139.62461870256217,35.77723074124163],[139.62472846109537,35.777217952155624],[139.6247335836959,35.777247074824]]]}},{"type":"Feature","properties":{"height":3.5,"gml_id":"bldg_66d2efbd-acc3-4962-9c43-625d3023f569"},"geometry":{"type":"Polygon","coordinates":[[[139.6246807904323,35.77950316578848],[139.62465865212056,35.77950916645596],[139.62464557401321,35.77947669497612],[139.62466760146876,35.77947078425417],[139.6246807904323,35.77950316578848]]]}},{"type":"Feature","properties":{"height":9.3,"gml_id":"bldg_56f0eaf0-ffbc-4ffd-b629-d5d041dad9e9"},"geometry":{"type":"Polygon","coordinates":[[[139.62460423901646,35.77527387301202],[139.62459704615318,35.77523284883904],[139.62461817863553,35.77523036171883],[139.62461196733125,35.77519465724919],[139.62466352606052,35.775188617498365],[139.62467704089408,35.77526534632619],[139.62460423901646,35.77527387301202]]]}},{"type":"Feature","properties":{"height":14.8,"gml_id":"bldg_8fedcb9e-2584-4008-b3e6-fcc97be2ba86"},"geometry":{"type":"Polygon","coordinates":[[[139.62483428378098,35.77621303404694],[139.6248316284807,35.77621329985021],[139.6248330376777,35.77622429883242],[139.62473844537658,35.776232697681685],[139.62473714397552,35.77622278051218],[139.6247345992827,35.776223046505145],[139.62472516190016,35.776152003309136],[139.62474197832006,35.77615050017257],[139.62472971834046,35.77605908144195],[139.62481258317825,35.776051743892786],[139.62483428378098,35.77621303404694]]]}},{"type":"Feature","properties":{"height":2.4,"gml_id":"bldg_2e54f207-40b7-4c27-95c7-818722fb222a"},"geometry":{"type":"Polygon","coordinates":[[[139.62464687970095,35.77999290332694],[139.62466572777686,35.77997617082769],[139.6247076791198,35.780007520633724],[139.62468883104526,35.78002425313945],[139.62464687970095,35.77999290332694]]]}},{"type":"Feature","properties":{"height":7.5,"gml_id":"bldg_6a448f15-491c-4b53-aa84-2611c847b306"},"geometry":{"type":"Polygon","coordinates":[[[139.624602462912,35.77510702896821],[139.62459496062408,35.77505744137655],[139.62460039871652,35.77505042023944],[139.62461821154272,35.77504846817097],[139.62461668754892,35.775039091425455],[139.62465076423314,35.77503536486449],[139.6246614331666,35.77510064153878],[139.624602462912,35.77510702896821]]]}},{"type":"Feature","properties":{"height":6.9,"gml_id":"bldg_9f574c9f-9fef-4695-ba1c-1c9edaca429b"},"geometry":{"type":"Polygon","coordinates":[[[139.62449501163215,35.77542294791055],[139.62450066067447,35.775462166696016],[139.62448672088576,35.77546340438792],[139.62449519362443,35.77552254803918],[139.6244327954025,35.775528478753934],[139.6244186734684,35.77543020644479],[139.62449501163215,35.77542294791055]]]}},{"type":"Feature","properties":{"height":6.4,"gml_id":"bldg_ac0063e7-9104-4bca-9b8e-f7a3e9ecbc72"},"geometry":{"type":"Polygon","coordinates":[[[139.62440487539385,35.77537727289107],[139.62433982271233,35.7753831989465],[139.62433059614008,35.7753163023133],[139.62439564876775,35.7753103762626],[139.62440487539385,35.77537727289107]]]}},{"type":"Feature","properties":{"height":5.9,"gml_id":"bldg_b8673eb0-ca06-4dd3-960c-7664b434b9c1"},"geometry":{"type":"Polygon","coordinates":[[[139.62448510051038,35.776294541673394],[139.62448147312745,35.77632815593967],[139.62436834140183,35.7763201176278],[139.62437185822384,35.77628650317288],[139.62448510051038,35.776294541673394]]]}},{"type":"Feature","properties":{"height":9.0,"gml_id":"bldg_57b69c7a-2736-4af1-89b4-6a6b7f9cd1f6"},"geometry":{"type":"Polygon","coordinates":[[[139.62474964815863,35.775543089856264],[139.62479080391049,35.775539375533675],[139.62479221591468,35.77554929289551],[139.6248692170968,35.77554230568044],[139.62487735571733,35.77560244021667],[139.62475919892574,35.77561305162722],[139.62474964815863,35.775543089856264]]]}},{"type":"Feature","properties":{"height":8.2,"gml_id":"bldg_9fdc5334-ef0c-47fd-870b-17810df8ce11"},"geometry":{"type":"Polygon","coordinates":[[[139.62451763360224,35.77561227190121],[139.62454012599275,35.77559734844684],[139.6245469692683,35.775602858597324],[139.62455628242566,35.77559440202092],[139.62457431446836,35.775593261560054],[139.6245803834952,35.7755987703647],[139.62459368180706,35.77558905880455],[139.62460626135035,35.77560043772011],[139.62460689319278,35.77561260711934],[139.62460013225095,35.775617913384174],[139.62461458976802,35.77563019691396],[139.62460705316076,35.77563604264646],[139.62461433722453,35.77564218450712],[139.62460646808748,35.77564830006921],[139.6246166215828,35.77565688057022],[139.62460941703074,35.77566263674355],[139.62462001177983,35.77567166868795],[139.62460305399173,35.77568497932256],[139.62455979156564,35.77564830918641],[139.62456799323496,35.77564192379789],[139.62455993657304,35.77563514964422],[139.6245519565896,35.77564135514588],[139.62451763360224,35.77561227190121]]]}},{"type":"Feature","properties":{"height":22.1,"gml_id":"bldg_26d3a733-18e6-4dfd-94a9-dde5636707bd"},"geometry":{"type":"Polygon","coordinates":[[[139.62463970944845,35.78015468412153],[139.62461003427026,35.78012407668376],[139.62463119725868,35.78011041281539],[139.62466087267546,35.780140930112914],[139.62463970944845,35.78015468412153]]]}},{"type":"Feature","properties":{"height":7.2,"gml_id":"bldg_e6c20035-f2ef-4642-9c60-607b027249ad"},"geometry":{"type":"Polygon","coordinates":[[[139.62467035223847,35.77553934687982],[139.62472356770365,35.77553430146976],[139.62473910179466,35.775642581240206],[139.62471088986808,35.77564523637212],[139.6247120846521,35.775653621053124],[139.6246869704323,35.77565601114616],[139.62467035223847,35.77553934687982]]]}},{"type":"Feature","properties":{"height":9.4,"gml_id":"bldg_04759c3b-6d12-4e7c-b300-9c10531fb1e3"},"geometry":{"type":"Polygon","coordinates":[[[139.6244732588306,35.77507048001626],[139.6245262567883,35.77506390200998],[139.62454523700185,35.775165427627854],[139.62445063720403,35.77517716125773],[139.6244467093489,35.77515651338746],[139.6244732588306,35.77507048001626]]]}},{"type":"Feature","properties":{"height":5.3,"gml_id":"bldg_f214508b-891d-417b-9d1c-b19b04067cb7"},"geometry":{"type":"Polygon","coordinates":[[[139.624481895525,35.77633581819616],[139.62447724885655,35.77637853438388],[139.62445741253066,35.77643510506728],[139.62445287975194,35.77647655955328],[139.62439924243074,35.77647349190827],[139.62436503824642,35.776356616791716],[139.6243682114548,35.77632750851825],[139.624481895525,35.77633581819616]]]}},{"type":"Feature","properties":{"height":13.0,"gml_id":"bldg_5e9a6674-557c-4d23-96d6-14b1451927e2"},"geometry":{"type":"Polygon","coordinates":[[[139.62471094637093,35.777613706966385],[139.62453089735337,35.77764647424226],[139.6245135861769,35.77758325916809],[139.62469352444884,35.77755049172545],[139.62471094637093,35.777613706966385]]]}},{"type":"Feature","properties":{"height":9.3,"gml_id":"bldg_1366d512-fee5-444f-98fb-413f2e7d29f7"},"geometry":{"type":"Polygon","coordinates":[[[139.62493217986193,35.77599823039559],[139.624750640683,35.77601008398101],[139.6247413748905,35.77591569596854],[139.62482423440136,35.775910341384275],[139.6248225126844,35.775891950742725],[139.6248751711024,35.77588852674076],[139.62487570814278,35.77589465689047],[139.62492172892524,35.775891672040686],[139.62493217986193,35.77599823039559]]]}},{"type":"Feature","properties":{"height":6.9,"gml_id":"bldg_55a5738d-3718-416a-b2d2-4ad826a7902f"},"geometry":{"type":"Polygon","coordinates":[[[139.62437966411883,35.775543619366076],[139.62437045494673,35.77547005273517],[139.6244124950628,35.77546652034972],[139.6244218148804,35.7755400871697],[139.62437966411883,35.775543619366076]]]}},{"type":"Feature","properties":{"height":8.3,"gml_id":"bldg_3b9c21e0-8439-4c20-8c1a-c558940f34f3"},"geometry":{"type":"Polygon","coordinates":[[[139.6246569347694,35.77572166786769],[139.6247174513877,35.77571627458663],[139.62471582547386,35.77570356265035],[139.62477744838384,35.77569808112248],[139.62479252791,35.775811047144735],[139.62477305627536,35.77581281609071],[139.62477370815176,35.775817323999796],[139.6246998046498,35.77582395598449],[139.62469915395482,35.77581899739923],[139.62467027855482,35.77582156123488],[139.6246569347694,35.77572166786769]]]}},{"type":"Feature","properties":{"height":2.9,"gml_id":"bldg_bc73b05a-0815-48ef-bdd2-6c39bb534726"},"geometry":{"type":"Polygon","coordinates":[[[139.62496701333836,35.780028701412505],[139.62498787693684,35.78004496195145],[139.62492424298986,35.780099203402905],[139.62490337939028,35.7800829428531],[139.62496701333836,35.780028701412505]]]}},{"type":"Feature","properties":{"height":6.7,"gml_id":"bldg_f635549e-8acf-45a2-916d-2408b803f877"},"geometry":{"type":"Polygon","coordinates":[[[139.62459009618823,35.77526816992392],[139.62443166624828,35.77528357842744],[139.62442319004464,35.775225786797144],[139.6244498531023,35.77522321917777],[139.62444550497813,35.77519409783305],[139.6245256049546,35.77518630499902],[139.6245302783296,35.77521795070187],[139.62458205570184,35.775212902857035],[139.62459009618823,35.77526816992392]]]}},{"type":"Feature","properties":{"height":6.7,"gml_id":"bldg_e534a9a1-14ae-4a98-88e7-fb9b1f1d17ff"},"geometry":{"type":"Polygon","coordinates":[[[139.6248592680351,35.77621812495039],[139.62484610661187,35.77621774159263],[139.624849095835,35.77617430143141],[139.62483830824962,35.776154362769844],[139.62483640366386,35.77612127971466],[139.62486284061575,35.77612069459506],[139.62486518105675,35.776156302201244],[139.6249158444692,35.77615449716395],[139.62492413313217,35.7762419430277],[139.62485954150898,35.77624047904489],[139.6248592680351,35.77621812495039]]]}},{"type":"Feature","properties":{"height":18.2,"gml_id":"bldg_2e04250b-1149-4246-aca7-175f9ed6837b"},"geometry":{"type":"Polygon","coordinates":[[[139.62503673996846,35.777256974370566],[139.62505249848874,35.7773218992599],[139.62507308057772,35.77731859988831],[139.62508216363454,35.77735602187041],[139.6250606964237,35.77735940984621],[139.62507273491508,35.77740873483944],[139.62474629724326,35.77746134907584],[139.62473612047705,35.77741923812371],[139.6247287065619,35.777420397026134],[139.62472750351014,35.77741516707757],[139.62469142942152,35.777420963309524],[139.62470302996385,35.77746848486819],[139.62455253649455,35.777492740569606],[139.624539186548,35.777437464302494],[139.62456662932183,35.77743309530209],[139.62454310130744,35.77733624887815],[139.62466581969463,35.777316451775924],[139.62467577872405,35.777357210323615],[139.62471882401982,35.77735034456244],[139.62470897487248,35.777309856615496],[139.62503673996846,35.777256974370566]]]}},{"type":"Feature","properties":{"height":5.5,"gml_id":"bldg_cdb032ee-d153-4b33-88af-1e2179c0ab22"},"geometry":{"type":"Polygon","coordinates":[[[139.62468209225437,35.78031727198069],[139.62466877643993,35.78033338313218],[139.62452993287081,35.78025742831738],[139.6245432489361,35.780241227046005],[139.62468209225437,35.78031727198069]]]}},{"type":"Feature","properties":{"height":3.0,"gml_id":"bldg_1471df39-2b78-49b6-9e52-f62ee437a112"},"geometry":{"type":"Polygon","coordinates":[[[139.6246618537201,35.779977155596214],[139.6246388798376,35.77996422635242],[139.6246752735778,35.7799212047294],[139.62469824768942,35.77993404383118],[139.6246618537201,35.779977155596214]]]}},{"type":"Feature","properties":{"height":4.2,"gml_id":"bldg_c004617e-547b-459e-9296-8a2c42b76f84"},"geometry":{"type":"Polygon","coordinates":[[[139.62436059482815,35.77619481573222],[139.62436074223217,35.776138481259366],[139.62441018400415,35.776138567159244],[139.624410036635,35.77619490163227],[139.62436059482815,35.77619481573222]]]}},{"type":"Feature","properties":{"height":6.4,"gml_id":"bldg_5c99c63f-4ec1-40ed-ac99-a21fb55d1c95"},"geometry":{"type":"Polygon","coordinates":[[[139.6244027917262,35.775750971367216],[139.6244302431222,35.775743087123416],[139.62443892877275,35.77576311230735],[139.62441147737073,35.775770996553064],[139.6244027917262,35.775750971367216]]]}},{"type":"Feature","properties":{"height":24.4,"gml_id":"bldg_9eba74f7-b6c0-42e7-9295-0ca30e83a3b4"},"geometry":{"type":"Polygon","coordinates":[[[139.62505834358655,35.777625395772965],[139.62511898774224,35.777614053568655],[139.62517992331559,35.77783039422384],[139.62453430446294,35.77795095801925],[139.6244894812779,35.77779161068816],[139.62454171501724,35.77778187660988],[139.62452560401823,35.77772497311049],[139.6246372648178,35.777704075213755],[139.62471041416057,35.77769041139172],[139.6248683324797,35.77766094050297],[139.62505834358655,35.777625395772965]]]}},{"type":"Feature","properties":{"height":11.6,"gml_id":"bldg_bc8dc95b-4005-4b6d-b5f1-b18ddbd767f8"},"geometry":{"type":"Polygon","coordinates":[[[139.62512714957703,35.776519912206],[139.62505504715836,35.7765142890888],[139.62504856569782,35.77658205980638],[139.6250882614973,35.7765869958689],[139.62508107771924,35.77662718388978],[139.62502114286556,35.77662131141453],[139.62501162579136,35.77670791520269],[139.624995149315,35.776706264220955],[139.62494902185287,35.77708908014773],[139.6249663832817,35.77709073266907],[139.62496446106258,35.777106773467175],[139.62498458819934,35.777108250506615],[139.624992071356,35.7770381380095],[139.62500943677173,35.777038258227094],[139.62501146676792,35.77702329924142],[139.62506278074918,35.777026723132465],[139.62507431979785,35.77692822495283],[139.62503274347537,35.77692328562861],[139.6250517367081,35.776765761569486],[139.6250970755316,35.776769986317476],[139.6250940399721,35.776788819393126],[139.62531918850783,35.77680885858245],[139.6252710234267,35.77721014889248],[139.6246897494909,35.77717489034355],[139.6246838762875,35.77722139009865],[139.6245923123601,35.77721329927781],[139.6246026202369,35.77712056768591],[139.62458326619188,35.777119542602215],[139.62456937001605,35.77723092602266],[139.62446983961317,35.77722381277048],[139.62454035347946,35.776314197028846],[139.6250227290453,35.77635243977822],[139.6250258754479,35.77633351675942],[139.62506159322064,35.77633691363584],[139.62510013745876,35.77635924386425],[139.6250874555438,35.776471891360345],[139.62513180037118,35.77647548342506],[139.625128964665,35.77650251918475],[139.62512714957703,35.776519912206]]]}},{"type":"Feature","properties":{"height":7.3,"gml_id":"bldg_4f8ea364-c95b-4952-9a07-30a2e6e13b86"},"geometry":{"type":"Polygon","coordinates":[[[139.62437820379378,35.775383085366315],[139.62437896342163,35.77538867509195],[139.62440628946942,35.775386379041024],[139.6244134433443,35.77544227552677],[139.62434839155384,35.77544784104593],[139.6243404780988,35.77538635483064],[139.62437820379378,35.775383085366315]]]}},{"type":"Feature","properties":{"height":3.7,"gml_id":"bldg_bcb65ce5-8d55-4a6a-b849-95bc03c5b5e1"},"geometry":{"type":"Polygon","coordinates":[[[139.62472614983096,35.775943160909804],[139.62465667169553,35.77594934986578],[139.62464799194498,35.775884707600774],[139.62471747002482,35.77587851864956],[139.62472614983096,35.775943160909804]]]}},{"type":"Feature","properties":{"height":3.9,"gml_id":"bldg_aca1a797-0486-4e95-9060-85693d5524e6"},"geometry":{"type":"Polygon","coordinates":[[[139.62441600939442,35.77606809126519],[139.62441383852345,35.77609458735097],[139.6243981343196,35.77609374884915],[139.6243972202164,35.77610492407146],[139.62436116697927,35.77610296858398],[139.6243642522114,35.776065207142],[139.62441600939442,35.77606809126519]]]}},{"type":"Feature","properties":{"height":6.9,"gml_id":"bldg_f236db6f-297b-442e-a639-3448ed10b464"},"geometry":{"type":"Polygon","coordinates":[[[139.62471041416057,35.77769041139172],[139.6246372648178,35.777704075213755],[139.6246269621574,35.77766782284607],[139.62470011193966,35.77765397875983],[139.62471041416057,35.77769041139172]]]}},{"type":"Feature","properties":{"height":6.4,"gml_id":"bldg_9d116702-8365-4aa1-be3a-30f19f4376dd"},"geometry":{"type":"Polygon","coordinates":[[[139.6244846800708,35.77569396764585],[139.62447794716346,35.77568854781912],[139.6244444720709,35.7757158908954],[139.62442559828526,35.77570053506464],[139.62441961251878,35.77570548212345],[139.62439985576782,35.77568940367025],[139.62440628490688,35.775684096840365],[139.6243946956575,35.77567470260714],[139.62443083098344,35.77564520091164],[139.62444661435273,35.775658027577975],[139.6244617998511,35.77564570537867],[139.62447747308957,35.77565835157856],[139.6245029674528,35.77563748439662],[139.62452846377423,35.77565816971248],[139.6244846800708,35.77569396764585]]]}},{"type":"Feature","properties":{"height":7.1,"gml_id":"bldg_7baca27c-5020-43c3-99b2-a73ad82e0ccc"},"geometry":{"type":"Polygon","coordinates":[[[139.62461433073278,35.7756023445717],[139.62464088495173,35.775599145772404],[139.62464033827467,35.775596711163246],[139.62465464476153,35.775582134024695],[139.62466913831105,35.77558062686744],[139.62467142173574,35.77559568347035],[139.62467540477385,35.775595239703016],[139.62468584245988,35.775664391797704],[139.62465597023623,35.775667494714135],[139.62465716595682,35.77567551885499],[139.62462596620418,35.7756787095961],[139.62461433073278,35.7756023445717]]]}},{"type":"Feature","properties":{"height":9.0,"gml_id":"bldg_d80e5f47-4181-49cd-9753-1e12f788e616"},"geometry":{"type":"Polygon","coordinates":[[[139.62470830054966,35.775027442618864],[139.62471863323628,35.775094431281026],[139.62466774033066,35.775099660990634],[139.62465740768607,35.7750326723243],[139.62470830054966,35.775027442618864]]]}},{"type":"Feature","properties":{"height":4.6,"gml_id":"bldg_e4063f64-15c9-4f54-986f-34bf637e3ae7"},"geometry":{"type":"Polygon","coordinates":[[[139.62449100161498,35.776575774876186],[139.62446079155947,35.7765810404099],[139.62447535706417,35.77663667934654],[139.62444337653832,35.77664221220775],[139.62440548509767,35.77649720840612],[139.6244675649827,35.776486409834526],[139.62449100161498,35.776575774876186]]]}},{"type":"Feature","properties":{"height":3.3,"gml_id":"bldg_660689a1-c65d-4382-a0ad-4553174a85aa"},"geometry":{"type":"Polygon","coordinates":[[[139.6249780038057,35.78014066875633],[139.62499496318696,35.78012708767636],[139.62501129895108,35.780140546166145],[139.62499445018327,35.78015412744001],[139.6249780038057,35.78014066875633]]]}},{"type":"Feature","properties":{"height":8.2,"gml_id":"bldg_111a857c-5d3e-48fd-8bc7-4eee02316270"},"geometry":{"type":"Polygon","coordinates":[[[139.6245349175603,35.77754724198684],[139.62450913106645,35.77755269548236],[139.6244987086812,35.77751995818133],[139.62452449516516,35.77751450468796],[139.6245349175603,35.77754724198684]]]}},{"type":"Feature","properties":{"height":6.3,"gml_id":"bldg_962da0da-e697-4942-8568-e7c93cd0f1b0"},"geometry":{"type":"Polygon","coordinates":[[[139.6248122209816,35.77538555123801],[139.62475137374088,35.77539058345177],[139.6247428144661,35.77532215570216],[139.62480366165514,35.77531712349251],[139.6248122209816,35.77538555123801]]]}},{"type":"Feature","properties":{"height":7.1,"gml_id":"bldg_cc5a10ae-967c-43d1-912a-a64b2a86d253"},"geometry":{"type":"Polygon","coordinates":[[[139.6243060112738,35.77558134831841],[139.62429713398674,35.77550778225929],[139.62435090036652,35.775503549191846],[139.62435208992196,35.775513916850166],[139.6243659186427,35.775512859252075],[139.62437122425055,35.7755564940894],[139.62435982911626,35.77555746578113],[139.62436134554258,35.77556972685431],[139.6243289305558,35.77557237459344],[139.62432979701512,35.77557940667408],[139.6243060112738,35.77558134831841]]]}},{"type":"Feature","properties":{"height":2.3,"gml_id":"bldg_614aab3d-d86a-4359-a733-7242488cc6cb"},"geometry":{"type":"Polygon","coordinates":[[[139.62492943570726,35.78010155592498],[139.62494340499654,35.780089321703095],[139.62499164807372,35.7801258200361],[139.62497778939894,35.78013805445514],[139.62492943570726,35.78010155592498]]]}},{"type":"Feature","properties":{"height":6.8,"gml_id":"bldg_3c561f0d-f058-41a0-9e2e-6452779a8b9c"},"geometry":{"type":"Polygon","coordinates":[[[139.6244204271917,35.77619744347805],[139.62443300693815,35.77608191153296],[139.6244564513367,35.77608366482935],[139.62445781163473,35.776071048212415],[139.62452504874693,35.77607594215559],[139.62452062733962,35.77611712643338],[139.6245107851164,35.776116388259666],[139.62450874444482,35.77613540332101],[139.62454357959868,35.776137897462974],[139.6245361017924,35.776205846697906],[139.6244204271917,35.77619744347805]]]}},{"type":"Feature","properties":{"height":7.1,"gml_id":"bldg_d03ad4a2-7491-49fa-bfd8-6fb1a2408c63"},"geometry":{"type":"Polygon","coordinates":[[[139.6244620277681,35.775727729146624],[139.62454051361058,35.77566062429326],[139.62459173152052,35.775700462989725],[139.6244740318842,35.7757476699558],[139.6244620277681,35.775727729146624]]]}},{"type":"Feature","properties":{"height":7.2,"gml_id":"bldg_3f335765-73f8-49bd-ab23-28145e47ebd8"},"geometry":{"type":"Polygon","coordinates":[[[139.62438538244186,35.77555633841731],[139.62439586725168,35.7755650997838],[139.62441559612253,35.775549540602505],[139.62447364797586,35.775598404778584],[139.62443053263985,35.77563240114184],[139.62436210658598,35.775574775768895],[139.62438538244186,35.77555633841731]]]}},{"type":"Feature","properties":{"height":22.4,"gml_id":"bldg_70c49be2-9c45-462c-b157-6b71e67e75be"},"geometry":{"type":"Polygon","coordinates":[[[139.62472497825706,35.78024496757001],[139.62475427373755,35.780209234588],[139.62480372766606,35.78024798848339],[139.6247753453529,35.78027290680022],[139.62472497825706,35.78024496757001]]]}},{"type":"Feature","properties":{"height":8.4,"gml_id":"bldg_495c4798-b99d-40f8-8863-19770f6439aa"},"geometry":{"type":"Polygon","coordinates":[[[139.62450161387846,35.77543602903373],[139.6245062607873,35.775435496289134],[139.62450506414268,35.77542783268721],[139.62453205979324,35.775424995220554],[139.62453162467028,35.775422200262206],[139.62458141124904,35.77541714896168],[139.62458652261122,35.77545050799739],[139.62457059095667,35.775452102784016],[139.6245773338581,35.775496010514516],[139.62451194714978,35.775502747303186],[139.62450161387846,35.77543602903373]]]}},{"type":"Feature","properties":{"height":6.0,"gml_id":"bldg_33b60f2c-1842-4419-a1a8-3f7c58bb38a3"},"geometry":{"type":"Polygon","coordinates":[[[139.62436359353123,35.775682850906335],[139.6243356690727,35.775660178353434],[139.62434531266587,35.77565226318117],[139.6243184917013,35.77563058403309],[139.62432591819356,35.77562455785619],[139.62438066338083,35.77566899968678],[139.62436359353123,35.775682850906335]]]}},{"type":"Feature","properties":{"height":8.3,"gml_id":"bldg_097d1a60-2b91-48a3-954f-ea4f61b2129b"},"geometry":{"type":"Polygon","coordinates":[[[139.62489553798298,35.775458975892114],[139.62480238872303,35.77546575485482],[139.62479601541244,35.77540733594925],[139.62488905423302,35.775400466664316],[139.62489553798298,35.775458975892114]]]}},{"type":"Feature","properties":{"height":7.9,"gml_id":"bldg_093f6feb-09a8-4305-b11b-5517db23949d"},"geometry":{"type":"Polygon","coordinates":[[[139.62496919443888,35.77601325703507],[139.62497906928127,35.77608628395429],[139.62487916633083,35.776095304663116],[139.62488079463094,35.776107115244876],[139.62483543454687,35.77611118285092],[139.62482566997014,35.776038336382705],[139.6248522222083,35.77603594875389],[139.62485059461966,35.776023867766156],[139.62496919443888,35.77601325703507]]]}},{"type":"Feature","properties":{"height":9.1,"gml_id":"bldg_bd8b9d94-44cd-461a-b156-307a4870c218"},"geometry":{"type":"Polygon","coordinates":[[[139.62505834358655,35.777625395772965],[139.6248683324797,35.77766094050297],[139.62485441394213,35.77761152209685],[139.62504442493736,35.77757597738815],[139.62505834358655,35.777625395772965]]]}},{"type":"Feature","properties":{"height":4.7,"gml_id":"bldg_30de402f-fecd-4880-8978-609c19d508fc"},"geometry":{"type":"Polygon","coordinates":[[[139.62456883244485,35.77540549963777],[139.62444626129115,35.775412407520164],[139.62444604597079,35.77541015375674],[139.62442934172302,35.775411116233705],[139.62442429833004,35.775351798262655],[139.6244851413184,35.77534838864739],[139.6244842816831,35.77533874264764],[139.62450596393185,35.77533751840004],[139.62450510617956,35.775327151319054],[139.62454614745408,35.77532487905038],[139.62454839927443,35.77535201376894],[139.62456421841765,35.77535113987453],[139.62456883244485,35.77540549963777]]]}},{"type":"Feature","properties":{"height":13.9,"gml_id":"bldg_4f971526-49c5-44ff-aa93-80f669733dfc"},"geometry":{"type":"Polygon","coordinates":[[[139.6245471935233,35.7775056206771],[139.62450503960795,35.777509964129024],[139.6244839402884,35.777372651050925],[139.62452609413236,35.77736830760607],[139.6245471935233,35.7775056206771]]]}},{"type":"Feature","properties":{"height":7.1,"gml_id":"bldg_a0a2e711-10d4-456a-9bbb-30918e078452"},"geometry":{"type":"Polygon","coordinates":[[[139.62463954474373,35.7760273775502],[139.62463151286423,35.775968775492274],[139.6247012127049,35.775962406664334],[139.62470284050514,35.775974397518986],[139.62472408237576,35.77597245138397],[139.6247304865178,35.77601906258175],[139.62463954474373,35.7760273775502]]]}},{"type":"Feature","properties":{"height":13.8,"gml_id":"bldg_fb3d8277-46f8-4717-ad2a-7bcd18d1d991"},"geometry":{"type":"Polygon","coordinates":[[[139.62444088500078,35.77818677062713],[139.62446022663343,35.77802347862761],[139.62467817081117,35.777965719534976],[139.6247116875666,35.778049784004494],[139.6248541427606,35.77801199384249],[139.62487414283518,35.778062234007024],[139.62509629284568,35.77800339982039],[139.62513354638205,35.77809684473886],[139.6253406953605,35.77861638386294],[139.6250863335414,35.77868372559371],[139.62507084662286,35.778641785753734],[139.62501716549983,35.77865494270264],[139.6250034407408,35.77865834407809],[139.62501387523596,35.778686574574266],[139.62487308608513,35.77872130319934],[139.62485888001913,35.778697212387556],[139.62476723034075,35.778721299934325],[139.62460910323506,35.778321995597004],[139.62454416102108,35.778157836192335],[139.62444088500078,35.77818677062713]]]}},{"type":"Feature","properties":{"height":12.4,"gml_id":"bldg_dbdb608d-ab16-4370-a1d2-20cd53c0d728"},"geometry":{"type":"Polygon","coordinates":[[[139.62479004597938,35.77756634272325],[139.62477140964998,35.777502224031664],[139.6248472160103,35.77748757324239],[139.6248524772819,35.777505970014765],[139.62495849541222,35.77748551271423],[139.624971759975,35.777531234418916],[139.62479004597938,35.77756634272325]]]}},{"type":"Feature","properties":{"height":9.0,"gml_id":"bldg_0e44795f-8fcb-4435-b917-2d6b69e4626f"},"geometry":{"type":"Polygon","coordinates":[[[139.624387235064,35.77518642522248],[139.62441782704929,35.77507723404254],[139.62445884226779,35.775084876672224],[139.6244283609422,35.77519406805475],[139.624387235064,35.77518642522248]]]}},{"type":"Feature","properties":{"height":7.3,"gml_id":"bldg_b0dfcfba-1039-4ad6-9f2a-ae33204407bf"},"geometry":{"type":"Polygon","coordinates":[[[139.6249235218181,35.776137114303864],[139.62494387768697,35.7761356172726],[139.6249435555057,35.77613192115606],[139.62499223242486,35.77612840006861],[139.62499947057762,35.77619457211403],[139.6250040064491,35.776194219429115],[139.62500789687948,35.776229288903785],[139.62499172128844,35.77623953633758],[139.6249404998439,35.776243233286685],[139.62493952789,35.77623421804586],[139.6249342177591,35.776234569386666],[139.6249235218181,35.776137114303864]]]}},{"type":"Feature","properties":{"height":2.6,"gml_id":"bldg_289699ac-cff9-4b88-bec3-a64f5d5c5b2a"},"geometry":{"type":"Polygon","coordinates":[[[139.62457539854302,35.77610946985972],[139.62454099122246,35.77611256487491],[139.62453371905193,35.77605955253554],[139.62456823719333,35.77605636757917],[139.62457539854302,35.77610946985972]]]}},{"type":"Feature","properties":{"height":7.0,"gml_id":"bldg_dcf4ba80-6658-44fc-8fa7-358fc3fc079b"},"geometry":{"type":"Polygon","coordinates":[[[139.62438586876448,35.77566639479898],[139.62432372916453,35.77561572076559],[139.62436330038898,35.77558352099401],[139.62442543998915,35.775634195007235],[139.62438586876448,35.77566639479898]]]}},{"type":"Feature","properties":{"height":2.7,"gml_id":"bldg_957958b7-ec0a-4210-be76-cc36d58b0200"},"geometry":{"type":"Polygon","coordinates":[[[139.62434157642025,35.775262510453764],[139.62435456717662,35.77524351442025],[139.62440980547626,35.77526848781161],[139.6243968144931,35.77528757398621],[139.62434157642025,35.775262510453764]]]}},{"type":"Feature","properties":{"height":6.4,"gml_id":"bldg_2effdf42-6f57-4a76-8b21-18d1cc4f194e"},"geometry":{"type":"Polygon","coordinates":[[[139.62447707909826,35.77555523579657],[139.62446866965223,35.77555648309032],[139.6244642979313,35.77553637526449],[139.62458855759343,35.77551829348343],[139.6245999245753,35.77557041157551],[139.62448407428383,35.77558724607367],[139.62447707909826,35.77555523579657]]]}},{"type":"Feature","properties":{"height":6.6,"gml_id":"bldg_8deaa176-8505-42e7-8f12-379d9897209d"},"geometry":{"type":"Polygon","coordinates":[[[139.62481187833205,35.77530496943584],[139.62485115223043,35.77530179264291],[139.6248538592866,35.77532406082384],[139.62487985754626,35.77532194263467],[139.62488538016703,35.775367290403295],[139.62486424977396,35.77536896635377],[139.62486587405803,35.77538230923501],[139.62482173247344,35.775385838135705],[139.62481187833205,35.77530496943584]]]}},{"type":"Feature","properties":{"height":8.3,"gml_id":"bldg_fec05304-212e-4586-b1ad-91e12a93b143"},"geometry":{"type":"Polygon","coordinates":[[[139.6248241340334,35.78001574466286],[139.62483887808776,35.78000333152523],[139.62485941004866,35.78001950137599],[139.62487559513073,35.78000591897029],[139.624921405808,35.780041962437956],[139.6248904764373,35.78006804813048],[139.6248241340334,35.78001574466286]]]}},{"type":"Feature","properties":{"height":8.4,"gml_id":"bldg_49a1fd0b-66db-4a79-9cfb-46c0b173a9ac"},"geometry":{"type":"Polygon","coordinates":[[[139.62466725544164,35.77515824827796],[139.62471527308318,35.77515283331001],[139.6247340132754,35.775261659462686],[139.62468599533415,35.77526716457299],[139.62466725544164,35.77515824827796]]]}},{"type":"Feature","properties":{"height":8.4,"gml_id":"bldg_a459f993-6334-4373-af63-d961f3260ce3"},"geometry":{"type":"Polygon","coordinates":[[[139.62472792155447,35.77513780260755],[139.62461330531448,35.775148239746635],[139.62460874652157,35.775115061940554],[139.6247233627145,35.775104624805586],[139.62472792155447,35.77513780260755]]]}},{"type":"Feature","properties":{"height":9.9,"gml_id":"bldg_8ce44a54-53ad-4d52-9c63-f0f1742b8c9e"},"geometry":{"type":"Polygon","coordinates":[[[139.62444088500078,35.77818677062713],[139.62454416102108,35.778157836192335],[139.62460910323506,35.778321995597004],[139.6245380417086,35.77834071056977],[139.62455408582215,35.7783809388721],[139.62449309667844,35.77839705737316],[139.62443881222356,35.77826031762385],[139.62444088500078,35.77818677062713]]]}},{"type":"Feature","properties":{"height":7.6,"gml_id":"bldg_0406126b-8247-4618-9b6f-0f0329c2a2a1"},"geometry":{"type":"Polygon","coordinates":[[[139.62473824253766,35.77516693430219],[139.6247148959709,35.7750431376513],[139.62482598158223,35.775029269141704],[139.6248493285526,35.77515297563672],[139.62473824253766,35.77516693430219]]]}},{"type":"Feature","properties":{"height":15.9,"gml_id":"bldg_57badc55-3b9f-410f-8e28-ee00fd1f428f"},"geometry":{"type":"Polygon","coordinates":[[[139.62475427373755,35.780209234588],[139.62472497825706,35.78024496757001],[139.62467959194456,35.780300502438706],[139.62458095335433,35.78024697103805],[139.62458628001187,35.7802404003923],[139.62457534457474,35.78023452260213],[139.62463992831988,35.78015558585642],[139.62464268965422,35.78015712295192],[139.62464746134847,35.780151272424355],[139.62475427373755,35.780209234588]]]}},{"type":"Feature","properties":{"height":4.7,"gml_id":"bldg_d872d3f6-c848-45aa-93e2-72b8498e7de5"},"geometry":{"type":"Polygon","coordinates":[[[139.62470741605594,35.77951547041147],[139.6246610432349,35.77939839405384],[139.62472159019006,35.779382454975455],[139.62468521673298,35.779290814186474],[139.62479800887357,35.779261084831234],[139.62476756983384,35.779184236581145],[139.62488312897997,35.77915379085979],[139.6249518102274,35.779326879952],[139.62488971360935,35.77934326713822],[139.62491993301305,35.77941957416191],[139.62493520812865,35.77941554453462],[139.6249447688518,35.779439537149834],[139.62491399738568,35.779447596021434],[139.6249188323458,35.7794598628311],[139.62470741605594,35.77951547041147]]]}},{"type":"Feature","properties":{"height":7.1,"gml_id":"bldg_dd5011d2-e88c-4845-a8e3-8b72b7a8be3b"},"geometry":{"type":"Polygon","coordinates":[[[139.62464009658876,35.77581619086601],[139.6244799787033,35.77588450608126],[139.6244414225692,35.77582458909909],[139.62460154060255,35.77575618379902],[139.62464009658876,35.77581619086601]]]}},{"type":"Feature","properties":{"height":5.2,"gml_id":"bldg_b573ef45-e71c-47fe-9120-387f29988768"},"geometry":{"type":"Polygon","coordinates":[[[139.62428080999263,35.77540572041215],[139.62427482452267,35.775368303742944],[139.62429053518827,35.77536661847576],[139.6242861833399,35.77533893928885],[139.62431948544716,35.77533539174698],[139.62433004401333,35.775400487984044],[139.62428080999263,35.77540572041215]]]}}]}