{"type":"FeatureCollection","crs":{"type":"name","properties":{"name":"urn:ogc:def:crs:OGC:1.3:CRS84"}},"features":[{"type":"Feature","properties":{"height":3.5,"gml_id":"bldg_afa9ab13-0449-4d01-a71e-d75e266aed87"},"geometry":{"type":"Polygon","coordinates":[[[139.60337421151294,35.7754126301071],[139.60336896415333,35.77539116781566],[139.6034328143743,35.77538083416636],[139.60343806149098,35.775402386590166],[139.60337421151294,35.7754126301071]]]}},{"type":"Feature","properties":{"height":6.4,"gml_id":"bldg_8a09c3af-b933-49e6-96ad-92a49be98e8a"},"geometry":{"type":"Polygon","coordinates":[[[139.6037457880854,35.77535808693533],[139.60365160911564,35.77537620462534],[139.60364087696937,35.7753388680158],[139.60373505563837,35.77532084046898],[139.6037457880854,35.77535808693533]]]}},{"type":"Feature","properties":{"height":4.0,"gml_id":"bldg_d9a72ace-0405-4b1c-91d1-df264df6d634"},"geometry":{"type":"Polygon","coordinates":[[[139.6034537744042,35.77540007310128],[139.6034428377384,35.77535696740902],[139.60349473772587,35.775348233322745],[139.6035056744185,35.77539133901047],[139.6034537744042,35.77540007310128]]]}},{"type":"Feature","properties":{"height":4.0,"gml_id":"bldg_d9e72bb7-902e-45b4-8cfb-d78c28739202"},"geometry":{"type":"Polygon","coordinates":[[[139.60067237228623,35.77538544053217],[139.60078922867473,35.77536655780745],[139.6008032189106,35.77542409132753],[139.6007571844231,35.77543157369723],[139.60076724056708,35.77547269494621],[139.60069641828744,35.77548418545505],[139.60067237228623,35.77538544053217]]]}}]}