{"type":"FeatureCollection","crs":{"type":"name","properties":{"name":"urn:ogc:def:crs:OGC:1.3:CRS84"}},"features":[{"type":"Feature","properties":{"height":7.2,"gml_id":"bldg_42a462a4-f354-44ed-9490-edadf824a718"},"geometry":{"type":"Polygon","coordinates":[[[139.58743399863076,35.77599545820075],[139.5874435526214,35.77594599334776],[139.58756373631124,35.77596138177441],[139.58755418239303,35.776010846637085],[139.58743399863076,35.77599545820075]]]}},{"type":"Feature","properties":{"height":7.8,"gml_id":"bldg_e66c8976-3e82-4677-92d4-1d0f20020c80"},"geometry":{"type":"Polygon","coordinates":[[[139.58734553557045,35.77526959637777],[139.5872549793936,35.775259496217714],[139.58726782430026,35.77518299745415],[139.58734555449186,35.77519162920329],[139.58734420195233,35.775199828767995],[139.58734961972297,35.775200470797785],[139.58734545038743,35.775225429805445],[139.58735285852063,35.77522625617709],[139.58734553557045,35.77526959637777]]]}},{"type":"Feature","properties":{"height":7.3,"gml_id":"bldg_04fbff7a-efc3-41df-b20b-161bab7dd66a"},"geometry":{"type":"Polygon","coordinates":[[[139.5873865120693,35.775971114649955],[139.58738012181797,35.775962989386855],[139.5873823719954,35.77595064542575],[139.58737805997052,35.77595009579428],[139.5873806480769,35.77593576954336],[139.58736892785367,35.77593439354146],[139.58737185583348,35.775917454056405],[139.5873562657422,35.77591561946123],[139.58735896778995,35.775900211817785],[139.58735001192386,35.77589911187435],[139.58735136336458,35.7758912728503],[139.58734240722197,35.77589026304123],[139.5873488242756,35.77585377129027],[139.5874327455311,35.77586358740755],[139.58741326964176,35.77597423397412],[139.5873865120693,35.775971114649955]]]}},{"type":"Feature","properties":{"height":3.3,"gml_id":"bldg_e01f8ae3-5bb8-4c33-a69b-c09a41578986"},"geometry":{"type":"Polygon","coordinates":[[[139.58738667966645,35.775234257271386],[139.58741100309504,35.775237551889084],[139.5874103294649,35.77524079538987],[139.5874208326385,35.77524225903466],[139.58741252203598,35.7752830734257],[139.58737758480902,35.77527831493443],[139.58738667966645,35.775234257271386]]]}},{"type":"Feature","properties":{"height":6.7,"gml_id":"bldg_b5825fbf-ca39-4a10-b05f-8b9d716eefb1"},"geometry":{"type":"Polygon","coordinates":[[[139.585044236099,35.775058096522486],[139.58495003718693,35.77504582385495],[139.5849646477948,35.77497131196662],[139.58506625414722,35.774984591404696],[139.585057936486,35.77502729846354],[139.58505041694914,35.7750267421271],[139.585044236099,35.775058096522486]]]}},{"type":"Feature","properties":{"height":8.2,"gml_id":"bldg_c053e560-8a2f-44b0-b8cd-e86a8d90898c"},"geometry":{"type":"Polygon","coordinates":[[[139.5857475154249,35.77515202541022],[139.5857538222598,35.775115623649754],[139.58575607489897,35.77510255863879],[139.5858554755727,35.77511384988871],[139.5858551392852,35.77511529136479],[139.58586553264456,35.77511648451286],[139.5858567506276,35.77516640151169],[139.5858465784746,35.775165208818045],[139.58584421244893,35.77517917495231],[139.58574481197502,35.77516779355797],[139.5857475154249,35.77515202541022]]]}},{"type":"Feature","properties":{"height":7.3,"gml_id":"bldg_c9233679-d8e5-4118-9676-314388a57335"},"geometry":{"type":"Polygon","coordinates":[[[139.58491737125806,35.7752354916194],[139.58493018223476,35.77517062051922],[139.58500127352906,35.775179961154606],[139.58499981742958,35.775185816955606],[139.58503165945336,35.77518993879851],[139.58502266998627,35.775235258395924],[139.58501039771633,35.77523361061799],[139.5850077005639,35.77524730564514],[139.58491737125806,35.7752354916194]]]}},{"type":"Feature","properties":{"height":7.2,"gml_id":"bldg_dd8377f7-3840-48a4-99d3-99cf6c0694b7"},"geometry":{"type":"Polygon","coordinates":[[[139.5857538222598,35.775115623649754],[139.5857475154249,35.77515202541022],[139.58573413541254,35.775150916238694],[139.58573809521167,35.77512235143596],[139.58572725663402,35.775122058715304],[139.5857277499166,35.77510565506899],[139.5857435680092,35.77510523695692],[139.585743537832,35.77511497152932],[139.5857538222598,35.775115623649754]]]}},{"type":"Feature","properties":{"height":7.1,"gml_id":"bldg_22d639f1-a349-4c67-8744-0b0d821f2c94"},"geometry":{"type":"Polygon","coordinates":[[[139.58731998203987,35.77580927549407],[139.58732593862166,35.775778641609286],[139.58737569215683,35.775785142992156],[139.5873765892282,35.775781178864854],[139.5874087631597,35.77578539089295],[139.58740078375956,35.775826386227614],[139.58741825304807,35.77582858520155],[139.58741488126458,35.775845974458015],[139.58732974695897,35.77583498408551],[139.58733446603705,35.77581110783145],[139.58731998203987,35.77580927549407]]]}},{"type":"Feature","properties":{"height":6.3,"gml_id":"bldg_6c86a159-8dc9-4114-be8e-ee7e239d875c"},"geometry":{"type":"Polygon","coordinates":[[[139.5852300710282,35.775088765563446],[139.58512801620805,35.7750773781837],[139.58513928354364,35.77501088143432],[139.5852412276744,35.77502226857611],[139.5852300710282,35.775088765563446]]]}},{"type":"Feature","properties":{"height":11.0,"gml_id":"bldg_f2d057fc-50d8-4c44-8f02-6812edb8365e"},"geometry":{"type":"Polygon","coordinates":[[[139.58725418020154,35.775554778492676],[139.58727051311854,35.77545908800744],[139.5874623500938,35.775480842465605],[139.5874463558827,35.77557437041745],[139.58739836885277,35.775568954302244],[139.5873987331475,35.775558409193486],[139.58730729289198,35.77554794672279],[139.58730515276625,35.77556047117946],[139.58725418020154,35.775554778492676]]]}},{"type":"Feature","properties":{"height":7.4,"gml_id":"bldg_3fa8360a-e621-49c4-bf84-b25eb7ccf34e"},"geometry":{"type":"Polygon","coordinates":[[[139.5848459967163,35.77506832308451],[139.58486056299694,35.77497253913853],[139.58493785309327,35.77498027017897],[139.58492339750998,35.77507605436299],[139.5848459967163,35.77506832308451]]]}},{"type":"Feature","properties":{"height":1.2,"gml_id":"bldg_ca217225-ca74-4c55-b022-672136bd2cb1"},"geometry":{"type":"Polygon","coordinates":[[[139.58603352825347,35.7750146164104],[139.5860349957167,35.77500506506415],[139.58605887910517,35.7750075478308],[139.5860574116448,35.77501709917734],[139.58603352825347,35.7750146164104]]]}},{"type":"Feature","properties":{"height":7.8,"gml_id":"bldg_1c8beff5-b6e1-4d18-a47d-645f625062c2"},"geometry":{"type":"Polygon","coordinates":[[[139.58681633851705,35.775179008256046],[139.58683601977498,35.775181211848476],[139.58685246705787,35.775084440023186],[139.5868633941874,35.775020195800046],[139.58700635901818,35.77503635255202],[139.58699238669413,35.775119699278385],[139.58702190856712,35.77512300462258],[139.5870293470105,35.77507813237377],[139.5872114532628,35.775098695541246],[139.58719444004603,35.7751997927623],[139.58701100684743,35.77517904658017],[139.58701641352533,35.775147420090796],[139.5869882186415,35.77514420759887],[139.5869757125217,35.775218363503406],[139.58681273456773,35.77519991230616],[139.58681633851705,35.775179008256046]]]}},{"type":"Feature","properties":{"height":7.1,"gml_id":"bldg_abfd73c4-f40b-4fd9-80e5-2bf05e167815"},"geometry":{"type":"Polygon","coordinates":[[[139.58556237382695,35.77507602043801],[139.5855719210334,35.77502907950835],[139.58564510652855,35.775040767600665],[139.58563611770612,35.77508599711157],[139.58556237382695,35.77507602043801]]]}},{"type":"Feature","properties":{"height":9.9,"gml_id":"bldg_10da58d0-d2f1-46f0-9460-504835e6b099"},"geometry":{"type":"Polygon","coordinates":[[[139.58466655143403,35.7751524992925],[139.58465904030754,35.77514923888391],[139.58466397854784,35.77512626454156],[139.58456679886146,35.77511218270066],[139.5845730815258,35.77508371287716],[139.5845635736019,35.775082341177935],[139.58458175008045,35.77499945411131],[139.58463017394297,35.7750064946923],[139.58463297782845,35.774994061790956],[139.58472396624626,35.775007229425206],[139.5847176828001,35.77503596966195],[139.58471381326808,35.77503542084975],[139.58470284872053,35.77507559861742],[139.5847332031449,35.77509567144798],[139.5847327567921,35.775096932422365],[139.58473994283125,35.77509802890234],[139.58473040410573,35.775142085445935],[139.5847204540275,35.77514062270963],[139.58471473173785,35.77516675017602],[139.58468587639177,35.775162544288655],[139.58466655143403,35.7751524992925]]]}},{"type":"Feature","properties":{"height":2.0,"gml_id":"bldg_6c53408f-28c1-4092-be91-5d4be6cc0e66"},"geometry":{"type":"Polygon","coordinates":[[[139.5847293020348,35.77517633465857],[139.58473528312763,35.77513812956918],[139.5847613777984,35.7751408875708],[139.58475539671784,35.77517909266152],[139.5847293020348,35.77517633465857]]]}},{"type":"Feature","properties":{"height":4.3,"gml_id":"bldg_5350be64-5361-43e6-bee5-2852f884206a"},"geometry":{"type":"Polygon","coordinates":[[[139.58711218140462,35.77522495245939],[139.58711229035592,35.77526136742683],[139.58708707179844,35.77526140592967],[139.58708696285862,35.77522499096224],[139.58711218140462,35.77522495245939]]]}},{"type":"Feature","properties":{"height":3.1,"gml_id":"bldg_60d7f3a8-3c06-45e2-a0dd-183d9e155c2d"},"geometry":{"type":"Polygon","coordinates":[[[139.5874242137316,35.775329607253276],[139.58749298911044,35.775336868564295],[139.58748690010114,35.77537462289397],[139.58741823557455,35.775367271670596],[139.5874242137316,35.775329607253276]]]}},{"type":"Feature","properties":{"height":8.2,"gml_id":"bldg_3aac599f-9fa3-41cf-8b15-8b786b017b68"},"geometry":{"type":"Polygon","coordinates":[[[139.5852581187584,35.77499688520627],[139.58526110400345,35.77499725190596],[139.58526504296694,35.77497544723837],[139.58531070648297,35.77498094954817],[139.58530699182293,35.775001763189294],[139.58531307292003,35.77500249681428],[139.5853101464979,35.7750188053057],[139.58537117869955,35.77502614199625],[139.5853598127022,35.775088852872976],[139.5853555007381,35.77508830316916],[139.58535291229708,35.77510262937719],[139.5852614745201,35.77509162454379],[139.5852626001798,35.77508531738037],[139.58524723179335,35.775083392833764],[139.58524880603835,35.77507510361472],[139.585244051651,35.77507455299427],[139.5852581187584,35.77499688520627]]]}},{"type":"Feature","properties":{"height":5.4,"gml_id":"bldg_0213549f-aff8-4f5c-ab34-8791c4c06fd6"},"geometry":{"type":"Polygon","coordinates":[[[139.5874048727741,35.776007116259564],[139.58743959215886,35.77601088280708],[139.58743044562007,35.77607170556458],[139.587409213954,35.77607003971193],[139.5874048727741,35.776007116259564]]]}},{"type":"Feature","properties":{"height":5.8,"gml_id":"bldg_e845e096-4de0-4693-9c5e-168229648119"},"geometry":{"type":"Polygon","coordinates":[[[139.58743575589565,35.776071355880276],[139.5874435421164,35.77602125646503],[139.58750280972677,35.77602723643415],[139.58749513359527,35.776077516349304],[139.58743575589565,35.776071355880276]]]}},{"type":"Feature","properties":{"height":8.5,"gml_id":"bldg_eac993a0-1da7-4559-ae93-65de809cb54a"},"geometry":{"type":"Polygon","coordinates":[[[139.58542333043172,35.7751150329823],[139.5854355996971,35.77504637501827],[139.58554218546206,35.77505903336957],[139.58552991628622,35.77512769134468],[139.58542333043172,35.7751150329823]]]}},{"type":"Feature","properties":{"height":6.7,"gml_id":"bldg_747c3158-6aef-4dd8-b433-e0667d15d502"},"geometry":{"type":"Polygon","coordinates":[[[139.5845362387034,35.77508715194998],[139.58447243941302,35.775080440058595],[139.58447345424773,35.775074222808854],[139.5844141881418,35.77506806107976],[139.58441554154146,35.775059681279174],[139.58435671787566,35.775053520437496],[139.58437386688993,35.77494548346955],[139.5844387715626,35.77495237797179],[139.58443820785854,35.77495580195435],[139.58449813723865,35.77496205517941],[139.5844958807472,35.77497629192031],[139.58455282462543,35.77498226853443],[139.5845362387034,35.77508715194998]]]}},{"type":"Feature","properties":{"height":5.2,"gml_id":"bldg_9248c55c-8811-4cff-9912-5b74f2c6914b"},"geometry":{"type":"Polygon","coordinates":[[[139.58741692265446,35.77561405999271],[139.58742388796784,35.77557910166054],[139.58746833419613,35.77558496120451],[139.5874614792312,35.77562000990033],[139.58741692265446,35.77561405999271]]]}},{"type":"Feature","properties":{"height":9.4,"gml_id":"bldg_245ebf8c-2b86-4fbd-8512-0ead032721e3"},"geometry":{"type":"Polygon","coordinates":[[[139.58564275715503,35.77508501929526],[139.58565177448477,35.77503059602097],[139.58571004464767,35.77503693536076],[139.5857085791012,35.775045855758336],[139.58586591919112,35.775063125089005],[139.58586569378951,35.775064476657796],[139.58587465037883,35.775065306306665],[139.5858672138018,35.77510936726722],[139.5858584781409,35.77510862820791],[139.58564275715503,35.77508501929526]]]}},{"type":"Feature","properties":{"height":2.6,"gml_id":"bldg_beee0d2e-b773-4361-8ff4-5b3dfdf5bd41"},"geometry":{"type":"Polygon","coordinates":[[[139.58727688234111,35.77529451360792],[139.5873138124303,35.775298645256576],[139.58730919482124,35.77532549619115],[139.58727237532648,35.775321364767336],[139.58727688234111,35.77529451360792]]]}},{"type":"Feature","properties":{"height":7.3,"gml_id":"bldg_cd2ff02a-c897-49f3-ad3c-a7b2fb67f875"},"geometry":{"type":"Polygon","coordinates":[[[139.58482822292441,35.77519961378724],[139.58486050708973,35.775203826724535],[139.5848397167927,35.77530924230534],[139.58476740929217,35.77529971878982],[139.58478673627366,35.77520250252803],[139.58482653858772,35.77520772250204],[139.58482822292441,35.77519961378724]]]}},{"type":"Feature","properties":{"height":4.4,"gml_id":"bldg_20422912-7eb1-478e-aeb1-43bd292cbce1"},"geometry":{"type":"Polygon","coordinates":[[[139.58747750577982,35.77623458647856],[139.58741204619943,35.776227872751555],[139.58743517815836,35.77607937675799],[139.5874984260213,35.77608590568038],[139.58749109308002,35.77613249074108],[139.58750922719398,35.77613433051885],[139.5875014423902,35.77618397926291],[139.5874857410811,35.77618232472815],[139.58747750577982,35.77623458647856]]]}},{"type":"Feature","properties":{"height":7.0,"gml_id":"bldg_1f4c2300-b6cf-4714-95a1-9df2921d06a5"},"geometry":{"type":"Polygon","coordinates":[[[139.58726649906905,35.77572083328959],[139.5872764041116,35.77566514981652],[139.58733113322384,35.775672202210465],[139.5873169138099,35.7757640211976],[139.5872920369115,35.77576081556408],[139.58726649906905,35.77572083328959]]]}},{"type":"Feature","properties":{"height":7.9,"gml_id":"bldg_b5a759f1-6d66-42a6-b111-ef3f22343f8b"},"geometry":{"type":"Polygon","coordinates":[[[139.58519253905988,35.775278423364036],[139.5850944719997,35.77526506120244],[139.58510985731917,35.77519037062705],[139.58515839335192,35.77519696054943],[139.5851594047739,35.77519182491292],[139.5852089357092,35.77519859713893],[139.58519253905988,35.775278423364036]]]}},{"type":"Feature","properties":{"height":7.0,"gml_id":"bldg_ba7b2b54-7aae-48b8-8132-2e4d976940d5"},"geometry":{"type":"Polygon","coordinates":[[[139.58553257210124,35.775234236981845],[139.5855875267257,35.77523975833002],[139.58558831942412,35.77523381101979],[139.58561750918017,35.77523720615999],[139.58558957998613,35.77539795036473],[139.58550444278066,35.77538813045619],[139.58553257210124,35.775234236981845]]]}},{"type":"Feature","properties":{"height":6.4,"gml_id":"bldg_28f37a41-0117-47b8-b794-a3615137c9b5"},"geometry":{"type":"Polygon","coordinates":[[[139.58728320424044,35.775109388210865],[139.58730864171665,35.77500235926533],[139.58738835043505,35.775014960996565],[139.5873629130614,35.77512198995914],[139.58728320424044,35.775109388210865]]]}},{"type":"Feature","properties":{"height":6.7,"gml_id":"bldg_3f3c24aa-3d69-41e3-9d9b-e6350c063648"},"geometry":{"type":"Polygon","coordinates":[[[139.5854450489123,35.775173575691504],[139.58543749644582,35.775219258824386],[139.585383206604,35.775213378236245],[139.5853895208851,35.775174632987856],[139.58540699109324,35.77517647171368],[139.58540811870122,35.77516953360447],[139.5854450489123,35.775173575691504]]]}},{"type":"Feature","properties":{"height":8.1,"gml_id":"bldg_2b5ba1d8-3c6c-4a9c-a840-e7617e360460"},"geometry":{"type":"Polygon","coordinates":[[[139.58491142428346,35.77508495304655],[139.5849007089379,35.77515172132016],[139.58477067826541,35.77513784218601],[139.58478139399816,35.77507098378934],[139.58491142428346,35.77508495304655]]]}},{"type":"Feature","properties":{"height":6.9,"gml_id":"bldg_7e4d15dc-dead-4167-95a1-74fe947dd95a"},"geometry":{"type":"Polygon","coordinates":[[[139.58504293353414,35.77515688234507],[139.5849397821226,35.775142427934604],[139.58495112042613,35.77508873059196],[139.5849593016434,35.77508991924963],[139.58496132198724,35.77508045919416],[139.58501638006516,35.775088234404436],[139.58501613082873,35.775097247440186],[139.58505483264724,35.77510066235634],[139.58504293353414,35.77515688234507]]]}},{"type":"Feature","properties":{"height":7.4,"gml_id":"bldg_4c85e7cf-a520-4801-8f85-14c47fc46e83"},"geometry":{"type":"Polygon","coordinates":[[[139.5873266430778,35.775765393132005],[139.58734196605286,35.77567438762046],[139.5873898419799,35.775679983801986],[139.58738535330042,35.77570088605848],[139.58741033829324,35.77570490311324],[139.58740054755432,35.7757594150694],[139.58736682568843,35.775755019602286],[139.58736379376887,35.77576979562315],[139.5873266430778,35.775765393132005]]]}},{"type":"Feature","properties":{"height":8.8,"gml_id":"bldg_29ce6a93-7554-4eb8-ae41-abdf914ab69f"},"geometry":{"type":"Polygon","coordinates":[[[139.5851020437668,35.775177645394166],[139.58511352954986,35.775112050454254],[139.58517975945892,35.775119668375986],[139.58518268675164,35.77510308948335],[139.58522613960952,35.77510813658641],[139.58521183723704,35.7751903106589],[139.5851020437668,35.775177645394166]]]}},{"type":"Feature","properties":{"height":8.0,"gml_id":"bldg_96ae45c9-2942-4db2-9858-acb77b964252"},"geometry":{"type":"Polygon","coordinates":[[[139.58685246705787,35.775084440023186],[139.58683601977498,35.775181211848476],[139.58681633851705,35.775179008256046],[139.58667912277411,35.77516358415317],[139.58669557052156,35.77506672221486],[139.58685246705787,35.775084440023186]]]}},{"type":"Feature","properties":{"height":4.9,"gml_id":"bldg_904efb0e-cdbb-44c4-89a6-c49e2c4ddd5a"},"geometry":{"type":"Polygon","coordinates":[[[139.58484869912712,35.775195149320254],[139.58476719905747,35.77518957277337],[139.5847707366956,35.77515460751019],[139.58485223701027,35.775160093919645],[139.58484869912712,35.775195149320254]]]}},{"type":"Feature","properties":{"height":1.8,"gml_id":"bldg_2e3f52be-cfe6-4a9d-9ff0-00cdf0be2104"},"geometry":{"type":"Polygon","coordinates":[[[139.58732742908188,35.77533067121477],[139.58733404593178,35.77530112030373],[139.5873560463633,35.77530450031644],[139.58734931891468,35.77533405100247],[139.58732742908188,35.77533067121477]]]}},{"type":"Feature","properties":{"height":6.9,"gml_id":"bldg_6cc63403-63c0-475b-9733-1408e3dc5f1c"},"geometry":{"type":"Polygon","coordinates":[[[139.58744386902157,35.775915077519436],[139.58745555866724,35.775854530365095],[139.58750066869504,35.77586039125423],[139.58749887067844,35.77586958139964],[139.58755039372485,35.77587617646282],[139.58754072725975,35.77592627204363],[139.58752016149373,35.775923886487554],[139.5875192627633,35.77592839142544],[139.58747049876655,35.77592378497031],[139.58747062546766,35.77591855737053],[139.58744386902157,35.775915077519436]]]}},{"type":"Feature","properties":{"height":7.9,"gml_id":"bldg_1f0863c8-79f1-4924-b161-d02118868009"},"geometry":{"type":"Polygon","coordinates":[[[139.58742469458141,35.77528120546996],[139.58743912916742,35.77519127974792],[139.58749231391946,35.77519688674277],[139.58748949493423,35.77521436726874],[139.58753803562198,35.77521951407254],[139.58752653072975,35.775291959506006],[139.58742469458141,35.77528120546996]]]}},{"type":"Feature","properties":{"height":6.5,"gml_id":"bldg_ef255a7f-cd81-4ab0-97c0-20c1f0742e59"},"geometry":{"type":"Polygon","coordinates":[[[139.58545897300434,35.77517757035269],[139.58551945566558,35.77518382420939],[139.5855139263195,35.77521914593298],[139.58545344391172,35.77521280193851],[139.58545897300434,35.77517757035269]]]}},{"type":"Feature","properties":{"height":6.0,"gml_id":"bldg_7f426547-cfe2-40ca-9cec-801cc37b8b4e"},"geometry":{"type":"Polygon","coordinates":[[[139.58546529843508,35.77513521970284],[139.58552898025795,35.77514418421327],[139.58552190774353,35.77517779018326],[139.58545811556812,35.77516873530614],[139.58546529843508,35.77513521970284]]]}},{"type":"Feature","properties":{"height":8.7,"gml_id":"bldg_9c2fc7ea-6a62-48ad-9955-f12ec6b7ee33"},"geometry":{"type":"Polygon","coordinates":[[[139.58526956595074,35.77522855706287],[139.58522224767998,35.77522160915559],[139.5852405335544,35.775138902486745],[139.585332074432,35.77515234120727],[139.58533532735586,35.77513774596351],[139.5853712581739,35.775143047909424],[139.58535454247283,35.77521881740224],[139.5853173955112,35.77521333267239],[139.58531448559629,35.77522432320273],[139.58527291465825,35.77521873920021],[139.58526956595074,35.77522855706287]]]}},{"type":"Feature","properties":{"height":10.1,"gml_id":"bldg_ad59b162-5d7a-481b-beea-78bd0e36b8c1"},"geometry":{"type":"Polygon","coordinates":[[[139.58554738846195,35.775200196289035],[139.58556441830254,35.775094412293],[139.58572120710105,35.7751111398642],[139.58570643374753,35.77520268711913],[139.58562483278482,35.775193956202955],[139.58562246560132,35.77520828287233],[139.58554738846195,35.775200196289035]]]}},{"type":"Feature","properties":{"height":9.3,"gml_id":"bldg_a06659d3-65db-4e70-a150-ea272838ad5a"},"geometry":{"type":"Polygon","coordinates":[[[139.58631617135967,35.77525117202215],[139.5861424977245,35.77525775561836],[139.58615467894168,35.77518161615359],[139.58608645713352,35.77517426508009],[139.58609085728,35.77514633211943],[139.58633090583442,35.77517197317613],[139.58631617135967,35.77525117202215]]]}},{"type":"Feature","properties":{"height":2.4,"gml_id":"bldg_f3d848bb-c0e7-4e32-832f-b3d79df6b3b7"},"geometry":{"type":"Polygon","coordinates":[[[139.5873267762087,35.77539899259172],[139.58729072398398,35.7753971161306],[139.5872929104788,35.77536953913948],[139.58732896269112,35.77537141559993],[139.5873267762087,35.77539899259172]]]}},{"type":"Feature","properties":{"height":8.6,"gml_id":"bldg_760f22cd-eed2-4241-81f8-7b17f201c985"},"geometry":{"type":"Polygon","coordinates":[[[139.58641994373497,35.7750648947566],[139.58645399846773,35.77506884049482],[139.58645164035255,35.77508028286353],[139.5864684449778,35.77508275101742],[139.58650139059404,35.77508768595618],[139.58652011092855,35.775114494621434],[139.58654315661965,35.77513752646826],[139.5865718719316,35.77515128598653],[139.58656753660856,35.7751940914565],[139.58642763845523,35.775223458908876],[139.58635787032523,35.775215383730625],[139.58638467289475,35.775060766240635],[139.58641994373497,35.7750648947566]]]}},{"type":"Feature","properties":{"height":7.5,"gml_id":"bldg_b8cd3657-1ed0-46fe-ac62-c8cb05bb9b36"},"geometry":{"type":"Polygon","coordinates":[[[139.58561354084293,35.77530416866436],[139.58563322517233,35.775305380969385],[139.5856405069344,35.77523995759207],[139.58564073513568,35.77523770467449],[139.58566307092923,35.7752399139259],[139.5856647535047,35.77523234600868],[139.5857077618029,35.77523811310632],[139.58570877123387,35.77523360840957],[139.5857354190029,35.77523636733872],[139.58573416935923,35.77524700075536],[139.58573826040106,35.77524745985528],[139.58572698319003,35.77531729165232],[139.58573992024506,35.77531858018376],[139.58573382957073,35.77535660482626],[139.58572078246192,35.775355135796566],[139.5857137895961,35.775398746981345],[139.58572562087684,35.775399943102094],[139.5857226805516,35.775420758349],[139.5856070317959,35.775405737966636],[139.585607723673,35.77539663570625],[139.5856016425431,35.77539590209607],[139.58561354084293,35.77530416866436]]]}}]}