{"type":"FeatureCollection","crs":{"type":"name","properties":{"name":"urn:ogc:def:crs:OGC:1.3:CRS84"}},"features":[{"type":"Feature","properties":{"height":7.6,"gml_id":"bldg_e2b4767b-4af3-45de-b794-e2f25f61a502"},"geometry":{"type":"Polygon","coordinates":[[[139.574568048053,35.76759856851576],[139.57456196072587,35.76753167480909],[139.57462589758006,35.767527936519606],[139.5746322079033,35.76759428988926],[139.574568048053,35.76759856851576]]]}},{"type":"Feature","properties":{"height":6.3,"gml_id":"bldg_e1f8279d-5736-46e8-9ca2-5381f5e551fd"},"geometry":{"type":"Polygon","coordinates":[[[139.57483926228076,35.76734956624222],[139.57484192305157,35.767381750368656],[139.57481769826765,35.76738305033782],[139.574818978747,35.76739747478541],[139.57483269492178,35.7673967831804],[139.57483577853324,35.76743500730041],[139.57477482930105,35.76743830144622],[139.57476780450565,35.76735346874886],[139.57483926228076,35.76734956624222]]]}},{"type":"Feature","properties":{"height":7.3,"gml_id":"bldg_b7ef6590-30c2-45ec-a61c-87315c6f6ce4"},"geometry":{"type":"Polygon","coordinates":[[[139.5745860024556,35.7680649686805],[139.57451776125353,35.7680658133466],[139.57451662273687,35.76800758330814],[139.57452779355106,35.76800742707444],[139.57452835967268,35.768003372191195],[139.57457557875986,35.768005186362124],[139.5745768837281,35.76801203947417],[139.57458484724881,35.76801187633508],[139.5745860024556,35.7680649686805]]]}},{"type":"Feature","properties":{"height":7.6,"gml_id":"bldg_1c313615-bf66-42ee-ac77-817412a7b9b7"},"geometry":{"type":"Polygon","coordinates":[[[139.5747321735121,35.767940174851866],[139.57480551574187,35.76793510465575],[139.57481130593087,35.7679913617081],[139.57473796394157,35.76799634177254],[139.5747321735121,35.767940174851866]]]}},{"type":"Feature","properties":{"height":7.1,"gml_id":"bldg_a910045f-f64d-4acf-baef-4d0e5f3af656"},"geometry":{"type":"Polygon","coordinates":[[[139.57463853808395,35.767654514080334],[139.57464332343315,35.767713653320804],[139.57462241700733,35.76771478011624],[139.57462486351537,35.76774480053033],[139.57457375883257,35.76774757493479],[139.57456641645177,35.76765841503874],[139.57463853808395,35.767654514080334]]]}},{"type":"Feature","properties":{"height":6.4,"gml_id":"bldg_172609fc-9a52-4d8c-b8af-e2a7b76e6f77"},"geometry":{"type":"Polygon","coordinates":[[[139.57459036606232,35.767946990584875],[139.5746725422904,35.767946175846234],[139.574673004219,35.76797429914293],[139.57466371383848,35.767974369298685],[139.57466398638266,35.76799266740902],[139.57459110019752,35.76799350212714],[139.57459036606232,35.767946990584875]]]}},{"type":"Feature","properties":{"height":6.7,"gml_id":"bldg_de781a0a-77ad-4483-817b-43166eac33ed"},"geometry":{"type":"Polygon","coordinates":[[[139.57413841320474,35.76806571753376],[139.57416399388882,35.76798744483379],[139.5742237858556,35.76800010250437],[139.5742004335273,35.76807333242522],[139.57417943102485,35.768069952157155],[139.57417654119044,35.76807436257415],[139.57413841320474,35.76806571753376]]]}},{"type":"Feature","properties":{"height":7.7,"gml_id":"bldg_81636cb1-5cc0-4d95-9ba0-3212c0f2552e"},"geometry":{"type":"Polygon","coordinates":[[[139.57498943085534,35.76745868254936],[139.57499448149434,35.76753846339926],[139.57492236289852,35.767541463221995],[139.57491731233137,35.76746168236939],[139.57498943085534,35.76745868254936]]]}},{"type":"Feature","properties":{"height":7.0,"gml_id":"bldg_203c0f1a-fd5f-4feb-9f40-5a8898428d87"},"geometry":{"type":"Polygon","coordinates":[[[139.57471191215362,35.76763952909387],[139.574775189305,35.76763461754405],[139.57478617137346,35.767726939997786],[139.57472278326182,35.7677319414502],[139.57471191215362,35.76763952909387]]]}},{"type":"Feature","properties":{"height":8.6,"gml_id":"bldg_0a892f5c-1e92-41f0-8e3c-8a9d98aefebd"},"geometry":{"type":"Polygon","coordinates":[[[139.57434186972205,35.767942309515576],[139.57434221628097,35.767835409454676],[139.57443356865872,35.76783560612921],[139.57443331481954,35.76791393340898],[139.57443994416587,35.767915930661715],[139.5744398579969,35.76794252047452],[139.57434186972205,35.767942309515576]]]}},{"type":"Feature","properties":{"height":6.8,"gml_id":"bldg_3245cde6-1123-4114-a5f5-f0d237c4a359"},"geometry":{"type":"Polygon","coordinates":[[[139.574947683553,35.76774846894119],[139.5749447031846,35.767712498437504],[139.57501826346996,35.767708329935374],[139.57502124357993,35.76774439057236],[139.574947683553,35.76774846894119]]]}},{"type":"Feature","properties":{"height":8.3,"gml_id":"bldg_7c40eec3-072d-4713-bc7b-59e22ec7b016"},"geometry":{"type":"Polygon","coordinates":[[[139.57491008592436,35.76733655863528],[139.57490175843216,35.76727831314665],[139.57493848803514,35.76727469650003],[139.57493762251352,35.76726874569111],[139.57497324528293,35.7672653970628],[139.5749825489469,35.76732959359298],[139.57491008592436,35.76733655863528]]]}},{"type":"Feature","properties":{"height":7.9,"gml_id":"bldg_df202ba5-4aa2-4e6f-a0c4-13fd6c635736"},"geometry":{"type":"Polygon","coordinates":[[[139.57473568127867,35.76723234757999],[139.57474831082644,35.76736235026478],[139.5746912365725,35.76736439080085],[139.57468147879683,35.767269727440436],[139.57465692517698,35.767270125314184],[139.57459485759912,35.76724313140305],[139.57459304140937,35.76722338780008],[139.57463581961375,35.76719616873058],[139.57473568127867,35.76723234757999]]]}},{"type":"Feature","properties":{"height":7.4,"gml_id":"bldg_65979c0b-df53-4960-bdbd-2856650f944e"},"geometry":{"type":"Polygon","coordinates":[[[139.57414166578565,35.76784723588173],[139.57420269583653,35.76785322619737],[139.57419579802388,35.7678999015705],[139.57420165786758,35.76790045500904],[139.57419419332717,35.767951365533285],[139.57412730335557,35.76794482177122],[139.57414166578565,35.76784723588173]]]}},{"type":"Feature","properties":{"height":8.0,"gml_id":"bldg_96fb71cb-640e-4f63-b02a-951e41ef797e"},"geometry":{"type":"Polygon","coordinates":[[[139.57443800520247,35.76742216371881],[139.57443927170124,35.767406753258165],[139.57440443966746,35.76740496570141],[139.57440582436328,35.76738721197005],[139.5743939926921,35.76738655554953],[139.5743960707611,35.767359609480216],[139.57444328741988,35.76736205464645],[139.57444374615858,35.76735700804048],[139.57450445312506,35.76736020330387],[139.57450422258955,35.76736308714685],[139.57453584792344,35.767364687503736],[139.57453145988333,35.76742191416525],[139.57448656540024,35.76741956416673],[139.5744862172594,35.76742461101083],[139.57443800520247,35.76742216371881]]]}},{"type":"Feature","properties":{"height":2.6,"gml_id":"bldg_590b74fd-5317-40bd-b678-99f597b57052"},"geometry":{"type":"Polygon","coordinates":[[[139.5745619597549,35.76667836108122],[139.5745418487824,35.766672999811085],[139.57454876140554,35.7666557987833],[139.57456887237421,35.76666116005228],[139.5745619597549,35.76667836108122]]]}},{"type":"Feature","properties":{"height":6.5,"gml_id":"bldg_fbef54a1-543e-4979-84ea-90ba10436b9f"},"geometry":{"type":"Polygon","coordinates":[[[139.57479725571815,35.7676851409098],[139.57486926939268,35.76768042836069],[139.5748755872195,35.767744528342696],[139.57480346289157,35.767749240657544],[139.57479725571815,35.7676851409098]]]}},{"type":"Feature","properties":{"height":7.0,"gml_id":"bldg_385dbd42-69ce-4d7e-bbab-dd8c7fe1c6c8"},"geometry":{"type":"Polygon","coordinates":[[[139.5748568943291,35.767540060648535],[139.57478156290946,35.76754476605866],[139.57477739290832,35.767500500517784],[139.57485272428642,35.76749579511009],[139.5748568943291,35.767540060648535]]]}},{"type":"Feature","properties":{"height":7.2,"gml_id":"bldg_6ea4c459-e45e-4390-9ffa-b9db1623080e"},"geometry":{"type":"Polygon","coordinates":[[[139.57431372148488,35.76755042949125],[139.57423929993087,35.767547384860094],[139.57424174287536,35.76751025425824],[139.57424893071553,35.76751054014832],[139.57425150032674,35.767468452361214],[139.57429750224708,35.76747035415458],[139.5742968003881,35.76748216040582],[139.57431803182277,35.76748310748539],[139.57431372148488,35.76755042949125]]]}},{"type":"Feature","properties":{"height":7.5,"gml_id":"bldg_ef79745a-b43a-4c95-8bd3-2eb2d5a4d4a7"},"geometry":{"type":"Polygon","coordinates":[[[139.5748250032495,35.76799652887689],[139.5748219350816,35.76795352760717],[139.57489870172014,35.76794972661258],[139.57490134707973,35.7679866878876],[139.57488984302208,35.7679872941179],[139.5748863944163,35.767993506063185],[139.5748250032495,35.76799652887689]]]}},{"type":"Feature","properties":{"height":6.4,"gml_id":"bldg_ec5857d2-d8e8-4119-8034-a41a21bd9f71"},"geometry":{"type":"Polygon","coordinates":[[[139.57481983690744,35.76791837021812],[139.57481447685157,35.76786589978474],[139.5748515350175,35.76786336549889],[139.57485260831615,35.76787346299147],[139.57489165779836,35.76787075270152],[139.57489551825262,35.76790816726599],[139.57488191171197,35.76790912952029],[139.57487558994026,35.7679146142067],[139.57481983690744,35.76791837021812]]]}},{"type":"Feature","properties":{"height":7.2,"gml_id":"bldg_a8930577-3edb-4669-bb93-9cbf61a8ba8b"},"geometry":{"type":"Polygon","coordinates":[[[139.57481365537606,35.76784633859619],[139.57481254848923,35.76781244523531],[139.5748875361246,35.76781152476258],[139.57488875043185,35.76784640984514],[139.57482791702537,35.76784799168969],[139.5748282540636,35.76784636997346],[139.57481365537606,35.76784633859619]]]}},{"type":"Feature","properties":{"height":7.7,"gml_id":"bldg_88b91770-9218-4ec2-9942-a73022425104"},"geometry":{"type":"Polygon","coordinates":[[[139.5743255466757,35.76820123390174],[139.5742745563799,35.768202746526406],[139.57427393752036,35.76818895444926],[139.57425469166802,35.76818954394358],[139.5742517076942,35.76812067393005],[139.57425679571745,35.7681205046187],[139.57425659410904,35.76811446510029],[139.5742757290545,35.76811396550232],[139.5742864744498,35.76810858051087],[139.5743178870637,35.768107656670956],[139.5743181998577,35.76811351615754],[139.57432173923738,35.76811343364399],[139.5743255466757,35.76820123390174]]]}},{"type":"Feature","properties":{"height":7.1,"gml_id":"bldg_bb6580c1-3718-4816-87bd-440c5386434a"},"geometry":{"type":"Polygon","coordinates":[[[139.57470200082767,35.76752395395136],[139.57476594058687,35.76751931423772],[139.5747734637868,35.767586841970406],[139.57470952368217,35.767591571822756],[139.57470200082767,35.76752395395136]]]}},{"type":"Feature","properties":{"height":6.9,"gml_id":"bldg_cb7a6460-07c9-4b59-9cd9-65adc1250090"},"geometry":{"type":"Polygon","coordinates":[[[139.5742186809988,35.76793726700322],[139.57421887307106,35.76787804833618],[139.5742688625339,35.767878156019506],[139.5742688426581,35.767884285196665],[139.57431418708606,35.76788438285607],[139.57431401495674,35.76793747234637],[139.5742186809988,35.76793726700322]]]}},{"type":"Feature","properties":{"height":2.9,"gml_id":"bldg_452cd582-fa91-4548-a0a5-08db21837d55"},"geometry":{"type":"Polygon","coordinates":[[[139.57443923472408,35.767657059721394],[139.57438282762578,35.76765792978393],[139.57438225520465,35.767629806246944],[139.574438661991,35.76762902631957],[139.57443923472408,35.767657059721394]]]}},{"type":"Feature","properties":{"height":6.3,"gml_id":"bldg_957cbea4-abf5-45eb-a325-b84bf299dde3"},"geometry":{"type":"Polygon","coordinates":[[[139.57503200300368,35.76790566625052],[139.57495534700948,35.76790946756801],[139.57495152471628,35.76786024532514],[139.57499256754258,35.76785672806425],[139.57499188851762,35.76786150379202],[139.57502872286105,35.76785978019111],[139.57503200300368,35.76790566625052]]]}},{"type":"Feature","properties":{"height":8.6,"gml_id":"bldg_a3efe406-e54b-4e44-900a-d534e4f23d37"},"geometry":{"type":"Polygon","coordinates":[[[139.57480740160543,35.76724980779333],[139.57481008948596,35.767273609368644],[139.57482491305103,35.76727246946668],[139.57483168952606,35.767331522847506],[139.57478943128862,35.767334767034946],[139.57478835683798,35.76732503008083],[139.5747602583142,35.767327223067454],[139.57475186847387,35.767254105060836],[139.57480740160543,35.76724980779333]]]}},{"type":"Feature","properties":{"height":7.2,"gml_id":"bldg_00ea2a72-3183-438b-ae45-e070f9d858f0"},"geometry":{"type":"Polygon","coordinates":[[[139.5742336146992,35.768038611573196],[139.57424676172835,35.76797473376358],[139.57430247770958,35.767982425157655],[139.5742882063467,35.76805197909371],[139.57424056005442,35.76804547683922],[139.57423869540912,35.768040695636465],[139.5742336146992,35.768038611573196]]]}},{"type":"Feature","properties":{"height":6.2,"gml_id":"bldg_a3069a8a-f96e-4bc3-962e-ca9c29ddca58"},"geometry":{"type":"Polygon","coordinates":[[[139.57460642881628,35.7681779525095],[139.57460655696596,35.76813838326364],[139.5746469246959,35.768138470092346],[139.5746472637821,35.76813621743203],[139.57467612947326,35.76813627951211],[139.5746759940622,35.76817810213212],[139.57460642881628,35.7681779525095]]]}},{"type":"Feature","properties":{"height":7.6,"gml_id":"bldg_a8a6ee3c-1e23-4b69-8be3-cdf605b86aaf"},"geometry":{"type":"Polygon","coordinates":[[[139.57472691417448,35.76785660785326],[139.57472339346776,35.76781676035279],[139.57479164437336,35.76781285098034],[139.57479516540565,35.76785260834402],[139.57472691417448,35.76785660785326]]]}},{"type":"Feature","properties":{"height":8.0,"gml_id":"bldg_f69a0f96-f4b8-438f-b0f1-3a96c62a6d4b"},"geometry":{"type":"Polygon","coordinates":[[[139.57439161241263,35.76754086256254],[139.57446051352846,35.767541010878894],[139.57446028250007,35.76761230763553],[139.57442024682393,35.7676122214595],[139.57442031050542,35.76759257203747],[139.57439144501134,35.76759250989681],[139.57439161241263,35.76754086256254]]]}},{"type":"Feature","properties":{"height":7.8,"gml_id":"bldg_49e701c5-5247-43a5-b66e-35fd6bbc214b"},"geometry":{"type":"Polygon","coordinates":[[[139.57448055066305,35.767739893119],[139.5744807945246,35.767664630425394],[139.5745590963961,35.767664798916904],[139.57455884238962,35.76774321633466],[139.5745194702234,35.76774313161906],[139.5745164943525,35.76773997046981],[139.57448055066305,35.767739893119]]]}},{"type":"Feature","properties":{"height":7.2,"gml_id":"bldg_91dde7e8-0875-4c9f-9a0d-af2485d725be"},"geometry":{"type":"Polygon","coordinates":[[[139.57458764766454,35.76786433040261],[139.5746220448157,35.767863863581425],[139.5746221308929,35.76787143515603],[139.57466725645725,35.767870811126826],[139.57466832067442,35.76791786419272],[139.57458890850504,35.76791895528153],[139.57458764766454,35.76786433040261]]]}},{"type":"Feature","properties":{"height":7.2,"gml_id":"bldg_b0d6fe97-1cf8-4474-a1d2-7440994b5a97"},"geometry":{"type":"Polygon","coordinates":[[[139.57479227419336,35.767652410981874],[139.57478509442714,35.767581278565565],[139.5748592104943,35.76757620999917],[139.57486650092196,35.767647342649056],[139.57479227419336,35.767652410981874]]]}},{"type":"Feature","properties":{"height":7.0,"gml_id":"bldg_ce5e0165-7b08-429a-a99b-11d9133c30e3"},"geometry":{"type":"Polygon","coordinates":[[[139.57482311924667,35.76813443227459],[139.57475143870025,35.76813860469755],[139.5747473851184,35.768092536698525],[139.5748190656237,35.76808836427781],[139.57482311924667,35.76813443227459]]]}},{"type":"Feature","properties":{"height":9.1,"gml_id":"bldg_2282bb27-94bb-4279-bf01-503bbb05a2cd"},"geometry":{"type":"Polygon","coordinates":[[[139.57469307321668,35.76741198634508],[139.57475447123215,35.76740671022235],[139.57476342457028,35.76747658455697],[139.57470213709726,35.76748186092179],[139.57469307321668,35.76741198634508]]]}},{"type":"Feature","properties":{"height":7.7,"gml_id":"bldg_0e6f109a-90ea-4f80-bdd4-8ec5908bc7ac"},"geometry":{"type":"Polygon","coordinates":[[[139.57456392503454,35.767983709020506],[139.57451526178414,35.76798387472027],[139.57451489744363,35.76792564634693],[139.57458214140826,35.767925340350324],[139.57458252185435,35.76797861130095],[139.57456548973244,35.76797866479401],[139.57456392503454,35.767983709020506]]]}},{"type":"Feature","properties":{"height":7.3,"gml_id":"bldg_05192523-fc4b-4f26-a946-bca7b4ea7ea0"},"geometry":{"type":"Polygon","coordinates":[[[139.57446022194162,35.767665126962],[139.57446692837476,35.76774572261439],[139.57438861181683,35.76775006081059],[139.5743819054624,35.76766946515423],[139.57446022194162,35.767665126962]]]}},{"type":"Feature","properties":{"height":7.5,"gml_id":"bldg_9560d3c2-5119-451b-a4d6-5742dfa11ee8"},"geometry":{"type":"Polygon","coordinates":[[[139.5740874348816,35.76765458938482],[139.5740877745664,35.76765215645602],[139.57407671819973,35.76765114113299],[139.57407943802033,35.76763095662318],[139.57408850424457,35.767631787385234],[139.5740931492327,35.76759772614343],[139.57421101011602,35.767608525983334],[139.57420319511127,35.767665204433456],[139.5740874348816,35.76765458938482]]]}},{"type":"Feature","properties":{"height":6.8,"gml_id":"bldg_16a73182-b0aa-420e-a271-959726e160d9"},"geometry":{"type":"Polygon","coordinates":[[[139.57494054835018,35.767697707274564],[139.5749353642325,35.76765920823938],[139.57501324674246,35.76765225482243],[139.5750184308973,35.767690753854474],[139.57494054835018,35.767697707274564]]]}},{"type":"Feature","properties":{"height":7.3,"gml_id":"bldg_e956332c-ee34-4424-a6a1-daee3b8f200d"},"geometry":{"type":"Polygon","coordinates":[[[139.57430325894083,35.7676732617711],[139.57429944807643,35.767757079662886],[139.57421573451376,35.767754555818264],[139.57421965606167,35.76767073816772],[139.57430325894083,35.7676732617711]]]}},{"type":"Feature","properties":{"height":7.8,"gml_id":"bldg_23bd50a5-41b5-44b4-a44c-ee7767e4c2a4"},"geometry":{"type":"Polygon","coordinates":[[[139.5744982546942,35.767532439086715],[139.574552668645,35.76753228576628],[139.57455579084134,35.76762684472078],[139.57452283328956,35.76762677380741],[139.57452130188437,35.767621542647774],[139.57448834375077,35.76762165199489],[139.57448660126198,35.76754503299108],[139.5744982176066,35.76754388622728],[139.5744982546942,35.767532439086715]]]}},{"type":"Feature","properties":{"height":9.0,"gml_id":"bldg_86a510c3-a00e-4058-a842-6aa96014545b"},"geometry":{"type":"Polygon","coordinates":[[[139.57500402314358,35.76763168409719],[139.57492913927672,35.76763476812008],[139.57492661442322,35.76759474249222],[139.57496001901004,35.767593372085734],[139.57495886571405,35.7675738101844],[139.57500012375502,35.76757209609467],[139.57500402314358,35.76763168409719]]]}},{"type":"Feature","properties":{"height":7.3,"gml_id":"bldg_e9590430-0da3-479d-87fb-425f449b2452"},"geometry":{"type":"Polygon","coordinates":[[[139.57414719120374,35.76767815342325],[139.57420412790867,35.76768449545954],[139.5742025500375,35.76769359575473],[139.57420675121995,35.76769405548388],[139.5741929898278,35.767776860442225],[139.57413185187195,35.767770058668866],[139.57414719120374,35.76767815342325]]]}},{"type":"Feature","properties":{"height":7.0,"gml_id":"bldg_281f8dbe-5d56-454c-881b-edc8a8c3eab1"},"geometry":{"type":"Polygon","coordinates":[[[139.5747750870277,35.76749535783197],[139.57477093657775,35.767445053247656],[139.57485046295267,35.76744270038473],[139.5748526224396,35.76749309082335],[139.5747750870277,35.76749535783197]]]}},{"type":"Feature","properties":{"height":6.6,"gml_id":"bldg_3df3041f-bb69-4a86-ac04-1fb5abf7424e"},"geometry":{"type":"Polygon","coordinates":[[[139.57481761556735,35.76805798546859],[139.5747507966636,35.76806361051003],[139.57474497325222,35.76801762884099],[139.57481179211788,35.76801200380258],[139.57481761556735,35.76805798546859]]]}},{"type":"Feature","properties":{"height":7.0,"gml_id":"bldg_3243c130-2898-4812-9c18-2c0831c6181a"},"geometry":{"type":"Polygon","coordinates":[[[139.5747288713511,35.76786697765413],[139.57479756118363,35.76786415084924],[139.57480092291243,35.767918960513285],[139.57473223274113,35.76792187745483],[139.5747288713511,35.76786697765413]]]}},{"type":"Feature","properties":{"height":7.4,"gml_id":"bldg_f9d24423-b05e-4444-a352-9a15eec6e2f0"},"geometry":{"type":"Polygon","coordinates":[[[139.57485475902664,35.7682000288443],[139.57485049002193,35.76815215767445],[139.57492084312574,35.76814807247609],[139.57492212684227,35.768161505436325],[139.57494148502934,35.768160375263],[139.5749444703678,35.76819481346986],[139.57485475902664,35.7682000288443]]]}},{"type":"Feature","properties":{"height":7.3,"gml_id":"bldg_f08763d5-1ed6-4887-89c9-4c8086293ae3"},"geometry":{"type":"Polygon","coordinates":[[[139.57421438979028,35.76786226494978],[139.574214634196,35.76778691212434],[139.57429935075552,35.767787094604586],[139.57429910642966,35.76786244743051],[139.57421438979028,35.76786226494978]]]}},{"type":"Feature","properties":{"height":7.1,"gml_id":"bldg_06a73e70-d22b-4cba-84bc-22a9bd50bef8"},"geometry":{"type":"Polygon","coordinates":[[[139.5744244822621,35.76818224803456],[139.57441888326318,35.76810120409169],[139.57445405878147,35.76809947709614],[139.57445628667276,35.768128685820834],[139.5744880331267,35.768127131705945],[139.5744918463847,35.76817905800887],[139.5744244822621,35.76818224803456]]]}},{"type":"Feature","properties":{"height":7.4,"gml_id":"bldg_6af60c4d-a0ac-4865-b18f-30a79a3aaeea"},"geometry":{"type":"Polygon","coordinates":[[[139.57410689539546,35.76816723241172],[139.5741232399016,35.76810642611844],[139.57418458585704,35.768117374581344],[139.57417048022788,35.76816989323349],[139.5741593164085,35.76816788619504],[139.57414889810752,35.76817471404923],[139.57410689539546,35.76816723241172]]]}},{"type":"Feature","properties":{"height":7.3,"gml_id":"bldg_d58ab017-4fb9-47a8-9e2e-8be574923e89"},"geometry":{"type":"Polygon","coordinates":[[[139.5745629357606,35.767469663618094],[139.57455425050378,35.76738536815028],[139.5746128792423,35.767381438175526],[139.57462017001762,35.76745239057172],[139.57461386198355,35.76745363890143],[139.57461503796137,35.76746617027868],[139.5745629357606,35.767469663618094]]]}},{"type":"Feature","properties":{"height":7.4,"gml_id":"bldg_eb3792d9-5054-4ecd-a11e-1354da558a95"},"geometry":{"type":"Polygon","coordinates":[[[139.57438387778237,35.768050472532465],[139.57438409018434,35.76798494441876],[139.57444690888624,35.767985079648334],[139.57444674034957,35.76803708751882],[139.57443855621756,35.76803706990271],[139.5744385124024,35.768050590146245],[139.57438387778237,35.768050472532465]]]}},{"type":"Feature","properties":{"height":7.6,"gml_id":"bldg_a872983d-b5fb-4771-af16-b8d1d29cbb13"},"geometry":{"type":"Polygon","coordinates":[[[139.57457483422613,35.767893596903114],[139.57451831928577,35.76789356544093],[139.57451843090846,35.76782497249817],[139.57457494580026,35.7678250039601],[139.57457483422613,35.767893596903114]]]}},{"type":"Feature","properties":{"height":7.0,"gml_id":"bldg_60a797b5-d922-4b75-b495-0bf6735d5b37"},"geometry":{"type":"Polygon","coordinates":[[[139.57459514088276,35.768009374682805],[139.5746704631202,35.76800764384532],[139.57467315768668,35.76806353370372],[139.57459706151357,35.76806517274229],[139.57459514088276,35.768009374682805]]]}},{"type":"Feature","properties":{"height":7.1,"gml_id":"bldg_b463191a-05db-4b7c-adf7-f6a81540231e"},"geometry":{"type":"Polygon","coordinates":[[[139.57458954998552,35.76785748419024],[139.57458969186266,35.76781367859909],[139.57461988458996,35.767813743547215],[139.57461985977898,35.76782140501897],[139.57465679887025,35.767821484469025],[139.57465668183738,35.76785762858862],[139.57458954998552,35.76785748419024]]]}},{"type":"Feature","properties":{"height":7.1,"gml_id":"bldg_3de44407-e0fd-428b-aecd-b011c7c79882"},"geometry":{"type":"Polygon","coordinates":[[[139.57422714491548,35.76764641769129],[139.57423201064935,35.76757837580147],[139.5743077567507,35.76758223451003],[139.57430399966972,35.767649467570294],[139.57422714491548,35.76764641769129]]]}},{"type":"Feature","properties":{"height":7.9,"gml_id":"bldg_6713bdf4-3bac-4f39-85ec-0964bb373cee"},"geometry":{"type":"Polygon","coordinates":[[[139.5749962459717,35.76743742518678],[139.57495221815557,35.76744066563047],[139.57495146555885,35.76743399397961],[139.57492237164104,35.76743618486567],[139.57491968547117,35.767411842483554],[139.5749077382397,35.767412718170405],[139.57490225735754,35.76736340222278],[139.57498732624504,35.767357095211565],[139.5749962459717,35.76743742518678]]]}},{"type":"Feature","properties":{"height":7.3,"gml_id":"bldg_9a707411-d4c0-4483-babe-c2e9e6d41bd0"},"geometry":{"type":"Polygon","coordinates":[[[139.57439592544017,35.767438567948815],[139.574550409906,35.76744430856646],[139.57454852826038,35.76747891658633],[139.5745017506992,35.76747746389777],[139.57450092454962,35.76749350625568],[139.57445403755358,35.767491692770676],[139.57445417969356,35.767481958432455],[139.5743961257627,35.76747912939756],[139.57439592544017,35.767438567948815]]]}},{"type":"Feature","properties":{"height":7.4,"gml_id":"bldg_215b9ffa-18b0-4437-988e-5ad27f0dd29b"},"geometry":{"type":"Polygon","coordinates":[[[139.57437303436856,35.76805198149149],[139.57433764731988,35.76805073353356],[139.5743395293641,35.76801603538577],[139.57431796541405,35.76801526786489],[139.5743210323317,35.76795623566043],[139.57437798327308,35.767958251137046],[139.57437303436856,35.76805198149149]]]}},{"type":"Feature","properties":{"height":6.4,"gml_id":"bldg_737e0bf3-a318-478f-8d1e-508f41f5195b"},"geometry":{"type":"Polygon","coordinates":[[[139.5748317768067,35.76819321928335],[139.57475867245566,35.76819306214232],[139.57475882649493,35.768145470884846],[139.57479996840468,35.768145559326555],[139.57480924422083,35.76814999590826],[139.57483191651116,35.76815004463855],[139.5748317768067,35.76819321928335]]]}},{"type":"Feature","properties":{"height":6.7,"gml_id":"bldg_0fd3b9ce-ef7d-4d6f-abed-361afe9a3eb6"},"geometry":{"type":"Polygon","coordinates":[[[139.57449790325435,35.76733368934345],[139.57450058332353,35.767291601787214],[139.574551118974,35.767293693511],[139.57455029546415,35.76730892465509],[139.57458966245377,35.76731054165418],[139.5745875619732,35.767344428119934],[139.574529727868,35.76734205030053],[139.57452753902712,35.767334924878575],[139.57449790325435,35.76733368934345]]]}},{"type":"Feature","properties":{"height":8.4,"gml_id":"bldg_b0111e20-4da2-4a0e-86c1-8948c28563f0"},"geometry":{"type":"Polygon","coordinates":[[[139.57451452627515,35.76817676329018],[139.57451063336015,35.76811528244451],[139.5745471351647,35.76811382868257],[139.57454514215655,35.76808038409231],[139.57463993877488,35.768075810835256],[139.57464101496817,35.76808500697971],[139.57466844668093,35.76808389421473],[139.57467107530314,35.76812599318615],[139.57459674423572,35.76812898805414],[139.57459936581537,35.768173250265605],[139.57451452627515,35.76817676329018]]]}},{"type":"Feature","properties":{"height":6.1,"gml_id":"bldg_9a974309-c526-4cad-9cf7-a525aa48ea47"},"geometry":{"type":"Polygon","coordinates":[[[139.5748342078862,35.768022958387014],[139.574902244185,35.76801706550812],[139.57490862212683,35.768062597683276],[139.5748404740267,35.76806885086771],[139.5748342078862,35.768022958387014]]]}},{"type":"Feature","properties":{"height":7.0,"gml_id":"bldg_7018f890-eaf2-41ef-86f7-0165eb53bdd0"},"geometry":{"type":"Polygon","coordinates":[[[139.57495288014724,35.76785150508472],[139.57494780573558,35.76781327669347],[139.5749765691679,35.767810724549406],[139.57497613698584,35.7678075688754],[139.5750180651354,35.767803873236225],[139.57502368236032,35.76784525753607],[139.57495288014724,35.76785150508472]]]}},{"type":"Feature","properties":{"height":7.6,"gml_id":"bldg_3a11f127-281f-49d5-a68d-856210036146"},"geometry":{"type":"Polygon","coordinates":[[[139.57433919067594,35.76818873443658],[139.57433492534966,35.76810571037902],[139.57439399058572,35.76810376443532],[139.57439429754223,35.76811142662085],[139.57439915502303,35.768114141145844],[139.574402680421,35.76818661774496],[139.57433919067594,35.76818873443658]]]}}]}