{"type":"FeatureCollection","crs":{"type":"name","properties":{"name":"urn:ogc:def:crs:OGC:1.3:CRS84"}},"features":[{"type":"Feature","properties":{"height":9.0,"gml_id":"bldg_35f98130-cd7b-41cb-a8da-4f1489d8077c"},"geometry":{"type":"Polygon","coordinates":[[[139.87497395500077,35.794332739346686],[139.8750010556026,35.794323716410645],[139.8750149783859,35.79429099240667],[139.87500633642662,35.79426701936494],[139.87497059643698,35.79425693657281],[139.87498650818264,35.7942195248381],[139.87503862435696,35.79423419885601],[139.87506841519564,35.79429223576748],[139.87504388467534,35.79435002112052],[139.87498183376144,35.79437825503383],[139.87493104529878,35.79436394107426],[139.8749475095958,35.794325267257506],[139.87497395500077,35.794332739346686]]]}}]}