{"type":"FeatureCollection","crs":{"type":"name","properties":{"name":"urn:ogc:def:crs:OGC:1.3:CRS84"}},"features":[{"type":"Feature","properties":{"height":7.5,"gml_id":"bldg_6d9aa691-3e44-449d-b500-b6a42811ee5c"},"geometry":{"type":"Polygon","coordinates":[[[139.8877441401467,35.77946328950804],[139.88764316315329,35.77948235378332],[139.88763229693964,35.779443960883775],[139.88768947663104,35.779433118769525],[139.88768326738222,35.779411218601716],[139.88772695401371,35.77940299650199],[139.8877441401467,35.77946328950804]]]}},{"type":"Feature","properties":{"height":7.5,"gml_id":"bldg_b8de0487-efe7-44d9-9dbd-9e0e85a2b7c9"},"geometry":{"type":"Polygon","coordinates":[[[139.8878954918084,35.780158617783975],[139.88791101772327,35.7802170186623],[139.88782563379604,35.78023220017676],[139.88782153054785,35.78021678883403],[139.8878113552596,35.78021859615756],[139.88779993265757,35.78017560661009],[139.8878954918084,35.780158617783975]]]}},{"type":"Feature","properties":{"height":9.2,"gml_id":"bldg_d37bd064-bcc7-47b6-b3d8-a83e3bf0b700"},"geometry":{"type":"Polygon","coordinates":[[[139.88862433233612,35.780482502947464],[139.88860625441194,35.78041355746237],[139.88867327780085,35.780400456965154],[139.88868060260333,35.780435426238334],[139.88869929466316,35.78043280369947],[139.8887070629388,35.780469214937554],[139.88862433233612,35.780482502947464]]]}},{"type":"Feature","properties":{"height":16.3,"gml_id":"bldg_751e19b3-8a2c-49e5-9c94-f51ebe0d2054"},"geometry":{"type":"Polygon","coordinates":[[[139.88862088681105,35.78077823968904],[139.8893735361737,35.780654765980046],[139.88940981030618,35.780801489950775],[139.88936335732572,35.780809173135026],[139.88940295921103,35.780969055361645],[139.88945096076893,35.78096119116832],[139.8894989937179,35.781155230843254],[139.8893709155004,35.781176202068],[139.88937834794265,35.78120639405341],[139.8891175459804,35.78124923962089],[139.88910944804962,35.78121634385815],[139.88874401533866,35.781276453010555],[139.88862088681105,35.78077823968904]]]}},{"type":"Feature","properties":{"height":9.7,"gml_id":"bldg_9cbd7ddc-898d-4b7e-a0fe-d2f5f5eec038"},"geometry":{"type":"Polygon","coordinates":[[[139.88757100481158,35.78072860233985],[139.88753022439286,35.78061946642002],[139.88758917220542,35.780604837859876],[139.8876010295583,35.78063656026845],[139.88760855008556,35.780634664025285],[139.88762273459298,35.78067260474296],[139.88761543523117,35.78067441075147],[139.8876302845422,35.78071397361011],[139.88757100481158,35.78072860233985]]]}},{"type":"Feature","properties":{"height":7.7,"gml_id":"bldg_588ea009-9bf3-4a29-a0eb-3cf99b7a4c64"},"geometry":{"type":"Polygon","coordinates":[[[139.88799961002633,35.78004112370187],[139.88806685523394,35.780029195204996],[139.888090920233,35.780119229800285],[139.88802367495316,35.78013115831052],[139.88799961002633,35.78004112370187]]]}},{"type":"Feature","properties":{"height":7.3,"gml_id":"bldg_e3c83fc1-3a66-4c65-827e-761290b619c3"},"geometry":{"type":"Polygon","coordinates":[[[139.88917558924965,35.78025726957608],[139.8891796228692,35.78033090855534],[139.88908836824942,35.78033428591781],[139.88908433471383,35.78026064693545],[139.88917558924965,35.78025726957608]]]}},{"type":"Feature","properties":{"height":3.9,"gml_id":"bldg_9a0e9d04-1e7d-4d92-b55f-14bcfe76c005"},"geometry":{"type":"Polygon","coordinates":[[[139.88819790309034,35.78046872721786],[139.88818005431955,35.78041077811692],[139.8883247180362,35.78038141795688],[139.8883424562907,35.780439367087155],[139.88819790309034,35.78046872721786]]]}},{"type":"Feature","properties":{"height":7.1,"gml_id":"bldg_b1d8f774-8036-4306-8f6f-0ca0fe818eed"},"geometry":{"type":"Polygon","coordinates":[[[139.88928885711218,35.78025541421352],[139.88928897037934,35.78025919985949],[139.8893337681299,35.78025764670062],[139.88933466581392,35.780275853690476],[139.88937503918655,35.78027457298349],[139.8893775074338,35.78032405632266],[139.88919687809792,35.7803299991843],[139.88919339911075,35.78025861334004],[139.88928885711218,35.78025541421352]]]}},{"type":"Feature","properties":{"height":8.9,"gml_id":"bldg_99c5b7ac-a470-4876-a80e-45e2240b09e9"},"geometry":{"type":"Polygon","coordinates":[[[139.8879617284306,35.77931897375154],[139.8880335102709,35.779310107825005],[139.88804239470042,35.77936175153808],[139.88802326041696,35.7793643741763],[139.88803435933303,35.77941926176747],[139.88798403457332,35.77942550401031],[139.8879617284306,35.77931897375154]]]}},{"type":"Feature","properties":{"height":3.1,"gml_id":"bldg_c913f17e-3e55-4bf4-a9a5-06611a49e9dc"},"geometry":{"type":"Polygon","coordinates":[[[139.88873138501705,35.779653025100295],[139.8886806390765,35.779690094235],[139.88861478242924,35.7796300941552],[139.88866552842475,35.77959311518358],[139.88873138501705,35.779653025100295]]]}},{"type":"Feature","properties":{"height":2.2,"gml_id":"bldg_f7c88857-84b7-4f7d-82a9-b08ba3da5f50"},"geometry":{"type":"Polygon","coordinates":[[[139.89051379005363,35.78008547307881],[139.89051222577208,35.78006357085117],[139.89054629382008,35.7800620223417],[139.89054785804632,35.78008383443324],[139.89051379005363,35.78008547307881]]]}},{"type":"Feature","properties":{"height":8.9,"gml_id":"bldg_831fe43b-ffaa-472e-b73c-6343a99220b5"},"geometry":{"type":"Polygon","coordinates":[[[139.8881480854897,35.77928103196181],[139.88821157111286,35.779271899302984],[139.88823332029597,35.77937230054301],[139.8881698345955,35.77938143321324],[139.8881480854897,35.77928103196181]]]}},{"type":"Feature","properties":{"height":9.4,"gml_id":"bldg_c825e05d-c369-45fc-84eb-d811b07476af"},"geometry":{"type":"Polygon","coordinates":[[[139.8883302443459,35.78021439401004],[139.88831295288946,35.78016266403375],[139.88837643577727,35.780148573827525],[139.8883937273339,35.78020039393042],[139.8883302443459,35.78021439401004]]]}},{"type":"Feature","properties":{"height":7.1,"gml_id":"bldg_47567676-bf08-4efb-b6d2-0f8d7aaf58b2"},"geometry":{"type":"Polygon","coordinates":[[[139.8884515813636,35.78052485588168],[139.88835027278185,35.78054599402043],[139.8883303185411,35.78048272790068],[139.88843173766261,35.780461589727935],[139.8884515813636,35.78052485588168]]]}},{"type":"Feature","properties":{"height":7.4,"gml_id":"bldg_964ad669-3bcf-4127-8dd8-452885ec4683"},"geometry":{"type":"Polygon","coordinates":[[[139.88800875417124,35.77982578538593],[139.8879994002301,35.77973466245521],[139.88802450835774,35.77973293846121],[139.8880236172136,35.77972383516167],[139.88805480877878,35.7797216577162],[139.8880553652442,35.77972661492603],[139.88806166991324,35.77972616137859],[139.88806957655427,35.779803584338424],[139.8880524322253,35.779804763904394],[139.88805421433688,35.779822700095785],[139.88800875417124,35.77982578538593]]]}},{"type":"Feature","properties":{"height":7.3,"gml_id":"bldg_c104146a-f177-43c6-b4f8-dc9a2cb0655a"},"geometry":{"type":"Polygon","coordinates":[[[139.88793418148424,35.77963626390802],[139.8880080661952,35.779628749077645],[139.88801973283506,35.779704998568576],[139.88794573744107,35.779712513456325],[139.88793418148424,35.77963626390802]]]}},{"type":"Feature","properties":{"height":7.3,"gml_id":"bldg_ffc879da-cd4a-40eb-8ca3-214c0d1ae794"},"geometry":{"type":"Polygon","coordinates":[[[139.8882847679225,35.7800334223428],[139.8883158137168,35.78014066961876],[139.88823894699723,35.78015548698972],[139.88822774825277,35.78011664362183],[139.88823582203497,35.78011510762951],[139.88821597501408,35.78004661356744],[139.8882847679225,35.7800334223428]]]}},{"type":"Feature","properties":{"height":7.3,"gml_id":"bldg_a78565db-b221-429e-bd99-f9b5f4a9e5d8"},"geometry":{"type":"Polygon","coordinates":[[[139.88765617678337,35.78023840606845],[139.8876710243772,35.78027553526228],[139.8876398367535,35.78028384183276],[139.887645376793,35.78029753995468],[139.88756010842377,35.780320202489946],[139.88754249092344,35.78027631435507],[139.88757069251665,35.7802688203777],[139.88756792250405,35.780261971315014],[139.88765617678337,35.78023840606845]]]}},{"type":"Feature","properties":{"height":8.5,"gml_id":"bldg_3733bac0-7e57-44ef-8fd9-bfac0ce308fe"},"geometry":{"type":"Polygon","coordinates":[[[139.88779007917609,35.77935168072279],[139.8878178987277,35.77943324092751],[139.88776016752328,35.7794463367448],[139.88773611562775,35.77937468974921],[139.88776077118158,35.77935827389637],[139.88779007917609,35.77935168072279]]]}},{"type":"Feature","properties":{"height":2.5,"gml_id":"bldg_2b72791c-43bb-4ae9-955b-aae83a5eb2b5"},"geometry":{"type":"Polygon","coordinates":[[[139.89044342450478,35.78006459503629],[139.89046918508114,35.78004709647723],[139.89048080768802,35.780058448051065],[139.89045504711058,35.780075946612584],[139.89044342450478,35.78006459503629]]]}},{"type":"Feature","properties":{"height":7.1,"gml_id":"bldg_fc0e2ffc-c76d-4525-b8a1-61ced2f84226"},"geometry":{"type":"Polygon","coordinates":[[[139.88819634412764,35.77980965580059],[139.88809005165672,35.77982043039151],[139.888082273591,35.77976923686072],[139.88818513721807,35.77975882438335],[139.8881861372611,35.779765403832634],[139.88818956603816,35.77976504172591],[139.88819634412764,35.77980965580059]]]}},{"type":"Feature","properties":{"height":10.0,"gml_id":"bldg_f11b6c83-2123-4682-bcf6-6d2398f3c7dc"},"geometry":{"type":"Polygon","coordinates":[[[139.88924610400355,35.78033349159917],[139.88925013579853,35.78040442650555],[139.88920080301816,35.78040634228284],[139.88919677120384,35.78033531723917],[139.88924610400355,35.78033349159917]]]}},{"type":"Feature","properties":{"height":7.4,"gml_id":"bldg_e81b1ad1-97d0-4923-a262-aacfa4e7e451"},"geometry":{"type":"Polygon","coordinates":[[[139.88831123415852,35.77975489096871],[139.88830190066594,35.779693963508],[139.88837102932155,35.77968690130695],[139.88837202950324,35.77969366102608],[139.8884070915905,35.779690129682415],[139.88841331417774,35.77973104843646],[139.88840623540122,35.7797317727639],[139.88840823558542,35.77974502179445],[139.88831123415852,35.77975489096871]]]}},{"type":"Feature","properties":{"height":7.9,"gml_id":"bldg_55438d74-c5b0-401f-8b10-f681fb7593dd"},"geometry":{"type":"Polygon","coordinates":[[[139.88790255457573,35.780458135452534],[139.88787472990032,35.780369724972054],[139.88810665538693,35.780321216702006],[139.888134480364,35.780409717265],[139.88790255457573,35.780458135452534]]]}},{"type":"Feature","properties":{"height":7.3,"gml_id":"bldg_b2e32867-cb19-4139-9b0f-22a21636a4bd"},"geometry":{"type":"Polygon","coordinates":[[[139.888294568281,35.7796476371136],[139.88828634591053,35.77959391999822],[139.8883193064883,35.77959066004746],[139.88831886161395,35.77958714495883],[139.88838721594362,35.77958017323812],[139.88838821556604,35.77958612173625],[139.8883910913294,35.779585850012616],[139.88839898018855,35.77963704347419],[139.888294568281,35.7796476371136]]]}},{"type":"Feature","properties":{"height":7.2,"gml_id":"bldg_a896355d-3643-40ee-9f91-31de7db3f1d4"},"geometry":{"type":"Polygon","coordinates":[[[139.88821856200596,35.77978711174019],[139.88820611727638,35.77970563475463],[139.88827524601263,35.77969866274427],[139.88827591229898,35.77970244813892],[139.88828332285289,35.779701633531865],[139.88829332274398,35.77976652665979],[139.88827750610082,35.77976815632951],[139.88827950595444,35.77978095468384],[139.88821856200596,35.77978711174019]]]}},{"type":"Feature","properties":{"height":7.6,"gml_id":"bldg_740cd3ef-ebc9-49b2-8b3c-b98cd5346312"},"geometry":{"type":"Polygon","coordinates":[[[139.88808223293756,35.78003261336132],[139.8881463813033,35.7800212270439],[139.88815436587382,35.78005087804524],[139.88816620015865,35.78004879952917],[139.88817274297955,35.78007295290967],[139.8881645585244,35.78007439881253],[139.88816988149625,35.78009404596497],[139.88810175139793,35.78010606505802],[139.88808223293756,35.78003261336132]]]}},{"type":"Feature","properties":{"height":12.6,"gml_id":"bldg_1b4924e4-af66-4c64-a384-f3ac6942e488"},"geometry":{"type":"Polygon","coordinates":[[[139.8879157865232,35.78023513377042],[139.88792964924565,35.780287676581075],[139.88783209901067,35.78030484660772],[139.8878182363494,35.78025230378593],[139.8879157865232,35.78023513377042]]]}},{"type":"Feature","properties":{"height":8.0,"gml_id":"bldg_843cef17-1e66-47e2-8db9-e31eedc3a794"},"geometry":{"type":"Polygon","coordinates":[[[139.887993093986,35.78021761233532],[139.88805215419296,35.78020613824528],[139.88807088934664,35.780266430491544],[139.88801182909776,35.7802779045907],[139.887993093986,35.78021761233532]]]}},{"type":"Feature","properties":{"height":7.6,"gml_id":"bldg_7dbbc46a-c6d0-4f84-8e1f-69759ee6033a"},"geometry":{"type":"Polygon","coordinates":[[[139.88787141464402,35.780050465882645],[139.8879331298527,35.78003953146083],[139.8879585254042,35.78013443280542],[139.88789669951146,35.780145367290345],[139.88787141464402,35.780050465882645]]]}},{"type":"Feature","properties":{"height":7.5,"gml_id":"bldg_46b1e27f-dd0b-461a-abb0-433d5801c6a7"},"geometry":{"type":"Polygon","coordinates":[[[139.88830873559107,35.77982105170751],[139.88837642563152,35.779812908532826],[139.8883796456711,35.779830663789824],[139.8884244405255,35.77982523513635],[139.88843221315645,35.77986822629924],[139.88831972818767,35.77988179813644],[139.88830873559107,35.77982105170751]]]}},{"type":"Feature","properties":{"height":5.7,"gml_id":"bldg_ba252566-d237-41b7-aea5-eef56782e438"},"geometry":{"type":"Polygon","coordinates":[[[139.88906445075625,35.78156672205228],[139.88908187086386,35.78164314901986],[139.88893012136535,35.78166629400077],[139.88891270139789,35.78158986701141],[139.88906445075625,35.78156672205228]]]}},{"type":"Feature","properties":{"height":2.7,"gml_id":"bldg_589eb7cb-a2e7-4837-9c6c-5d62b87b8059"},"geometry":{"type":"Polygon","coordinates":[[[139.88831270840112,35.78045019697238],[139.88832874522845,35.78044685461955],[139.88833306857407,35.78046046313009],[139.8883170317442,35.78046380548349],[139.88831270840112,35.78045019697238]]]}},{"type":"Feature","properties":{"height":6.4,"gml_id":"bldg_a488ad12-a840-4c45-9c79-5389120a5f19"},"geometry":{"type":"Polygon","coordinates":[[[139.88845234477134,35.78034882054802],[139.88846643986207,35.78041695666193],[139.88834400036265,35.780432786476176],[139.8883300160502,35.78036474043308],[139.88845234477134,35.78034882054802]]]}},{"type":"Feature","properties":{"height":3.6,"gml_id":"bldg_4f6f5fd5-aa62-4497-aea6-deb31e6d8c89"},"geometry":{"type":"Polygon","coordinates":[[[139.88844093292462,35.78048222658534],[139.8884675872695,35.78047671609186],[139.88848144429656,35.780520425542704],[139.88845479000028,35.78052602617487],[139.88844093292462,35.78048222658534]]]}},{"type":"Feature","properties":{"height":9.0,"gml_id":"bldg_0af0175d-cfef-446b-92f3-797a76676931"},"geometry":{"type":"Polygon","coordinates":[[[139.88808416889438,35.7793069300231],[139.88814975656476,35.77929833725409],[139.88817161938547,35.77940324523789],[139.88813301896633,35.77940849070361],[139.88812380758108,35.77936405800236],[139.88809516056895,35.779366684985604],[139.88808416889438,35.7793069300231]]]}},{"type":"Feature","properties":{"height":5.6,"gml_id":"bldg_d7cdaf72-346f-4b6d-8368-744c82ec9e60"},"geometry":{"type":"Polygon","coordinates":[[[139.88794204120492,35.78029226787449],[139.88792375020196,35.78023431893452],[139.8879914363135,35.78021986648084],[139.8880089532465,35.7802780861696],[139.88794204120492,35.78029226787449]]]}},{"type":"Feature","properties":{"height":7.5,"gml_id":"bldg_16bed9aa-5100-4782-9d18-c6460f972590"},"geometry":{"type":"Polygon","coordinates":[[[139.88752856566995,35.78045722294482],[139.88749820589518,35.780381522650565],[139.8875022979,35.78038043917929],[139.88749952795052,35.780373680250804],[139.88755648415867,35.78035851178909],[139.88755847852534,35.78036337821668],[139.88756577779884,35.78036148207588],[139.88759691315747,35.78043898471697],[139.88752856566995,35.78045722294482]]]}},{"type":"Feature","properties":{"height":7.1,"gml_id":"bldg_d3784c34-64e4-4cd3-a9db-c36646fe05e7"},"geometry":{"type":"Polygon","coordinates":[[[139.8879167610231,35.77988071980951],[139.88792111593855,35.779940658065705],[139.88781227532212,35.77994584515491],[139.8878079204881,35.77988590689476],[139.8879167610231,35.77988071980951]]]}},{"type":"Feature","properties":{"height":4.1,"gml_id":"bldg_41cadd92-745b-4578-b4e2-9b34387fb772"},"geometry":{"type":"Polygon","coordinates":[[[139.88788594070203,35.78091215639476],[139.88790679908797,35.78100390504596],[139.88787240126382,35.781009148519765],[139.88785154291602,35.78091739986265],[139.88788594070203,35.78091215639476]]]}},{"type":"Feature","properties":{"height":7.9,"gml_id":"bldg_8c901b4f-161b-439f-9623-9aecf20c2db0"},"geometry":{"type":"Polygon","coordinates":[[[139.88792064499,35.78022260270517],[139.88790312302106,35.78015690174342],[139.88798861752892,35.78014181025921],[139.88800613956485,35.78020751120863],[139.88792064499,35.78022260270517]]]}},{"type":"Feature","properties":{"height":6.1,"gml_id":"bldg_01ba15b6-44fd-4e87-9059-4874f4f4aa64"},"geometry":{"type":"Polygon","coordinates":[[[139.88827423670483,35.780482483127884],[139.8882820892317,35.78048085709794],[139.88827898519793,35.7804709435914],[139.88831105892444,35.78046434902825],[139.88833744370226,35.78054924477329],[139.88829751741008,35.78055746537486],[139.88827423670483,35.780482483127884]]]}},{"type":"Feature","properties":{"height":4.1,"gml_id":"bldg_01b1c9af-223b-47d3-81c8-cb4a5c652469"},"geometry":{"type":"Polygon","coordinates":[[[139.88771670959426,35.77995282885703],[139.8877059804696,35.77995346465823],[139.88766979443196,35.77993103722703],[139.8876680101963,35.77990985614638],[139.88769201206324,35.77990786231459],[139.88768956493666,35.779887853297765],[139.8877366839283,35.77988413642806],[139.8877446974447,35.77995651176048],[139.88771770911006,35.77995868722475],[139.88771670959426,35.77995282885703]]]}},{"type":"Feature","properties":{"height":8.3,"gml_id":"bldg_5e315490-207c-43e5-9f83-3357a8a4ee18"},"geometry":{"type":"Polygon","coordinates":[[[139.88832695614678,35.78025829159158],[139.88834857563137,35.78033039024932],[139.8882379763315,35.7803525240364],[139.88821624632632,35.78028042540945],[139.88832695614678,35.78025829159158]]]}},{"type":"Feature","properties":{"height":8.5,"gml_id":"bldg_5cec01f6-5824-406d-8982-4b2ecf7c777e"},"geometry":{"type":"Polygon","coordinates":[[[139.8880210243658,35.78062176803021],[139.8879937569565,35.78053975695955],[139.8881680584822,35.780499837639326],[139.88819864450176,35.78058184715695],[139.8880210243658,35.78062176803021]]]}},{"type":"Feature","properties":{"height":8.7,"gml_id":"bldg_40199d57-37fe-441c-bbca-cc5911994386"},"geometry":{"type":"Polygon","coordinates":[[[139.8875455599512,35.77958307939195],[139.88761368882982,35.77956979871393],[139.88762721486194,35.7796156716761],[139.88773162006282,35.77959516369278],[139.8877150967317,35.77953360848687],[139.88783520816045,35.77951201168174],[139.88787889134616,35.77966062563517],[139.88758525123745,35.77971799462483],[139.8875455599512,35.77958307939195]]]}},{"type":"Feature","properties":{"height":6.6,"gml_id":"bldg_aa617fe8-c961-487a-92c4-c5d85fe16e6d"},"geometry":{"type":"Polygon","coordinates":[[[139.88820395128846,35.780577878765904],[139.88817967370866,35.780500823835034],[139.88818940644174,35.78049883641093],[139.88818508318045,35.78048531803095],[139.88822943335404,35.78047610395479],[139.88823397847145,35.780490523588725],[139.8882544392163,35.78048618773366],[139.88827235631703,35.7804825741226],[139.88829596960946,35.780558637846084],[139.88820395128846,35.780577878765904]]]}},{"type":"Feature","properties":{"height":3.5,"gml_id":"bldg_14b1be33-d549-4e59-8ee5-d87960466478"},"geometry":{"type":"Polygon","coordinates":[[[139.88963152268693,35.78164208173804],[139.8896067468594,35.781645248082334],[139.88959941931668,35.78160712412595],[139.88962430581245,35.78160404786701],[139.88963152268693,35.78164208173804]]]}},{"type":"Feature","properties":{"height":7.4,"gml_id":"bldg_f58c6262-6d47-47a9-9af6-9d1670891b95"},"geometry":{"type":"Polygon","coordinates":[[[139.88827504150794,35.77956219739916],[139.88820591288976,35.779569169409434],[139.88819213484118,35.77947894986539],[139.88825363156107,35.77947270243409],[139.88825440913968,35.77947747927081],[139.88826204096154,35.77947675469967],[139.88827504150794,35.77956219739916]]]}},{"type":"Feature","properties":{"height":7.6,"gml_id":"bldg_2723a35e-24c1-4e0d-adda-08571a61e3a6"},"geometry":{"type":"Polygon","coordinates":[[[139.88777946231878,35.780165791089885],[139.88776548916366,35.78011333844646],[139.88781736094296,35.78010412111712],[139.8878143669808,35.78009330619122],[139.88787099459552,35.7800832754629],[139.88788785117376,35.78014654306852],[139.88777946231878,35.780165791089885]]]}},{"type":"Feature","properties":{"height":5.0,"gml_id":"bldg_a553185f-bed4-4bb4-840e-847e175c4671"},"geometry":{"type":"Polygon","coordinates":[[[139.88833664049633,35.77938315975151],[139.8883289793224,35.779341250156335],[139.88838707569053,35.779376737039165],[139.88833664049633,35.77938315975151]]]}},{"type":"Feature","properties":{"height":7.2,"gml_id":"bldg_75d8e689-28e6-4671-b44e-4744733487d6"},"geometry":{"type":"Polygon","coordinates":[[[139.88764434474615,35.78056911922707],[139.8874527951336,35.78062121386777],[139.8874355106915,35.78057912828311],[139.88749611642993,35.78056260617337],[139.8874911304496,35.78055034996651],[139.88755273156514,35.780533647108555],[139.8875634789496,35.78055978160952],[139.8875985373492,35.78055021141311],[139.88758767909485,35.78052371642251],[139.88762185274163,35.78051441702544],[139.88764434474615,35.78056911922707]]]}},{"type":"Feature","properties":{"height":7.7,"gml_id":"bldg_8893ec8d-d0ef-4766-8fc6-d830aa903425"},"geometry":{"type":"Polygon","coordinates":[[[139.8879458880862,35.779609308020255],[139.88793188817323,35.77951773651221],[139.8879982516224,35.77951103632343],[139.88801225154856,35.779602517688126],[139.8879458880862,35.779609308020255]]]}},{"type":"Feature","properties":{"height":8.5,"gml_id":"bldg_dff10a93-5787-4117-82ad-96d2a57d1ea3"},"geometry":{"type":"Polygon","coordinates":[[[139.88845102603673,35.78004082752019],[139.88846861143537,35.78003757457444],[139.88848968065628,35.78011363943185],[139.88840739414783,35.78012881993889],[139.8883817785765,35.78003644258915],[139.88844647959942,35.780024515044566],[139.88845102603673,35.78004082752019]]]}},{"type":"Feature","properties":{"height":3.1,"gml_id":"bldg_fe0279dd-d81e-45ba-8fa1-17040fcaacab"},"geometry":{"type":"Polygon","coordinates":[[[139.889879640466,35.78149342175477],[139.88989899726045,35.78149197048087],[139.88990389597816,35.78153658532998],[139.88988310135454,35.781538307687796],[139.889879640466,35.78149342175477]]]}},{"type":"Feature","properties":{"height":8.6,"gml_id":"bldg_ba468b81-b33f-4ead-8b41-067bb2c3d6c9"},"geometry":{"type":"Polygon","coordinates":[[[139.88843570551103,35.780280595461754],[139.88841940925226,35.78022850450267],[139.88853465288477,35.78020456570294],[139.8885435214109,35.78023259382941],[139.8884761669208,35.78024659576329],[139.8884837051946,35.78027047826253],[139.88843570551103,35.780280595461754]]]}},{"type":"Feature","properties":{"height":10.2,"gml_id":"bldg_b10f2d4b-ff57-41be-aa0e-867332f64d50"},"geometry":{"type":"Polygon","coordinates":[[[139.8877039771174,35.78058522656785],[139.8877577246248,35.78056861729111],[139.88776725144672,35.780589073778344],[139.88779888065199,35.78057932480433],[139.88782546739284,35.78063672918719],[139.88779848301118,35.78064503389372],[139.88780612675455,35.7806616153963],[139.88772627952702,35.780686258577354],[139.88767731605842,35.78058100224178],[139.8876989920243,35.78057432240446],[139.8877039771174,35.78058522656785]]]}},{"type":"Feature","properties":{"height":6.4,"gml_id":"bldg_a844e7a3-b514-43b4-adf9-c224acda93fa"},"geometry":{"type":"Polygon","coordinates":[[[139.88794024609558,35.780578810018355],[139.8879980877164,35.78056427189571],[139.88801505184085,35.78062276223852],[139.88798021209854,35.780628546758415],[139.8879545424136,35.78061828295294],[139.88794024609558,35.780578810018355]]]}},{"type":"Feature","properties":{"height":9.1,"gml_id":"bldg_e52c5715-db16-4c91-8384-4e191b5b6fa7"},"geometry":{"type":"Polygon","coordinates":[[[139.8890638581958,35.780400727275705],[139.88906599107608,35.780445433584674],[139.88883270974537,35.780452662188196],[139.8888320369738,35.780439592825054],[139.88881544509184,35.780440051159324],[139.8888152045109,35.78041219934508],[139.8887863342891,35.78041248306796],[139.88878576481665,35.7803888677822],[139.8887683988933,35.780389687009595],[139.88876715197318,35.780346242186006],[139.88883584207701,35.78034404724727],[139.88883617811805,35.78035008618284],[139.8889117261972,35.78034770776407],[139.88891127602275,35.78033662128328],[139.88895872857205,35.78033506703717],[139.88895906581538,35.7803428185498],[139.88901879632516,35.78034089805751],[139.88902171492094,35.780402008697806],[139.8890638581958,35.780400727275705]]]}},{"type":"Feature","properties":{"height":10.5,"gml_id":"bldg_3d165698-2454-47ae-a0df-f8d6ce99ae88"},"geometry":{"type":"Polygon","coordinates":[[[139.88752417587975,35.779204519104525],[139.88757017334822,35.77917871955879],[139.88759640826376,35.77920764128374],[139.88754952771924,35.77923614530847],[139.88752417587975,35.779204519104525]]]}},{"type":"Feature","properties":{"height":7.9,"gml_id":"bldg_04a9fdec-5241-48d1-baa8-f74ba03711e3"},"geometry":{"type":"Polygon","coordinates":[[[139.88847757521214,35.78036377150457],[139.88846194253352,35.78031159011202],[139.88857176760047,35.78028972688153],[139.88858574256344,35.780343982142284],[139.88847757521214,35.78036377150457]]]}},{"type":"Feature","properties":{"height":8.3,"gml_id":"bldg_ea83fe41-682a-4248-ad7d-0933c5e9ecdd"},"geometry":{"type":"Polygon","coordinates":[[[139.88805827987755,35.77929882959392],[139.88805284433516,35.7792762080071],[139.88804333247967,35.77927747423444],[139.88803179050805,35.779221685487315],[139.88807149722015,35.77921680009321],[139.8880751635123,35.77924023370607],[139.8881049156821,35.77923625418874],[139.88813723211305,35.7792616577332],[139.88814244861751,35.779287434165504],[139.88805827987755,35.77929882959392]]]}},{"type":"Feature","properties":{"height":7.5,"gml_id":"bldg_88077b90-3ab4-4ffd-bb84-267526cffb9e"},"geometry":{"type":"Polygon","coordinates":[[[139.88843752784564,35.77987579526199],[139.88844252437934,35.779903194221774],[139.88843113208137,35.779904551477074],[139.88843557349253,35.77992897621363],[139.88836014106727,35.779938114456954],[139.88835936385047,35.77993387843526],[139.88833204444356,35.77993713581712],[139.88832338378313,35.77988954813418],[139.88843752784564,35.77987579526199]]]}},{"type":"Feature","properties":{"height":7.4,"gml_id":"bldg_01004e50-8b23-4169-ac82-cf66f16df46b"},"geometry":{"type":"Polygon","coordinates":[[[139.88836242946348,35.77956702477126],[139.88834776223368,35.7794708566961],[139.88840914838391,35.77946469937154],[139.8884101486282,35.779471549226265],[139.88842043491837,35.77947046288661],[139.88843165773366,35.779544188743294],[139.888415730524,35.779545818481886],[139.88841806416187,35.77956141088801],[139.88836242946348,35.77956702477126]]]}},{"type":"Feature","properties":{"height":1.3,"gml_id":"bldg_f2c3a293-dd4d-452a-b628-203a1b7a823b"},"geometry":{"type":"Polygon","coordinates":[[[139.88888561205653,35.77858556699794],[139.88890296579467,35.77856780224603],[139.888931405891,35.77858617678579],[139.88891416276724,35.77860394149061],[139.88888561205653,35.77858556699794]]]}},{"type":"Feature","properties":{"height":7.5,"gml_id":"bldg_07a9ad23-6ce9-42b9-b293-b9bb5e806403"},"geometry":{"type":"Polygon","coordinates":[[[139.88799647659638,35.779826602188415],[139.88794703451472,35.779829959672156],[139.88794569808758,35.77981671033264],[139.88792424000155,35.77981816224626],[139.88791566532046,35.77973415967473],[139.88794752057458,35.77973198195589],[139.88794829986355,35.779739282592956],[139.88798015518051,35.779737195001125],[139.8879813800731,35.77974909235572],[139.8879884589784,35.779748548324626],[139.88799647659638,35.779826602188415]]]}},{"type":"Feature","properties":{"height":8.0,"gml_id":"bldg_a8eff558-547e-49c5-860d-4e763cc82276"},"geometry":{"type":"Polygon","coordinates":[[[139.8879597306743,35.77930914986798],[139.88794420064798,35.77924452962571],[139.88798269051074,35.77923946454211],[139.88797991186328,35.77921999649382],[139.88802017207453,35.77921574181504],[139.88803936436588,35.77929784670729],[139.8879597306743,35.77930914986798]]]}},{"type":"Feature","properties":{"height":5.1,"gml_id":"bldg_c5f30aff-fae4-4991-ba68-d7d17ea41f29"},"geometry":{"type":"Polygon","coordinates":[[[139.8899073992868,35.781641321321615],[139.88976006494013,35.78165067451638],[139.88975137330905,35.78156072320344],[139.88989881804315,35.781551279831675],[139.8899073992868,35.781641321321615]]]}},{"type":"Feature","properties":{"height":8.0,"gml_id":"bldg_58dfe2a7-4b1a-42d3-90d6-de5248e7bc2a"},"geometry":{"type":"Polygon","coordinates":[[[139.8884984236724,35.78044037727159],[139.88856433945912,35.78042511408687],[139.8885662238977,35.780430881904934],[139.8885937638822,35.78042645260487],[139.88860828852603,35.780475750146785],[139.8885934684662,35.78047909197778],[139.88859624194282,35.780490808341646],[139.8885181589864,35.78050679821305],[139.8884984236724,35.78044037727159]]]}},{"type":"Feature","properties":{"height":4.3,"gml_id":"bldg_96258076-41da-42ac-aefc-de85fedfab84"},"geometry":{"type":"Polygon","coordinates":[[[139.88860527366467,35.78027510950607],[139.8886237921422,35.7803413507199],[139.88858895306595,35.780347856501514],[139.88857043455346,35.78028152514671],[139.88860527366467,35.78027510950607]]]}},{"type":"Feature","properties":{"height":6.9,"gml_id":"bldg_8e250b31-27b7-4dd6-a1b6-ef4ac257953e"},"geometry":{"type":"Polygon","coordinates":[[[139.8880830554469,35.780264261697006],[139.88806576142144,35.780208565716634],[139.88816640621272,35.78018778866194],[139.88818370030387,35.78024348462798],[139.8880830554469,35.780264261697006]]]}},{"type":"Feature","properties":{"height":8.5,"gml_id":"bldg_d3bbeb66-1cc9-4512-b0b7-b7e4b80f0e1d"},"geometry":{"type":"Polygon","coordinates":[[[139.88774130517595,35.78049750766982],[139.88777726712686,35.78051533825904],[139.88778668634444,35.78054021144191],[139.8876785236813,35.780567571479935],[139.88765968549686,35.780518095503574],[139.88774130517595,35.78049750766982]]]}},{"type":"Feature","properties":{"height":2.6,"gml_id":"bldg_568dc7ce-dd8d-43a0-9299-c2177a8b642c"},"geometry":{"type":"Polygon","coordinates":[[[139.8904022506749,35.78002910112221],[139.8904319914207,35.7800088966116],[139.89044870587335,35.780025293369334],[139.89041907573977,35.78004549783152],[139.8904022506749,35.78002910112221]]]}},{"type":"Feature","properties":{"height":7.3,"gml_id":"bldg_8efa3aa1-eed0-48f0-accb-0fa4072d2ad1"},"geometry":{"type":"Polygon","coordinates":[[[139.8881654906993,35.77965995448918],[139.8880692635787,35.77966973297964],[139.88806037440256,35.779611238960726],[139.8881505181458,35.77960209420025],[139.8881512955339,35.77960660063054],[139.8881572682906,35.77960605709369],[139.8881654906993,35.77965995448918]]]}},{"type":"Feature","properties":{"height":7.7,"gml_id":"bldg_215b67ee-b0f1-4384-b434-440a30efc4cd"},"geometry":{"type":"Polygon","coordinates":[[[139.88823875632986,35.77939555307094],[139.88822420887755,35.77931245459933],[139.8882732074926,35.77930810571139],[139.88828130562868,35.779342083169425],[139.88832090295142,35.779338910321286],[139.8883271293775,35.77938550762931],[139.88823875632986,35.77939555307094]]]}},{"type":"Feature","properties":{"height":9.0,"gml_id":"bldg_94a4594b-8259-478d-928f-eb8d8e6e6f40"},"geometry":{"type":"Polygon","coordinates":[[[139.888373258559,35.780032480518635],[139.88840075760638,35.78012927365639],[139.88832908891314,35.78014282680509],[139.88830402922844,35.78005441515494],[139.88832338421335,35.78005080087881],[139.88832094486887,35.78004232923969],[139.888373258559,35.780032480518635]]]}},{"type":"Feature","properties":{"height":7.3,"gml_id":"bldg_bc355916-8c53-4e2d-a4ec-00b5e23e6078"},"geometry":{"type":"Polygon","coordinates":[[[139.88758437481792,35.78038175421631],[139.88756354414468,35.78033002573009],[139.8876276889626,35.780312961143366],[139.8876322318782,35.78032431618826],[139.88768531719475,35.78031014090565],[139.8876867574527,35.78031347527497],[139.88769427788617,35.780311488890725],[139.88770635548408,35.78034176901998],[139.88768622726477,35.7803470961241],[139.88768899722913,35.780353855048304],[139.88758437481792,35.78038175421631]]]}},{"type":"Feature","properties":{"height":4.7,"gml_id":"bldg_fceb5717-3ac5-495c-9001-0e14310e5fe1"},"geometry":{"type":"Polygon","coordinates":[[[139.88957300707173,35.78148563360682],[139.88959075670257,35.78155809437824],[139.8894239664948,35.78158521298689],[139.88940621707252,35.781512842326684],[139.88957300707173,35.78148563360682]]]}},{"type":"Feature","properties":{"height":9.2,"gml_id":"bldg_5ea68070-e2e1-4d5d-b0d7-f334e6125014"},"geometry":{"type":"Polygon","coordinates":[[[139.8883591744355,35.780301091303485],[139.8883454221046,35.78024863862776],[139.8883969622479,35.78023969160736],[139.88840250732488,35.780260510411125],[139.88841965050284,35.780257528082196],[139.88842796822343,35.7802888914895],[139.88842741521347,35.78028898187852],[139.8883591744355,35.780301091303485]]]}},{"type":"Feature","properties":{"height":7.6,"gml_id":"bldg_de456b81-fddf-4a52-8b49-2fc02f657f4f"},"geometry":{"type":"Polygon","coordinates":[[[139.8880957051984,35.779838274683776],[139.8881605195643,35.77983049348283],[139.8881758419618,35.77991449295845],[139.88815150894402,35.77991747853033],[139.88815506201726,35.77993703635501],[139.88811447004068,35.779941922179525],[139.8880957051984,35.779838274683776]]]}},{"type":"Feature","properties":{"height":7.8,"gml_id":"bldg_2abcd2ec-fd32-4b42-a823-d2b065fcaa9a"},"geometry":{"type":"Polygon","coordinates":[[[139.88942707576098,35.78034260116268],[139.8894438894181,35.7803429538617],[139.88944270312265,35.780386309677745],[139.88945531337245,35.78038657420058],[139.88945390952756,35.780435157987384],[139.889404906615,35.78043427948838],[139.889405987697,35.78039858525496],[139.88939094386154,35.78039823172568],[139.88939299529508,35.78032666303867],[139.88942750751826,35.78032736803113],[139.88942707576098,35.78034260116268]]]}},{"type":"Feature","properties":{"height":2.9,"gml_id":"bldg_64117e26-f7dc-44ec-b9db-5e0b6fbe226b"},"geometry":{"type":"Polygon","coordinates":[[[139.88828971246446,35.78046751353387],[139.88828538893978,35.780453634614844],[139.88830872528087,35.7804487566224],[139.88831315942403,35.78046263549005],[139.88828971246446,35.78046751353387]]]}},{"type":"Feature","properties":{"height":7.8,"gml_id":"bldg_abb47049-5f3e-4790-b4f1-144bdca875f9"},"geometry":{"type":"Polygon","coordinates":[[[139.8879332257251,35.779856195427975],[139.88800500817487,35.779847509790144],[139.8880197756758,35.77992907587416],[139.88794799315437,35.779937761520756],[139.8879332257251,35.779856195427975]]]}},{"type":"Feature","properties":{"height":7.7,"gml_id":"bldg_098828d3-ba44-4ab3-af15-3503efe86eb1"},"geometry":{"type":"Polygon","coordinates":[[[139.88775574123224,35.78009297219321],[139.88774099190312,35.780037725691265],[139.88781243998912,35.7800250743496],[139.8878159886178,35.78003823255224],[139.88785547310553,35.78003127420984],[139.88786667387288,35.78007336249681],[139.88775574123224,35.78009297219321]]]}},{"type":"Feature","properties":{"height":6.4,"gml_id":"bldg_e796a1d7-5772-44a7-a24e-27242ce9128f"},"geometry":{"type":"Polygon","coordinates":[[[139.88935144029406,35.780378059740855],[139.88938174811074,35.780377234398244],[139.88938377333753,35.780425906721774],[139.8893332234071,35.7804272823066],[139.88933277336332,35.78041646623454],[139.88931175696825,35.78041701683317],[139.88931220675644,35.7804274723627],[139.88925656867755,35.780429030555005],[139.88925330656937,35.78035151538652],[139.88935020304734,35.78034885635652],[139.88935144029406,35.780378059740855]]]}},{"type":"Feature","properties":{"height":8.4,"gml_id":"bldg_064e0292-17a1-4569-9019-08ad3b908dff"},"geometry":{"type":"Polygon","coordinates":[[[139.88801629195677,35.77984921723799],[139.8880835396577,35.779841164564985],[139.8880981960674,35.779921919468805],[139.88803094829996,35.779929972149944],[139.88801629195677,35.77984921723799]]]}},{"type":"Feature","properties":{"height":3.7,"gml_id":"bldg_94dcc3fd-6c0c-422f-923d-72d4f177697f"},"geometry":{"type":"Polygon","coordinates":[[[139.8877251954644,35.78104346674488],[139.88751637540892,35.78107591971693],[139.88750084398947,35.781009226316584],[139.88770955332294,35.780976863556965],[139.8877251954644,35.78104346674488]]]}},{"type":"Feature","properties":{"height":9.9,"gml_id":"bldg_bd236ce7-ad81-4542-89ea-50a4b7cd5b11"},"geometry":{"type":"Polygon","coordinates":[[[139.8878100876085,35.77933328397868],[139.88793406536064,35.779304654738354],[139.8879601244809,35.77939973606444],[139.887970964204,35.779399190326004],[139.8879749673105,35.77942992477952],[139.8878453401642,35.77944692911769],[139.8878100876085,35.77933328397868]]]}},{"type":"Feature","properties":{"height":7.4,"gml_id":"bldg_42c5aa9f-eaf6-4c47-b7c8-e8bcf6bc4dfa"},"geometry":{"type":"Polygon","coordinates":[[[139.88770482050595,35.78036177983538],[139.88771955734666,35.78039863866547],[139.8876965536869,35.78040477829276],[139.8877027584755,35.780420008417835],[139.887626779967,35.78044023313627],[139.88762456393601,35.78043473586019],[139.88761438922825,35.78043744452358],[139.88759566368893,35.78039085282704],[139.88770482050595,35.78036177983538]]]}},{"type":"Feature","properties":{"height":4.3,"gml_id":"bldg_97086257-e122-4114-aab3-950593bcf429"},"geometry":{"type":"Polygon","coordinates":[[[139.8879102366676,35.78101634220866],[139.88793208997095,35.781107098909956],[139.88789791351994,35.7811126126975],[139.8878759496385,35.78102185604022],[139.8879102366676,35.78101634220866]]]}},{"type":"Feature","properties":{"height":7.3,"gml_id":"bldg_2c44c071-0c5d-476c-bc3a-e672a2577450"},"geometry":{"type":"Polygon","coordinates":[[[139.8879030943188,35.77930557015275],[139.88787686313864,35.77928232704252],[139.88793977255386,35.77923930376592],[139.8879476506096,35.779275174196435],[139.8879030943188,35.77930557015275]]]}},{"type":"Feature","properties":{"height":7.4,"gml_id":"bldg_d1b2504c-560b-4299-b392-6d31ca48cd51"},"geometry":{"type":"Polygon","coordinates":[[[139.8881592377356,35.77957459883891],[139.88809055155028,35.779581570581165],[139.88807755125987,35.77949621799752],[139.88814623737292,35.77948924626266],[139.8881592377356,35.77957459883891]]]}},{"type":"Feature","properties":{"height":9.5,"gml_id":"bldg_561ec76c-6900-4a37-8f48-ee86a16a7c6c"},"geometry":{"type":"Polygon","coordinates":[[[139.88919245761707,35.78033586005692],[139.8891967104676,35.78040661459105],[139.8891464928308,35.78040862089278],[139.88914224002468,35.78033786635689],[139.88919245761707,35.78033586005692]]]}},{"type":"Feature","properties":{"height":7.4,"gml_id":"bldg_8088dba6-ed91-475e-888b-2ca134a1b620"},"geometry":{"type":"Polygon","coordinates":[[[139.888186174072,35.7796579620717],[139.88817728518296,35.779600008875384],[139.88826875613753,35.77959068314962],[139.88826942248465,35.779594558680024],[139.8882763906368,35.779593834411166],[139.8882847238622,35.77964791201934],[139.888186174072,35.7796579620717]]]}},{"type":"Feature","properties":{"height":8.7,"gml_id":"bldg_0ebe537a-f8fc-4ba7-923d-3b8db4e15e8d"},"geometry":{"type":"Polygon","coordinates":[[[139.8875023241857,35.78074530839576],[139.88745733975256,35.78063509271692],[139.88751960303958,35.78061604605046],[139.88754231366275,35.780666962473326],[139.8875269413655,35.780671656456896],[139.88755286608765,35.78073176526783],[139.8875023241857,35.78074530839576]]]}},{"type":"Feature","properties":{"height":4.3,"gml_id":"bldg_cce45bc3-00d2-4f5f-b2e4-a8fd46cc45d6"},"geometry":{"type":"Polygon","coordinates":[[[139.88773966847612,35.779881160600134],[139.88780094505148,35.77987599512844],[139.88780995292106,35.77994656729246],[139.88774856567818,35.77995173281879],[139.88773966847612,35.779881160600134]]]}},{"type":"Feature","properties":{"height":7.9,"gml_id":"bldg_e3eb21cc-b2c5-4717-aaf7-320a34a2c92f"},"geometry":{"type":"Polygon","coordinates":[[[139.88817102651274,35.77982850570703],[139.88823185907717,35.77982117696168],[139.88825095711164,35.77992653686232],[139.8881901244687,35.77993386561729],[139.88817102651274,35.77982850570703]]]}},{"type":"Feature","properties":{"height":7.5,"gml_id":"bldg_22200a91-bd19-4c14-9eaa-b4942d535518"},"geometry":{"type":"Polygon","coordinates":[[[139.88824269953736,35.77982162269099],[139.88829590036025,35.779815198754456],[139.88831510915375,35.77992064873004],[139.88826190826214,35.779927072675044],[139.88824269953736,35.77982162269099]]]}},{"type":"Feature","properties":{"height":7.3,"gml_id":"bldg_e7aa0331-a9da-4171-b76f-e57e9992e9ef"},"geometry":{"type":"Polygon","coordinates":[[[139.88820251298299,35.78025546409195],[139.88818123187025,35.78019264922815],[139.88827291697993,35.78017205644163],[139.88829419815926,35.78023487128935],[139.88820251298299,35.78025546409195]]]}},{"type":"Feature","properties":{"height":3.6,"gml_id":"bldg_46b25e24-1e00-40a3-ad3a-c90cfbcbec44"},"geometry":{"type":"Polygon","coordinates":[[[139.88815228739534,35.78040691494308],[139.88814142353266,35.780372488064515],[139.88818610536842,35.78036309358169],[139.88819696924907,35.780397520456255],[139.88815228739534,35.78040691494308]]]}},{"type":"Feature","properties":{"height":2.3,"gml_id":"bldg_23c45d83-faf2-4bb9-8fd2-8cbcb7f5f275"},"geometry":{"type":"Polygon","coordinates":[[[139.89042493989734,35.78004774843988],[139.89045202719635,35.78002934789774],[139.89046453529124,35.78004151027377],[139.89043744805545,35.78006000095435],[139.89042493989734,35.78004774843988]]]}},{"type":"Feature","properties":{"height":3.5,"gml_id":"bldg_31c47f36-6ae3-4975-b38f-628986d81f8a"},"geometry":{"type":"Polygon","coordinates":[[[139.88968358568695,35.78127574601351],[139.88964011895666,35.78128324763352],[139.8896285839025,35.78123926682814],[139.88967205060993,35.781231765212276],[139.88968358568695,35.78127574601351]]]}},{"type":"Feature","properties":{"height":7.8,"gml_id":"bldg_782f83b2-5ef6-4679-9a40-ac316d2a9f82"},"geometry":{"type":"Polygon","coordinates":[[[139.888094246138,35.78013013470379],[139.88810855222042,35.780183849056705],[139.88801741710165,35.780200024819294],[139.8880031110159,35.78014622031997],[139.888094246138,35.78013013470379]]]}},{"type":"Feature","properties":{"height":7.4,"gml_id":"bldg_808068f6-675c-4e52-871e-f8802d9724fe"},"geometry":{"type":"Polygon","coordinates":[[[139.88819573947444,35.77973457304628],[139.8880807091793,35.77974616283609],[139.88807259805034,35.77969316674182],[139.88817977520105,35.77968230162702],[139.8881807753046,35.77968897121209],[139.88818862831258,35.77968815640907],[139.88819573947444,35.77973457304628]]]}},{"type":"Feature","properties":{"height":5.5,"gml_id":"bldg_e58ad4cc-4546-47a0-b170-9ad90a590919"},"geometry":{"type":"Polygon","coordinates":[[[139.88898963466443,35.78024041027132],[139.88898395884578,35.78019092840774],[139.88906957053075,35.78018548061919],[139.88907138037345,35.78024280607503],[139.88906197840438,35.780243170975034],[139.88906733312672,35.78030797604922],[139.88899056858224,35.780310715671476],[139.8889813390273,35.78024104506004],[139.88898963466443,35.78024041027132]]]}},{"type":"Feature","properties":{"height":8.1,"gml_id":"bldg_dd139c61-3961-4104-bfeb-315470ef52a5"},"geometry":{"type":"Polygon","coordinates":[[[139.88765991691795,35.780695662685076],[139.88762257967184,35.78060743671791],[139.88766637537088,35.780595969707896],[139.88766781735052,35.780601827875486],[139.88768197439632,35.78059938781503],[139.8877154360671,35.78068157642614],[139.88765991691795,35.780695662685076]]]}},{"type":"Feature","properties":{"height":10.1,"gml_id":"bldg_46a008ab-826c-4a66-bdae-872be1098550"},"geometry":{"type":"Polygon","coordinates":[[[139.88875384080285,35.77981417736908],[139.888768612191,35.779900250143875],[139.88875898953356,35.77990133620743],[139.8887670974476,35.77994901424926],[139.8886332488822,35.77994087352447],[139.8886152180606,35.77993980018608],[139.88861310585054,35.77992456822575],[139.8885419846514,35.779929738631054],[139.88851456920818,35.77979400686613],[139.88873566906477,35.779769388304025],[139.88874344392175,35.779815353923865],[139.88875384080285,35.77981417736908]]]}},{"type":"Feature","properties":{"height":9.3,"gml_id":"bldg_334f0a71-06f3-4e52-b53e-03d36d9342f2"},"geometry":{"type":"Polygon","coordinates":[[[139.88840478602904,35.78019642289665],[139.88838848980774,35.78014433193261],[139.88850373332812,35.78012039316227],[139.88851249121976,35.78014842134219],[139.88844524740944,35.78016242320813],[139.88845278566603,35.780186305709655],[139.88840478602904,35.78019642289665]]]}},{"type":"Feature","properties":{"height":7.4,"gml_id":"bldg_c7e2b4b2-5b72-4633-a93d-de7776d83178"},"geometry":{"type":"Polygon","coordinates":[[[139.88833791082115,35.77946094627586],[139.88835380024997,35.77956504573427],[139.88828522470342,35.77957201753709],[139.88827689105156,35.779517308978605],[139.88829580463286,35.77951540748648],[139.8882882489324,35.77946601657874],[139.88833791082115,35.77946094627586]]]}},{"type":"Feature","properties":{"height":7.3,"gml_id":"bldg_5588e31a-b69c-48b4-9d97-7d6c967daac3"},"geometry":{"type":"Polygon","coordinates":[[[139.88849863275914,35.780422800718],[139.88848289616382,35.78038035402994],[139.8885112103128,35.78037574412235],[139.8885102086782,35.78036691128514],[139.88862014660663,35.78034820270772],[139.8886292372817,35.78037749262459],[139.88860191941856,35.78038318373027],[139.88860425480195,35.78040120979315],[139.88849863275914,35.780422800718]]]}},{"type":"Feature","properties":{"height":4.4,"gml_id":"bldg_58f5c0b6-cc85-46bf-a4b3-5e26e3f3d858"},"geometry":{"type":"Polygon","coordinates":[[[139.88970321842567,35.781508557236236],[139.88974491904463,35.78150619415497],[139.88975586355846,35.781653560828836],[139.88970686244048,35.78165628787902],[139.88970321842567,35.781508557236236]]]}},{"type":"Feature","properties":{"height":6.9,"gml_id":"bldg_dd2eca9d-9cfc-42c4-b584-66de9ba69eb4"},"geometry":{"type":"Polygon","coordinates":[[[139.88817796877296,35.78011215954983],[139.88818750072505,35.78014000712911],[139.88820420087097,35.78013621381175],[139.88821572785648,35.78016982916221],[139.88812946178328,35.78018888712946],[139.88810851357766,35.78012751427133],[139.88817796877296,35.78011215954983]]]}}]}