{"type":"FeatureCollection","crs":{"type":"name","properties":{"name":"urn:ogc:def:crs:OGC:1.3:CRS84"}},"features":[{"type":"Feature","properties":{"height":8.7,"gml_id":"bldg_8b86992c-ab85-4eb3-8d3e-2f647b7c44cd"},"geometry":{"type":"Polygon","coordinates":[[[139.82512440393282,35.811557324996606],[139.82512363051558,35.81154578763488],[139.82510495620977,35.81128538568446],[139.82509799489745,35.811187498347266],[139.8250941274966,35.811133236672724],[139.8250919175743,35.8111020497308],[139.82507291204655,35.81083641988974],[139.8255928907781,35.81081256865634],[139.82560770419974,35.81096318558849],[139.82563979595542,35.81095047857844],[139.82566974371005,35.81136978958993],[139.82576878267392,35.811365108830785],[139.82582249134808,35.81211801171729],[139.8257048607201,35.81212359269388],[139.82569159951137,35.811937552760064],[139.82543287907205,35.811949794425594],[139.8254437086579,35.812100771628394],[139.82523456293953,35.81211067259441],[139.82521279415081,35.81180664502938],[139.82514252587072,35.81180997526549],[139.8251304813902,35.81164214265839],[139.8251284925607,35.81161284857461],[139.82512440393282,35.811557324996606]]]}},{"type":"Feature","properties":{"height":7.4,"gml_id":"bldg_4b0f2a36-2118-4bd2-b27f-b4807ae738f4"},"geometry":{"type":"Polygon","coordinates":[[[139.8250919175743,35.8111020497308],[139.8250941274966,35.811133236672724],[139.82509799489745,35.811187498347266],[139.82503812900188,35.8111902884235],[139.82503160909513,35.81110502004394],[139.8250919175743,35.8111020497308]]]}}]}