{"type":"FeatureCollection","crs":{"type":"name","properties":{"name":"urn:ogc:def:crs:OGC:1.3:CRS84"}},"features":[{"type":"Feature","properties":{"height":11.4,"gml_id":"bldg_312752fe-56ad-4d2d-b87b-7864c190d770"},"geometry":{"type":"Polygon","coordinates":[[[139.8394413480381,35.80044962523944],[139.8394992134027,35.80044160023588],[139.839495782242,35.800425466176414],[139.83956648195107,35.800415547638664],[139.83957013450194,35.80043285344476],[139.83960111403255,35.80042852533489],[139.83962214395038,35.800528304116185],[139.83946270978632,35.8005506659269],[139.8394413480381,35.80044962523944]]]}},{"type":"Feature","properties":{"height":8.7,"gml_id":"bldg_18b606b6-3b1f-4847-a35c-6460b6bd2f47"},"geometry":{"type":"Polygon","coordinates":[[[139.8385300735797,35.80008876595639],[139.83854424156664,35.80017790925147],[139.83847243536954,35.80018548371549],[139.83847044298858,35.800172684574264],[139.83846424707525,35.8001733157866],[139.83845317839544,35.80010355146069],[139.83848316215708,35.80010039544122],[139.8384821659551,35.80009381559984],[139.8385300735797,35.80008876595639]]]}},{"type":"Feature","properties":{"height":9.5,"gml_id":"bldg_3ce64d16-327a-4c62-8cf1-6a1c89f62959"},"geometry":{"type":"Polygon","coordinates":[[[139.8381223635283,35.80017900842043],[139.8381218105182,35.800182343452136],[139.83813730052967,35.80018441594835],[139.83813818776107,35.800219208176],[139.83809537096343,35.80024760252928],[139.83800043936063,35.800236519598045],[139.83800187724418,35.80022858762736],[139.8379923619594,35.80022750637169],[139.8380034225146,35.800165042112624],[139.8381223635283,35.80017900842043]]]}},{"type":"Feature","properties":{"height":5.4,"gml_id":"bldg_81d05895-c55a-47a8-bfde-43dd4dce34a6"},"geometry":{"type":"Polygon","coordinates":[[[139.83953625987957,35.80020066641996],[139.8393986229158,35.800224018509724],[139.83938855150885,35.80018481011986],[139.83952618840095,35.80016136790609],[139.83953625987957,35.80020066641996]]]}},{"type":"Feature","properties":{"height":7.2,"gml_id":"bldg_434a4709-f525-4ffc-824a-17e8dde3f90d"},"geometry":{"type":"Polygon","coordinates":[[[139.83801924393228,35.80015837147765],[139.8380196863309,35.800155487127704],[139.83799346401133,35.8001526939496],[139.83799512306217,35.800142778991564],[139.83798804193256,35.800142058182736],[139.8379925766332,35.80011429630458],[139.83803085898776,35.80011835090786],[139.8380320756353,35.80011132029928],[139.8380865118178,35.800117086825026],[139.8380869542299,35.800114472881006],[139.8381358582879,35.800119698790624],[139.8381277844468,35.80016999466467],[139.83801924393228,35.80015837147765]]]}},{"type":"Feature","properties":{"height":11.8,"gml_id":"bldg_32d64c9b-32f0-4041-a3d0-b546367cedb6"},"geometry":{"type":"Polygon","coordinates":[[[139.83823964496375,35.80019315494905],[139.83831200476573,35.80019143940194],[139.83831510824135,35.80027950155545],[139.83824285899627,35.80028112696448],[139.83823964496375,35.80019315494905]]]}},{"type":"Feature","properties":{"height":6.9,"gml_id":"bldg_323c2500-80fa-4468-9c39-24314dfa222b"},"geometry":{"type":"Polygon","coordinates":[[[139.83800764710267,35.80050971969757],[139.83799271338083,35.80056136785666],[139.8378832866889,35.80054055077209],[139.83789810983,35.80048881249522],[139.83800764710267,35.80050971969757]]]}},{"type":"Feature","properties":{"height":7.4,"gml_id":"bldg_e68312e1-f627-4ca9-b7d4-8cc31feb6f16"},"geometry":{"type":"Polygon","coordinates":[[[139.83776819117546,35.800049948116055],[139.83784110528399,35.800069775192185],[139.8378455303582,35.80005913904915],[139.83788348110784,35.800069413054366],[139.83785870075943,35.80012998497723],[139.8377307967141,35.80009510732427],[139.8377447357232,35.800061215903796],[139.8377616641859,35.80006581218682],[139.83776819117546,35.800049948116055]]]}},{"type":"Feature","properties":{"height":8.2,"gml_id":"bldg_91ce02ae-2ee8-449f-a98f-2cb50798e0fa"},"geometry":{"type":"Polygon","coordinates":[[[139.8383539310457,35.80007921908843],[139.83835736245436,35.800103194961046],[139.83838380564353,35.80009949830186],[139.83839576023325,35.80018242236486],[139.83834176731008,35.80018873410393],[139.83832638138074,35.800081924297636],[139.8383539310457,35.80007921908843]]]}},{"type":"Feature","properties":{"height":7.5,"gml_id":"bldg_bb5f75d8-16ae-40fd-9833-40a550c6b704"},"geometry":{"type":"Polygon","coordinates":[[[139.83833810154223,35.79995627506356],[139.83834153268057,35.79997610470875],[139.83835956712304,35.799973490029565],[139.83837417710208,35.80005686466242],[139.83832383544996,35.80006326637582],[139.83830557310836,35.799960062099984],[139.83833810154223,35.79995627506356]]]}},{"type":"Feature","properties":{"height":3.2,"gml_id":"bldg_a7604e95-e7fc-4c23-91ec-47fc9acee5c8"},"geometry":{"type":"Polygon","coordinates":[[[139.83774540865505,35.80022544257347],[139.83778556593626,35.80012142484486],[139.8378525052989,35.80013863820843],[139.83781953878585,35.80022399766397],[139.83774540865505,35.80022544257347]]]}},{"type":"Feature","properties":{"height":4.0,"gml_id":"bldg_c0b28880-acaf-4857-8bec-a0262ef94fc0"},"geometry":{"type":"Polygon","coordinates":[[[139.83960807040503,35.80024924567231],[139.83962212589233,35.80029917994707],[139.83955751179136,35.8003113515877],[139.83954334570018,35.80026141731121],[139.83960807040503,35.80024924567231]]]}},{"type":"Feature","properties":{"height":7.6,"gml_id":"bldg_d46dc2ac-2a92-4fab-af79-761b793ed786"},"geometry":{"type":"Polygon","coordinates":[[[139.83869017860653,35.80018069703525],[139.83873166949536,35.800182497887455],[139.83872956941164,35.80021377496438],[139.8387754860146,35.80021575587351],[139.83877305440788,35.80025271149598],[139.8387624327313,35.80025226129908],[139.83876033277426,35.80028525094869],[139.8387313444351,35.80028399035813],[139.83873090234192,35.800291020938815],[139.83868321541559,35.80028894995607],[139.83869017860653,35.80018069703525]]]}},{"type":"Feature","properties":{"height":8.0,"gml_id":"bldg_849e6fe2-e2cc-4d64-92e7-55d3fe2cb81b"},"geometry":{"type":"Polygon","coordinates":[[[139.83812647636947,35.8004967355226],[139.83821808925612,35.800511604175185],[139.83822173955312,35.800496821822506],[139.83822981653185,35.800498083389336],[139.83823180758753,35.80048979085215],[139.83825150214227,35.80049294478687],[139.83824995353635,35.800499254327654],[139.83829841543354,35.80050709411527],[139.83826589479116,35.80064058596801],[139.8381052400633,35.800614633459226],[139.83811198759676,35.80058678135551],[139.83802480039475,35.800572723668196],[139.83804106091472,35.80050593270742],[139.8381210562182,35.80051890904501],[139.83812647636947,35.8004967355226]]]}},{"type":"Feature","properties":{"height":5.2,"gml_id":"bldg_38ffd061-9bac-4a2d-82a8-b355b88980d6"},"geometry":{"type":"Polygon","coordinates":[[[139.8390032102504,35.8005367174883],[139.83907479595993,35.80053653382037],[139.8390751349573,35.80063478138023],[139.83900354915963,35.80063496504835],[139.8390032102504,35.8005367174883]]]}},{"type":"Feature","properties":{"height":8.2,"gml_id":"bldg_207c1996-9677-4570-987f-24168b2d9c07"},"geometry":{"type":"Polygon","coordinates":[[[139.8375943915935,35.80040175285304],[139.83759870616822,35.80039282929607],[139.8376557984405,35.80040806013863],[139.83765048827533,35.80042040887833],[139.8377242879018,35.80044149788778],[139.83772362449866,35.80044970023278],[139.83776622250568,35.80046186694779],[139.83775892103478,35.800478632399816],[139.83776854707898,35.80048133610688],[139.837740447483,35.800546324757796],[139.83763002451713,35.800514781367546],[139.83762216988737,35.80053316926792],[139.83755854946145,35.80051487403597],[139.83756540845562,35.800499009965726],[139.8374978048849,35.80047963321695],[139.83753608251868,35.80039120906432],[139.83759228970155,35.800407611728104],[139.8375943915935,35.80040175285304]]]}},{"type":"Feature","properties":{"height":4.8,"gml_id":"bldg_ed0d620e-7675-482f-879e-c057b07f0e32"},"geometry":{"type":"Polygon","coordinates":[[[139.83912701660054,35.80050020675241],[139.8391787972321,35.800499483162945],[139.83917935226717,35.800524360504134],[139.83925082726918,35.80052345565365],[139.83925204889,35.800584837795],[139.83912868249632,35.80058637610638],[139.83912701660054,35.80050020675241]]]}},{"type":"Feature","properties":{"height":2.1,"gml_id":"bldg_06e67838-50fc-47f9-a80a-cfc213aaca6d"},"geometry":{"type":"Polygon","coordinates":[[[139.8377560396397,35.80039399537166],[139.83778591316732,35.800395706841535],[139.8377823750096,35.800438701555194],[139.83775250147093,35.80043708021983],[139.8377560396397,35.80039399537166]]]}},{"type":"Feature","properties":{"height":5.9,"gml_id":"bldg_6e2a29b6-b586-494f-9550-8e83409418a9"},"geometry":{"type":"Polygon","coordinates":[[[139.83781080739618,35.8003903879288],[139.83786657177356,35.80040165276341],[139.83785296564886,35.800452579772866],[139.83779698002357,35.80044257683577],[139.83781080739618,35.8003903879288]]]}},{"type":"Feature","properties":{"height":7.5,"gml_id":"bldg_7e3d2d3a-6c10-4785-8ccf-e843f62ed194"},"geometry":{"type":"Polygon","coordinates":[[[139.83850893319786,35.79996888678725],[139.83852431829428,35.800059472200466],[139.83845638467952,35.800067226758564],[139.83845572060252,35.800063711506304],[139.83844476713693,35.800064973868054],[139.83843203853985,35.799990162027115],[139.83844254943403,35.79998898982071],[139.83844044644988,35.799976641360274],[139.83850893319786,35.79996888678725]]]}},{"type":"Feature","properties":{"height":7.1,"gml_id":"bldg_13d256ad-e8af-4094-9dd2-5e3f439e5814"},"geometry":{"type":"Polygon","coordinates":[[[139.8379775597184,35.800636451223426],[139.83785762174298,35.80061329100118],[139.8378618253399,35.80059877904504],[139.8378404710791,35.800594633619454],[139.8378473295651,35.80057065734815],[139.83786370484694,35.800573811470954],[139.8378684615408,35.80055731651503],[139.8379935996901,35.800581377879155],[139.8379775597184,35.800636451223426]]]}},{"type":"Feature","properties":{"height":3.1,"gml_id":"bldg_06fb8744-a232-4ac2-bea6-0ea06c0ad9aa"},"geometry":{"type":"Polygon","coordinates":[[[139.8391612833294,35.800056017867355],[139.8391642666158,35.8000006745876],[139.83921991958513,35.800002654854495],[139.83921693633062,35.800057908000234],[139.8391612833294,35.800056017867355]]]}},{"type":"Feature","properties":{"height":14.2,"gml_id":"bldg_5893df66-8cae-4a41-ab78-de2cfb157e0e"},"geometry":{"type":"Polygon","coordinates":[[[139.83777994183106,35.800455827369866],[139.83786469495365,35.80047385128407],[139.83782531314682,35.800596527029946],[139.83774055989787,35.80057841295297],[139.83777994183106,35.800455827369866]]]}},{"type":"Feature","properties":{"height":9.2,"gml_id":"bldg_943a9c96-ec99-4458-9a44-87d5a0a26b02"},"geometry":{"type":"Polygon","coordinates":[[[139.83826365383462,35.80018576286437],[139.8382623254897,35.800175397348184],[139.8382259244472,35.80017846343846],[139.8382217179402,35.8001440318878],[139.8382342203361,35.8001415977231],[139.83823023557048,35.800114647401514],[139.83831277404596,35.80010788385666],[139.83832174061334,35.80018098329237],[139.83826365383462,35.80018576286437]]]}},{"type":"Feature","properties":{"height":7.6,"gml_id":"bldg_4e8a6e02-cf26-488f-b207-db67b39b86f0"},"geometry":{"type":"Polygon","coordinates":[[[139.8379966733301,35.80016468183302],[139.8379829580786,35.80023949474342],[139.8378726471194,35.80022615892014],[139.83788625183004,35.80015134602631],[139.8379966733301,35.80016468183302]]]}},{"type":"Feature","properties":{"height":1.6,"gml_id":"bldg_d032e2f5-9440-40aa-9dfc-55e1f7931347"},"geometry":{"type":"Polygon","coordinates":[[[139.837767213845,35.800381916817315],[139.83778912105538,35.800382456819804],[139.8377886790699,35.800392912541874],[139.83776677185162,35.80039228240392],[139.837767213845,35.800381916817315]]]}},{"type":"Feature","properties":{"height":7.0,"gml_id":"bldg_ebd559d5-ff93-409a-896b-6cba7534997c"},"geometry":{"type":"Polygon","coordinates":[[[139.83800542311153,35.800319443968384],[139.8381214876192,35.80033277944065],[139.83812038160218,35.8003395396393],[139.83813321619175,35.800340981293914],[139.83812779659993,35.80037225849199],[139.83813797576306,35.80037342984577],[139.83813321979736,35.80040092133085],[139.8380766811758,35.80039452396175],[139.83807778719193,35.80038767362819],[139.83803087453003,35.80038235748199],[139.8380329760122,35.80037009898627],[139.837997348952,35.80036604428086],[139.83800542311153,35.800319443968384]]]}},{"type":"Feature","properties":{"height":7.6,"gml_id":"bldg_c28a24f7-a995-4c5b-b61f-68c9061ac9b6"},"geometry":{"type":"Polygon","coordinates":[[[139.83830502748685,35.80008183504714],[139.8382386427022,35.80008769657475],[139.838238199924,35.80008427144769],[139.83821596102112,35.80008625533162],[139.83820710560505,35.800019735766526],[139.8382399660488,35.80001685009721],[139.83823730940432,35.799996659876086],[139.838277804076,35.799993052801604],[139.8382802393464,35.800011620593764],[139.838295618474,35.80001026792902],[139.83830502748685,35.80008183504714]]]}},{"type":"Feature","properties":{"height":9.9,"gml_id":"bldg_4469e194-5631-4451-9e79-6ef12101c158"},"geometry":{"type":"Polygon","coordinates":[[[139.83858252505885,35.800198368321254],[139.838576224022,35.800283005733085],[139.83853595013667,35.800281024503846],[139.8385351763994,35.80029265200332],[139.8385009878486,35.80029094090513],[139.83850187222717,35.8002792232657],[139.8384734370936,35.80027778231838],[139.83847642177165,35.80023650017945],[139.83851016772422,35.800238121168334],[139.8385133735489,35.80019503631075],[139.83858252505885,35.800198368321254]]]}},{"type":"Feature","properties":{"height":2.8,"gml_id":"bldg_80dee96c-4bc9-447a-b650-24b51d068747"},"geometry":{"type":"Polygon","coordinates":[[[139.83894121215457,35.79999212233521],[139.8389381180213,35.800046744531514],[139.83888357144048,35.80004467394772],[139.8388866656173,35.79999014188821],[139.83894121215457,35.79999212233521]]]}},{"type":"Feature","properties":{"height":7.7,"gml_id":"bldg_dc8d170b-a989-44db-9c9e-398b42e8a23d"},"geometry":{"type":"Polygon","coordinates":[[[139.83800662405426,35.800044170419326],[139.8380412550402,35.800045611234665],[139.83804070234672,35.80005435439001],[139.83808894226647,35.80005543411641],[139.83808794741879,35.80007102757975],[139.83812069751647,35.80007264871735],[139.83811848673798,35.80010699039214],[139.8380029763069,35.80010284870556],[139.83800662405426,35.800044170419326]]]}},{"type":"Feature","properties":{"height":7.0,"gml_id":"bldg_cb38f8c4-725e-4472-a637-4b487f9a5275"},"geometry":{"type":"Polygon","coordinates":[[[139.8378890124562,35.8000563432121],[139.8378186442251,35.8000563458578],[139.83781864329794,35.800039851079816],[139.837800166109,35.80003985176769],[139.83780016228437,35.799971529134915],[139.83786411322396,35.79997161687742],[139.83786411470817,35.79999775614336],[139.83788900911125,35.799997755202675],[139.8378890124562,35.8000563432121]]]}},{"type":"Feature","properties":{"height":2.6,"gml_id":"bldg_8ff013be-5ebb-40ed-bd33-1c7049a413d7"},"geometry":{"type":"Polygon","coordinates":[[[139.83997672631537,35.80020478911719],[139.8400057140273,35.80019865830503],[139.84001423573824,35.800225788586125],[139.83998524800958,35.80023182926492],[139.83997672631537,35.80020478911719]]]}},{"type":"Feature","properties":{"height":10.1,"gml_id":"bldg_42a079e4-45ff-43fd-a0bb-ca99bd8e8c86"},"geometry":{"type":"Polygon","coordinates":[[[139.83881545858162,35.80066363682572],[139.83881268540193,35.80056007138847],[139.83889433951884,35.80055862547323],[139.83889378504978,35.800540598420596],[139.8389840692572,35.800539061909596],[139.83898728650666,35.80066065440034],[139.83881545858162,35.80066363682572]]]}},{"type":"Feature","properties":{"height":8.6,"gml_id":"bldg_dae3be50-2efe-473b-bb0f-c68ef5aa886d"},"geometry":{"type":"Polygon","coordinates":[[[139.8386530044778,35.80020467470132],[139.83864515456048,35.80028985299758],[139.83860244650006,35.800287240950354],[139.83860487891928,35.8002613719852],[139.83858673352842,35.800260201019256],[139.8385922617273,35.80020089168687],[139.8386530044778,35.80020467470132]]]}},{"type":"Feature","properties":{"height":14.0,"gml_id":"bldg_5a33e693-9ec1-474d-8e30-b6886f65b2dd"},"geometry":{"type":"Polygon","coordinates":[[[139.83912680231805,35.80059665163155],[139.83925404118588,35.80059466245451],[139.83925537323216,35.800653070121804],[139.83912824491398,35.80065505929492],[139.83912680231805,35.80059665163155]]]}},{"type":"Feature","properties":{"height":8.6,"gml_id":"bldg_f6b7e8be-8bd9-4f69-8b46-432d70456bd0"},"geometry":{"type":"Polygon","coordinates":[[[139.8395581626785,35.800145141883405],[139.83939684855991,35.80017029790278],[139.83937991487872,35.800098370708284],[139.83954122885726,35.800073214711325],[139.8395581626785,35.800145141883405]]]}},{"type":"Feature","properties":{"height":7.1,"gml_id":"bldg_1dfd2705-a9d8-412f-85c4-612468db2ac8"},"geometry":{"type":"Polygon","coordinates":[[[139.83803142999182,35.80042057486722],[139.83801229258137,35.80048403093009],[139.8379251053121,35.80046654802532],[139.8379429153554,35.80040786920288],[139.83796194606097,35.80041165415828],[139.83796338413973,35.80040696706244],[139.83803142999182,35.80042057486722]]]}},{"type":"Feature","properties":{"height":8.0,"gml_id":"bldg_ba5a40ab-35a5-4a47-ac52-9abf0633eed2"},"geometry":{"type":"Polygon","coordinates":[[[139.83965267056593,35.80039291915575],[139.83967690836096,35.80048251246007],[139.83962059214258,35.80049261058214],[139.83959635441477,35.80040310740198],[139.83965267056593,35.80039291915575]]]}},{"type":"Feature","properties":{"height":6.6,"gml_id":"bldg_d0428697-31d3-4d1f-a272-facbc3808749"},"geometry":{"type":"Polygon","coordinates":[[[139.8386293533837,35.80060109120662],[139.83872959595814,35.800606314601964],[139.8387257267248,35.80065453720931],[139.83862548409,35.800649313810794],[139.8386293533837,35.80060109120662]]]}},{"type":"Feature","properties":{"height":8.0,"gml_id":"bldg_aba997fd-a3c4-4fe4-9eee-1de9ce1284dd"},"geometry":{"type":"Polygon","coordinates":[[[139.8383038265287,35.800340343414035],[139.83830084411426,35.800419482413204],[139.83822793067773,35.80041768269572],[139.8382275993643,35.800427687737866],[139.83821089234175,35.800427327875234],[139.8382136539305,35.80035422795876],[139.83825337457222,35.800355217829264],[139.83825392678872,35.80033908357104],[139.8383038265287,35.800340343414035]]]}},{"type":"Feature","properties":{"height":7.3,"gml_id":"bldg_0e270f3b-480d-4726-8ce1-97bd51e3a439"},"geometry":{"type":"Polygon","coordinates":[[[139.83798128992544,35.80009320505827],[139.8379722210343,35.80015765221793],[139.8378777322417,35.80014864228669],[139.8378757415118,35.80016315416091],[139.83786478789028,35.80016207294947],[139.83787164496823,35.80011412065931],[139.83788248794127,35.800115201874306],[139.83788691185,35.800084195129855],[139.83798128992544,35.80009320505827]]]}},{"type":"Feature","properties":{"height":10.5,"gml_id":"bldg_bad52b34-e3ff-445a-839d-db5f4fdb404c"},"geometry":{"type":"Polygon","coordinates":[[[139.83839708877866,35.80019567221226],[139.83839654049274,35.800273278811446],[139.83837928033077,35.80027354994327],[139.83837950209394,35.80028112130719],[139.83831864894887,35.800282025199756],[139.8383189755534,35.800196847236904],[139.83839708877866,35.80019567221226]]]}},{"type":"Feature","properties":{"height":7.7,"gml_id":"bldg_2aa74773-e7d9-4598-a6fa-768c8bdd9675"},"geometry":{"type":"Polygon","coordinates":[[[139.83798427039608,35.79997548811165],[139.83798206309032,35.80007040077254],[139.83790295406513,35.80006914190965],[139.8379047202508,35.799997844741746],[139.83792441451047,35.79999820453292],[139.83792496635536,35.79997449890167],[139.83798427039608,35.79997548811165]]]}},{"type":"Feature","properties":{"height":7.1,"gml_id":"bldg_2c56e49f-c208-4209-a168-5e11b9d337da"},"geometry":{"type":"Polygon","coordinates":[[[139.83857543611458,35.800078849093325],[139.838793733627,35.80009398212436],[139.83878488806158,35.80017870979953],[139.83856659031903,35.800163576752645],[139.83857543611458,35.800078849093325]]]}},{"type":"Feature","properties":{"height":7.4,"gml_id":"bldg_3350025e-fce7-418b-9417-c8940a13082f"},"geometry":{"type":"Polygon","coordinates":[[[139.83871229774954,35.800043239565774],[139.83871550285537,35.799991231296886],[139.8387782369243,35.79999384239882],[139.83877934208104,35.7999753645918],[139.8388171816684,35.799976895173685],[139.83881276083807,35.80004738125764],[139.83871229774954,35.800043239565774]]]}},{"type":"Feature","properties":{"height":2.8,"gml_id":"bldg_68522954-fc2b-4b95-9cbc-3cdd03ec62e3"},"geometry":{"type":"Polygon","coordinates":[[[139.8389867967482,35.799994643991624],[139.83912166942,35.7999992344795],[139.83911890730943,35.80005349612279],[139.83898403454606,35.80004890563187],[139.8389867967482,35.799994643991624]]]}}]}