{"type":"FeatureCollection","crs":{"type":"name","properties":{"name":"urn:ogc:def:crs:OGC:1.3:CRS84"}},"features":[{"type":"Feature","properties":{"height":11.1,"gml_id":"bldg_a0ad8d27-2f54-48d9-b0d1-7b198a84abc2"},"geometry":{"type":"Polygon","coordinates":[[[139.74833634149866,35.78408916959193],[139.74831421267967,35.784093750865004],[139.74830969973567,35.784072655942204],[139.74851837530957,35.78402854671773],[139.7485478115632,35.78412194796479],[139.74835861174012,35.7841595812395],[139.74833634149866,35.78408916959193]]]}},{"type":"Feature","properties":{"height":11.1,"gml_id":"bldg_34bc3506-8443-4a7d-8521-eb8e80f85e1f"},"geometry":{"type":"Polygon","coordinates":[[[139.74942722736938,35.78434312660981],[139.74952260326603,35.784322732337365],[139.7495479630887,35.78440161866261],[139.74945258719893,35.78442192281924],[139.74942722736938,35.78434312660981]]]}},{"type":"Feature","properties":{"height":3.1,"gml_id":"bldg_d0a47592-723d-46a9-8239-48b5b535fe21"},"geometry":{"type":"Polygon","coordinates":[[[139.7487963421028,35.784465629723265],[139.74880853398363,35.784443284664064],[139.74883785575378,35.78443627469337],[139.74889167325196,35.78459242735703],[139.74884442626214,35.78460384139232],[139.7487963421028,35.784465629723265]]]}},{"type":"Feature","properties":{"height":7.5,"gml_id":"bldg_ffc45678-c6be-461c-b9b8-f23b89dae78d"},"geometry":{"type":"Polygon","coordinates":[[[139.74873618938682,35.784859930666634],[139.7487210807771,35.78481611413715],[139.7487823794961,35.78480209609921],[139.74878601871305,35.78481273465832],[139.74882408146217,35.78480401826041],[139.74883555080518,35.78483728635517],[139.74873618938682,35.784859930666634]]]}},{"type":"Feature","properties":{"height":7.4,"gml_id":"bldg_cd5e25f1-394e-46d4-9251-fd436ffa8dec"},"geometry":{"type":"Polygon","coordinates":[[[139.74801077547747,35.78420413234266],[139.7479542238065,35.78422743732665],[139.74791612631608,35.78416539697544],[139.74792232410618,35.78416251703821],[139.74791172322506,35.78414511333651],[139.74796207716113,35.7841245981762],[139.74801077547747,35.78420413234266]]]}},{"type":"Feature","properties":{"height":7.7,"gml_id":"bldg_bc1f7d95-38bf-4a81-9cd0-34e38dde9d62"},"geometry":{"type":"Polygon","coordinates":[[[139.74716404747448,35.783732029227146],[139.74715963088133,35.78372445467094],[139.74711547526547,35.78374163892311],[139.74709791914404,35.78371170131174],[139.74711894562873,35.7837035140474],[139.7471137559733,35.78369476717229],[139.74718491398963,35.78366705640097],[139.7471947410935,35.78368373852883],[139.74723557672866,35.783667813769014],[139.74725213916685,35.78369603807263],[139.74724937252384,35.7836971177195],[139.74716404747448,35.783732029227146]]]}},{"type":"Feature","properties":{"height":5.6,"gml_id":"bldg_3b4bd95c-531d-47ea-86f1-3516b58ddd6f"},"geometry":{"type":"Polygon","coordinates":[[[139.74817205324314,35.784728295050435],[139.74819957698364,35.784851529899555],[139.74810852173528,35.78486498574157],[139.7480809980345,35.7847418410076],[139.74817205324314,35.784728295050435]]]}},{"type":"Feature","properties":{"height":8.9,"gml_id":"bldg_863a48a8-52be-4668-bca6-06a99b2da47b"},"geometry":{"type":"Polygon","coordinates":[[[139.74869118783724,35.78410961025316],[139.74871412316674,35.784179030811295],[139.7487070256375,35.784195881175116],[139.74872029599783,35.784199676208544],[139.74870144181327,35.784245722235305],[139.74868817201957,35.78424138638658],[139.74868008214992,35.784255171439554],[139.74868282862872,35.78427311035826],[139.7484868721699,35.78431876114597],[139.74843714560578,35.78416540538662],[139.74869118783724,35.78410961025316]]]}},{"type":"Feature","properties":{"height":9.0,"gml_id":"bldg_397b85c1-fae4-4767-b592-ea4c0d58091a"},"geometry":{"type":"Polygon","coordinates":[[[139.74883018763714,35.783842546063255],[139.74881441592896,35.78379827839416],[139.7488715072691,35.7837871416903],[139.74889686503994,35.78386719992087],[139.74883988207148,35.783880409831774],[139.74882465562374,35.78384353366749],[139.74883018763714,35.783842546063255]]]}},{"type":"Feature","properties":{"height":22.8,"gml_id":"bldg_cfa7706e-96da-4a4e-94d1-e5c7f8b7c661"},"geometry":{"type":"Polygon","coordinates":[[[139.74953474249804,35.78329636658031],[139.74957641503818,35.78343105822685],[139.74947285329802,35.78345252846497],[139.7494793421278,35.78348840696549],[139.74944770060813,35.78349271140732],[139.74943479135862,35.7834611549356],[139.7493523678733,35.78347299530444],[139.74935027483912,35.78346470136597],[139.74934230820259,35.78346667878558],[139.74933955202602,35.78345784357003],[139.749319194762,35.783461074231774],[139.7492866808306,35.78334838198943],[139.74953474249804,35.78329636658031]]]}},{"type":"Feature","properties":{"height":6.0,"gml_id":"bldg_1dc4439e-1305-432e-ad34-4b054d45ac9f"},"geometry":{"type":"Polygon","coordinates":[[[139.74824500013196,35.784579532814554],[139.74824698053882,35.78458962940298],[139.74826955025176,35.78458667089542],[139.7483096005516,35.784789053636985],[139.74821511951737,35.78479935239184],[139.74817439851952,35.784603729314306],[139.74818668122145,35.78460013258782],[139.74818415031592,35.78458760194746],[139.74824500013196,35.784579532814554]]]}},{"type":"Feature","properties":{"height":7.5,"gml_id":"bldg_7117f3bf-bb0e-43ae-b7ab-72dc683678dd"},"geometry":{"type":"Polygon","coordinates":[[[139.74971000866714,35.78335778080598],[139.74973003507148,35.783353558356175],[139.7497218761012,35.78332795416774],[139.74979379420358,35.783312681094216],[139.74981264840633,35.783371552749955],[139.74972070374795,35.783391138421656],[139.74971000866714,35.78335778080598]]]}},{"type":"Feature","properties":{"height":8.4,"gml_id":"bldg_fbef675f-75db-4719-b4f2-771ed366e780"},"geometry":{"type":"Polygon","coordinates":[[[139.74897292170044,35.78391403368165],[139.74906132608749,35.78389561786595],[139.74907312231144,35.78393357322387],[139.74898549212585,35.783952079726745],[139.74897292170044,35.78391403368165]]]}},{"type":"Feature","properties":{"height":9.6,"gml_id":"bldg_c9e44f94-5583-4aa8-a6d6-77db02748e30"},"geometry":{"type":"Polygon","coordinates":[[[139.74980654678478,35.783705591106944],[139.74970951175007,35.78372661540276],[139.74968789999608,35.783660170424675],[139.74973824307347,35.78364929902172],[139.7497389069763,35.78364911921201],[139.74978482433664,35.78363914606908],[139.74978813224905,35.78364933369174],[139.74980654678478,35.783705591106944]]]}},{"type":"Feature","properties":{"height":7.0,"gml_id":"bldg_000d677a-0b0a-4a66-8529-ad6c76b0ecf5"},"geometry":{"type":"Polygon","coordinates":[[[139.74973051785196,35.783420709727785],[139.74974578662932,35.783417475459565],[139.74973806842343,35.783393494020004],[139.74981529740788,35.78337714299812],[139.74983282845886,35.783431957628345],[139.74974033054772,35.78345163306626],[139.74973051785196,35.783420709727785]]]}},{"type":"Feature","properties":{"height":6.4,"gml_id":"bldg_5aea7c32-6641-414d-a047-054d9693ebe9"},"geometry":{"type":"Polygon","coordinates":[[[139.74896079592074,35.78376926738278],[139.74901512478678,35.78375524433285],[139.74902957107065,35.783797708334596],[139.74894913203715,35.78381549876768],[139.74894317898577,35.78379620556927],[139.74896079592074,35.78376926738278]]]}},{"type":"Feature","properties":{"height":2.3,"gml_id":"bldg_2f55e419-0805-4b91-877c-5e20b6c3208c"},"geometry":{"type":"Polygon","coordinates":[[[139.74753460584884,35.78384983101846],[139.74754976727633,35.7838437126133],[139.74756423313,35.78386724832585],[139.74754907169913,35.7838733667328],[139.74753460584884,35.78384983101846]]]}},{"type":"Feature","properties":{"height":7.7,"gml_id":"bldg_c96aa6c5-16df-42e8-9a5c-9917a3706f86"},"geometry":{"type":"Polygon","coordinates":[[[139.7476844562225,35.78419542762377],[139.7476776098845,35.78418415579675],[139.74764806154587,35.78419612278169],[139.74763072471967,35.784167717711696],[139.7476747706148,35.784149812108645],[139.74766615746188,35.78413565468296],[139.74770466993178,35.784119998516964],[139.7477098599695,35.78412847495946],[139.74772723479632,35.784121456752125],[139.7477531842355,35.784164560041724],[139.7476844562225,35.78419542762377]]]}},{"type":"Feature","properties":{"height":4.4,"gml_id":"bldg_a0b5036a-6645-41e6-ad37-ad9f6c1add30"},"geometry":{"type":"Polygon","coordinates":[[[139.74847791999477,35.78472751977883],[139.74853512496435,35.7847142200627],[139.74854196160905,35.784734775799734],[139.74848342917946,35.78474807458243],[139.74847791999477,35.78472751977883]]]}},{"type":"Feature","properties":{"height":7.7,"gml_id":"bldg_26f1bc12-9d26-4aa2-a542-61acca184263"},"geometry":{"type":"Polygon","coordinates":[[[139.74967055656765,35.78342634657106],[139.74961368456547,35.78343964706271],[139.74959846880907,35.78339231526924],[139.74958098718463,35.78339599865573],[139.7495686383669,35.78335741200988],[139.74962340676922,35.78334582265179],[139.7496283683529,35.78336132943195],[139.74964839476243,35.78335710699575],[139.74967055656765,35.78342634657106]]]}},{"type":"Feature","properties":{"height":7.5,"gml_id":"bldg_ea62facc-d0e2-4765-8967-fdfb535ca57c"},"geometry":{"type":"Polygon","coordinates":[[[139.74974707074202,35.78345884860077],[139.7498352534928,35.78344016165339],[139.74985554099436,35.783503631212874],[139.74979380192775,35.78351674813959],[139.74979027372558,35.78350565900767],[139.74976394050393,35.78351131925459],[139.74974707074202,35.78345884860077]]]}},{"type":"Feature","properties":{"height":6.1,"gml_id":"bldg_37865227-ecba-4b57-8afa-2ea458e15050"},"geometry":{"type":"Polygon","coordinates":[[[139.7489253786653,35.78347341744109],[139.74892758408475,35.78347999888908],[139.7489564622535,35.78347370966167],[139.74897079688432,35.78351707495025],[139.74888615384157,35.78353558347782],[139.7488745760468,35.78350042245667],[139.74888586183434,35.783497906585204],[139.74888101024257,35.78348312093704],[139.7489253786653,35.78347341744109]]]}},{"type":"Feature","properties":{"height":2.6,"gml_id":"bldg_599afba7-1eaf-4020-a8e6-7b4f815d070e"},"geometry":{"type":"Polygon","coordinates":[[[139.74810826640194,35.784275138195625],[139.74812612814387,35.78433013357136],[139.7481005689689,35.78433570386586],[139.7480827073396,35.784280618350856],[139.74810826640194,35.784275138195625]]]}},{"type":"Feature","properties":{"height":6.4,"gml_id":"bldg_9b9fac1c-8447-433f-bff0-8cec1d09e349"},"geometry":{"type":"Polygon","coordinates":[[[139.74938284414105,35.78394568774186],[139.7493607869944,35.783882216871774],[139.7494270638904,35.78386712035123],[139.74944712974693,35.78393077009153],[139.74938284414105,35.78394568774186]]]}},{"type":"Feature","properties":{"height":10.8,"gml_id":"bldg_e731f2f4-39cb-4d60-a859-50428734a899"},"geometry":{"type":"Polygon","coordinates":[[[139.7490210815086,35.78345680948826],[139.7490608006784,35.783450167293545],[139.74907767445774,35.78349840167223],[139.7489737832118,35.78351743758767],[139.74895900762817,35.78347262982021],[139.74900071851985,35.78346544822907],[139.7490033640404,35.78347428337476],[139.74902504998292,35.78346988193501],[139.7490210815086,35.78345680948826]]]}},{"type":"Feature","properties":{"height":9.8,"gml_id":"bldg_af4c3ccb-5f3f-480a-aa8f-7cd78615c0f0"},"geometry":{"type":"Polygon","coordinates":[[[139.74941665294799,35.78366872460291],[139.74949698120562,35.783650843643656],[139.74952499054083,35.783734599152645],[139.74944466220512,35.783752480130254],[139.74941665294799,35.78366872460291]]]}},{"type":"Feature","properties":{"height":2.2,"gml_id":"bldg_6a14923b-9ecb-42af-88e4-4b0b4f58d62f"},"geometry":{"type":"Polygon","coordinates":[[[139.7482619738754,35.7837031563231],[139.74824349626164,35.783707109217104],[139.7482243112806,35.783648237085245],[139.74820446501684,35.78358711109127],[139.74822294260474,35.783583158203115],[139.7482441120832,35.78364825109738],[139.7482619738754,35.7837031563231]]]}},{"type":"Feature","properties":{"height":7.6,"gml_id":"bldg_ae35d368-2aac-46a4-94b7-676785401ddd"},"geometry":{"type":"Polygon","coordinates":[[[139.74861222706397,35.78398489710412],[139.74862887934984,35.78403322152094],[139.74853582572175,35.78405442794366],[139.74851928410735,35.784006103592205],[139.74861222706397,35.78398489710412]]]}},{"type":"Feature","properties":{"height":6.8,"gml_id":"bldg_da7435e4-8074-48d9-be3d-d8aa2b6b9de4"},"geometry":{"type":"Polygon","coordinates":[[[139.74784825482377,35.784532831599925],[139.74779913726093,35.784431574393814],[139.7478958525953,35.7844004562283],[139.7479453014476,35.78450234457992],[139.74791276782847,35.784512867339814],[139.74792082536104,35.78452945801356],[139.74788110237654,35.784539074302245],[139.74787381697374,35.784524557293395],[139.74784825482377,35.784532831599925]]]}},{"type":"Feature","properties":{"height":7.1,"gml_id":"bldg_e2f9bfb9-079b-4ed6-9a13-ebb75bb5e0bc"},"geometry":{"type":"Polygon","coordinates":[[[139.7492949312045,35.78391759416241],[139.74931309289235,35.78389849810363],[139.74935945444318,35.78388708326426],[139.74937842268133,35.783942529908785],[139.74930882551783,35.78395915638774],[139.7492949312045,35.78391759416241]]]}},{"type":"Feature","properties":{"height":10.3,"gml_id":"bldg_389d94e8-933f-46c9-a559-5dc71f443097"},"geometry":{"type":"Polygon","coordinates":[[[139.74969654646353,35.78374841920463],[139.74962805733333,35.78376351433423],[139.7495899029754,35.7836491958119],[139.74958725662788,35.78364108176367],[139.74964268969194,35.78362877177543],[139.74964941600496,35.783649237240944],[139.74965647380074,35.78367006347916],[139.74966952987018,35.783667188223546],[139.74969654646353,35.78374841920463]]]}},{"type":"Feature","properties":{"height":7.3,"gml_id":"bldg_bc455847-f077-43e1-bafb-152fbd783e33"},"geometry":{"type":"Polygon","coordinates":[[[139.7494357017693,35.78375274428604],[139.74936212154472,35.7837702693737],[139.74935638641182,35.783754040958556],[139.74934864164857,35.78375538758415],[139.7493388321018,35.78372157987793],[139.74934746333184,35.78371879170225],[139.7493406406944,35.78368480581076],[139.7494082454272,35.78366916941374],[139.7494357017693,35.78375274428604]]]}},{"type":"Feature","properties":{"height":7.1,"gml_id":"bldg_0d6a1b9a-37e0-4efa-8ef6-1a94bd937837"},"geometry":{"type":"Polygon","coordinates":[[[139.74882481211014,35.784845300877066],[139.7488323376546,35.78484215141958],[139.74884721211694,35.78489822621141],[139.74875537598962,35.784917901350596],[139.7487362953277,35.784864347385366],[139.74882481211014,35.784845300877066]]]}},{"type":"Feature","properties":{"height":6.5,"gml_id":"bldg_66df851a-2152-4b33-8b89-6b5cd12d3422"},"geometry":{"type":"Polygon","coordinates":[[[139.74879699534236,35.78363971760575],[139.74877901961815,35.78358760658265],[139.7488412011901,35.78357467075935],[139.74884660463474,35.783590628559615],[139.74885601077244,35.78358730014988],[139.7488671479074,35.78362074828615],[139.7488591808619,35.78362308621587],[139.74886282003567,35.78363372477469],[139.7488107059914,35.78364549592252],[139.74880783867604,35.78363720143065],[139.74879699534236,35.78363971760575]]]}},{"type":"Feature","properties":{"height":7.0,"gml_id":"bldg_fdd02039-6344-479c-8420-85fd2ba22b58"},"geometry":{"type":"Polygon","coordinates":[[[139.74972284766514,35.78398468293198],[139.74973366374147,35.78400821584578],[139.74977404939085,35.78399914021811],[139.74978894246757,35.78403790887768],[139.7497041864587,35.78405831074851],[139.7496803569416,35.78399691182448],[139.74972284766514,35.78398468293198]]]}},{"type":"Feature","properties":{"height":7.4,"gml_id":"bldg_88ddd0f0-98fd-4725-b4b6-7d731fc23b9c"},"geometry":{"type":"Polygon","coordinates":[[[139.74730167183492,35.783924296885],[139.74726843418117,35.7838697410582],[139.7473348347004,35.78384292815016],[139.7473473125463,35.78386348799193],[139.74735373118378,35.78386096878422],[139.74737482220675,35.7838955959361],[139.74730167183492,35.783924296885]]]}},{"type":"Feature","properties":{"height":3.0,"gml_id":"bldg_388facb9-8b1b-4e53-bc2c-df70297c698a"},"geometry":{"type":"Polygon","coordinates":[[[139.7486739774177,35.783544357719336],[139.74868323930036,35.78357275695818],[139.74862924484353,35.78358443656821],[139.7486263782186,35.78357551112313],[139.74860037674867,35.78358117134879],[139.7485940921336,35.78356169762756],[139.7486739774177,35.783544357719336]]]}},{"type":"Feature","properties":{"height":3.9,"gml_id":"bldg_17a3f6ba-3ad9-4b00-acb8-343e968a7ee8"},"geometry":{"type":"Polygon","coordinates":[[[139.74827192758062,35.78526250926524],[139.7483084406549,35.78525496369786],[139.7483179213517,35.78528570663682],[139.74828140826426,35.78529325220702],[139.74827192758062,35.78526250926524]]]}},{"type":"Feature","properties":{"height":3.7,"gml_id":"bldg_58a53ddb-18e9-40bf-8611-bd7ad6a73ead"},"geometry":{"type":"Polygon","coordinates":[[[139.74728296126582,35.783425833560074],[139.7473016635955,35.783418636092],[139.74732816246686,35.783464714346444],[139.74730946022592,35.78347182168301],[139.74728296126582,35.783425833560074]]]}},{"type":"Feature","properties":{"height":7.4,"gml_id":"bldg_1c71ff95-76b3-4253-bb41-bfe5314d3897"},"geometry":{"type":"Polygon","coordinates":[[[139.74814711616938,35.78415068845171],[139.7480902329092,35.784173812993814],[139.74805379184133,35.78411438779236],[139.74807039200863,35.78410763939287],[139.74805261324667,35.784078603120605],[139.7480928962967,35.78406222700082],[139.74814711616938,35.78415068845171]]]}},{"type":"Feature","properties":{"height":9.2,"gml_id":"bldg_e3813f1d-eb71-400e-a971-32247d2eb511"},"geometry":{"type":"Polygon","coordinates":[[[139.7493907754189,35.783766954360956],[139.74941183850018,35.783828982363254],[139.74935297492632,35.78384237147622],[139.7493319119821,35.78378025332828],[139.7493907754189,35.783766954360956]]]}},{"type":"Feature","properties":{"height":9.5,"gml_id":"bldg_77fd86cc-bf6c-4f6a-9031-6645f99d2066"},"geometry":{"type":"Polygon","coordinates":[[[139.74963500564823,35.78378325886973],[139.7496722929132,35.78377508247542],[139.7496740582869,35.78377941021298],[139.7497100157558,35.783773486272146],[139.7497245763355,35.78381279552358],[139.74971052297175,35.78381729253259],[139.74972529592588,35.78386507467881],[139.74966764484554,35.783882611026876],[139.74963500564823,35.78378325886973]]]}},{"type":"Feature","properties":{"height":11.5,"gml_id":"bldg_6c1c168f-0747-470d-b6c4-e8448f25b66c"},"geometry":{"type":"Polygon","coordinates":[[[139.74644296374746,35.78389591772156],[139.74651833462755,35.78386000804941],[139.74661464633837,35.783996632987275],[139.74656329411346,35.78401940025349],[139.74644296374746,35.78389591772156]]]}},{"type":"Feature","properties":{"height":7.2,"gml_id":"bldg_a75f57fa-8609-441c-93c8-8feb03fa00c7"},"geometry":{"type":"Polygon","coordinates":[[[139.74829762844487,35.784708734354524],[139.74839211453968,35.78469356821589],[139.74838936072777,35.784682569727714],[139.748447557047,35.78467323671971],[139.74845581716653,35.784707494077495],[139.74846732370816,35.78470560935094],[139.74847811738212,35.784749963681904],[139.748351988289,35.784770245259494],[139.74835396938562,35.784779710897155],[139.74831579856797,35.78478599340877],[139.74829762844487,35.784708734354524]]]}},{"type":"Feature","properties":{"height":11.7,"gml_id":"bldg_2b8d80fd-6080-4d34-b01d-98390764f545"},"geometry":{"type":"Polygon","coordinates":[[[139.74963788887314,35.784831718232184],[139.7496071296206,35.784838096447444],[139.74956810163917,35.784712510380245],[139.74959886046827,35.784706492716914],[139.74963788887314,35.784831718232184]]]}},{"type":"Feature","properties":{"height":8.3,"gml_id":"bldg_ff528798-ac5d-4257-8084-a8b3d71cb817"},"geometry":{"type":"Polygon","coordinates":[[[139.748028454484,35.78401594173829],[139.7479724566275,35.78403870631087],[139.74796483708198,35.784026352323764],[139.74795886102496,35.78402878174262],[139.74792451832295,35.78397269300788],[139.7479588252939,35.78395874634959],[139.74795462917695,35.78395180292859],[139.74799911755076,35.78393371724889],[139.74801181672456,35.783954367314216],[139.74799488462955,35.78396120560586],[139.748028454484,35.78401594173829]]]}},{"type":"Feature","properties":{"height":6.9,"gml_id":"bldg_dc9bf964-9f2c-4751-bcc4-e46d4286bf4d"},"geometry":{"type":"Polygon","coordinates":[[[139.74935236995373,35.78441752636404],[139.74937173273278,35.78441348378259],[139.74938904237015,35.784468388449],[139.74929189662734,35.78448851097121],[139.74927016879676,35.784427383846],[139.7493498342251,35.784409412388875],[139.74935236995373,35.78441752636404]]]}},{"type":"Feature","properties":{"height":15.5,"gml_id":"bldg_39e7ea70-02a4-4fdd-91d9-eb13daae353b"},"geometry":{"type":"Polygon","coordinates":[[[139.74738456419684,35.784196926233875],[139.74734624689538,35.78413398418896],[139.74748557774132,35.78407765884625],[139.74752389512577,35.78414060084749],[139.74738456419684,35.784196926233875]]]}},{"type":"Feature","properties":{"height":11.4,"gml_id":"bldg_622a7099-c533-4b16-adf2-6d70087421a3"},"geometry":{"type":"Polygon","coordinates":[[[139.74918225067455,35.7848235584515],[139.74916388375237,35.78482724115674],[139.74915297108333,35.784790458194536],[139.7491336804458,35.7847259977367],[139.74929887148753,35.7846932137939],[139.74931347642354,35.784690339659925],[139.7493155707189,35.784697461835485],[139.74936502839984,35.784687671599706],[139.74939313777543,35.78478170265305],[139.74918225067455,35.7848235584515]]]}},{"type":"Feature","properties":{"height":9.7,"gml_id":"bldg_cba73d4e-fbe8-44e0-b7c5-f7687ab7d7e0"},"geometry":{"type":"Polygon","coordinates":[[[139.74849747865665,35.78485156015972],[139.74857105767464,35.78483628899409],[139.7486029188556,35.78493825480605],[139.74854682176348,35.78494984275868],[139.74853403330883,35.78490882204569],[139.74851655139915,35.784912415140475],[139.74849747865665,35.78485156015972]]]}},{"type":"Feature","properties":{"height":9.8,"gml_id":"bldg_1ba5fcd0-a663-4232-b2cc-ec7a02793f9a"},"geometry":{"type":"Polygon","coordinates":[[[139.74861183980983,35.78455833954802],[139.7485583985429,35.78456929842882],[139.74853932709442,35.78450727168936],[139.74859287884692,35.784496403030374],[139.74861183980983,35.78455833954802]]]}},{"type":"Feature","properties":{"height":2.9,"gml_id":"bldg_f990ede5-0b2d-409a-a598-5b6929e52cd6"},"geometry":{"type":"Polygon","coordinates":[[[139.74872761541755,35.78480854734474],[139.74872067163255,35.78478465652599],[139.74879812197983,35.784769658351856],[139.7488050657867,35.784793549166224],[139.74872761541755,35.78480854734474]]]}},{"type":"Feature","properties":{"height":6.7,"gml_id":"bldg_c728891c-15e5-4157-ae35-1c30e36f8ccf"},"geometry":{"type":"Polygon","coordinates":[[[139.748636044186,35.78405720263922],[139.74866680273672,35.78405127534893],[139.74867947782764,35.78409481977081],[139.74856374586716,35.784117182011066],[139.74854952800007,35.78406813821744],[139.74863228924013,35.784051431315575],[139.748636044186,35.78405720263922]]]}},{"type":"Feature","properties":{"height":3.4,"gml_id":"bldg_ed2b08bd-f8e2-488b-9a29-29c2f91ade50"},"geometry":{"type":"Polygon","coordinates":[[[139.74937110569869,35.78458897736141],[139.7493479805535,35.78459418907782],[139.74933827687846,35.7845647980946],[139.7493612913007,35.78455967643829],[139.74937110569869,35.78458897736141]]]}},{"type":"Feature","properties":{"height":7.0,"gml_id":"bldg_b14cd607-c4cc-462f-9b34-11a284f048b4"},"geometry":{"type":"Polygon","coordinates":[[[139.7485708375816,35.78483520721181],[139.74849670536548,35.78485056812262],[139.74849053168018,35.78483073393593],[139.74848311846833,35.784832261010564],[139.74847705483364,35.78481296771434],[139.74848822991126,35.78481072220955],[139.74847333943075,35.78476997041288],[139.74848949558856,35.78476475394817],[139.74848806317274,35.78475943493731],[139.74853187857966,35.784750362148095],[139.74853386247344,35.784757213852494],[139.7485459221231,35.784755329508485],[139.7485708375816,35.78483520721181]]]}},{"type":"Feature","properties":{"height":7.0,"gml_id":"bldg_5aee5378-8223-4536-93da-84468219fa54"},"geometry":{"type":"Polygon","coordinates":[[[139.74927100129432,35.7838468209823],[139.7492543494176,35.78379777556805],[139.74932593816624,35.7837806096977],[139.7493491014501,35.78384408134774],[139.74929223308172,35.78385359599305],[139.74927100129432,35.7838468209823]]]}},{"type":"Feature","properties":{"height":6.2,"gml_id":"bldg_b8a460d0-566c-46bb-9473-4c61cf35bdfe"},"geometry":{"type":"Polygon","coordinates":[[[139.74881811589955,35.78354247612253],[139.74880598761612,35.78350488104629],[139.7488571052372,35.78349383028514],[139.74887827501868,35.78355910334051],[139.748801819809,35.78357563457505],[139.74879288897688,35.78354795666298],[139.74881811589955,35.78354247612253]]]}},{"type":"Feature","properties":{"height":9.8,"gml_id":"bldg_e4eecd29-595c-41f9-837b-1e58abbdf615"},"geometry":{"type":"Polygon","coordinates":[[[139.74956362411095,35.783813855274694],[139.74963067439612,35.78379957040095],[139.74965250577262,35.783867547846015],[139.74958545543424,35.78388183273169],[139.74956362411095,35.783813855274694]]]}},{"type":"Feature","properties":{"height":7.1,"gml_id":"bldg_d59bb3d4-83f9-49ef-a373-9d954c3c2b91"},"geometry":{"type":"Polygon","coordinates":[[[139.74869081422506,35.78383595828068],[139.74875355091513,35.78382131031749],[139.74878200458423,35.78390263264771],[139.74871926793094,35.783917190489944],[139.74869081422506,35.78383595828068]]]}},{"type":"Feature","properties":{"height":7.9,"gml_id":"bldg_f4d535f5-3c06-48b0-9d53-a8d828402147"},"geometry":{"type":"Polygon","coordinates":[[[139.74723170040073,35.78377471182933],[139.74723722125148,35.78378408988565],[139.74724695982232,35.78378031116189],[139.74725855365378,35.78379996902412],[139.74726685359283,35.7837967300827],[139.7472782265817,35.78381602724249],[139.74726029868586,35.78382304498946],[139.7472760883843,35.78384982656619],[139.74719906488414,35.78387987671528],[139.7471878024274,35.783860669763015],[139.74719156513677,35.78385914015304],[139.74716186302282,35.78380864293128],[139.74717613883635,35.783803154887835],[139.7471729369096,35.78379756418591],[139.74723170040073,35.78377471182933]]]}},{"type":"Feature","properties":{"height":6.0,"gml_id":"bldg_71af17d3-a505-4109-a184-3f8c5d4e9a72"},"geometry":{"type":"Polygon","coordinates":[[[139.74894170959172,35.783825859154376],[139.74902834531295,35.78380618022283],[139.74904080684152,35.78384260374548],[139.7489541710838,35.78386228268584],[139.74894170959172,35.783825859154376]]]}},{"type":"Feature","properties":{"height":10.8,"gml_id":"bldg_1d98d1ba-8578-4f8a-b04a-c5eb9f01b94c"},"geometry":{"type":"Polygon","coordinates":[[[139.74951854584918,35.783551258820616],[139.7495135968602,35.783523764008216],[139.749495230063,35.783527627036385],[139.7494809084926,35.7834715526973],[139.7495981853718,35.783451624308604],[139.74962608856632,35.78353114334897],[139.74951854584918,35.783551258820616]]]}},{"type":"Feature","properties":{"height":3.0,"gml_id":"bldg_f47230e0-cdd8-4771-a0f6-d1e1198a6900"},"geometry":{"type":"Polygon","coordinates":[[[139.74795110616333,35.783832641151065],[139.74799880146603,35.7838154591041],[139.74801922567033,35.78385324041657],[139.74797153034945,35.7838704224715],[139.74795110616333,35.783832641151065]]]}},{"type":"Feature","properties":{"height":6.7,"gml_id":"bldg_c462a675-49e6-4b77-adf2-1e8673224a6c"},"geometry":{"type":"Polygon","coordinates":[[[139.74864138822147,35.784859142852774],[139.74865847018833,35.78491972600213],[139.74866089457285,35.784928470861914],[139.74860402420262,35.784939066805215],[139.74858143180882,35.78485910061179],[139.74863841274572,35.78484850475686],[139.74864138822147,35.784859142852774]]]}},{"type":"Feature","properties":{"height":2.6,"gml_id":"bldg_ac941b21-8a20-4d71-9824-94ae6447c3a6"},"geometry":{"type":"Polygon","coordinates":[[[139.7473225111464,35.78408989090315],[139.74731014427965,35.784068970596515],[139.74733581880076,35.78405898390751],[139.7473481856727,35.784079904211545],[139.7473225111464,35.78408989090315]]]}},{"type":"Feature","properties":{"height":6.1,"gml_id":"bldg_9ef4d1f3-ea4b-4a11-8581-6befcca6b7e6"},"geometry":{"type":"Polygon","coordinates":[[[139.74944515554955,35.7839146344401],[139.7494288340836,35.783866851179525],[139.749500753863,35.78385049665679],[139.74951949205771,35.7839144158665],[139.74946140305866,35.78392753516537],[139.74945610951966,35.78391211828385],[139.74944515554955,35.7839146344401]]]}},{"type":"Feature","properties":{"height":9.7,"gml_id":"bldg_988ebe6f-5d4f-405c-bc7e-7df7c8a523d2"},"geometry":{"type":"Polygon","coordinates":[[[139.74920031085105,35.783431336498836],[139.74915350934816,35.783440587715106],[139.74913774219695,35.78339190344327],[139.74925734497765,35.78336918281096],[139.749273434469,35.78342697099005],[139.7492027352501,35.78344008134988],[139.74920031085105,35.783431336498836]]]}},{"type":"Feature","properties":{"height":8.2,"gml_id":"bldg_f447740d-1198-4037-a33a-9a9ad2f51626"},"geometry":{"type":"Polygon","coordinates":[[[139.74871567222527,35.7841786713589],[139.74869273689455,35.78410925080103],[139.74892110902542,35.784059115653875],[139.7489440444452,35.784128626304565],[139.74871567222527,35.7841786713589]]]}},{"type":"Feature","properties":{"height":6.9,"gml_id":"bldg_2b77df31-2d26-452e-910c-7d463ab50b79"},"geometry":{"type":"Polygon","coordinates":[[[139.7496375238321,35.785285460556196],[139.74954889632193,35.7853043273128],[139.74953643679441,35.78526556032741],[139.74962506416992,35.78524678371534],[139.7496375238321,35.785285460556196]]]}},{"type":"Feature","properties":{"height":7.3,"gml_id":"bldg_035a3293-b942-4fb2-ae3d-9ff4ea5613a3"},"geometry":{"type":"Polygon","coordinates":[[[139.74718261209463,35.78364749532393],[139.7470884357925,35.783684022877885],[139.7470672918799,35.783647322517645],[139.74704151075812,35.78360250662081],[139.7471100131821,35.783575424937034],[139.7471048236333,35.783566587925826],[139.7471498643974,35.78354913390452],[139.7471624516014,35.78357077547218],[139.74717440320845,35.78356636739062],[139.74721525996455,35.783633367417174],[139.74718294414618,35.783647315290594],[139.74718261209463,35.78364749532393]]]}},{"type":"Feature","properties":{"height":14.8,"gml_id":"bldg_58e939e6-3356-4ad0-ab33-016651ae1e19"},"geometry":{"type":"Polygon","coordinates":[[[139.748546668341,35.7834276325391],[139.7485859235567,35.78354546746043],[139.7485113489168,35.78356190969996],[139.74852645545215,35.78360734870431],[139.74849093843548,35.78361516545006],[139.74847583220625,35.78356945603469],[139.74836120397475,35.783594793336576],[139.74837476665627,35.783635634352464],[139.74834400728474,35.783642462924114],[139.74833055475696,35.78360207266074],[139.74826416764017,35.783616807957195],[139.7482567796042,35.783594809640725],[139.74826839737725,35.783592203926524],[139.7482364202942,35.78349609673674],[139.748546668341,35.7834276325391]]]}},{"type":"Feature","properties":{"height":2.8,"gml_id":"bldg_25dec6ac-672a-4a31-85f3-2d22813c2dc4"},"geometry":{"type":"Polygon","coordinates":[[[139.74696656658696,35.785903163912124],[139.74696621024583,35.785925787686445],[139.7469005014631,35.785925019390625],[139.74690085772528,35.78590248575202],[139.74696656658696,35.785903163912124]]]}},{"type":"Feature","properties":{"height":2.5,"gml_id":"bldg_3e23c0b7-0b9a-4d70-85e3-f13f71ab4fc3"},"geometry":{"type":"Polygon","coordinates":[[[139.74729739559353,35.783478483087606],[139.74727116816055,35.7834884693738],[139.74723075759982,35.783418044530684],[139.7472569850147,35.78340805825316],[139.74729739559353,35.783478483087606]]]}},{"type":"Feature","properties":{"height":7.1,"gml_id":"bldg_b67c07f6-1d45-496a-aa8c-63d41588c94b"},"geometry":{"type":"Polygon","coordinates":[[[139.74716404747448,35.783732029227146],[139.74724937252384,35.7836971177195],[139.74727487782792,35.78374139256011],[139.74719276235177,35.783774774079276],[139.74717718916853,35.78375240929138],[139.74713679469014,35.783769506110254],[139.74712398554232,35.783748495330805],[139.74716404747448,35.783732029227146]]]}},{"type":"Feature","properties":{"height":3.3,"gml_id":"bldg_dfe4d380-991e-4cc8-b97e-cfdb071333f5"},"geometry":{"type":"Polygon","coordinates":[[[139.74829213687894,35.78519095590018],[139.74828199420497,35.785158590049875],[139.74828310070404,35.78515832042569],[139.74831762216604,35.78515113398913],[139.7483277648535,35.78518349983648],[139.74829213687894,35.78519095590018]]]}},{"type":"Feature","properties":{"height":6.9,"gml_id":"bldg_40b207ea-937a-4d79-b14d-41bf58d7f42c"},"geometry":{"type":"Polygon","coordinates":[[[139.74867491440585,35.78432989021762],[139.74871935964788,35.78424816850543],[139.74872943073353,35.78424375894662],[139.74876461248616,35.78434383421424],[139.74868561033014,35.784362166293114],[139.74867491440585,35.78432989021762]]]}},{"type":"Feature","properties":{"height":10.7,"gml_id":"bldg_0881bfa5-b606-4971-9afd-85b7c996bc69"},"geometry":{"type":"Polygon","coordinates":[[[139.74806302108718,35.7846910819203],[139.7479479478613,35.7847171395916],[139.74792280757939,35.784641227564734],[139.7480368844468,35.78461580015956],[139.74806302108718,35.7846910819203]]]}},{"type":"Feature","properties":{"height":8.1,"gml_id":"bldg_3e626e5d-1ecb-4e60-a06d-ea064cfd9d1b"},"geometry":{"type":"Polygon","coordinates":[[[139.74988451212795,35.78467838870319],[139.74972518490222,35.78471054657859],[139.7496868210854,35.78458442019534],[139.74977168478725,35.78456735343098],[139.74978326011268,35.78460539869738],[139.74985783405373,35.78459030770594],[139.74988451212795,35.78467838870319]]]}},{"type":"Feature","properties":{"height":7.0,"gml_id":"bldg_21c017c7-8ee9-40f2-a0d8-0d552b86387d"},"geometry":{"type":"Polygon","coordinates":[[[139.74911163437793,35.78360334331793],[139.74900807219484,35.78362490329026],[139.74899363223744,35.78357649033856],[139.74909675036454,35.78355637223726],[139.74911163437793,35.78360334331793]]]}},{"type":"Feature","properties":{"height":7.1,"gml_id":"bldg_839ad97f-cece-4113-a0ae-4d31f2275b61"},"geometry":{"type":"Polygon","coordinates":[[[139.7491176594755,35.783659231618586],[139.74902936541125,35.78367818836763],[139.74901966196418,35.783648797354516],[139.7490137079562,35.783630405514536],[139.74908297113504,35.78361558168361],[139.74908683024472,35.783627482288395],[139.74911947026004,35.783620474572444],[139.74912663387593,35.783645717560965],[139.74912475002557,35.783648870988316],[139.7491176594755,35.783659231618586]]]}},{"type":"Feature","properties":{"height":8.6,"gml_id":"bldg_83c9aa37-9ba8-48b8-9b01-9014cc651d54"},"geometry":{"type":"Polygon","coordinates":[[[139.74891997368806,35.78345890181283],[139.74889874141596,35.78334811023256],[139.74900815881836,35.783333404766154],[139.7490139018462,35.78334206181255],[139.74902562817778,35.783341348949165],[139.74905826462935,35.7834424138532],[139.74891997368806,35.78345890181283]]]}},{"type":"Feature","properties":{"height":8.2,"gml_id":"bldg_58ec87eb-b570-4e8a-8c48-307cc4dc51c3"},"geometry":{"type":"Polygon","coordinates":[[[139.74821163609406,35.784123873728554],[139.7481578515694,35.78414573859767],[139.7481146745007,35.784075221963434],[139.74814588278795,35.78406253495458],[139.74813958853218,35.784052164900736],[139.7481621647316,35.784042987060644],[139.74821163609406,35.784123873728554]]]}},{"type":"Feature","properties":{"height":7.3,"gml_id":"bldg_14ed0cc4-4f3a-42f0-9bcd-62650a7efa50"},"geometry":{"type":"Polygon","coordinates":[[[139.749023058412,35.783679806387035],[139.74896662926494,35.7836924759331],[139.74895192569224,35.78368417314024],[139.74894090122794,35.783648742107715],[139.74893924784973,35.78364315253933],[139.7489496499418,35.783639464278785],[139.7489412706218,35.78361322893484],[139.7489981417166,35.78360101038847],[139.74901324606154,35.783648792856006],[139.749023058412,35.783679806387035]]]}},{"type":"Feature","properties":{"height":6.5,"gml_id":"bldg_5a231272-d5a4-49a4-a0f2-4362d80ca176"},"geometry":{"type":"Polygon","coordinates":[[[139.74893068893348,35.78357752780484],[139.7489217266098,35.78357959463334],[139.74891323887832,35.78355128609192],[139.74893946250694,35.78354472459832],[139.7489346097591,35.783531020578984],[139.74896935283948,35.78352275248102],[139.74899604347937,35.78359767389921],[139.74894204790792,35.78361043527625],[139.74893068893348,35.78357752780484]]]}},{"type":"Feature","properties":{"height":2.7,"gml_id":"bldg_849e8d7f-b38e-44de-a64a-93968266b72d"},"geometry":{"type":"Polygon","coordinates":[[[139.74932879488523,35.78348361484263],[139.74933629287702,35.78350651452679],[139.74931394284926,35.78351127610115],[139.74930655548218,35.78348837649289],[139.74932879488523,35.78348361484263]]]}},{"type":"Feature","properties":{"height":3.7,"gml_id":"bldg_07f5cd2c-8f24-40f9-8151-64e279a187c8"},"geometry":{"type":"Polygon","coordinates":[[[139.74924784901486,35.78419310580518],[139.74921234863356,35.78407996079007],[139.7492659008625,35.78406828061019],[139.7493046090976,35.784181608122545],[139.74924784901486,35.78419310580518]]]}},{"type":"Feature","properties":{"height":3.3,"gml_id":"bldg_0722be08-1e75-47cd-9090-8aec32da40aa"},"geometry":{"type":"Polygon","coordinates":[[[139.7497163936788,35.78412664202819],[139.7496989579746,35.784086339286546],[139.74971400781254,35.78408103175156],[139.7497312223782,35.7841212442017],[139.7497163936788,35.78412664202819]]]}},{"type":"Feature","properties":{"height":7.3,"gml_id":"bldg_d79af418-9e05-45f2-bb8e-a694f2b78519"},"geometry":{"type":"Polygon","coordinates":[[[139.749439558189,35.78397781559803],[139.74945708229527,35.784039120036425],[139.74934168030973,35.784063556374925],[139.74931808691542,35.78398827666044],[139.74938989364864,35.7839743557869],[139.7493937519685,35.78398706760108],[139.749439558189,35.78397781559803]]]}},{"type":"Feature","properties":{"height":8.0,"gml_id":"bldg_ff164043-01cd-4ebb-94fe-123583504a03"},"geometry":{"type":"Polygon","coordinates":[[[139.74936502839984,35.784687671599706],[139.7493155707189,35.784697461835485],[139.74931347642354,35.784690339659925],[139.74929887148753,35.7846932137939],[139.74927670994003,35.78462370375808],[139.7493402202522,35.78461022779462],[139.74936502839984,35.784687671599706]]]}},{"type":"Feature","properties":{"height":7.6,"gml_id":"bldg_91d7ed11-d497-4dfa-a9a7-2b09a12d1e63"},"geometry":{"type":"Polygon","coordinates":[[[139.74979314301262,35.78372360891897],[139.7498221344606,35.783714795765434],[139.7498513812333,35.78377917290033],[139.7497472555446,35.78381064803476],[139.74971734635668,35.78374509865137],[139.74975618594306,35.783733408021384],[139.74976049018275,35.78374287525217],[139.7497968954808,35.78373181386656],[139.74979314301262,35.78372360891897]]]}},{"type":"Feature","properties":{"height":7.5,"gml_id":"bldg_79a6e399-08ff-4a55-ad47-33f9a1b1d40e"},"geometry":{"type":"Polygon","coordinates":[[[139.7487146075619,35.784765723783636],[139.7487055331411,35.78476905241501],[139.74871523249996,35.78480231927579],[139.7485858903145,35.78482737602414],[139.748561201061,35.78474281143221],[139.7486988422338,35.784715326889945],[139.7487146075619,35.784765723783636]]]}},{"type":"Feature","properties":{"height":5.7,"gml_id":"bldg_744b8bdd-380c-4163-8203-22a640d4d241"},"geometry":{"type":"Polygon","coordinates":[[[139.7488969716138,35.78334801885431],[139.74891963030112,35.78346980798146],[139.74886563432725,35.7834830200023],[139.7487808771459,35.78350486339354],[139.7487739458859,35.78336478777057],[139.7488969716138,35.78334801885431]]]}},{"type":"Feature","properties":{"height":6.8,"gml_id":"bldg_2f8eb910-00e2-403f-8603-1be5f75312f3"},"geometry":{"type":"Polygon","coordinates":[[[139.74823393159255,35.78489698255612],[139.74821353892474,35.784829276290964],[139.7482304675344,35.78482586311983],[139.7482282629041,35.78481856057631],[139.74835373346588,35.78479350147675],[139.74837622026763,35.78486851018132],[139.74823393159255,35.78489698255612]]]}},{"type":"Feature","properties":{"height":2.4,"gml_id":"bldg_79b87382-1af8-4f05-8236-aebbc93f3ebd"},"geometry":{"type":"Polygon","coordinates":[[[139.74741339645843,35.78371967879081],[139.74743353747533,35.78371194151687],[139.74747185183284,35.78377749746894],[139.74745171070614,35.78378532488475],[139.74741339645843,35.78371967879081]]]}},{"type":"Feature","properties":{"height":14.8,"gml_id":"bldg_21ed2c76-4912-4e57-ba7e-49ad8eca7fb8"},"geometry":{"type":"Polygon","coordinates":[[[139.74765166958838,35.783823324478384],[139.747627876484,35.78383259149131],[139.74760546171157,35.783794448150886],[139.74753009835524,35.7838238687466],[139.74746616671547,35.78371511956639],[139.7476386942545,35.78364782119624],[139.74783379712406,35.783571795475865],[139.7478785162615,35.783647991856],[139.7478978394803,35.783680814948994],[139.74782701365206,35.78370843624286],[139.7478527409046,35.7837523505764],[139.74781920920702,35.783765486535756],[139.74779414423486,35.783722924700434],[139.74763024863842,35.7837868042916],[139.74765166958838,35.783823324478384]]]}},{"type":"Feature","properties":{"height":2.5,"gml_id":"bldg_bdc2c019-e275-4d0d-9d38-9905fbbd0cea"},"geometry":{"type":"Polygon","coordinates":[[[139.74745954915798,35.783799752180165],[139.74747526367773,35.78379363417931],[139.7475264969305,35.783881192424936],[139.74751078239743,35.78388731043238],[139.74745954915798,35.783799752180165]]]}},{"type":"Feature","properties":{"height":23.5,"gml_id":"bldg_6c258f05-3b5b-4dda-b33f-486a1054b857"},"geometry":{"type":"Polygon","coordinates":[[[139.7496071296206,35.784838096447444],[139.74963788887314,35.784831718232184],[139.74976501945758,35.78480557718805],[139.74976083012098,35.78479196380143],[139.74985476651707,35.78477337097889],[139.74986182239203,35.784796180183065],[139.7498998838862,35.784788545070846],[139.74994295775778,35.78495974244622],[139.7498489098821,35.78497896620872],[139.749851666073,35.78498789154604],[139.74936460778395,35.785087602945204],[139.74937100200032,35.78510833859625],[139.74934466850476,35.78511372834252],[139.74933827419997,35.78509308282564],[139.74904628206627,35.78515281868759],[139.74898851477107,35.784965206014576],[139.7496071296206,35.784838096447444]]]}},{"type":"Feature","properties":{"height":34.2,"gml_id":"bldg_fe57c645-d90e-426c-8fc7-b6885087d218"},"geometry":{"type":"Polygon","coordinates":[[[139.74759760464508,35.786681665748176],[139.74703856414013,35.78612404776469],[139.746922736987,35.786129012181476],[139.7468682594948,35.78617629419953],[139.7467363036146,35.786058752591366],[139.74681060876964,35.785987238429726],[139.74704093636615,35.78597622712113],[139.7479255318978,35.78685126383436],[139.7480175205735,35.78803679197378],[139.74798975329077,35.788037132812065],[139.74799916038856,35.78813691953854],[139.7472910077065,35.78817409157332],[139.74727860703217,35.78808133322299],[139.74716543079234,35.788087471529195],[139.74716078560752,35.787983992592466],[139.74704064128971,35.78798904416119],[139.7469474423004,35.78670869178977],[139.74759760464508,35.786681665748176]]]}},{"type":"Feature","properties":{"height":7.7,"gml_id":"bldg_f48fb1ec-d0b8-4753-8d0e-7d311a8b0c0c"},"geometry":{"type":"Polygon","coordinates":[[[139.74868531796503,35.78401189912253],[139.74869339710716,35.784008209249265],[139.7486821433513,35.783980439560374],[139.74877674333106,35.78396130723042],[139.74879239727287,35.78401233499114],[139.74869193268066,35.78403308564648],[139.74868531796503,35.78401189912253]]]}},{"type":"Feature","properties":{"height":7.4,"gml_id":"bldg_a5ed886e-a748-4343-9688-de0e950f1266"},"geometry":{"type":"Polygon","coordinates":[[[139.74932778257232,35.78360466626789],[139.7492243288806,35.783628299621405],[139.74921848421147,35.783611079630944],[139.74920797294104,35.783613415804155],[139.7491956214207,35.78357753318805],[139.74930958631504,35.78355156367774],[139.74932778257232,35.78360466626789]]]}},{"type":"Feature","properties":{"height":7.5,"gml_id":"bldg_e26f684b-37ba-4495-914b-f99464004897"},"geometry":{"type":"Polygon","coordinates":[[[139.74925002982357,35.783697902288644],[139.74932493667592,35.78368109928102],[139.7493517269444,35.78376683696167],[139.74926011518937,35.78378489020662],[139.7492351910119,35.78371294455978],[139.74925002982357,35.783697902288644]]]}},{"type":"Feature","properties":{"height":7.5,"gml_id":"bldg_d119890e-d2d2-41c1-9276-9c764c266f58"},"geometry":{"type":"Polygon","coordinates":[[[139.74865665812513,35.78391642533502],[139.74863140096744,35.78384601163586],[139.7486853968432,35.78383316026355],[139.74873194083264,35.78396280802473],[139.7486684292132,35.783977906108696],[139.7486471423726,35.783918762160035],[139.74865665812513,35.78391642533502]]]}},{"type":"Feature","properties":{"height":7.0,"gml_id":"bldg_75a5c456-05f8-4a1c-a63a-e113f05a1283"},"geometry":{"type":"Polygon","coordinates":[[[139.74720524235636,35.783895835142694],[139.7472598015021,35.78387379098201],[139.74730706304985,35.78395134142442],[139.74725250386408,35.78397338560622],[139.74720524235636,35.783895835142694]]]}},{"type":"Feature","properties":{"height":8.0,"gml_id":"bldg_4789f95d-2de2-4d4b-96dd-33ac6a02237f"},"geometry":{"type":"Polygon","coordinates":[[[139.74989935242183,35.783920989510314],[139.74985132965782,35.7839342962524],[139.74984382129892,35.78392113124064],[139.7498101830091,35.78393066225653],[139.74977906464702,35.78385772092974],[139.7498130367477,35.7838462973064],[139.74981016969815,35.783837642296376],[139.74986018073045,35.78382704101899],[139.74989935242183,35.783920989510314]]]}},{"type":"Feature","properties":{"height":7.3,"gml_id":"bldg_17ecd2a3-b54e-48a0-ba31-480fa8c104e2"},"geometry":{"type":"Polygon","coordinates":[[[139.7478196017323,35.78412197314839],[139.74777157183743,35.78414149841093],[139.7477576580053,35.784118864473214],[139.74774116852558,35.784125522772676],[139.74769942737697,35.784057350537154],[139.74773727579537,35.78404196429443],[139.74774732468637,35.78405828599162],[139.74777388497535,35.78404748861897],[139.7478196017323,35.78412197314839]]]}},{"type":"Feature","properties":{"height":8.9,"gml_id":"bldg_001cde34-f38a-4e46-8b30-36ae9f939286"},"geometry":{"type":"Polygon","coordinates":[[[139.74975588116646,35.784235913834166],[139.74977677501332,35.78424863747414],[139.74979243955326,35.7842902008715],[139.7497771695732,35.784294426635896],[139.7498205076212,35.7844240717395],[139.74959578367626,35.7844759237082],[139.7495419517296,35.78433230019472],[139.74963168653463,35.78431136109132],[139.7496229735486,35.78428656773505],[139.7496873700988,35.78427155989889],[139.74969608329204,35.78429617297951],[139.74973049448428,35.784288174838856],[139.74971494257923,35.78424471866402],[139.74975588116646,35.784235913834166]]]}},{"type":"Feature","properties":{"height":9.1,"gml_id":"bldg_5afefde9-b6db-49dd-942f-97bf54410750"},"geometry":{"type":"Polygon","coordinates":[[[139.74901654714392,35.78481758356737],[139.74915297108333,35.784790458194536],[139.74916388375237,35.78482724115674],[139.74918225067455,35.7848235584515],[139.7491858885208,35.7848355490315],[139.7490310976733,35.78486626699077],[139.74901654714392,35.78481758356737]]]}},{"type":"Feature","properties":{"height":8.3,"gml_id":"bldg_b4da03cd-a20a-4f31-a915-2ab07d2873a1"},"geometry":{"type":"Polygon","coordinates":[[[139.74793771852217,35.78404201666502],[139.74787574455917,35.78406721060991],[139.74783334076724,35.78399795632196],[139.74791036549362,35.78396664386947],[139.74793024228555,35.78399910680636],[139.74791519138063,35.78400531547346],[139.74793771852217,35.78404201666502]]]}},{"type":"Feature","properties":{"height":7.1,"gml_id":"bldg_d7a6edc9-9d11-41da-a421-af0f4d4759ce"},"geometry":{"type":"Polygon","coordinates":[[[139.7498934407057,35.78396776579041],[139.74989146067108,35.78395712841452],[139.74992089288162,35.78395002812],[139.74995487819834,35.784031894822235],[139.74988229397107,35.784048880104194],[139.7498782131065,35.78403733991423],[139.74984867042892,35.78404425985027],[139.7498173372542,35.78396509902848],[139.7498458847072,35.78395781786668],[139.7498521712609,35.783975759217405],[139.7498934407057,35.78396776579041]]]}},{"type":"Feature","properties":{"height":7.7,"gml_id":"bldg_ef99b137-9770-44c3-aeae-c4eec3524715"},"geometry":{"type":"Polygon","coordinates":[[[139.74995092824835,35.78378906674731],[139.74995864617972,35.78381340871394],[139.74987544204293,35.78383101757837],[139.7498472158747,35.78374266508527],[139.74988417086487,35.783734848936945],[139.749881524673,35.78372655462418],[139.74992545025714,35.78371721099477],[139.74993063259575,35.78373325872836],[139.7500343057612,35.783711247360664],[139.75005227800793,35.783767504431395],[139.74995092824835,35.78378906674731]]]}},{"type":"Feature","properties":{"height":7.0,"gml_id":"bldg_501948c1-c54a-40ca-bf70-ea656eb7d4c2"},"geometry":{"type":"Polygon","coordinates":[[[139.7489403182396,35.783990986616104],[139.74895487200214,35.784036425175664],[139.74888173617748,35.78405178702556],[139.74885626288034,35.78397632562915],[139.7489035078766,35.78396644389174],[139.74890560259306,35.78397311539751],[139.74893304165036,35.78396799692891],[139.7489403182396,35.783990986616104]]]}},{"type":"Feature","properties":{"height":2.4,"gml_id":"bldg_c5bd26ba-4571-4038-b22c-eb0e9ac27553"},"geometry":{"type":"Polygon","coordinates":[[[139.74735475500177,35.7835265663943],[139.74738092256797,35.78357219372138],[139.74736332698086,35.78357885117908],[139.74733715942256,35.78353322384825],[139.74735475500177,35.7835265663943]]]}},{"type":"Feature","properties":{"height":7.5,"gml_id":"bldg_00d3b567-6a85-4977-aa63-39d7317271a4"},"geometry":{"type":"Polygon","coordinates":[[[139.7478752960028,35.78407288883441],[139.74781298994418,35.784098262782024],[139.74777268419444,35.78403252525378],[139.74779990847824,35.784021457940916],[139.74779295161585,35.78401009590591],[139.7478280332518,35.783995879429256],[139.7478752960028,35.78407288883441]]]}},{"type":"Feature","properties":{"height":6.9,"gml_id":"bldg_023c7c82-236c-423b-9823-5414d1c180d9"},"geometry":{"type":"Polygon","coordinates":[[[139.74901654714392,35.78481758356737],[139.7490310976733,35.78486626699077],[139.74895032751095,35.78488234461231],[139.74892489894404,35.78486889656237],[139.7489084744094,35.78481408258995],[139.74900949227026,35.78479405322978],[139.74901654714392,35.78481758356737]]]}},{"type":"Feature","properties":{"height":7.5,"gml_id":"bldg_4ee55e8f-c677-4f08-9fc6-fc6d37e481c5"},"geometry":{"type":"Polygon","coordinates":[[[139.7481093374262,35.78492988394795],[139.7480151475109,35.78497812983667],[139.74799048039804,35.784873374772474],[139.7479757653387,35.78487570785389],[139.74796673549665,35.78483730368041],[139.7479793483713,35.78483532965039],[139.74796249955185,35.78476411056917],[139.74800122329663,35.78475800883326],[139.74799725878006,35.7847413309345],[139.74802801648585,35.784736485435054],[139.74803121032437,35.784749737633426],[139.74806550846583,35.78474435382217],[139.7481093374262,35.78492988394795]]]}},{"type":"Feature","properties":{"height":3.2,"gml_id":"bldg_3ecd80f7-3a06-42e0-9d8b-9b4ee0ff6ff5"},"geometry":{"type":"Polygon","coordinates":[[[139.74882974302028,35.78614388773598],[139.74880940738103,35.78612602659973],[139.7488179320839,35.78611963296542],[139.748838157101,35.786137494022505],[139.74882974302028,35.78614388773598]]]}},{"type":"Feature","properties":{"height":9.0,"gml_id":"bldg_5064c4c4-3925-4bff-824d-1051909858ca"},"geometry":{"type":"Polygon","coordinates":[[[139.74698693424438,35.783333863311654],[139.74700869277407,35.78336470531396],[139.74699795799293,35.78336911425281],[139.74701749860904,35.78340509239114],[139.7469311808361,35.783437569361226],[139.74689231623668,35.78336993971887],[139.74698693424438,35.783333863311654]]]}},{"type":"Feature","properties":{"height":7.9,"gml_id":"bldg_b849879a-85a5-4321-86b3-c39729112e61"},"geometry":{"type":"Polygon","coordinates":[[[139.7496525655676,35.7839160408464],[139.74972780977842,35.78389410009342],[139.74975220174002,35.7839465759746],[139.74971126027992,35.78395826514123],[139.74971942308656,35.78398026390602],[139.74967737531506,35.78399204242741],[139.7496525655676,35.7839160408464]]]}},{"type":"Feature","properties":{"height":7.7,"gml_id":"bldg_06b6799a-0653-42cd-bf3f-d65b008cae00"},"geometry":{"type":"Polygon","coordinates":[[[139.7473684800106,35.78403259752718],[139.74733855735516,35.78398128897224],[139.7474018593386,35.78395564557484],[139.74741643530334,35.78397963206145],[139.74742462473222,35.78397630289469],[139.74744096741955,35.7840032651154],[139.7473684800106,35.78403259752718]]]}},{"type":"Feature","properties":{"height":6.7,"gml_id":"bldg_b36ad135-f081-4aa8-a5dd-54140ba05383"},"geometry":{"type":"Polygon","coordinates":[[[139.7488016557207,35.78404406923378],[139.7488089584246,35.78404236179038],[139.74881733936786,35.78406706483748],[139.74871255739555,35.784090786950486],[139.7486955716596,35.7840439044807],[139.74873252785636,35.78403518733161],[139.7487307631967,35.78403022863167],[139.7487929450258,35.784017382970305],[139.7488016557207,35.78404406923378]]]}},{"type":"Feature","properties":{"height":2.6,"gml_id":"bldg_28bb9a3f-f28a-43f0-b6b3-4da7845e35a0"},"geometry":{"type":"Polygon","coordinates":[[[139.7483035780743,35.78369245960978],[139.748284989942,35.783696322296436],[139.74826988631224,35.78364826933176],[139.74826261013925,35.78362509933191],[139.74828130887502,35.78362123672688],[139.74828979773383,35.78364828341463],[139.7483035780743,35.78369245960978]]]}},{"type":"Feature","properties":{"height":7.1,"gml_id":"bldg_32d8c1fa-f1aa-4611-b444-b403f4947662"},"geometry":{"type":"Polygon","coordinates":[[[139.7494031654589,35.78450292024248],[139.74941500343044,35.78450139619888],[139.74942592262246,35.7845320499228],[139.74931693589033,35.78455649071114],[139.7492979705858,35.78449815972534],[139.7493718825977,35.78448135599596],[139.74937452961456,35.78448883909904],[139.74939522108374,35.7844836256787],[139.7494031654589,35.78450292024248]]]}},{"type":"Feature","properties":{"height":10.4,"gml_id":"bldg_30f1ee83-1282-4b1b-a7bc-617b2e291918"},"geometry":{"type":"Polygon","coordinates":[[[139.74847767992347,35.784953399413],[139.74847624712189,35.784948440944255],[139.74842623740898,35.78495696852581],[139.74837320748657,35.784789008457054],[139.74844977456746,35.78477247757815],[139.74850500882005,35.7849481908298],[139.74850091010367,35.78495359607412],[139.74848431362824,35.784956739110825],[139.74847767992347,35.784953399413]]]}},{"type":"Feature","properties":{"height":14.8,"gml_id":"bldg_b3ad0ad7-dc0d-40ad-9869-2fcffc7ca34d"},"geometry":{"type":"Polygon","coordinates":[[[139.7499537151178,35.78514560950013],[139.74996264493,35.78517481962335],[139.74947790982043,35.78527345146123],[139.74949499014406,35.78533628787664],[139.74913553204135,35.78538281710133],[139.74905899683222,35.78515913709031],[139.74918336145976,35.78513407635165],[139.74918754720073,35.785151024771956],[139.74938493598586,35.78511240442601],[139.7493922057961,35.78514206411073],[139.74958981731004,35.78510191127874],[139.7495802259967,35.78507071768381],[139.74989678017153,35.78500631051779],[139.74991915983972,35.78507942601039],[139.74993254780503,35.785076731228465],[139.74994588766282,35.78512009569984],[139.7499537151178,35.78514560950013]]]}},{"type":"Feature","properties":{"height":3.7,"gml_id":"bldg_d4993fbe-e5ff-4bb8-973b-e8ec2273f52c"},"geometry":{"type":"Polygon","coordinates":[[[139.74934846198965,35.7835055315344],[139.7493546368292,35.783524374190534],[139.74936846740707,35.78352131923718],[139.74937607555876,35.78354466967374],[139.74933270300528,35.78355410362468],[139.74931892003232,35.78351191052779],[139.74934846198965,35.7835055315344]]]}},{"type":"Feature","properties":{"height":6.3,"gml_id":"bldg_dbd5be4d-1ae5-4d47-9f35-79606e085414"},"geometry":{"type":"Polygon","coordinates":[[[139.74972134119287,35.78383875233055],[139.74975121481395,35.78383264387606],[139.74975915232324,35.783858518313316],[139.74972927869308,35.78386462676975],[139.74972134119287,35.78383875233055]]]}},{"type":"Feature","properties":{"height":7.5,"gml_id":"bldg_c38eda05-5c81-4b5a-9834-a0ef38fe5de8"},"geometry":{"type":"Polygon","coordinates":[[[139.74807518304252,35.784179030189804],[139.74802604649634,35.78419900544725],[139.74797237885977,35.78411144569062],[139.7480048045777,35.784098218769],[139.7480232459852,35.78412824700999],[139.74803995677763,35.784121498693196],[139.74807518304252,35.784179030189804]]]}},{"type":"Feature","properties":{"height":18.3,"gml_id":"bldg_46afb45f-fbb0-4ac1-a5e5-b0e30bde3ad5"},"geometry":{"type":"Polygon","coordinates":[[[139.74738798923747,35.78420080451279],[139.74752698811793,35.78414465915677],[139.7475669619591,35.78421030639371],[139.74742807361216,35.78426645187423],[139.74738798923747,35.78420080451279]]]}},{"type":"Feature","properties":{"height":8.2,"gml_id":"bldg_b3e6005b-fa87-41c7-8533-e6a0440468e5"},"geometry":{"type":"Polygon","coordinates":[[[139.74811623338766,35.78396201274438],[139.74805901810586,35.78398540744407],[139.7480542696517,35.78397774255005],[139.74803888680572,35.783984041132854],[139.7480063108945,35.783930838013674],[139.7480790195049,35.78390123496672],[139.74811623338766,35.78396201274438]]]}},{"type":"Feature","properties":{"height":3.5,"gml_id":"bldg_69b21dd7-6f4a-491b-b78b-11169dc16056"},"geometry":{"type":"Polygon","coordinates":[[[139.74831021193853,35.78525370305198],[139.7483008427336,35.785222148970774],[139.748336802201,35.78521505368122],[139.7483460607981,35.78524660768149],[139.74831021193853,35.78525370305198]]]}},{"type":"Feature","properties":{"height":11.9,"gml_id":"bldg_a0675a58-40fe-400a-a7bd-7a3ebe2e1371"},"geometry":{"type":"Polygon","coordinates":[[[139.74969620784802,35.78364926979367],[139.74966489586626,35.78365573777644],[139.7496628009057,35.783649246554575],[139.7496514452184,35.78361291400019],[139.74974350341034,35.78359080466401],[139.749757836131,35.783636423247266],[139.74969687175093,35.78364908998419],[139.74969620784802,35.78364926979367]]]}},{"type":"Feature","properties":{"height":9.6,"gml_id":"bldg_fbe93c0e-fc95-4f94-b6eb-ba65297bdaf4"},"geometry":{"type":"Polygon","coordinates":[[[139.74868438371973,35.78447573628881],[139.74870716115385,35.784485486965075],[139.74872790463942,35.784535616955324],[139.7486795540378,35.78454459648827],[139.74865561722123,35.7844806734942],[139.74868438371973,35.78447573628881]]]}},{"type":"Feature","properties":{"height":7.1,"gml_id":"bldg_d10ad827-4518-4f82-b01b-275f03699638"},"geometry":{"type":"Polygon","coordinates":[[[139.7489403182396,35.783990986616104],[139.748986235991,35.78398092364354],[139.7489809433021,35.783964785657034],[139.74907786838781,35.78394358160197],[139.7491010243895,35.78401381346354],[139.74895773887079,35.78404517034123],[139.74895487200214,35.784036425175664],[139.7489403182396,35.783990986616104]]]}},{"type":"Feature","properties":{"height":2.9,"gml_id":"bldg_8d2018a6-bbcb-4da5-8736-8491f92f6874"},"geometry":{"type":"Polygon","coordinates":[[[139.74734194136786,35.78412595904132],[139.74732615188418,35.78409890706774],[139.74738989557008,35.78407407521356],[139.74740579578713,35.78410103712242],[139.74734194136786,35.78412595904132]]]}},{"type":"Feature","properties":{"height":6.2,"gml_id":"bldg_0967e411-1715-47d0-8da1-d8d262969777"},"geometry":{"type":"Polygon","coordinates":[[[139.7484339375906,35.78458155920077],[139.74844568174277,35.78456426145638],[139.7485315399287,35.78454845816772],[139.74855019273284,35.784588040848504],[139.74857829584172,35.78458283279411],[139.7486147920868,35.78469507733209],[139.7484802443665,35.7847262595206],[139.7484339375906,35.78458155920077]]]}},{"type":"Feature","properties":{"height":6.4,"gml_id":"bldg_53ec2e8b-0cde-4c8c-aa86-b845bf841b47"},"geometry":{"type":"Polygon","coordinates":[[[139.74895460889346,35.78386669963798],[139.74904279399195,35.78384639083403],[139.74905458972418,35.78388479687178],[139.7489697236434,35.783904657334645],[139.74895460889346,35.78386669963798]]]}},{"type":"Feature","properties":{"height":7.7,"gml_id":"bldg_abefa605-e6be-47fb-bd68-e18d2de569b1"},"geometry":{"type":"Polygon","coordinates":[[[139.74925729142245,35.784050337605144],[139.74915948025236,35.78407253267585],[139.7491309200817,35.78398688385313],[139.74923038902227,35.783966041998845],[139.74925729142245,35.784050337605144]]]}},{"type":"Feature","properties":{"height":8.0,"gml_id":"bldg_e6340c97-864d-439e-aea9-a60a89b5a446"},"geometry":{"type":"Polygon","coordinates":[[[139.74866916111898,35.78464382846705],[139.74862445957964,35.784654072445086],[139.7485941243989,35.78457355998226],[139.74872104121738,35.78454029917756],[139.7487312998648,35.7845677076178],[139.74870452268598,35.784574358810715],[139.74872140040264,35.784618897673575],[139.74866507963495,35.78463300932154],[139.74866916111898,35.78464382846705]]]}},{"type":"Feature","properties":{"height":2.6,"gml_id":"bldg_cf47f15d-0f98-44dd-a122-23296a920e6d"},"geometry":{"type":"Polygon","coordinates":[[[139.7473131493063,35.78353861481276],[139.74734064194976,35.783586406351084],[139.74732359964503,35.78359288392736],[139.7472962176284,35.78354509246437],[139.7473131493063,35.78353861481276]]]}},{"type":"Feature","properties":{"height":16.4,"gml_id":"bldg_edcfd7c9-afe8-4b58-bfb6-c820a797f390"},"geometry":{"type":"Polygon","coordinates":[[[139.74956810163917,35.784712510380245],[139.74944030864705,35.78473747899176],[139.74943876573727,35.784731979643865],[139.74939295936812,35.78474096123829],[139.74937311838485,35.78467370623048],[139.7493831869293,35.78467173027667],[139.7493616927335,35.78459870543366],[139.749385259697,35.78459412497224],[139.74937864588847,35.784571856861696],[139.74965281937173,35.78451823700822],[139.7497023119541,35.78468619406189],[139.74959886046827,35.784706492716914],[139.74956810163917,35.784712510380245]]]}},{"type":"Feature","properties":{"height":7.8,"gml_id":"bldg_045d72dd-0c4e-48eb-9fdf-d6d25c626f8d"},"geometry":{"type":"Polygon","coordinates":[[[139.74824242407865,35.785024530431215],[139.74818411493595,35.785035665971165],[139.74818235134583,35.78502971577326],[139.74810512216183,35.785044443299874],[139.74810335876987,35.785038312829776],[139.74803874295188,35.785050615591835],[139.74802298300295,35.78499553156514],[139.74805960592542,35.7849886171],[139.74805343387862,35.78496734072302],[139.7481004573564,35.784958360502046],[139.74809726109243,35.7849473616941],[139.7482138792566,35.784925090669624],[139.74824242407865,35.785024530431215]]]}},{"type":"Feature","properties":{"height":9.4,"gml_id":"bldg_2c16d145-0a6f-433a-b5f6-4d21df4ca40e"},"geometry":{"type":"Polygon","coordinates":[[[139.74908163999493,35.783514268319074],[139.7490939875552,35.783553846504695],[139.7490276016655,35.78356759073193],[139.74902517623485,35.7835598373686],[139.74899021304884,35.783567023700876],[139.74898029096306,35.78353519886908],[139.74908163999493,35.783514268319074]]]}},{"type":"Feature","properties":{"height":7.5,"gml_id":"bldg_8456d678-1e26-4b41-9a93-5574acf61d0b"},"geometry":{"type":"Polygon","coordinates":[[[139.7497010971163,35.78352263265392],[139.7496861452536,35.783540108564246],[139.7496501861876,35.783547654938225],[139.7496148955118,35.78344523631404],[139.74967243009672,35.78343301791022],[139.7497010971163,35.78352263265392]]]}},{"type":"Feature","properties":{"height":9.4,"gml_id":"bldg_3958a4fd-7e38-48b6-b503-06802da2bcd8"},"geometry":{"type":"Polygon","coordinates":[[[139.74940480576788,35.78378436032712],[139.74941354676898,35.783782383443835],[139.74940814613515,35.78376363146746],[139.7494646845565,35.783752223689135],[139.74948287859596,35.7838075796429],[139.74941715561408,35.78382195549602],[139.74940480576788,35.78378436032712]]]}},{"type":"Feature","properties":{"height":7.2,"gml_id":"bldg_8fe6fad5-8cc5-424b-867d-0353c05a3d99"},"geometry":{"type":"Polygon","coordinates":[[[139.74983560271542,35.78448131832945],[139.74985192530377,35.784528380446105],[139.74968219278674,35.784567471482916],[139.74966145880072,35.78450769715438],[139.7498184667721,35.784471571784906],[139.74982276766477,35.784484283891686],[139.74983560271542,35.78448131832945]]]}},{"type":"Feature","properties":{"height":12.3,"gml_id":"bldg_2568c4f7-cb62-4cd3-8aa8-90b19aceea77"},"geometry":{"type":"Polygon","coordinates":[[[139.74910237899022,35.783883207913675],[139.74908367956675,35.78388770159499],[139.74903526070938,35.78375219383887],[139.74913628137685,35.78372819840273],[139.74918094854988,35.78385496033919],[139.7490974112953,35.78387355992364],[139.74910237899022,35.783883207913675]]]}},{"type":"Feature","properties":{"height":7.5,"gml_id":"bldg_29128415-e1b2-4e8b-9e83-1e9ba882bfd3"},"geometry":{"type":"Polygon","coordinates":[[[139.7473152322819,35.78396676045719],[139.74735741427136,35.784036104904914],[139.7473026337052,35.78405823908644],[139.7472604517517,35.783988894619796],[139.7473152322819,35.78396676045719]]]}},{"type":"Feature","properties":{"height":6.3,"gml_id":"bldg_fa5917b9-ebd5-4e9e-9319-26862369de1b"},"geometry":{"type":"Polygon","coordinates":[[[139.74952513989064,35.783908470852424],[139.74950253162666,35.783843016640326],[139.7495596249841,35.783829896627786],[139.7495822332912,35.78389535082935],[139.74952513989064,35.783908470852424]]]}},{"type":"Feature","properties":{"height":7.9,"gml_id":"bldg_0e848dc7-bd60-4037-9bca-81754b61a984"},"geometry":{"type":"Polygon","coordinates":[[[139.7470274265214,35.78343078816735],[139.7470471900593,35.783465234155024],[139.7470706509729,35.78345623742495],[139.7470803648766,35.783475263007524],[139.74697943727895,35.783515210788075],[139.74694830167388,35.783460746514386],[139.7470274265214,35.78343078816735]]]}},{"type":"Feature","properties":{"height":3.0,"gml_id":"bldg_376b9467-53e5-4485-87aa-d23400606f2b"},"geometry":{"type":"Polygon","coordinates":[[[139.74828310070404,35.78515832042569],[139.74828199420497,35.785158590049875],[139.74829213687894,35.78519095590018],[139.7482100370563,35.7852086545236],[139.74819867767715,35.78517619766954],[139.7482455915052,35.78516640609424],[139.74823522866788,35.7851330485926],[139.74827218436266,35.78512532307807],[139.74828310070404,35.78515832042569]]]}},{"type":"Feature","properties":{"height":3.4,"gml_id":"bldg_4d24fe85-ff9c-4166-8729-9be4856341dd"},"geometry":{"type":"Polygon","coordinates":[[[139.74883788907397,35.78461384185075],[139.74888911792596,35.78460288129226],[139.74895473707454,35.784792121974476],[139.74890450150323,35.78480515637663],[139.74883788907397,35.78461384185075]]]}},{"type":"Feature","properties":{"height":6.5,"gml_id":"bldg_1e95348f-5703-4f2a-998a-dd7afc1936a6"},"geometry":{"type":"Polygon","coordinates":[[[139.7495324736649,35.78377174024016],[139.7495447157878,35.783806631252666],[139.74949536749568,35.78381813421705],[139.74947319948612,35.783754843560125],[139.7495304035936,35.78374154336723],[139.74954032951888,35.78376994300209],[139.7495324736649,35.78377174024016]]]}},{"type":"Feature","properties":{"height":7.0,"gml_id":"bldg_cf08e615-bb9c-4233-862c-b686de9c8811"},"geometry":{"type":"Polygon","coordinates":[[[139.74987928293405,35.78333130838913],[139.7498960437387,35.7833822466444],[139.74983496980423,35.78339410215543],[139.74981699204304,35.78334334331783],[139.74987928293405,35.78333130838913]]]}},{"type":"Feature","properties":{"height":8.2,"gml_id":"bldg_a7d87489-8bf8-4cba-a8ca-ec9fce7ede2b"},"geometry":{"type":"Polygon","coordinates":[[[139.74945246758264,35.78443048561808],[139.7495511628414,35.78440946268943],[139.749577625612,35.784491504521824],[139.7494788195438,35.78451261753019],[139.74945246758264,35.78443048561808]]]}},{"type":"Feature","properties":{"height":7.2,"gml_id":"bldg_df2bc5fe-949f-4ce5-afec-c6ce4f045ddc"},"geometry":{"type":"Polygon","coordinates":[[[139.74958740725256,35.78391933050511],[139.74958210650405,35.7839107639305],[139.74963565743184,35.78390016521195],[139.74971405584472,35.78414079169297],[139.74966315888318,35.784152113377345],[139.74965852419092,35.78414129387968],[139.7496171447694,35.78414856606433],[139.74954503000032,35.783928855360635],[139.74958740725256,35.78391933050511]]]}},{"type":"Feature","properties":{"height":2.8,"gml_id":"bldg_a61a3334-0419-422a-94f2-def096162a02"},"geometry":{"type":"Polygon","coordinates":[[[139.74777028715476,35.78389515688071],[139.7477526201347,35.78386521928657],[139.7478290901237,35.78383534866037],[139.74783935889494,35.78385293240534],[139.74781456974696,35.783862649425096],[139.74782185739568,35.78387500318603],[139.74777028715476,35.78389515688071]]]}},{"type":"Feature","properties":{"height":6.4,"gml_id":"bldg_4878febf-8651-4bc1-8e95-af3f94ddfd42"},"geometry":{"type":"Polygon","coordinates":[[[139.7488830258435,35.78366916226248],[139.7488891991558,35.78368935697507],[139.7488764545083,35.7837115213859],[139.74880685686972,35.78372868838839],[139.74879218966953,35.78368604393294],[139.7488023688181,35.783683977969496],[139.7487981797042,35.78367036454709],[139.74884276919295,35.783660931644235],[139.74885049669285,35.78367589958519],[139.7488830258435,35.78366916226248]]]}},{"type":"Feature","properties":{"height":3.9,"gml_id":"bldg_ff9da0b1-c495-49b3-8954-6a033033afc9"},"geometry":{"type":"Polygon","coordinates":[[[139.74835694780242,35.784891481140896],[139.74838217450818,35.78488663164242],[139.7484104988598,35.784985530395566],[139.7483852722204,35.78499028976435],[139.74835694780242,35.784891481140896]]]}},{"type":"Feature","properties":{"height":7.8,"gml_id":"bldg_14678815-76fb-426b-af29-4f4b104e8691"},"geometry":{"type":"Polygon","coordinates":[[[139.7485674460836,35.78386192057511],[139.74858861534244,35.78392755421945],[139.74850817770837,35.78394381205266],[139.74848236930072,35.78387177549277],[139.74855307179502,35.783856051627325],[139.7485674460836,35.78386192057511]]]}},{"type":"Feature","properties":{"height":4.4,"gml_id":"bldg_d9ce0b77-00f3-4fee-9ca0-255b8012d86a"},"geometry":{"type":"Polygon","coordinates":[[[139.74864138822147,35.784859142852774],[139.748722599854,35.78484405724086],[139.74874045250002,35.784908156209234],[139.74871511537935,35.78491282543396],[139.7487152257135,35.784913095918384],[139.74867694337934,35.784920189686346],[139.74867595180655,35.78491640329331],[139.74865847018833,35.78491972600213],[139.74864138822147,35.784859142852774]]]}},{"type":"Feature","properties":{"height":5.7,"gml_id":"bldg_7b62855d-74e6-4634-92c6-250ea4bb1d2f"},"geometry":{"type":"Polygon","coordinates":[[[139.74787888740855,35.78412805437784],[139.7479366392093,35.784223729280704],[139.74785961472745,35.78425459107069],[139.74780186290022,35.78415900626694],[139.74787888740855,35.78412805437784]]]}},{"type":"Feature","properties":{"height":5.1,"gml_id":"bldg_bfc5bf3f-5f01-4f31-b485-7c87a9fd0b5a"},"geometry":{"type":"Polygon","coordinates":[[[139.74819867767715,35.78517619766954],[139.74816504154737,35.78518302415659],[139.7481475150106,35.78512469401487],[139.74822728960515,35.78510897677124],[139.74823522866788,35.7851330485926],[139.7482455915052,35.78516640609424],[139.74819867767715,35.78517619766954]]]}},{"type":"Feature","properties":{"height":9.4,"gml_id":"bldg_e3c3d6d7-8a56-4836-a4af-b106d119f553"},"geometry":{"type":"Polygon","coordinates":[[[139.74918865300074,35.784206765011106],[139.74919273348922,35.78421857563061],[139.74904491089288,35.78425119133473],[139.7489725590348,35.784047884806995],[139.7491270200712,35.7840137415338],[139.7491516124807,35.78408559683158],[139.7492047227187,35.78407346569153],[139.74924596790925,35.78419364530348],[139.74918865300074,35.784206765011106]]]}},{"type":"Feature","properties":{"height":3.2,"gml_id":"bldg_5e33e50f-6f16-46c6-aea5-50d7510afec9"},"geometry":{"type":"Polygon","coordinates":[[[139.74763971169585,35.78342131112081],[139.74766356065214,35.78346297076793],[139.74762604551168,35.78347727559927],[139.74760219657074,35.783435615944846],[139.74763971169585,35.78342131112081]]]}},{"type":"Feature","properties":{"height":9.6,"gml_id":"bldg_f97a935f-1a67-46cd-8cd7-1556951a9556"},"geometry":{"type":"Polygon","coordinates":[[[139.7497152419033,35.784064537793334],[139.74976780149146,35.78404997236015],[139.74978495205215,35.784045657767734],[139.74980592092365,35.78409236257953],[139.7497890997608,35.784099020929574],[139.74980013616837,35.784123455346105],[139.74974868188534,35.78413883278195],[139.7497152419033,35.784064537793334]]]}},{"type":"Feature","properties":{"height":9.7,"gml_id":"bldg_51a1d9a3-7b4a-4123-9226-ca387ca2138d"},"geometry":{"type":"Polygon","coordinates":[[[139.74867125895258,35.784543238614575],[139.74861903500496,35.78455374770136],[139.74859531497827,35.78449406122141],[139.74864753888994,35.784483552144756],[139.74867125895258,35.784543238614575]]]}},{"type":"Feature","properties":{"height":10.6,"gml_id":"bldg_67e47e47-b662-4399-b789-141f851cd31d"},"geometry":{"type":"Polygon","coordinates":[[[139.7487791426631,35.78420260193908],[139.74895916133502,35.78416460101909],[139.7489566262259,35.78415594622211],[139.74898240509495,35.78415172793363],[139.7490248508194,35.78428705124337],[139.7487939368959,35.78433430045905],[139.74877133293043,35.78426524069327],[139.74879733451576,35.7842596705671],[139.7487791426631,35.78420260193908]]]}},{"type":"Feature","properties":{"height":3.2,"gml_id":"bldg_2eaf1bfe-e864-4abe-8b6e-4f0ab1bb976c"},"geometry":{"type":"Polygon","coordinates":[[[139.7481645685049,35.78438207890986],[139.74817096081512,35.7844042567952],[139.74819773644325,35.78439904788943],[139.74821448938246,35.78445656626282],[139.74814400974216,35.784470216966284],[139.74812086455216,35.78439052069565],[139.7481645685049,35.78438207890986]]]}},{"type":"Feature","properties":{"height":7.3,"gml_id":"bldg_6aa41b4e-55b6-4014-a7b5-b17d789f5901"},"geometry":{"type":"Polygon","coordinates":[[[139.74912780923714,35.7833703540756],[139.74911667383404,35.783335193386485],[139.74919788392177,35.78332001731201],[139.7491940219607,35.783310820776784],[139.74924126139518,35.78330580622486],[139.74925547755933,35.78335674278995],[139.74913797835683,35.783377752316525],[139.74912780923714,35.7833703540756]]]}},{"type":"Feature","properties":{"height":5.7,"gml_id":"bldg_ca1072bc-25f9-4ea8-a130-513270f56bbc"},"geometry":{"type":"Polygon","coordinates":[[[139.74890476106782,35.78612879765259],[139.74891360152313,35.78613763714568],[139.74886743943853,35.78616834096145],[139.74885859898492,35.78615950146503],[139.74890476106782,35.78612879765259]]]}},{"type":"Feature","properties":{"height":5.6,"gml_id":"bldg_05027999-8bdf-4375-b7b5-82f1bbd388a4"},"geometry":{"type":"Polygon","coordinates":[[[139.7488624297689,35.78609370518483],[139.7488781216538,35.78610930966147],[139.74884745768617,35.78612965876205],[139.74883176580326,35.786114054281455],[139.7488624297689,35.78609370518483]]]}},{"type":"Feature","properties":{"height":10.0,"gml_id":"bldg_ec02c012-cdd3-4b66-865f-a245f688ca2e"},"geometry":{"type":"Polygon","coordinates":[[[139.74988817907595,35.783392516647936],[139.74990057147397,35.783389550770956],[139.74992570759588,35.78347087053533],[139.74986994226316,35.78348372123754],[139.7498423687189,35.78340609532985],[139.7498524385055,35.7834027673028],[139.74984990238107,35.783395013878994],[139.74988630421097,35.78338710720983],[139.74988817907595,35.783392516647936]]]}},{"type":"Feature","properties":{"height":8.0,"gml_id":"bldg_197c02f4-d0de-418d-b0e4-452228e02c83"},"geometry":{"type":"Polygon","coordinates":[[[139.74767177480442,35.784055167587844],[139.7476845840489,35.78407626844369],[139.74769941355254,35.78407023991912],[139.74772138848132,35.784106039401465],[139.74765963573662,35.784131143256516],[139.74764605331328,35.78410896022002],[139.74761672614036,35.7841210174906],[139.7475954138106,35.784086300088944],[139.74767177480442,35.784055167587844]]]}},{"type":"Feature","properties":{"height":7.5,"gml_id":"bldg_1fb7ff55-cb75-46a2-8157-dd882b486965"},"geometry":{"type":"Polygon","coordinates":[[[139.74923905690656,35.78434858357597],[139.74932425288165,35.78433097654534],[139.749358640615,35.78434533212462],[139.74937154893394,35.784377880090936],[139.74933747066527,35.78438479673403],[139.74934287397917,35.78440102491665],[139.74930580772323,35.784409111226594],[139.74930801291518,35.784415963073286],[139.74926961930265,35.78442395830898],[139.74923905690656,35.78434858357597]]]}}]}