{"type":"FeatureCollection","crs":{"type":"name","properties":{"name":"urn:ogc:def:crs:OGC:1.3:CRS84"}},"features":[{"type":"Feature","properties":{"height":8.0,"gml_id":"bldg_5cd24b6a-5457-4f0f-871a-89c3ed9886e7"},"geometry":{"type":"Polygon","coordinates":[[[139.803218874003,35.80843749742213],[139.8031852393644,35.80842685303042],[139.80317361154917,35.80845118663657],[139.8031113211072,35.808431431369776],[139.8031608224848,35.80832760797263],[139.80325674746814,35.80835800759534],[139.803218874003,35.80843749742213]]]}},{"type":"Feature","properties":{"height":21.4,"gml_id":"bldg_cdc74df4-96f3-4fef-9719-3980a0520467"},"geometry":{"type":"Polygon","coordinates":[[[139.8025746795354,35.80835927718675],[139.80255044943823,35.80835151935177],[139.80256185584415,35.80832790683104],[139.80253397465066,35.80831897629961],[139.80257173770622,35.808240478146914],[139.80263657250816,35.80826122583153],[139.80263225352826,35.808270328391075],[139.8026970884048,35.80829098590773],[139.80260849475155,35.808475380060386],[139.80253082554262,35.80845057298654],[139.8025746795354,35.80835927718675]]]}},{"type":"Feature","properties":{"height":7.4,"gml_id":"bldg_c413b1dc-4cbf-483d-b6c7-a827a40a7818"},"geometry":{"type":"Polygon","coordinates":[[[139.80359454976406,35.80841830199159],[139.8035364611781,35.80840629961745],[139.80353978482103,35.80839548420882],[139.80346808693704,35.80838068423477],[139.80348836089144,35.80831552146895],[139.8035718977193,35.80833275801474],[139.8035768831043,35.8083167151706],[139.80362313263117,35.80832628094783],[139.80359454976406,35.80841830199159]]]}},{"type":"Feature","properties":{"height":7.0,"gml_id":"bldg_52a42246-76ac-4c29-bdf5-5b57e1f3d940"},"geometry":{"type":"Polygon","coordinates":[[[139.8033974617878,35.80845601975457],[139.8033712100592,35.80852749048259],[139.80322294783608,35.80849139933318],[139.80325274433503,35.8084100146445],[139.8033711326856,35.80843888749444],[139.8033675880835,35.808448711355304],[139.8033974617878,35.80845601975457]]]}},{"type":"Feature","properties":{"height":6.2,"gml_id":"bldg_512824c6-8655-454d-98a3-c8fa14ccb9d8"},"geometry":{"type":"Polygon","coordinates":[[[139.80331883876215,35.80831881427045],[139.80337559893772,35.80833207831264],[139.8033711681661,35.80834442574055],[139.80341210632275,35.80835399027507],[139.80339338601175,35.808406985153155],[139.80327123541687,35.8083782916548],[139.80328796190364,35.80833097481929],[139.8033125247727,35.808336749612785],[139.80331883876215,35.80831881427045]]]}},{"type":"Feature","properties":{"height":3.6,"gml_id":"bldg_024f6861-ac3e-41e4-861c-da05b815fe0e"},"geometry":{"type":"Polygon","coordinates":[[[139.80356544676175,35.808421359388085],[139.80360727037694,35.80843047339895],[139.80359264741682,35.80847526701103],[139.80355071312633,35.80846615296771],[139.80356544676175,35.808421359388085]]]}},{"type":"Feature","properties":{"height":8.0,"gml_id":"bldg_b1b0af75-0fdd-4d84-bf80-b28f7baebe42"},"geometry":{"type":"Polygon","coordinates":[[[139.80266249877027,35.80846214396562],[139.80271588150683,35.80833777090089],[139.80279864116747,35.808361407390144],[139.80274525857862,35.80848569035593],[139.80266249877027,35.80846214396562]]]}},{"type":"Feature","properties":{"height":3.7,"gml_id":"bldg_b0579635-cb51-42e1-bae2-7a75983977b9"},"geometry":{"type":"Polygon","coordinates":[[[139.8050004255495,35.80835212171033],[139.80499999020344,35.808331660901224],[139.8050879599888,35.808330599978255],[139.805088284736,35.8083509706258],[139.8050004255495,35.80835212171033]]]}},{"type":"Feature","properties":{"height":9.7,"gml_id":"bldg_5942782d-d5b0-4992-9fe6-33e8aad498df"},"geometry":{"type":"Polygon","coordinates":[[[139.80301020788593,35.8083681309494],[139.80305771612643,35.80826818290759],[139.80315861985144,35.80830002602691],[139.80311111171835,35.80839997410813],[139.80301020788593,35.8083681309494]]]}},{"type":"Feature","properties":{"height":5.0,"gml_id":"bldg_5bfaee14-7a38-4c9d-ad72-c76e1ba2a747"},"geometry":{"type":"Polygon","coordinates":[[[139.8034250018719,35.80848973719955],[139.80343497251593,35.80845819233562],[139.8034154990194,35.80845413140398],[139.80343300308502,35.80839861243283],[139.80354884817072,35.80842288757653],[139.8035212629183,35.808509951408766],[139.8034250018719,35.80848973719955]]]}},{"type":"Feature","properties":{"height":11.1,"gml_id":"bldg_406c5e86-902a-4ffa-8e36-dd0d11212705"},"geometry":{"type":"Polygon","coordinates":[[[139.80244042676554,35.808437299906444],[139.80233531664226,35.8084097815935],[139.80233077543724,35.8084211374664],[139.80226571780378,35.80840417524114],[139.80229473769216,35.80833045208622],[139.80235149707522,35.808345339046525],[139.80235714599638,35.808330918858914],[139.80247741400106,35.80836240699637],[139.8024733157812,35.80837286163577],[139.80253084973208,35.80838792898067],[139.80250249465874,35.808459849657055],[139.80243821149662,35.80844297785909],[139.80244042676554,35.808437299906444]]]}}]}