{"type":"FeatureCollection","crs":{"type":"name","properties":{"name":"urn:ogc:def:crs:OGC:1.3:CRS84"}},"features":[{"type":"Feature","properties":{"height":3.9,"gml_id":"bldg_ff2cf2e3-05da-442e-8a21-485d55d2aea2"},"geometry":{"type":"Polygon","coordinates":[[[139.8374799854064,35.80036335917536],[139.8375250174895,35.8003760667044],[139.83749127585722,35.80045809108406],[139.83744591182918,35.80044583423088],[139.8374799854064,35.80036335917536]]]}},{"type":"Feature","properties":{"height":4.7,"gml_id":"bldg_a4477404-a580-4aab-b86e-64c3a6e31115"},"geometry":{"type":"Polygon","coordinates":[[[139.83751969378147,35.80013062820679],[139.83749413594097,35.80013937222755],[139.83746835591407,35.80013081025416],[139.83745762256618,35.8001099893459],[139.83746813246756,35.80008907757254],[139.83749369029482,35.80008033355724],[139.8375193596615,35.80008880539373],[139.83753009302262,35.80010962629655],[139.83751969378147,35.80013062820679]]]}}]}