{"type":"FeatureCollection","crs":{"type":"name","properties":{"name":"urn:ogc:def:crs:OGC:1.3:CRS84"}},"features":[{"type":"Feature","properties":{"height":9.3,"gml_id":"bldg_02ae9e80-e0ea-4ee6-b2f0-af8fc2183ce5"},"geometry":{"type":"Polygon","coordinates":[[[139.76964305366602,35.81732164279164],[139.76958605864087,35.817324316634014],[139.7695796010622,35.81723462876254],[139.7696309518603,35.8172322223376],[139.76963346959369,35.81726674542387],[139.76963911375927,35.817266478009266],[139.76964305366602,35.81732164279164]]]}},{"type":"Feature","properties":{"height":6.6,"gml_id":"bldg_ed8d749c-cf1d-43ad-baff-24ebd5ca1b3f"},"geometry":{"type":"Polygon","coordinates":[[[139.7693858496798,35.81720442071749],[139.76938486229093,35.81719369411253],[139.7693577478508,35.81719539225251],[139.76935346935326,35.81714869998121],[139.76943259909604,35.817143874774416],[139.76943786503548,35.81720129364756],[139.7693858496798,35.81720442071749]]]}},{"type":"Feature","properties":{"height":1.5,"gml_id":"bldg_42479768-bd55-49bc-a32b-9bad707e02ad"},"geometry":{"type":"Polygon","coordinates":[[[139.7706069249969,35.816794228181806],[139.7705927595901,35.81679458132982],[139.77059232522708,35.81678403529287],[139.77060649070293,35.8167835920098],[139.7706069249969,35.816794228181806]]]}},{"type":"Feature","properties":{"height":7.7,"gml_id":"bldg_4dbb1438-60be-451d-b4a2-f7c78391c4d2"},"geometry":{"type":"Polygon","coordinates":[[[139.77001313648677,35.81674353133262],[139.770017414562,35.816791215069976],[139.76983093524842,35.816802113189915],[139.76982665721232,35.81675451958121],[139.77001313648677,35.81674353133262]]]}},{"type":"Feature","properties":{"height":6.7,"gml_id":"bldg_3ad94449-ee36-4224-bb94-92b5faf577e3"},"geometry":{"type":"Polygon","coordinates":[[[139.76742449626494,35.817236260654134],[139.76741855238484,35.817331349947835],[139.7673561389826,35.817328791924695],[139.76736073742563,35.81725488364929],[139.76738076716404,35.8172557959915],[139.76738211274457,35.817234524841005],[139.76742449626494,35.817236260654134]]]}},{"type":"Feature","properties":{"height":8.0,"gml_id":"bldg_b6e83d91-1318-4f38-9dc0-e72b2e52db64"},"geometry":{"type":"Polygon","coordinates":[[[139.76876872860814,35.817402207840594],[139.76876993038857,35.81742140726662],[139.76869766315085,35.817424342889446],[139.76869384098848,35.81736124625006],[139.76873346066188,35.81735964511597],[139.7687330243513,35.817351803126],[139.76877463607642,35.817350112913715],[139.76877780306307,35.817402392984434],[139.76876872860814,35.817402207840594]]]}},{"type":"Feature","properties":{"height":6.4,"gml_id":"bldg_dba167c8-ab33-4576-acca-51557101a27d"},"geometry":{"type":"Polygon","coordinates":[[[139.77000733968657,35.81693605691515],[139.7700011859572,35.81688125151524],[139.7700897233624,35.816874628129],[139.77009290992066,35.81690329277635],[139.77010574786706,35.81690230804311],[139.77010871510268,35.81692844879097],[139.77000733968657,35.81693605691515]]]}},{"type":"Feature","properties":{"height":6.9,"gml_id":"bldg_fb59e149-32d2-4ae7-8d2d-29ee8f10d608"},"geometry":{"type":"Polygon","coordinates":[[[139.76750074446153,35.816834660319174],[139.76750049299525,35.81687116490817],[139.76744106597232,35.81687095207786],[139.76744144756933,35.81681092229191],[139.76749268533447,35.81681113063689],[139.76749255524606,35.81683465583407],[139.76750074446153,35.816834660319174]]]}},{"type":"Feature","properties":{"height":7.0,"gml_id":"bldg_3e3238b1-3640-4e6a-8371-fc7af0c903ad"},"geometry":{"type":"Polygon","coordinates":[[[139.76999998023183,35.817005997896764],[139.76992693718077,35.81701091682305],[139.76991935976145,35.816937362562165],[139.76999229215195,35.816932353446944],[139.76999998023183,35.817005997896764]]]}},{"type":"Feature","properties":{"height":6.7,"gml_id":"bldg_13e62ff9-d7f2-43ac-9916-a3e1387bcedc"},"geometry":{"type":"Polygon","coordinates":[[[139.76825799148133,35.81701245857042],[139.7682573360954,35.81700191240591],[139.7682388543268,35.81700271361539],[139.76823426554304,35.816930242488816],[139.768279307827,35.816928374035285],[139.76827996417117,35.81693774844369],[139.76830519672305,35.816936680474576],[139.768309895355,35.817010233279326],[139.76825799148133,35.81701245857042]]]}},{"type":"Feature","properties":{"height":6.5,"gml_id":"bldg_a331f0a7-57a9-4705-a43f-a6845b6a3ddc"},"geometry":{"type":"Polygon","coordinates":[[[139.76981634895517,35.81719193990704],[139.7698119541389,35.81715200772477],[139.76984969330547,35.81714923347232],[139.76984738583405,35.81712850117503],[139.76992197867276,35.81712313243913],[139.76992868103554,35.81718379691331],[139.76981634895517,35.81719193990704]]]}},{"type":"Feature","properties":{"height":6.4,"gml_id":"bldg_08d49324-5708-4a91-8afa-0e47c11b9e56"},"geometry":{"type":"Polygon","coordinates":[[[139.76651202499025,35.81727532621309],[139.7664108009885,35.81723344720616],[139.76642997200406,35.81720263166594],[139.76644247290525,35.817207776324736],[139.76649943169397,35.817116320857025],[139.7664854926814,35.817110544458494],[139.76651319627976,35.81706612324529],[139.7666158583216,35.81710854377596],[139.76651202499025,35.81727532621309]]]}},{"type":"Feature","properties":{"height":7.5,"gml_id":"bldg_6c2f6ca6-8ff6-4f8a-88be-708f760001cd"},"geometry":{"type":"Polygon","coordinates":[[[139.76734799618208,35.8172726332749],[139.7673433012324,35.81732941582378],[139.76724381719612,35.817323953062335],[139.76724940635575,35.8172565350646],[139.7672695466096,35.81725762775634],[139.76726865247286,35.817268263209264],[139.76734799618208,35.8172726332749]]]}},{"type":"Feature","properties":{"height":7.2,"gml_id":"bldg_60c51819-669d-4759-a79f-ff8990a224b7"},"geometry":{"type":"Polygon","coordinates":[[[139.76722786907376,35.81733872645288],[139.76722194766828,35.817406414671304],[139.76711139770705,35.81740004436266],[139.76711664952305,35.817339206049944],[139.7671858123417,35.81734321007355],[139.76718637135286,35.81733636011204],[139.76722786907376,35.81733872645288]]]}},{"type":"Feature","properties":{"height":6.3,"gml_id":"bldg_e4537ebe-e7ed-42ce-9753-2ea59d2248ec"},"geometry":{"type":"Polygon","coordinates":[[[139.76885439194618,35.816844948346336],[139.76885505003352,35.81685224964472],[139.76882052077187,35.816854394361904],[139.76881667979788,35.81681446243851],[139.76888009407637,35.81681053051072],[139.76888316632687,35.81684316107459],[139.76885439194618,35.816844948346336]]]}},{"type":"Feature","properties":{"height":6.3,"gml_id":"bldg_aff123ba-3eba-4c98-8593-5d2c771ed876"},"geometry":{"type":"Polygon","coordinates":[[[139.77000053248926,35.81686800130706],[139.7699948224322,35.816811934248136],[139.77006653724487,35.81680710471641],[139.77006873302642,35.81682918897881],[139.77010503309967,35.8168267744291],[139.77010843677547,35.81686075716307],[139.77000053248926,35.81686800130706]]]}},{"type":"Feature","properties":{"height":7.4,"gml_id":"bldg_08f76e6f-a0ed-4dec-9bf4-b134f0f9e3dd"},"geometry":{"type":"Polygon","coordinates":[[[139.76885020049428,35.81669099529647],[139.76885524662276,35.8167459804328],[139.76881064638553,35.81674875069081],[139.76880560036057,35.81669367541756],[139.76885020049428,35.81669099529647]]]}},{"type":"Feature","properties":{"height":9.3,"gml_id":"bldg_3a6ae5c6-c446-44b9-927f-cc4873141e66"},"geometry":{"type":"Polygon","coordinates":[[[139.76970530722545,35.817247224148296],[139.76971288203134,35.81732384301155],[139.7696986053574,35.81732482694111],[139.7697000325042,35.81733924931605],[139.76964757411756,35.81734273680511],[139.76963868297565,35.81725160548577],[139.76970530722545,35.817247224148296]]]}},{"type":"Feature","properties":{"height":7.0,"gml_id":"bldg_c2954448-7192-4162-80bf-79afac19a103"},"geometry":{"type":"Polygon","coordinates":[[[139.7682188520473,35.816832707932555],[139.76822399892094,35.816899320579886],[139.7681504034917,35.816903066370934],[139.7681451460142,35.81683645366054],[139.7682188520473,35.816832707932555]]]}},{"type":"Feature","properties":{"height":6.5,"gml_id":"bldg_05e54546-797b-4202-9563-95033df500b5"},"geometry":{"type":"Polygon","coordinates":[[[139.76806858395275,35.81708464425539],[139.76807483080714,35.81715927952946],[139.7680094244542,35.81716293954417],[139.76800317766077,35.817088304266804],[139.76806858395275,35.81708464425539]]]}},{"type":"Feature","properties":{"height":7.9,"gml_id":"bldg_7757bca8-3dc3-437b-859a-962d3b2d496e"},"geometry":{"type":"Polygon","coordinates":[[[139.76734580975895,35.81697266238361],[139.76734692707714,35.81695977367395],[139.76733276200008,35.81695967576235],[139.76733368850068,35.81690992168129],[139.76734774282914,35.81691010966712],[139.76734797467563,35.8168974007415],[139.7674126025335,35.81689815728076],[139.76741110159486,35.81697350942329],[139.76734580975895,35.81697266238361]]]}},{"type":"Feature","properties":{"height":6.9,"gml_id":"bldg_b40acf01-8cc4-4d2b-b46d-fad0903274e8"},"geometry":{"type":"Polygon","coordinates":[[[139.7695193575478,35.81673317508614],[139.76951529958842,35.81668738428536],[139.769605274453,35.816682023910595],[139.76960615199272,35.816691758969995],[139.76961688699024,35.81669113371459],[139.76961864257703,35.81670997288752],[139.76964763822198,35.81670818555],[139.7696490630453,35.81672549224998],[139.7695193575478,35.81673317508614]]]}},{"type":"Feature","properties":{"height":6.3,"gml_id":"bldg_c377d333-11c0-4c86-af24-16c468d78823"},"geometry":{"type":"Polygon","coordinates":[[[139.7700205653509,35.81672550821937],[139.7700693706579,35.81672291999579],[139.77007200194745,35.816754018000715],[139.77012534481952,35.816751071601765],[139.77012841450545,35.816787577943614],[139.77002615559587,35.81679311251142],[139.7700205653509,35.81672550821937]]]}},{"type":"Feature","properties":{"height":8.3,"gml_id":"bldg_0410c430-8322-4840-9077-e7557abe98d1"},"geometry":{"type":"Polygon","coordinates":[[[139.76968258240575,35.81715662631832],[139.76968762719483,35.81721404506338],[139.76961591220964,35.817218603963056],[139.7696108674719,35.81716118521509],[139.76968258240575,35.81715662631832]]]}},{"type":"Feature","properties":{"height":6.6,"gml_id":"bldg_9e35c6f1-613b-494a-936d-78e422222541"},"geometry":{"type":"Polygon","coordinates":[[[139.7662565179003,35.816725179379716],[139.76625142041425,35.816733378831934],[139.76626093426262,35.81673735008634],[139.76623566868108,35.81677771652394],[139.76622958423022,35.81677518934402],[139.76622182728883,35.81678753352619],[139.7661460481874,35.81675612417109],[139.7661840575763,35.81669521406218],[139.7662565179003,35.816725179379716]]]}},{"type":"Feature","properties":{"height":9.2,"gml_id":"bldg_0f523b72-68b8-4455-86e1-87252af1da9b"},"geometry":{"type":"Polygon","coordinates":[[[139.7694281294917,35.81705941578623],[139.76943350536564,35.81711773607003],[139.76932803596299,35.817124169688014],[139.7693226600934,35.81706593953472],[139.7694281294917,35.81705941578623]]]}},{"type":"Feature","properties":{"height":7.1,"gml_id":"bldg_26f8378e-737b-43d8-8afc-4bbc16941b2c"},"geometry":{"type":"Polygon","coordinates":[[[139.76685955077676,35.81723288498027],[139.76678806905676,35.817222930567205],[139.76680340174715,35.81715001974021],[139.76683892124217,35.8171549968251],[139.76683992098972,35.81715049062197],[139.76687577248381,35.81715546787962],[139.76685955077676,35.81723288498027]]]}},{"type":"Feature","properties":{"height":7.7,"gml_id":"bldg_e4ff3b7f-8b1c-4ba6-9f5c-4942ec711f2b"},"geometry":{"type":"Polygon","coordinates":[[[139.7689078330427,35.816994511176155],[139.76891286823482,35.81706310670538],[139.7688165854771,35.817067832230116],[139.76881395838626,35.817032137310456],[139.76882568942384,35.81703151266036],[139.7688232814003,35.81699861204713],[139.7689078330427,35.816994511176155]]]}},{"type":"Feature","properties":{"height":7.4,"gml_id":"bldg_44cf4dd4-01c3-4cbf-a4db-439d180c2e29"},"geometry":{"type":"Polygon","coordinates":[[[139.76907381644423,35.8167379853092],[139.76898605514413,35.816742895795365],[139.76898112279088,35.816683944779584],[139.76906888402647,35.81667903429693],[139.76907381644423,35.8167379853092]]]}},{"type":"Feature","properties":{"height":7.2,"gml_id":"bldg_b449e4d6-ed37-41f7-8515-df88a0e0db04"},"geometry":{"type":"Polygon","coordinates":[[[139.76880442398496,35.81677984397052],[139.76881067719313,35.816847448673855],[139.7687276742099,35.81685254179542],[139.76872218886203,35.81679341020273],[139.76873502666143,35.81679260588606],[139.76873425879674,35.81678422290639],[139.76880442398496,35.81677984397052]]]}},{"type":"Feature","properties":{"height":7.4,"gml_id":"bldg_de626e7f-2c49-4e83-a109-6afc45939a0c"},"geometry":{"type":"Polygon","coordinates":[[[139.76796631272637,35.81683455384557],[139.76797080448523,35.81689007952671],[139.76789377806315,35.816894273970675],[139.767889943469,35.816847131211375],[139.76792059903036,35.816845525464444],[139.76791994198982,35.81683705240487],[139.76796631272637,35.81683455384557]]]}},{"type":"Feature","properties":{"height":7.4,"gml_id":"bldg_b474a275-537a-4e52-9bd8-9cf5771ba593"},"geometry":{"type":"Polygon","coordinates":[[[139.7689425831152,35.817267188546325],[139.7689468617423,35.81731343015566],[139.768859431434,35.81731879140148],[139.76885515285733,35.81727254978912],[139.7689425831152,35.817267188546325]]]}},{"type":"Feature","properties":{"height":8.1,"gml_id":"bldg_798e0f98-5f18-48d1-8228-f7a262b4a249"},"geometry":{"type":"Polygon","coordinates":[[[139.7698846028331,35.81666928234589],[139.76993783542036,35.816665795161086],[139.76994453252703,35.81673303950078],[139.76989129989514,35.81673652668848],[139.7698846028331,35.81666928234589]]]}},{"type":"Feature","properties":{"height":8.4,"gml_id":"bldg_ba9145f2-6601-408f-b90f-52eb58f86940"},"geometry":{"type":"Polygon","coordinates":[[[139.76858030254996,35.816946563574334],[139.7685792054125,35.816934845416846],[139.76855873132263,35.81693609627789],[139.7685550022393,35.81689481238011],[139.76860380798922,35.81689186421144],[139.76860249156738,35.816877622152376],[139.7686652417695,35.81687387025067],[139.76867138449404,35.816941114360205],[139.76858030254996,35.816946563574334]]]}},{"type":"Feature","properties":{"height":6.5,"gml_id":"bldg_03d5f7d3-9b5a-4d61-a136-35df74213276"},"geometry":{"type":"Polygon","coordinates":[[[139.76845737138183,35.81706051822647],[139.76846953650997,35.81707043965505],[139.7684738010699,35.81713362667834],[139.7683858187746,35.81713754512014],[139.76838089880792,35.81706390206516],[139.76845737138183,35.81706051822647]]]}},{"type":"Feature","properties":{"height":7.5,"gml_id":"bldg_64764707-5502-45a4-b86f-4f0414e1e0d6"},"geometry":{"type":"Polygon","coordinates":[[[139.7660037051425,35.81705123706634],[139.76601002197185,35.81704069479476],[139.76598236484404,35.81702977295214],[139.76601328422694,35.816977962575145],[139.76605963746292,35.81699637609063],[139.76606540019378,35.8169867348572],[139.76609560170795,35.81699873972549],[139.76606157940589,35.81705568608915],[139.76603602422307,35.81704557665128],[139.7660270477,35.81706053405611],[139.7660037051425,35.81705123706634]]]}},{"type":"Feature","properties":{"height":8.9,"gml_id":"bldg_f8f39138-8913-4a7b-bba5-1a171c6d1c34"},"geometry":{"type":"Polygon","coordinates":[[[139.76586087297744,35.816876835648635],[139.7658564417199,35.81688233140404],[139.7658270181464,35.81686654123701],[139.7658563750617,35.81683032339853],[139.76590935962184,35.81685874569361],[139.76588443397674,35.81688946778861],[139.76586087297744,35.816876835648635]]]}},{"type":"Feature","properties":{"height":9.0,"gml_id":"bldg_be9b6bc9-8d31-4a84-9f03-8fdeb3629f7d"},"geometry":{"type":"Polygon","coordinates":[[[139.76951235344262,35.81732653090319],[139.76946487631514,35.81732839852487],[139.7694606297306,35.81724177641602],[139.7695075534062,35.81723999863721],[139.76951235344262,35.81732653090319]]]}},{"type":"Feature","properties":{"height":6.7,"gml_id":"bldg_184fce89-21b9-420d-bd00-eb92dd3ac29c"},"geometry":{"type":"Polygon","coordinates":[[[139.76834842016106,35.81672236251331],[139.7683498397815,35.816745708279406],[139.76828974665386,35.81674819956251],[139.7682861410291,35.81669141247954],[139.76830318400818,35.81669070061951],[139.76830231081723,35.81667582785057],[139.76835343974315,35.81667369225633],[139.7683563883291,35.816722006280095],[139.76834842016106,35.81672236251331]]]}},{"type":"Feature","properties":{"height":6.4,"gml_id":"bldg_f256cfa4-ea83-4540-8660-40f1cca3a2da"},"geometry":{"type":"Polygon","coordinates":[[[139.768173581355,35.81711417540122],[139.76817576130185,35.817155007793936],[139.76808091807484,35.81715847161783],[139.76807764642098,35.81709943133573],[139.76813121011668,35.81709747742824],[139.76813219121885,35.817115685255494],[139.768173581355,35.81711417540122]]]}},{"type":"Feature","properties":{"height":1.8,"gml_id":"bldg_a979921b-fe3f-4261-99b6-402404999d71"},"geometry":{"type":"Polygon","coordinates":[[[139.770584689696,35.81678358063176],[139.77058578464383,35.81679845349982],[139.77055291585253,35.816800058770625],[139.77055182091078,35.816785185902276],[139.770584689696,35.81678358063176]]]}},{"type":"Feature","properties":{"height":8.1,"gml_id":"bldg_e8490403-7055-41d0-aea0-1855fe84d395"},"geometry":{"type":"Polygon","coordinates":[[[139.76924139175668,35.81684019787386],[139.76918428697743,35.81684215038659],[139.76918406985268,35.81683692243324],[139.76916127219323,35.816837721481356],[139.7691580025812,35.81677516595614],[139.76923779436103,35.8167723242034],[139.76924139175668,35.81684019787386]]]}},{"type":"Feature","properties":{"height":6.8,"gml_id":"bldg_1ec6b4d6-f810-416d-aa27-fb1d552f4e74"},"geometry":{"type":"Polygon","coordinates":[[[139.76641891273997,35.81679827934032],[139.76639308526813,35.816848920902345],[139.7663096674253,35.81682075226125],[139.7663194221593,35.8168014687824],[139.76633081747616,35.81680526080984],[139.7663467796648,35.81677381254617],[139.76641891273997,35.81679827934032]]]}},{"type":"Feature","properties":{"height":6.5,"gml_id":"bldg_c16b47c3-7a64-4f5d-9864-e202c2a1013a"},"geometry":{"type":"Polygon","coordinates":[[[139.7682262994142,35.81692807493147],[139.76823287288138,35.81700947051065],[139.76816126925303,35.81701330752201],[139.76815469585864,35.81693191193904],[139.7682262994142,35.81692807493147]]]}},{"type":"Feature","properties":{"height":6.3,"gml_id":"bldg_9f190bcd-020c-4ee9-bd9d-53380c5acdb4"},"geometry":{"type":"Polygon","coordinates":[[[139.76885424356885,35.81675472300239],[139.76885896426765,35.816801595801806],[139.76881392119344,35.81680454609372],[139.76880920052096,35.8167576732926],[139.76885424356885,35.81675472300239]]]}},{"type":"Feature","properties":{"height":6.4,"gml_id":"bldg_0a542e7e-ae98-4b09-9cd4-d22f01e6bcd7"},"geometry":{"type":"Polygon","coordinates":[[[139.76932539012807,35.816697919259724],[139.76932801280708,35.816739382816316],[139.7692472247166,35.81674267477348],[139.7692446020795,35.81670121121518],[139.76932539012807,35.816697919259724]]]}},{"type":"Feature","properties":{"height":7.9,"gml_id":"bldg_ca221fce-b2b6-4623-904c-a9cd946f039b"},"geometry":{"type":"Polygon","coordinates":[[[139.76879156802465,35.816666356939585],[139.76879583362106,35.81672855246996],[139.76871659461014,35.81673211530756],[139.7687124397402,35.816669919833956],[139.76879156802465,35.816666356939585]]]}},{"type":"Feature","properties":{"height":7.1,"gml_id":"bldg_f110b233-96c3-4cd3-ab3b-ca8019b9dbc3"},"geometry":{"type":"Polygon","coordinates":[[[139.76721452084684,35.81702072239914],[139.76721732574222,35.81697457475771],[139.76732101559122,35.816978868094225],[139.7673182107557,35.8170250157381],[139.76721452084684,35.81702072239914]]]}},{"type":"Feature","properties":{"height":6.6,"gml_id":"bldg_d22a57c1-9b2d-471d-aaa2-5a5ea3c12402"},"geometry":{"type":"Polygon","coordinates":[[[139.7700383857976,35.81727894728273],[139.77003223151993,35.8172247728331],[139.77011899865423,35.81721814849364],[139.77012152652986,35.81724014279308],[139.7701473131958,35.81723817337753],[139.77015093966656,35.81727035352264],[139.7700383857976,35.81727894728273]]]}},{"type":"Feature","properties":{"height":8.0,"gml_id":"bldg_45c64f24-904c-49bb-aa6c-3ce2c10689a7"},"geometry":{"type":"Polygon","coordinates":[[[139.76820690191747,35.817237137766234],[139.76821215159643,35.81731339492326],[139.76806717401834,35.81731998629538],[139.76807318886193,35.817407691033],[139.7679691589542,35.81741250180749],[139.7679615035237,35.81730127090602],[139.76798352681502,35.81730029139439],[139.7679799181337,35.817247470251246],[139.76820690191747,35.817237137766234]]]}},{"type":"Feature","properties":{"height":7.1,"gml_id":"bldg_d868b0d1-842f-437b-8700-ae097af0b694"},"geometry":{"type":"Polygon","coordinates":[[[139.76875573565664,35.81732116938777],[139.76875627745267,35.81733541102799],[139.76870359952264,35.81733664460909],[139.76870143741803,35.81727345872641],[139.76876872346855,35.8172718724527],[139.76877045449356,35.81732081675352],[139.76875573565664,35.81732116938777]]]}},{"type":"Feature","properties":{"height":2.1,"gml_id":"bldg_55009d04-09ba-4c2e-a30b-0912b0c6d01a"},"geometry":{"type":"Polygon","coordinates":[[[139.76767537108228,35.81710705404224],[139.76767999721415,35.817133556295325],[139.76762676198936,35.81713974653206],[139.76762213587483,35.81711324427698],[139.76767537108228,35.81710705404224]]]}},{"type":"Feature","properties":{"height":8.0,"gml_id":"bldg_aa433dd5-9447-4087-8b0b-d995d1a6b9a5"},"geometry":{"type":"Polygon","coordinates":[[[139.76875474825476,35.81690059836638],[139.76875726501464,35.81693584255322],[139.76868588324598,35.81693913918559],[139.7686812881404,35.816873969017074],[139.76878133328614,35.81686924562089],[139.76878341162777,35.81689926173454],[139.76875474825476,35.81690059836638]]]}},{"type":"Feature","properties":{"height":6.6,"gml_id":"bldg_017bb8a0-7a09-49f2-8330-a1a6b35388c1"},"geometry":{"type":"Polygon","coordinates":[[[139.7698167514526,35.81710342742741],[139.76981279564083,35.81706809236797],[139.76983149924237,35.81706666008782],[139.769828531949,35.81704069960401],[139.7699191723305,35.81703389718435],[139.76992609551294,35.81709519272193],[139.7698167514526,35.81710342742741]]]}},{"type":"Feature","properties":{"height":9.2,"gml_id":"bldg_157f1045-a02a-470a-bd66-d63152139b01"},"geometry":{"type":"Polygon","coordinates":[[[139.76627861952628,35.81702570222252],[139.7662505822229,35.817072016033286],[139.7662392982197,35.817067412844395],[139.76623043254938,35.817082190056],[139.76616106879518,35.817054299562606],[139.76619797173808,35.81699329869898],[139.76627861952628,35.81702570222252]]]}},{"type":"Feature","properties":{"height":6.7,"gml_id":"bldg_2766b911-2b49-4679-bbf6-2f1cab1c8fad"},"geometry":{"type":"Polygon","coordinates":[[[139.76802080594564,35.81704865439113],[139.76802004081125,35.81703702654426],[139.76799923498587,35.81703791658926],[139.7679944256044,35.81696481438828],[139.7680484321678,35.81696250021781],[139.76804974421228,35.81698197011763],[139.76809722138694,35.81697983264931],[139.76810060954074,35.81703175232039],[139.76805457113238,35.81703371030108],[139.76805544546147,35.81704714090952],[139.76802080594564,35.81704865439113]]]}},{"type":"Feature","properties":{"height":8.1,"gml_id":"bldg_37f4afce-0401-40f7-bc28-5ae6c5e870bb"},"geometry":{"type":"Polygon","coordinates":[[[139.7669626792478,35.81684833538831],[139.76702951024652,35.81686126159208],[139.7670276233188,35.81686802068583],[139.76703315575045,35.81686901522371],[139.7670142886339,35.816933992242596],[139.76694181455238,35.81691998129241],[139.7669626792478,35.81684833538831]]]}},{"type":"Feature","properties":{"height":27.6,"gml_id":"bldg_fbb090a4-2692-4a6a-b9a4-3a9031eaa7f9"},"geometry":{"type":"Polygon","coordinates":[[[139.7707782456976,35.816779985970825],[139.77076960831144,35.81678701201592],[139.77062939127265,35.81679261747048],[139.77062501308168,35.81673105289231],[139.7706585449118,35.81673061970415],[139.7706577864799,35.81670997836363],[139.77067152245615,35.816692769714436],[139.77076282430951,35.81668858092166],[139.7707717854776,35.81669201072074],[139.7707782456976,35.816779985970825]]]}},{"type":"Feature","properties":{"height":8.7,"gml_id":"bldg_4b815a23-b97b-4efa-86e7-8f329e68e787"},"geometry":{"type":"Polygon","coordinates":[[[139.76957809157108,35.81732323078731],[139.76952021085592,35.81732635480433],[139.76951286766536,35.81723711713481],[139.76957074838808,35.81723390298613],[139.76957809157108,35.81732323078731]]]}},{"type":"Feature","properties":{"height":6.8,"gml_id":"bldg_eb6747dd-3bcb-467b-a312-9fa9dd4e6c2f"},"geometry":{"type":"Polygon","coordinates":[[[139.76593680992082,35.816721485287545],[139.76590557177778,35.81675770209116],[139.76585480111845,35.81672865009085],[139.7658860392731,35.816692433300275],[139.76593680992082,35.816721485287545]]]}},{"type":"Feature","properties":{"height":7.0,"gml_id":"bldg_f41751db-94bb-4bd4-ace7-f685f39ffcc8"},"geometry":{"type":"Polygon","coordinates":[[[139.76582625478338,35.8168532008096],[139.7657845559546,35.81682730860371],[139.7658013923098,35.8168092910379],[139.76578745592101,35.816800540100466],[139.76581747330937,35.816768468858086],[139.76587310851377,35.81680311198191],[139.76582625478338,35.8168532008096]]]}},{"type":"Feature","properties":{"height":6.5,"gml_id":"bldg_3fe52ee2-ee8e-4d93-a47d-966cd94b7a0a"},"geometry":{"type":"Polygon","coordinates":[[[139.76732896414134,35.81686854706403],[139.76732850999176,35.81688242762427],[139.7672904417808,35.816881685634606],[139.7672919213336,35.8168322923976],[139.76736318852045,35.81683368355668],[139.76736216315558,35.81686919623423],[139.76732896414134,35.81686854706403]]]}},{"type":"Feature","properties":{"height":8.1,"gml_id":"bldg_ea71aa5a-c385-4184-958b-221548e9d2ef"},"geometry":{"type":"Polygon","coordinates":[[[139.76728469307128,35.81714181244733],[139.76728276300665,35.817200669622],[139.76717564059342,35.81719835733612],[139.7671776814025,35.81713950022413],[139.76728469307128,35.81714181244733]]]}},{"type":"Feature","properties":{"height":10.0,"gml_id":"bldg_e0c0ccd3-595f-4509-a054-ef70a8f0ae0f"},"geometry":{"type":"Polygon","coordinates":[[[139.76696348713116,35.81747324264025],[139.76695893107083,35.81749577390411],[139.76693370260242,35.81749170389097],[139.76685879172422,35.817479674518346],[139.7668712290576,35.817428394513186],[139.76693374688338,35.81743852419573],[139.76697977775225,35.817445940692735],[139.76697399919715,35.817474690605614],[139.76696348713116,35.81747324264025]]]}},{"type":"Feature","properties":{"height":7.8,"gml_id":"bldg_a64cee14-f6d8-4b85-a9b3-cbb9b42ebc89"},"geometry":{"type":"Polygon","coordinates":[[[139.7673152525564,35.8167217094103],[139.76731559358,35.8167108032469],[139.76728471852033,35.81671024547592],[139.76728597278708,35.81666562927568],[139.7673920988772,35.81666749024091],[139.76739061432136,35.81672301266659],[139.7673152525564,35.8167217094103]]]}},{"type":"Feature","properties":{"height":7.1,"gml_id":"bldg_ce2cec1e-e333-478f-b92a-3561e3aceabe"},"geometry":{"type":"Polygon","coordinates":[[[139.76923615061455,35.81675213305781],[139.76915314964336,35.816754882961],[139.76915042756178,35.81669953853751],[139.76917278244974,35.81669882939023],[139.76917256496353,35.81669405211222],[139.76923321091314,35.81669210149329],[139.76923615061455,35.81675213305781]]]}},{"type":"Feature","properties":{"height":7.3,"gml_id":"bldg_27db54f9-d540-4b99-b117-1129967453bb"},"geometry":{"type":"Polygon","coordinates":[[[139.767634233329,35.81666789322596],[139.76763959910315,35.816736849532894],[139.76757917344548,35.81673997122497],[139.7675739184626,35.81667092484087],[139.767634233329,35.81666789322596]]]}},{"type":"Feature","properties":{"height":9.4,"gml_id":"bldg_e1806a23-aa06-4773-a624-8abd71bfac3c"},"geometry":{"type":"Polygon","coordinates":[[[139.76821372269987,35.81674464313293],[139.76820724992743,35.816675505981465],[139.76827664032092,35.8166712170689],[139.76828311315325,35.81674035421676],[139.76821372269987,35.81674464313293]]]}},{"type":"Feature","properties":{"height":6.2,"gml_id":"bldg_5ee11e7f-80c8-419a-a305-36af5f204d85"},"geometry":{"type":"Polygon","coordinates":[[[139.76596760552826,35.81668508795732],[139.7659412418494,35.816715178313245],[139.76588416681372,35.81668197657467],[139.76591053050313,35.81665188623109],[139.76596760552826,35.81668508795732]]]}},{"type":"Feature","properties":{"height":9.8,"gml_id":"bldg_d6c431f0-a0fd-4140-bbf4-5798fe2d29db"},"geometry":{"type":"Polygon","coordinates":[[[139.76663433585256,35.81671592541978],[139.7665678441629,35.81682666458076],[139.76656109585835,35.81682395677866],[139.76654103747452,35.816857385767456],[139.76650054756846,35.8168412290753],[139.76648990898798,35.8168587995099],[139.76652885004208,35.816874414534084],[139.76647831631698,35.81695839237761],[139.76639678326953,35.81692589835961],[139.76644842537377,35.81683993819383],[139.76646568330648,35.81684688819977],[139.766470337664,35.81683922930291],[139.76647476275573,35.8168410344667],[139.76649238313271,35.816811660214036],[139.76648143099632,35.81680723750247],[139.76648741521922,35.81679732596626],[139.76645699246774,35.816785230937796],[139.7665249247319,35.81667232939495],[139.76663433585256,35.81671592541978]]]}},{"type":"Feature","properties":{"height":7.0,"gml_id":"bldg_f78ef0e9-b84b-44e4-b1bd-9a4cfffab05d"},"geometry":{"type":"Polygon","coordinates":[[[139.7663817841101,35.81686477839095],[139.7663388996917,35.81693262624855],[139.7662705326982,35.81690392515704],[139.76630233580212,35.816853737629785],[139.76628186995885,35.81684516337883],[139.76629306198438,35.81682750313616],[139.7663817841101,35.81686477839095]]]}},{"type":"Feature","properties":{"height":7.6,"gml_id":"bldg_6930f60f-bc9c-4997-9175-c0d020b0dfd7"},"geometry":{"type":"Polygon","coordinates":[[[139.76928778729763,35.81722014215778],[139.7692943701237,35.8172912622766],[139.76921158804032,35.81729635584938],[139.76920500528763,35.81722523572617],[139.76928778729763,35.81722014215778]]]}},{"type":"Feature","properties":{"height":7.0,"gml_id":"bldg_c71db43e-7936-4156-83f0-96c07d83e950"},"geometry":{"type":"Polygon","coordinates":[[[139.76908050026427,35.8168208230661],[139.76899218627526,35.816824831909926],[139.76898813952332,35.81676552082873],[139.76907645344681,35.81676151198777],[139.76908050026427,35.8168208230661]]]}},{"type":"Feature","properties":{"height":7.4,"gml_id":"bldg_e708c887-65ae-47a2-9de4-11542be9ad96"},"geometry":{"type":"Polygon","coordinates":[[[139.76842134782987,35.816723032861645],[139.76842233112149,35.81673862677009],[139.76836622208634,35.816740939972455],[139.768361523932,35.816666756220926],[139.76840512734788,35.81666497707753],[139.7684056734068,35.81667390075043],[139.7684461781365,35.81667221005358],[139.76844945708652,35.81672259736144],[139.76842134782987,35.816723032861645]]]}},{"type":"Feature","properties":{"height":6.8,"gml_id":"bldg_0dff829d-341a-4a83-92e2-522ae5658b2c"},"geometry":{"type":"Polygon","coordinates":[[[139.76590169362615,35.816763468563956],[139.7658708989496,35.81679869412065],[139.76582223022467,35.81677045450255],[139.7658529141706,35.816735319031125],[139.76590169362615,35.816763468563956]]]}},{"type":"Feature","properties":{"height":7.3,"gml_id":"bldg_86e52bc5-303a-42dc-b606-e9f86af63493"},"geometry":{"type":"Polygon","coordinates":[[[139.76722109747794,35.81696358034681],[139.76722247709571,35.81690129773329],[139.7673224065468,35.81690279481151],[139.7673209162672,35.81696516750057],[139.76722109747794,35.81696358034681]]]}},{"type":"Feature","properties":{"height":6.7,"gml_id":"bldg_6de8fabf-b462-41c2-a204-ae00bd11ff55"},"geometry":{"type":"Polygon","coordinates":[[[139.76807568446233,35.81665704706432],[139.7680791862776,35.81670527126014],[139.76796497545064,35.81671088772121],[139.7679614737781,35.816662573387084],[139.76807568446233,35.81665704706432]]]}},{"type":"Feature","properties":{"height":9.2,"gml_id":"bldg_2b6f0c4c-39ad-46dc-8e68-1dd03d4f6913"},"geometry":{"type":"Polygon","coordinates":[[[139.76731440433167,35.81707792296579],[139.76730926573762,35.81713587702812],[139.76717359635106,35.81712796068013],[139.7671773948699,35.817084697911305],[139.7672124740892,35.817086790319586],[139.7672138143308,35.817072008896425],[139.76731440433167,35.81707792296579]]]}},{"type":"Feature","properties":{"height":3.1,"gml_id":"bldg_5ca918ae-f823-45fa-9783-efe4938c35dc"},"geometry":{"type":"Polygon","coordinates":[[[139.76665163906353,35.81706574944568],[139.7666335770072,35.81709395171877],[139.76660868603363,35.817083482230714],[139.76662674817177,35.817055189826235],[139.76665163906353,35.81706574944568]]]}},{"type":"Feature","properties":{"height":8.9,"gml_id":"bldg_d24137c7-dba0-4b22-b00b-d9763ca870c4"},"geometry":{"type":"Polygon","coordinates":[[[139.76930973834735,35.816895577263665],[139.7692635900332,35.816896724432794],[139.7692634813957,35.816894200591314],[139.7692523039248,35.81689455517385],[139.76924840001917,35.81679495377541],[139.7693058363963,35.81679345208446],[139.76930973834735,35.816895577263665]]]}},{"type":"Feature","properties":{"height":2.9,"gml_id":"bldg_49252da1-301f-4cc3-a8b7-8bb92f5a5048"},"geometry":{"type":"Polygon","coordinates":[[[139.7703016856398,35.81682597635329],[139.77029949542225,35.81679677142277],[139.77035848215974,35.81679391801485],[139.7703606723988,35.81682312294436],[139.7703016856398,35.81682597635329]]]}},{"type":"Feature","properties":{"height":8.1,"gml_id":"bldg_f332422f-b7c5-4670-83c2-06d2224b6836"},"geometry":{"type":"Polygon","coordinates":[[[139.767843898728,35.81739593890422],[139.7677129753121,35.81740280791019],[139.76770410462328,35.817289503221154],[139.76782639555933,35.817283080196326],[139.76782979124943,35.81732562582388],[139.7678383128828,35.817325179791546],[139.767843898728,35.81739593890422]]]}},{"type":"Feature","properties":{"height":7.1,"gml_id":"bldg_5950e414-e698-43a2-a3c9-e297f372d1bc"},"geometry":{"type":"Polygon","coordinates":[[[139.76908302318304,35.81698595196874],[139.7690025667561,35.81698933407362],[139.76899841419507,35.81692398388422],[139.7690395831034,35.816922203207874],[139.76903991088412,35.81692743122058],[139.76907908767436,35.816925829735474],[139.76908302318304,35.81698595196874]]]}},{"type":"Feature","properties":{"height":7.8,"gml_id":"bldg_872ffa35-751d-407a-b4dd-baf3158d7903"},"geometry":{"type":"Polygon","coordinates":[[[139.76671537756295,35.81720396192901],[139.76678243195585,35.817214725150414],[139.76676999437316,35.81726627555342],[139.76675428195497,35.81726374306854],[139.76674995109252,35.817281587423714],[139.7667368943474,35.81727941694799],[139.766728010602,35.817315916749806],[139.76668983604395,35.81730976640376],[139.76671537756295,35.81720396192901]]]}},{"type":"Feature","properties":{"height":7.6,"gml_id":"bldg_5f6361f9-52ec-4f35-b6a2-9e36f014aaba"},"geometry":{"type":"Polygon","coordinates":[[[139.76629699107247,35.81715604785753],[139.76624400086837,35.81713393518999],[139.76627148267204,35.81709023498994],[139.76637381246815,35.817132835812025],[139.76636129046324,35.8171528388335],[139.766311840251,35.81713226046513],[139.76629699107247,35.81715604785753]]]}},{"type":"Feature","properties":{"height":7.7,"gml_id":"bldg_822a2437-5a10-4d97-afe5-632f3fa87cd2"},"geometry":{"type":"Polygon","coordinates":[[[139.76967090935426,35.81708460217209],[139.76967244701336,35.817099204876726],[139.76961976738053,35.81710278237179],[139.7696138371802,35.81704554342378],[139.769684113504,35.81704080349314],[139.7696885060921,35.81708343973337],[139.76967090935426,35.81708460217209]]]}},{"type":"Feature","properties":{"height":7.6,"gml_id":"bldg_335048dc-d2ec-473c-ae9b-d2c7bb9f02d3"},"geometry":{"type":"Polygon","coordinates":[[[139.76693419689144,35.816898074249195],[139.76692875688545,35.81691898259356],[139.76685428988282,35.81690614224632],[139.76687460636072,35.81682845700062],[139.76693424619947,35.81683885549792],[139.7669434301253,35.8168403928676],[139.76693421565403,35.81687554047785],[139.76693266146384,35.816881398402614],[139.76693421062566,35.81688157952858],[139.7669383046354,35.8168823028709],[139.76693419689144,35.816898074249195]]]}},{"type":"Feature","properties":{"height":7.4,"gml_id":"bldg_775e9753-5290-405e-98a5-1478ed16cea8"},"geometry":{"type":"Polygon","coordinates":[[[139.76795018300874,35.81666617265166],[139.7679553365936,35.81672431261369],[139.76787886343354,35.81672877775457],[139.76787370983016,35.81667072792446],[139.76795018300874,35.81666617265166]]]}},{"type":"Feature","properties":{"height":10.2,"gml_id":"bldg_93fa8b79-90c3-4161-a7ad-e0ac35340113"},"geometry":{"type":"Polygon","coordinates":[[[139.76894417046634,35.81735714424793],[139.76894955444783,35.81740500888072],[139.76884806772372,35.817412525831564],[139.76884444242842,35.81737953443272],[139.76886314612014,35.817378102303415],[139.76886149815678,35.81736322912466],[139.76894417046634,35.81735714424793]]]}},{"type":"Feature","properties":{"height":6.9,"gml_id":"bldg_0f7586dc-945f-4510-85e2-be044bd3ad12"},"geometry":{"type":"Polygon","coordinates":[[[139.76742932073765,35.81715658385097],[139.76742473897679,35.81721039200717],[139.76734251816907,35.81720584014253],[139.76734709998513,35.817152031989494],[139.76742932073765,35.81715658385097]]]}},{"type":"Feature","properties":{"height":7.5,"gml_id":"bldg_d6a51d4d-1475-41b1-a681-929a57396bb8"},"geometry":{"type":"Polygon","coordinates":[[[139.76713008103593,35.81688997999228],[139.7671134331363,35.81694792770888],[139.76709462296705,35.816944402075485],[139.7670917372106,35.81695458575455],[139.76706584558926,35.8169497041873],[139.7670677323659,35.81694312536322],[139.76702900560807,35.81693580306352],[139.76704676328964,35.8168741604303],[139.76713008103593,35.81688997999228]]]}},{"type":"Feature","properties":{"height":7.4,"gml_id":"bldg_650d8827-8d95-40bc-9318-c77f91b66030"},"geometry":{"type":"Polygon","coordinates":[[[139.76925693701395,35.81705076181842],[139.76915335110118,35.81705458236858],[139.76915160715137,35.817021411711146],[139.76916953544364,35.81702079033617],[139.76916822704152,35.816996453153685],[139.76917696981792,35.81699618741471],[139.76917675175054,35.816992131217624],[139.76925355578393,35.81698928786002],[139.76925693701395,35.81705076181842]]]}},{"type":"Feature","properties":{"height":6.3,"gml_id":"bldg_bc5479f1-54c5-45bc-9b49-9e620b5bb615"},"geometry":{"type":"Polygon","coordinates":[[[139.76998824672714,35.81687042848208],[139.76999384840943,35.81692361115956],[139.7698863864736,35.81693112583941],[139.7698807849342,35.81687785302197],[139.76998824672714,35.81687042848208]]]}},{"type":"Feature","properties":{"height":7.8,"gml_id":"bldg_dc333896-a477-4a99-ba3f-5717139f2d99"},"geometry":{"type":"Polygon","coordinates":[[[139.76662377689655,35.81729981489925],[139.7665652409959,35.817292301185596],[139.76657279923995,35.81725291633569],[139.76656759848257,35.81725228250137],[139.76657082167148,35.81723569942922],[139.76658199769275,35.817237147797684],[139.76658733272868,35.81720956941288],[139.76664000389684,35.81721635878118],[139.76662377689655,35.81729981489925]]]}},{"type":"Feature","properties":{"height":8.1,"gml_id":"bldg_d9198af7-45ea-49e7-92fc-3a79d3aea9f4"},"geometry":{"type":"Polygon","coordinates":[[[139.76779868343397,35.81693469283735],[139.7678031770074,35.8169878750115],[139.76780716110588,35.81698769691307],[139.76781198283294,35.817045566291796],[139.767683051818,35.817052616622085],[139.76767384735885,35.81694156512011],[139.76779868343397,35.81693469283735]]]}},{"type":"Feature","properties":{"height":7.2,"gml_id":"bldg_2854b136-90f8-4c73-84f5-27852cf69d5f"},"geometry":{"type":"Polygon","coordinates":[[[139.76838531757036,35.81680179150342],[139.76845581310133,35.81679948605751],[139.76845984164083,35.81688069998237],[139.76838934596475,35.81688309556562],[139.76838531757036,35.81680179150342]]]}},{"type":"Feature","properties":{"height":7.7,"gml_id":"bldg_aab96105-9f0d-4f3f-8b1b-bfcc671428ff"},"geometry":{"type":"Polygon","coordinates":[[[139.76963609697515,35.8170254550879],[139.7694384410891,35.817034814378275],[139.7694326398181,35.81695495157238],[139.7696304062441,35.81694550221479],[139.76963609697515,35.8170254550879]]]}},{"type":"Feature","properties":{"height":7.4,"gml_id":"bldg_a0f0df91-1b7a-4ca9-a07b-412608157c55"},"geometry":{"type":"Polygon","coordinates":[[[139.769611261589,35.81722193649743],[139.7695204001415,35.81722810762136],[139.76951348339108,35.81715915057978],[139.76954801291055,35.8171568253936],[139.76954911069808,35.81716791259638],[139.76960544255584,35.8171640666632],[139.769611261589,35.81722193649743]]]}},{"type":"Feature","properties":{"height":6.3,"gml_id":"bldg_51cd22b2-1d0c-447d-a804-2e5fa75c7128"},"geometry":{"type":"Polygon","coordinates":[[[139.76898018117328,35.81675370886652],[139.7689830237681,35.81679670484511],[139.7689150729675,35.816799733044945],[139.76891223040917,35.816756737064814],[139.76898018117328,35.81675370886652]]]}},{"type":"Feature","properties":{"height":6.6,"gml_id":"bldg_bb139c3d-18ef-4a98-9529-f8f5a77bb461"},"geometry":{"type":"Polygon","coordinates":[[[139.7661190233732,35.816782879196424],[139.7660985232183,35.81681504597272],[139.76603790030032,35.816789503809034],[139.7660584005491,35.816757246907876],[139.7661190233732,35.816782879196424]]]}},{"type":"Feature","properties":{"height":6.4,"gml_id":"bldg_71f0d6b7-2c30-457e-b028-909e184e284e"},"geometry":{"type":"Polygon","coordinates":[[[139.76993781651944,35.81710718687557],[139.7700127399687,35.817103530825065],[139.77001635321076,35.81715229583091],[139.7700049542327,35.81715283063699],[139.77000626826108,35.817170407678496],[139.7699427437303,35.817173528925764],[139.76993781651944,35.81710718687557]]]}},{"type":"Feature","properties":{"height":6.9,"gml_id":"bldg_c126851f-05b6-4333-8268-aa77d1f11afc"},"geometry":{"type":"Polygon","coordinates":[[[139.76595889256683,35.81678107698617],[139.7659428299942,35.81680017662947],[139.7659032305889,35.816778071316854],[139.7659379036962,35.816736718737516],[139.76597307862383,35.81675629777606],[139.76595435735823,35.816778640795754],[139.76595889256683,35.81678107698617]]]}},{"type":"Feature","properties":{"height":2.8,"gml_id":"bldg_2048a79e-935a-47ed-a6ac-7228ba26b19a"},"geometry":{"type":"Polygon","coordinates":[[[139.7663724965792,35.81698663590805],[139.76639565868635,35.81694725975821],[139.76641413372832,35.81695448085454],[139.76639097170383,35.816993766872834],[139.7663724965792,35.81698663590805]]]}},{"type":"Feature","properties":{"height":6.2,"gml_id":"bldg_ea244307-ecf2-49a2-8adb-417bfd1b82a6"},"geometry":{"type":"Polygon","coordinates":[[[139.77122630317527,35.81681248667482],[139.77123014654921,35.816850886225865],[139.77115345169605,35.81685589414612],[139.7711488405212,35.81680875108785],[139.7711848084875,35.816806426175376],[139.7711856870644,35.81681507960211],[139.77122630317527,35.81681248667482]]]}},{"type":"Feature","properties":{"height":6.9,"gml_id":"bldg_cde29874-216f-468e-83fb-65d7bbdf845a"},"geometry":{"type":"Polygon","coordinates":[[[139.76639251910908,35.81673237586662],[139.76637459736938,35.816725245210044],[139.76639088811444,35.81669785320393],[139.76646633662287,35.816727639788766],[139.7664370797991,35.81677683729117],[139.7663795530742,35.81675409121155],[139.76639251910908,35.81673237586662]]]}},{"type":"Feature","properties":{"height":7.5,"gml_id":"bldg_43231078-8882-4e76-a172-3fa44d659946"},"geometry":{"type":"Polygon","coordinates":[[[139.7662203297571,35.81712049184336],[139.766186864235,35.817173382471694],[139.76611362955558,35.8171426054651],[139.76614698437186,35.81708980493017],[139.7662203297571,35.81712049184336]]]}},{"type":"Feature","properties":{"height":6.8,"gml_id":"bldg_2fb8e448-685a-47f4-af76-acc456c9a734"},"geometry":{"type":"Polygon","coordinates":[[[139.76743160731922,35.816800100682244],[139.76743055196613,35.8168719378006],[139.76737433445516,35.816871456291445],[139.76737538993342,35.81679952903854],[139.76743160731922,35.816800100682244]]]}},{"type":"Feature","properties":{"height":7.7,"gml_id":"bldg_6719f5b5-3963-45b8-ac8b-28d627f1fd5f"},"geometry":{"type":"Polygon","coordinates":[[[139.76899559775148,35.81698572493884],[139.7690001854851,35.817060359278464],[139.7689249304716,35.8170634737095],[139.76892274577534,35.81702804943453],[139.7689400102243,35.81702724746784],[139.76893760717596,35.8169881275358],[139.76899559775148,35.81698572493884]]]}},{"type":"Feature","properties":{"height":7.4,"gml_id":"bldg_a1ecb309-7dfc-4698-924b-58702fdb340a"},"geometry":{"type":"Polygon","coordinates":[[[139.76813282138866,35.81675099887418],[139.76812843709416,35.81669925893151],[139.76815466592487,35.816697740858665],[139.76815422761192,35.816692422648316],[139.76819185543758,35.81669027980159],[139.7681966780888,35.816747337952236],[139.76813282138866,35.81675099887418]]]}},{"type":"Feature","properties":{"height":4.5,"gml_id":"bldg_c239b6f7-012b-4c4b-85af-70edd50e2897"},"geometry":{"type":"Polygon","coordinates":[[[139.76751088521527,35.81674957831095],[139.76751235599897,35.81671064074033],[139.76756403539312,35.81671202105337],[139.76756256463466,35.81675095862463],[139.76751088521527,35.81674957831095]]]}},{"type":"Feature","properties":{"height":6.3,"gml_id":"bldg_d8ec275c-b85f-490b-9e7b-fd749327601f"},"geometry":{"type":"Polygon","coordinates":[[[139.77002609864596,35.81714364799173],[139.77002016872348,35.81708568798312],[139.7700942079691,35.81708058925412],[139.77009618457916,35.81709996934593],[139.77012761528096,35.81709782263327],[139.77013156866195,35.81713640254547],[139.77002609864596,35.81714364799173]]]}},{"type":"Feature","properties":{"height":3.4,"gml_id":"bldg_913c1d4c-ade2-47ed-b795-775c14b08746"},"geometry":{"type":"Polygon","coordinates":[[[139.76693388708063,35.81727015186937],[139.7669257781616,35.817306561978796],[139.76689579142908,35.8173021287884],[139.76690390043643,35.817265628545904],[139.76693388708063,35.81727015186937]]]}},{"type":"Feature","properties":{"height":8.3,"gml_id":"bldg_ca5fac2c-77f3-49ca-813a-9e5c49a153a6"},"geometry":{"type":"Polygon","coordinates":[[[139.767670670946,35.81690163352394],[139.76767024995706,35.81687531383683],[139.76758625415684,35.81687643968227],[139.76758518882434,35.81682632396856],[139.76772374304034,35.8168245068329],[139.76772522954093,35.816900852097326],[139.767670670946,35.81690163352394]]]}},{"type":"Feature","properties":{"height":7.6,"gml_id":"bldg_5ce43da8-2938-4589-af78-e4515d8132cb"},"geometry":{"type":"Polygon","coordinates":[[[139.76638178605876,35.81712608011905],[139.76627569493138,35.817081944908445],[139.7663045063508,35.81703626246942],[139.76637010804615,35.817063519838676],[139.7663561455839,35.81708568530039],[139.7663966350551,35.81710247298617],[139.76638178605876,35.81712608011905]]]}},{"type":"Feature","properties":{"height":6.2,"gml_id":"bldg_37860b56-3864-46d5-b9cb-d826b28e5af2"},"geometry":{"type":"Polygon","coordinates":[[[139.77000655277774,35.81667277178645],[139.77001236512436,35.816739384710274],[139.76996798640351,35.81674197524414],[139.7699621740938,35.81667536231821],[139.77000655277774,35.81667277178645]]]}},{"type":"Feature","properties":{"height":7.7,"gml_id":"bldg_d91928f7-f5c6-41fa-8677-c6251c3ed1f5"},"geometry":{"type":"Polygon","coordinates":[[[139.76944228097094,35.81721463599295],[139.7694506289535,35.817292787581074],[139.76935821780364,35.81729931829919],[139.76934986991097,35.817221166704854],[139.76944228097094,35.81721463599295]]]}},{"type":"Feature","properties":{"height":6.9,"gml_id":"bldg_9c915136-5be2-412e-9f0e-c6f33723d07f"},"geometry":{"type":"Polygon","coordinates":[[[139.76913320927582,35.817055472964356],[139.76901733796637,35.817061179673],[139.7690171190346,35.817058205096735],[139.76900970416278,35.81705856166977],[139.7690062004608,35.81701195993486],[139.7690147220542,35.81701151381907],[139.769014613061,35.81700944065286],[139.7690957340079,35.81700542794916],[139.76909704855953,35.81702210364997],[139.7691306921284,35.81702049919117],[139.76913320927582,35.817055472964356]]]}},{"type":"Feature","properties":{"height":6.0,"gml_id":"bldg_1e2f895f-b8a4-48aa-8d01-5a8544ea6871"},"geometry":{"type":"Polygon","coordinates":[[[139.7689741449392,35.81669133212464],[139.76897753408844,35.81674271096354],[139.7689113541185,35.81674555983908],[139.76890796493896,35.816694271133485],[139.7689741449392,35.81669133212464]]]}},{"type":"Feature","properties":{"height":6.1,"gml_id":"bldg_abf87b72-be32-4787-bd7d-24cee6686605"},"geometry":{"type":"Polygon","coordinates":[[[139.7712121146606,35.81670044137531],[139.7712162873493,35.81674226623269],[139.77114125257415,35.81674727500312],[139.7711363115973,35.81669733758379],[139.7711738289627,35.81669483320592],[139.77117470795866,35.81670294582233],[139.7712121146606,35.81670044137531]]]}},{"type":"Feature","properties":{"height":7.2,"gml_id":"bldg_23c86eb5-491b-46ff-b377-45361ca75fda"},"geometry":{"type":"Polygon","coordinates":[[[139.76908574494246,35.816904290998245],[139.76899798411443,35.81690839027698],[139.76899371631472,35.81684871853798],[139.76908158781498,35.816844529186305],[139.76908574494246,35.816904290998245]]]}},{"type":"Feature","properties":{"height":9.0,"gml_id":"bldg_09b84257-6907-4a84-ba88-2bde3a7d91b0"},"geometry":{"type":"Polygon","coordinates":[[[139.76868079650038,35.817207378581955],[139.76868505232005,35.8172815620766],[139.7685874421019,35.81728529521723],[139.76858307570726,35.81721111165967],[139.76868079650038,35.817207378581955]]]}},{"type":"Feature","properties":{"height":7.3,"gml_id":"bldg_8b503b77-913a-45f5-8747-a6fda989d336"},"geometry":{"type":"Polygon","coordinates":[[[139.76839013307026,35.817003696790536],[139.76833701203154,35.81700574118793],[139.76833482928777,35.81696824379524],[139.76831734358856,35.81696895542025],[139.76831395933826,35.816912078324776],[139.7683844553358,35.81690932224543],[139.76839013307026,35.817003696790536]]]}},{"type":"Feature","properties":{"height":7.3,"gml_id":"bldg_8f32ca4f-f9fa-45ae-be00-ec96579136ee"},"geometry":{"type":"Polygon","coordinates":[[[139.7673726828051,35.81712897143838],[139.76737223380593,35.817136632677496],[139.76732221479392,35.81713444197764],[139.76732501694516,35.81709153919752],[139.76736419116529,35.81709318313446],[139.76736497670967,35.81708002383744],[139.76741245045864,35.81708212298862],[139.767409311813,35.81713052382887],[139.7673726828051,35.81712897143838]]]}},{"type":"Feature","properties":{"height":6.3,"gml_id":"bldg_a107fc2e-a616-4b0c-a1d4-eb9597c93a73"},"geometry":{"type":"Polygon","coordinates":[[[139.76894967306168,35.81684689225405],[139.7689490150385,35.816839500821054],[139.76890352950429,35.81684218050416],[139.7689006783571,35.81680982046472],[139.76898290641154,35.81680499721417],[139.76898630495342,35.8168447486253],[139.76894967306168,35.81684689225405]]]}},{"type":"Feature","properties":{"height":7.0,"gml_id":"bldg_affccf8b-e2cf-4249-b44d-2d402847886e"},"geometry":{"type":"Polygon","coordinates":[[[139.76949187506557,35.817056565333594],[139.76949956089126,35.81713246319058],[139.76944533183968,35.817136129921536],[139.76943775673064,35.81706023211999],[139.76949187506557,35.817056565333594]]]}},{"type":"Feature","properties":{"height":6.3,"gml_id":"bldg_5a511008-0df3-4dcf-a1b6-d63505743d78"},"geometry":{"type":"Polygon","coordinates":[[[139.77059592550555,35.81670904474293],[139.77047828473175,35.81671403085589],[139.77047741099278,35.81669933837259],[139.77059505174498,35.81669435226045],[139.77059592550555,35.81670904474293]]]}},{"type":"Feature","properties":{"height":6.8,"gml_id":"bldg_334bd4c1-93ed-4a12-bc85-d4b99e722747"},"geometry":{"type":"Polygon","coordinates":[[[139.76951050370357,35.816733981601885],[139.76944045041427,35.81673691884733],[139.76943607863308,35.81666850395915],[139.76947813271872,35.816666723602985],[139.76947758610677,35.816658340745384],[139.7695055853197,35.81665709372356],[139.76951050370357,35.816733981601885]]]}},{"type":"Feature","properties":{"height":6.6,"gml_id":"bldg_ed208ff5-3ddd-477e-af17-2eea9492e9c0"},"geometry":{"type":"Polygon","coordinates":[[[139.7698156027677,35.81701725764014],[139.76981263512235,35.81699174783115],[139.76982049286096,35.816991121037205],[139.76981686545915,35.81696029290712],[139.76991160086607,35.816952861710824],[139.76991830671906,35.81700910956793],[139.7698156027677,35.81701725764014]]]}},{"type":"Feature","properties":{"height":4.2,"gml_id":"bldg_011680d6-1d03-48be-b7d9-aba69d5aa937"},"geometry":{"type":"Polygon","coordinates":[[[139.7711532514219,35.81697081633175],[139.7711089840476,35.816972415857876],[139.77110647335095,35.81692806807514],[139.77115074070068,35.81692646854991],[139.7711532514219,35.81697081633175]]]}},{"type":"Feature","properties":{"height":8.8,"gml_id":"bldg_41783990-73e0-4584-871e-4c225afd82c0"},"geometry":{"type":"Polygon","coordinates":[[[139.76870735500083,35.81666270628995],[139.76871183492236,35.8167334647759],[139.7686464296785,35.816736223786954],[139.76864194981488,35.816665465298655],[139.76870735500083,35.81666270628995]]]}},{"type":"Feature","properties":{"height":8.9,"gml_id":"bldg_f8e3d8b0-dcc2-45b3-a1a7-6b9a5ed76014"},"geometry":{"type":"Polygon","coordinates":[[[139.7702946990515,35.816704560668825],[139.77035567783142,35.81670152803658],[139.7703617006983,35.816782202134],[139.7703007218569,35.81678523476919],[139.7702946990515,35.816704560668825]]]}},{"type":"Feature","properties":{"height":8.0,"gml_id":"bldg_3da27085-8811-4c64-afd2-dfcd029c60c2"},"geometry":{"type":"Polygon","coordinates":[[[139.77183072017144,35.816715361354866],[139.77176328424704,35.816768416426356],[139.7716636400545,35.81668435940536],[139.7717266466662,35.81663481738931],[139.77173483600106,35.81663464131576],[139.77183072017144,35.816715361354866]]]}},{"type":"Feature","properties":{"height":7.1,"gml_id":"bldg_fe0b152f-c714-40bc-b398-de3a8ea68a88"},"geometry":{"type":"Polygon","coordinates":[[[139.76695521441988,35.817174620418925],[139.76694021521124,35.81724590901706],[139.76693855545173,35.817245637694974],[139.76693390802006,35.81724500418212],[139.76686696304472,35.81723568326769],[139.76688340712766,35.81715700439729],[139.76692014387658,35.81716207226615],[139.76691858832848,35.817169552621905],[139.766933969112,35.81717163422655],[139.7669386165394,35.8171722677394],[139.76695521441988,35.817174620418925]]]}},{"type":"Feature","properties":{"height":8.4,"gml_id":"bldg_21932754-44ee-4aab-b8fa-1a688b95ce37"},"geometry":{"type":"Polygon","coordinates":[[[139.76689958567673,35.81726418399947],[139.7668923616178,35.8173011354064],[139.76686403419873,35.8172975143413],[139.7668573656281,35.81733185213457],[139.76679949367625,35.81732433890217],[139.76681349703463,35.81725304977155],[139.76689958567673,35.81726418399947]]]}},{"type":"Feature","properties":{"height":7.3,"gml_id":"bldg_0f1f1dbf-17f3-4a24-9760-9e050ada888c"},"geometry":{"type":"Polygon","coordinates":[[[139.7677978851494,35.81682878362745],[139.7677997100868,35.81689737745452],[139.76773286736525,35.81689851275238],[139.76773104248537,35.81682991892438],[139.7677978851494,35.81682878362745]]]}},{"type":"Feature","properties":{"height":5.3,"gml_id":"bldg_18c14208-f1ca-4b32-b13d-b0e9b32a9dc3"},"geometry":{"type":"Polygon","coordinates":[[[139.76981957530046,35.81675370462345],[139.76982286258732,35.81679471784449],[139.76976686371438,35.81679766270471],[139.76976368719306,35.816756559405604],[139.76981957530046,35.81675370462345]]]}},{"type":"Feature","properties":{"height":7.7,"gml_id":"bldg_52860e39-52d4-4395-9d6a-a5b343acbfed"},"geometry":{"type":"Polygon","coordinates":[[[139.76877314782826,35.81700128918634],[139.7687788463866,35.817070516023186],[139.7686934088224,35.81707524727285],[139.7686877103379,35.81700602043206],[139.76877314782826,35.81700128918634]]]}},{"type":"Feature","properties":{"height":7.4,"gml_id":"bldg_9747e2a9-bfee-47e0-8230-034acbe286e7"},"geometry":{"type":"Polygon","coordinates":[[[139.76679460845529,35.816812909504506],[139.76685734591675,35.81682448151118],[139.76684624611963,35.8168644052339],[139.76685542989642,35.816866122880455],[139.76684521804418,35.81690289236443],[139.76677329674467,35.816889602699376],[139.76679460845529,35.816812909504506]]]}},{"type":"Feature","properties":{"height":8.7,"gml_id":"bldg_803c8dc4-4246-4238-be14-e3b7f55a31d9"},"geometry":{"type":"Polygon","coordinates":[[[139.76928849919454,35.81729828968834],[139.76929684877217,35.8173742780439],[139.76922148092373,35.81737973611329],[139.76921302075164,35.8173037476936],[139.76928849919454,35.81729828968834]]]}},{"type":"Feature","properties":{"height":7.7,"gml_id":"bldg_ae2418cd-99b2-4ed9-9681-6ef3724a1f53"},"geometry":{"type":"Polygon","coordinates":[[[139.76607977924522,35.816864339401974],[139.7661248052086,35.81688185079881],[139.76611427682522,35.816899871937224],[139.7661450317157,35.81691178696758],[139.76611821207248,35.81695765075328],[139.76610117517274,35.816951061361706],[139.7660899817952,35.81697025388248],[139.7660312377127,35.81694750695589],[139.76607977924522,35.816864339401974]]]}},{"type":"Feature","properties":{"height":6.8,"gml_id":"bldg_d8f7aebe-9549-45c6-b62e-77346a8ecf41"},"geometry":{"type":"Polygon","coordinates":[[[139.76613732571113,35.81686365050277],[139.76612957064583,35.81687374130167],[139.766085541812,35.81685487843751],[139.7661217764758,35.81679892478852],[139.76620186919362,35.816833130756685],[139.7661727261732,35.81687836231177],[139.76613732571113,35.81686365050277]]]}},{"type":"Feature","properties":{"height":6.3,"gml_id":"bldg_3a02f91c-f2df-4340-a244-8bff4cedf0b5"},"geometry":{"type":"Polygon","coordinates":[[[139.7699837573595,35.816810125714824],[139.76998759111348,35.81685988232652],[139.76987636808323,35.81686559231293],[139.7698725343984,35.81681583569781],[139.7699837573595,35.816810125714824]]]}},{"type":"Feature","properties":{"height":6.4,"gml_id":"bldg_d0cbb1cd-9c08-45d1-b67b-6fe7110d5494"},"geometry":{"type":"Polygon","coordinates":[[[139.7682806316228,35.81706916581839],[139.76835389461561,35.817066140849086],[139.7683550960709,35.817085610685474],[139.7683421477755,35.8170861444964],[139.768344550755,35.81712499403415],[139.76835462168077,35.817124548802774],[139.76835604101626,35.81714825510757],[139.7682857659905,35.817151191559866],[139.7682806316228,35.81706916581839]]]}},{"type":"Feature","properties":{"height":8.0,"gml_id":"bldg_c1d151a9-fb90-4b09-ac5f-9c12b9000c4e"},"geometry":{"type":"Polygon","coordinates":[[[139.76951015181072,35.81717366056595],[139.76951509107687,35.817224499398],[139.769448466908,35.81722879049497],[139.7694405647016,35.817146763332495],[139.7694966750021,35.817143187737884],[139.76949974867193,35.81717437612309],[139.76951015181072,35.81717366056595]]]}},{"type":"Feature","properties":{"height":9.0,"gml_id":"bldg_d8f0a51a-12e6-4cfa-b795-e2fdbda90d78"},"geometry":{"type":"Polygon","coordinates":[[[139.76940934067864,35.816891033379235],[139.76940563832554,35.816815858713],[139.76947746189316,35.81681346323906],[139.76948007455076,35.81686754570427],[139.76948538662103,35.816867368255586],[139.76948636572038,35.81688846039567],[139.76940934067864,35.816891033379235]]]}},{"type":"Feature","properties":{"height":7.9,"gml_id":"bldg_2f50107c-3645-474d-98d6-dc4a43de076a"},"geometry":{"type":"Polygon","coordinates":[[[139.76632052457654,35.81720157921571],[139.76630512122622,35.81722635778623],[139.76621031379761,35.817187096106444],[139.76623868247884,35.81714159370709],[139.7663004123841,35.817167136385486],[139.76628744701108,35.817187950368],[139.76632052457654,35.81720157921571]]]}},{"type":"Feature","properties":{"height":7.1,"gml_id":"bldg_44d5b15a-a06c-4913-a264-01dab462655a"},"geometry":{"type":"Polygon","coordinates":[[[139.7659059508766,35.81683287500023],[139.76589719949445,35.81684332576584],[139.76586313081637,35.8168241980019],[139.76589547740795,35.81678590872365],[139.76594680167227,35.8168146906115],[139.76592331713965,35.816842529198595],[139.7659059508766,35.81683287500023]]]}},{"type":"Feature","properties":{"height":6.5,"gml_id":"bldg_9f4d3197-a92d-48a3-9ccb-ec04eb1999a9"},"geometry":{"type":"Polygon","coordinates":[[[139.76802320735544,35.81695410394895],[139.76802255133657,35.81694436899887],[139.76799156352195,35.81694624499654],[139.7679875069463,35.81689982320109],[139.76808356895646,35.81689419686912],[139.76808850301873,35.8169502635962],[139.76802320735544,35.81695410394895]]]}},{"type":"Feature","properties":{"height":9.9,"gml_id":"bldg_6f5f2423-1ba4-47ce-ac1b-2a2aafcfdc98"},"geometry":{"type":"Polygon","coordinates":[[[139.76818118973006,35.81714789006147],[139.76817603845763,35.81708668552016],[139.76826247205298,35.81708195517742],[139.7682675127259,35.81714315965524],[139.76818118973006,35.81714789006147]]]}},{"type":"Feature","properties":{"height":6.5,"gml_id":"bldg_fee09087-32c6-4db2-93ab-f507c419a954"},"geometry":{"type":"Polygon","coordinates":[[[139.76991844353634,35.81725454758503],[139.76992383089103,35.8172988969073],[139.76981382205412,35.8173077622049],[139.76980843476,35.817263412877814],[139.76991844353634,35.81725454758503]]]}},{"type":"Feature","properties":{"height":6.7,"gml_id":"bldg_6f553499-ed82-4d2d-8d3c-39e868eb625e"},"geometry":{"type":"Polygon","coordinates":[[[139.7686331510558,35.816734774478654],[139.7685530269317,35.816738066326636],[139.76854865796216,35.81666712762441],[139.76862878194203,35.81666392591434],[139.7686331510558,35.816734774478654]]]}},{"type":"Feature","properties":{"height":6.4,"gml_id":"bldg_72d1fe38-ae7f-4d82-ad0a-118001c45a32"},"geometry":{"type":"Polygon","coordinates":[[[139.7700333451879,35.817215940177434],[139.77002586708235,35.81715653719258],[139.77010201003884,35.81715017767499],[139.77010486911814,35.817173163635616],[139.77013552547547,35.817170655973115],[139.7701400339061,35.817207072933414],[139.7700333451879,35.817215940177434]]]}},{"type":"Feature","properties":{"height":7.6,"gml_id":"bldg_75e069de-7d1e-41c9-8f2c-679abb9ab141"},"geometry":{"type":"Polygon","coordinates":[[[139.7660945341088,35.81682117293014],[139.7660641754644,35.816864330671095],[139.7660218073884,35.81684456736165],[139.76605216604815,35.816801409631275],[139.7660945341088,35.81682117293014]]]}},{"type":"Feature","properties":{"height":6.7,"gml_id":"bldg_893a8b31-4e73-4280-86b7-d286e8813e2f"},"geometry":{"type":"Polygon","coordinates":[[[139.76892603500397,35.816929082827954],[139.768925511817,35.8168917666048],[139.76891001803975,35.816892569518416],[139.7689074993932,35.816859578711686],[139.76898507876408,35.816855744454614],[139.76899033410814,35.81692587239722],[139.76892603500397,35.816929082827954]]]}},{"type":"Feature","properties":{"height":7.1,"gml_id":"bldg_3fcbef0b-3f3d-4a21-b2ee-90bb6860b225"},"geometry":{"type":"Polygon","coordinates":[[[139.76757016000624,35.8168000864253],[139.76757087675793,35.81687030208211],[139.7675118918751,35.816870720474604],[139.76751117524975,35.81680041468242],[139.76757016000624,35.8168000864253]]]}},{"type":"Feature","properties":{"height":7.1,"gml_id":"bldg_1428b094-10c0-49c8-a0c4-8b36e861bb32"},"geometry":{"type":"Polygon","coordinates":[[[139.7686811671822,35.81729616187684],[139.76868312555078,35.817337625085926],[139.76859658271994,35.817340282564174],[139.76859429781413,35.817292149178854],[139.76864454136322,35.81729055379513],[139.76864486794963,35.81729722396988],[139.7686811671822,35.81729616187684]]]}},{"type":"Feature","properties":{"height":2.6,"gml_id":"bldg_56e9f55c-672e-4893-b4d4-c3c09d4ee7b9"},"geometry":{"type":"Polygon","coordinates":[[[139.76637652018616,35.8169394073436],[139.76635313719555,35.81697824255598],[139.76633444097456,35.816970841056765],[139.76635771338258,35.81693191565124],[139.76637652018616,35.8169394073436]]]}},{"type":"Feature","properties":{"height":8.8,"gml_id":"bldg_bdd7dc9e-178b-456c-9a1b-449e1b4a3989"},"geometry":{"type":"Polygon","coordinates":[[[139.76580026018064,35.81670869959895],[139.7657511915567,35.81676067999151],[139.7656984323468,35.81672766086156],[139.76574750098473,35.81667568049026],[139.76580026018064,35.81670869959895]]]}},{"type":"Feature","properties":{"height":6.4,"gml_id":"bldg_a561a149-b265-4a06-a9b9-61ba3db70181"},"geometry":{"type":"Polygon","coordinates":[[[139.76942410559232,35.81669499732291],[139.76942684173233,35.816733035802756],[139.76935490677528,35.81673642267367],[139.76935228133436,35.816698384251126],[139.76942410559232,35.81669499732291]]]}},{"type":"Feature","properties":{"height":9.4,"gml_id":"bldg_03faa7da-19a3-4625-8b97-d1a093ff4ecb"},"geometry":{"type":"Polygon","coordinates":[[[139.7686849954696,35.81735168717045],[139.7686868197199,35.81742208368049],[139.768595629708,35.81742365703725],[139.768593805465,35.81735335066103],[139.7686849954696,35.81735168717045]]]}},{"type":"Feature","properties":{"height":7.9,"gml_id":"bldg_ec0a8f63-8bcf-41c3-8950-a452085b7a42"},"geometry":{"type":"Polygon","coordinates":[[[139.76736599596197,35.81705190223797],[139.76736734020082,35.81703225351845],[139.7673405601563,35.817031067063],[139.76734425522415,35.816978970989055],[139.76741873004795,35.816982527119045],[139.76741358021062,35.817054181719584],[139.76736599596197,35.81705190223797]]]}},{"type":"Feature","properties":{"height":6.6,"gml_id":"bldg_f3617388-0a51-49ac-9fcd-67b9eb134906"},"geometry":{"type":"Polygon","coordinates":[[[139.76927909090588,35.81716263131529],[139.76928359025743,35.81720986451753],[139.76920534576513,35.8172146900984],[139.7692009571252,35.81716745695236],[139.76927909090588,35.81716263131529]]]}},{"type":"Feature","properties":{"height":12.3,"gml_id":"bldg_47b93c7e-43a1-4d97-ba57-619affe7a71c"},"geometry":{"type":"Polygon","coordinates":[[[139.76600190701342,35.81695271836804],[139.7659910663113,35.81694739432308],[139.76596336863162,35.816984514474925],[139.76590407711709,35.81695482677483],[139.76596345528776,35.81688194075059],[139.76603015867465,35.81691478730116],[139.76600190701342,35.81695271836804]]]}},{"type":"Feature","properties":{"height":6.4,"gml_id":"bldg_1321e74b-8682-4783-b246-59c9df8e4df1"},"geometry":{"type":"Polygon","coordinates":[[[139.76993387629756,35.81719137100389],[139.7699408049504,35.81724581627256],[139.76982481959678,35.817255489644545],[139.7698195410273,35.81721357402335],[139.76983680600998,35.8172121409823],[139.76983526666788,35.81719961138699],[139.76993387629756,35.81719137100389]]]}},{"type":"Feature","properties":{"height":8.7,"gml_id":"bldg_c9a97901-09bd-4c0d-a0db-488e951a253b"},"geometry":{"type":"Polygon","coordinates":[[[139.76605686160553,35.8168761342796],[139.7660329297162,35.81690956101529],[139.76597242015356,35.81688077401788],[139.76599646280079,35.81684725722101],[139.76605686160553,35.8168761342796]]]}},{"type":"Feature","properties":{"height":6.4,"gml_id":"bldg_7f1105e6-a11a-432e-a9e6-ace308eeb172"},"geometry":{"type":"Polygon","coordinates":[[[139.76631784626056,35.81696479275311],[139.76628548896178,35.81701597146078],[139.76621159054872,35.81698501387267],[139.76625004258193,35.81692419412753],[139.76627592906652,35.81693511492106],[139.76626983444498,35.81694466584438],[139.76631784626056,35.81696479275311]]]}},{"type":"Feature","properties":{"height":8.1,"gml_id":"bldg_4df3215f-40e3-41c2-8fc3-ebaa125f8a2e"},"geometry":{"type":"Polygon","coordinates":[[[139.768765797529,35.817195256026864],[139.76876840949708,35.817249608908874],[139.7686913841571,35.81725209129677],[139.76868877224143,35.81719773841317],[139.768765797529,35.817195256026864]]]}},{"type":"Feature","properties":{"height":8.3,"gml_id":"bldg_77f45b66-8b71-4d7a-b23e-370f12452684"},"geometry":{"type":"Polygon","coordinates":[[[139.76797804211628,35.81683591225008],[139.76797034853212,35.81677128117973],[139.76802811934613,35.81676680582187],[139.76802932795107,35.81677744242369],[139.76806020547687,35.81677502554553],[139.7680665798581,35.816829019948756],[139.76797804211628,35.81683591225008]]]}},{"type":"Feature","properties":{"height":6.5,"gml_id":"bldg_a22a2413-8f72-4eb3-926f-bd45b3a401b7"},"geometry":{"type":"Polygon","coordinates":[[[139.77002091158636,35.81670757151063],[139.77001476101404,35.81664880016519],[139.77006489503867,35.8166452211568],[139.77006643297614,35.81665955345224],[139.7701134681756,35.81665624319803],[139.77011808080172,35.81670077237889],[139.77002091158636,35.81670757151063]]]}},{"type":"Feature","properties":{"height":4.5,"gml_id":"bldg_fcd4cbae-9f15-441e-aa72-1c4e8428f46c"},"geometry":{"type":"Polygon","coordinates":[[[139.7675265982258,35.81675129948127],[139.767556256509,35.81675122557844],[139.76755645085106,35.8167839447366],[139.76752679248133,35.816784108774556],[139.7675265982258,35.81675129948127]]]}},{"type":"Feature","properties":{"height":6.9,"gml_id":"bldg_4b0fe494-0c47-46e2-92ed-7d3061c8a712"},"geometry":{"type":"Polygon","coordinates":[[[139.76731391749587,35.81739862346167],[139.76731268830628,35.817412954270544],[139.7672560300665,35.81740967827517],[139.7672617278713,35.817344693985774],[139.76733852626847,35.81734915279374],[139.76733405771193,35.817399806277706],[139.76731391749587,35.81739862346167]]]}},{"type":"Feature","properties":{"height":6.4,"gml_id":"bldg_5c286dc2-25cb-4124-80f3-3ef1796fefa6"},"geometry":{"type":"Polygon","coordinates":[[[139.7660168103055,35.8167337884914],[139.76599731417437,35.81675640148933],[139.76594554803128,35.816726718023794],[139.76597002896276,35.816698339179396],[139.76598009459474,35.81670411346783],[139.76598663029353,35.81669645564363],[139.76602246836794,35.816717026525794],[139.7660108372908,35.816730360011505],[139.7660168103055,35.8167337884914]]]}},{"type":"Feature","properties":{"height":6.3,"gml_id":"bldg_886cfc74-e7be-4311-bf57-2aa1a47caa76"},"geometry":{"type":"Polygon","coordinates":[[[139.76930315743542,35.817097746847274],[139.7693054570208,35.817128123609194],[139.7691975538233,35.817133474194826],[139.76919240800652,35.81706451807866],[139.7693121527419,35.81705863299398],[139.76931499914434,35.8170971222084],[139.76930315743542,35.817097746847274]]]}},{"type":"Feature","properties":{"height":6.3,"gml_id":"bldg_d791ed97-4d8c-4734-9b3a-1eabdc73da5f"},"geometry":{"type":"Polygon","coordinates":[[[139.77001270395203,35.81700951986966],[139.77000655558174,35.81694795433894],[139.7700759464032,35.81694330384773],[139.77007803216927,35.81696457683541],[139.77011931252622,35.81696180436153],[139.77012326453905,35.81700209684157],[139.77001270395203,35.81700951986966]]]}},{"type":"Feature","properties":{"height":7.7,"gml_id":"bldg_a8574804-f28c-41ff-b209-ef4804c2c3be"},"geometry":{"type":"Polygon","coordinates":[[[139.76637024308314,35.81703449640394],[139.76636016148427,35.817047650515626],[139.76631137464773,35.81702788373244],[139.76633730600383,35.81698544454384],[139.76644384053012,35.81702858846108],[139.76642610979994,35.817057511968486],[139.76637024308314,35.81703449640394]]]}},{"type":"Feature","properties":{"height":9.6,"gml_id":"bldg_141c9ef9-f3d5-40ad-b36a-0ed3e37cdbfb"},"geometry":{"type":"Polygon","coordinates":[[[139.77076715918395,35.81680548844297],[139.77077165678077,35.816856056591604],[139.77072119115488,35.816859004775964],[139.77074477503692,35.81712545649411],[139.77058219985113,35.81713501619534],[139.77058088321382,35.817120593887964],[139.7704146559152,35.81713033172629],[139.77038789230497,35.8168278242274],[139.77076715918395,35.81680548844297]]]}},{"type":"Feature","properties":{"height":6.8,"gml_id":"bldg_15840df5-4134-4e44-8877-52aaacb62e7b"},"geometry":{"type":"Polygon","coordinates":[[[139.7667863201451,35.81719688054881],[139.76675168580877,35.817192084208926],[139.76675057441176,35.817197762106034],[139.76671527615912,35.81719287525281],[139.76671760939746,35.81718178992581],[139.7666940403461,35.8171785319979],[139.76670281794486,35.81713662403155],[139.76673756291967,35.817141420446816],[139.76673911825836,35.81713421049863],[139.76679765353308,35.817142355073265],[139.7667863201451,35.81719688054881]]]}},{"type":"Feature","properties":{"height":7.3,"gml_id":"bldg_2ae92424-715a-4f91-8da6-5ebb69bc4046"},"geometry":{"type":"Polygon","coordinates":[[[139.76744218711812,35.81738913951723],[139.76743917344442,35.81742023448146],[139.7673406859524,35.817413961130406],[139.76734682620253,35.81734915735014],[139.76742572681195,35.81735415806707],[139.76742248956648,35.817387956962044],[139.76744218711812,35.81738913951723]]]}},{"type":"Feature","properties":{"height":7.3,"gml_id":"bldg_a93f53c4-ef55-48f9-82ee-001c7b18c34a"},"geometry":{"type":"Polygon","coordinates":[[[139.76667642455797,35.817202408038426],[139.76660770967834,35.817192274782066],[139.76661758455302,35.81716163432144],[139.76664606456293,35.81711505026591],[139.76669331321628,35.81712165633237],[139.76667642455797,35.817202408038426]]]}},{"type":"Feature","properties":{"height":8.2,"gml_id":"bldg_c16f14db-1e1d-4096-a582-46d21e503b57"},"geometry":{"type":"Polygon","coordinates":[[[139.76887856545792,35.8169218465745],[139.76887889249954,35.8169279759385],[139.76881669653875,35.81693055649251],[139.768814620882,35.816897205381295],[139.76879281911528,35.81689809502916],[139.7687909623922,35.81686771849414],[139.76889266706343,35.816863536707054],[139.76889616180708,35.816921134927156],[139.76887856545792,35.8169218465745]]]}},{"type":"Feature","properties":{"height":2.4,"gml_id":"bldg_ba7e6be2-dd3e-4d48-a856-64b69fdfe9cc"},"geometry":{"type":"Polygon","coordinates":[[[139.76745090372356,35.81728666066301],[139.76745235913248,35.81726638105838],[139.76751045630445,35.81726920707357],[139.76750900098466,35.81728939654381],[139.76745090372356,35.81728666066301]]]}},{"type":"Feature","properties":{"height":8.2,"gml_id":"bldg_b65eb7c6-bd21-4705-a661-afb30251b36b"},"geometry":{"type":"Polygon","coordinates":[[[139.76843605149554,35.81728512344586],[139.76847710964364,35.81728370344306],[139.76848375733798,35.81741025673913],[139.76836191083166,35.8174143371596],[139.76835831511423,35.81734529171399],[139.76838830642274,35.81734422629969],[139.7683881165833,35.817305558230174],[139.7683069962517,35.81730839869972],[139.76830830351395,35.81733381751101],[139.76822176045442,35.81733674512467],[139.76821664100845,35.81723651209641],[139.76843310914975,35.81722905781138],[139.76843605149554,35.81728512344586]]]}},{"type":"Feature","properties":{"height":6.9,"gml_id":"bldg_cb0d7c35-e628-4959-98f3-1c4e7a56e39a"},"geometry":{"type":"Polygon","coordinates":[[[139.7672117444566,35.81729941867196],[139.76720973244335,35.81732357377754],[139.76712341704857,35.81731883924045],[139.76712621235376,35.817284319028815],[139.76714480336798,35.817285320753044],[139.76714715106263,35.817256749212284],[139.76722881865786,35.81726121077119],[139.76722568766462,35.81730023755681],[139.7672117444566,35.81729941867196]]]}},{"type":"Feature","properties":{"height":6.9,"gml_id":"bldg_f9c73c6e-aca4-465c-8868-6e4570a83858"},"geometry":{"type":"Polygon","coordinates":[[[139.76804420856968,35.81671453618627],[139.76804749700793,35.816753025672675],[139.76797356941518,35.816757131715725],[139.76797039167735,35.81671864228753],[139.76804420856968,35.81671453618627]]]}},{"type":"Feature","properties":{"height":8.5,"gml_id":"bldg_eccec9d4-13d1-4b92-bc7a-abe02bc2dea9"},"geometry":{"type":"Polygon","coordinates":[[[139.7702903183482,35.81678649120543],[139.7702129605076,35.81679023628616],[139.7702089091392,35.81673561226965],[139.77022340681734,35.81673489880077],[139.7702218744143,35.81671353597017],[139.77028462391357,35.81671041416849],[139.7702903183482,35.81678649120543]]]}},{"type":"Feature","properties":{"height":6.6,"gml_id":"bldg_bf0be20b-ead5-4439-8f32-137e1b5401c5"},"geometry":{"type":"Polygon","coordinates":[[[139.76845057979762,35.81697488619145],[139.76845243910685,35.81700192773286],[139.768395665822,35.81700433072537],[139.76838932731974,35.81690598987794],[139.76846159424537,35.816902874169585],[139.768466184114,35.81697426366698],[139.76845057979762,35.81697488619145]]]}},{"type":"Feature","properties":{"height":7.4,"gml_id":"bldg_e87f7f12-c100-4d39-917b-4918d473f9c9"},"geometry":{"type":"Polygon","coordinates":[[[139.77131473878146,35.8167942349017],[139.77129559324106,35.816794855968496],[139.77128348931043,35.81670588634667],[139.77134203426755,35.81670177033614],[139.77134665472875,35.816737105690464],[139.77131473878146,35.8167942349017]]]}},{"type":"Feature","properties":{"height":7.8,"gml_id":"bldg_08c0b4f2-92bf-4451-801c-1ca13ba83d2d"},"geometry":{"type":"Polygon","coordinates":[[[139.77115587641924,35.816868604453596],[139.77122316383642,35.81686476342817],[139.77122612511909,35.81689901630733],[139.77121705015378,35.8168995524291],[139.77121858535443,35.81691767038329],[139.77120862506536,35.81691820604696],[139.77121005058225,35.81693506205271],[139.77116179836733,35.81693783129557],[139.77115587641924,35.816868604453596]]]}},{"type":"Feature","properties":{"height":7.1,"gml_id":"bldg_4e297960-395d-41b7-9fc4-05250566e0a0"},"geometry":{"type":"Polygon","coordinates":[[[139.7673636766652,35.81677870139631],[139.76736264966087,35.81681619704612],[139.76730001413935,35.816815081033965],[139.76729978728613,35.81682175090882],[139.76724689013653,35.81682082048837],[139.76724769093545,35.81678927363373],[139.76728420986632,35.816789924650536],[139.76728444164794,35.81677730585989],[139.7673636766652,35.81677870139631]]]}},{"type":"Feature","properties":{"height":9.8,"gml_id":"bldg_5ee72c9b-79bd-4d4f-bc08-b6a561f4be05"},"geometry":{"type":"Polygon","coordinates":[[[139.7667610666388,35.81682523944611],[139.76663440654897,35.81702833380874],[139.7665600651765,35.81699755645932],[139.76660982063956,35.81691781450087],[139.76662818472738,35.81692539604326],[139.76665522328662,35.81688205604838],[139.76663409355805,35.81687330121889],[139.7666839596851,35.81679337901918],[139.7667610666388,35.81682523944611]]]}},{"type":"Feature","properties":{"height":7.9,"gml_id":"bldg_beb6420c-1346-4983-bdc6-20605ce556e0"},"geometry":{"type":"Polygon","coordinates":[[[139.76868004410406,35.81704342238629],[139.76868256273525,35.81707632306159],[139.76857853292978,35.817081585039624],[139.7685730567536,35.817011276691765],[139.76866137133516,35.8170068174808],[139.76866421829885,35.81704422508961],[139.76868004410406,35.81704342238629]]]}},{"type":"Feature","properties":{"height":6.9,"gml_id":"bldg_0396300f-afcf-420d-bff1-28c6a7493ed8"},"geometry":{"type":"Polygon","coordinates":[[[139.76945909491013,35.817361835583014],[139.76936756922436,35.81736809637337],[139.7693610904847,35.81730508847581],[139.76945250543292,35.81729882763145],[139.76945909491013,35.817361835583014]]]}},{"type":"Feature","properties":{"height":7.1,"gml_id":"bldg_1fc93666-c79a-4ee2-bdb7-f6f32c917de5"},"geometry":{"type":"Polygon","coordinates":[[[139.7700273200151,35.81727794996926],[139.76997486168284,35.817281437601224],[139.76997112798304,35.817245021043604],[139.76995740472626,35.8172459151605],[139.76995586751363,35.8172306815142],[139.76994867381788,35.817231218532],[139.76994428179913,35.81718768095133],[139.77001765700774,35.81718276218969],[139.7700273200151,35.81727794996926]]]}},{"type":"Feature","properties":{"height":4.6,"gml_id":"bldg_b96d11c1-7ff9-4784-8d13-1ec5a49503d9"},"geometry":{"type":"Polygon","coordinates":[[[139.76905352448145,35.81733710264118],[139.76906078018436,35.81739695624106],[139.76897290574635,35.817404029899116],[139.76896553937024,35.81734426636987],[139.76905352448145,35.81733710264118]]]}},{"type":"Feature","properties":{"height":9.5,"gml_id":"bldg_3021dc86-8f1b-4883-8a43-346cc3ca5fc8"},"geometry":{"type":"Polygon","coordinates":[[[139.76987673759567,35.81667937332898],[139.76988133223293,35.81674634615674],[139.76981968955488,35.8167491979273],[139.76981509496923,35.81668222509724],[139.76987673759567,35.81667937332898]]]}},{"type":"Feature","properties":{"height":6.8,"gml_id":"bldg_4f256ca1-a8cc-4134-9b87-285323e141f4"},"geometry":{"type":"Polygon","coordinates":[[[139.77000976280925,35.81708991885285],[139.7699361663547,35.81709483749314],[139.76993144443227,35.81704868581835],[139.76993553926619,35.81704841757264],[139.76993246464238,35.81701822068374],[139.77000207693146,35.81701348021692],[139.77000976280925,35.81708991885285]]]}},{"type":"Feature","properties":{"height":8.3,"gml_id":"bldg_5cb4b7f5-82f2-411c-90b8-d7905b885ddb"},"geometry":{"type":"Polygon","coordinates":[[[139.76956881471898,35.816884177672556],[139.76949732308577,35.8168865733773],[139.76949329074736,35.816808784619674],[139.76956478238301,35.816806298782154],[139.76956881471898,35.816884177672556]]]}},{"type":"Feature","properties":{"height":6.4,"gml_id":"bldg_b655d9a7-2963-49ed-aa27-ebef6f37df27"},"geometry":{"type":"Polygon","coordinates":[[[139.77001707782065,35.81707595176156],[139.77001114619193,35.81702015499403],[139.77010521701695,35.817013534511304],[139.77011114878246,35.81706924113923],[139.77001707782065,35.81707595176156]]]}},{"type":"Feature","properties":{"height":6.3,"gml_id":"bldg_9d7e220e-6425-4a3a-89ba-d1527e2c9d80"},"geometry":{"type":"Polygon","coordinates":[[[139.771217491956,35.816758581313906],[139.77122210822327,35.8167992346432],[139.77114840095362,35.81680478491472],[139.77114301498924,35.81675782172526],[139.7711757737891,35.81675531488491],[139.7711765434558,35.81676171487718],[139.771217491956,35.816758581313906]]]}},{"type":"Feature","properties":{"height":7.6,"gml_id":"bldg_3f6aebb6-81cd-479c-8539-1d2ead39edd9"},"geometry":{"type":"Polygon","coordinates":[[[139.7698078558715,35.81673981762069],[139.76974687603573,35.81674411186628],[139.76974105499778,35.816688675681455],[139.7698019241266,35.81668438138025],[139.7698078558715,35.81673981762069]]]}},{"type":"Feature","properties":{"height":7.2,"gml_id":"bldg_8fa8952d-aaec-4e39-93bc-9bb95164831d"},"geometry":{"type":"Polygon","coordinates":[[[139.76887189259307,35.817236414582815],[139.76887201039906,35.817227581403955],[139.76885352836558,35.81722865311312],[139.76884914058928,35.817180608738795],[139.7689323651647,35.81717560578765],[139.7689376311827,35.81723248387151],[139.76887189259307,35.817236414582815]]]}},{"type":"Feature","properties":{"height":7.1,"gml_id":"bldg_16b18631-22b7-4ff3-939d-9b12dcb704e4"},"geometry":{"type":"Polygon","coordinates":[[[139.7695742147254,35.8170508403869],[139.76957970562268,35.81710384275294],[139.7695095398305,35.817108672816275],[139.76950404897954,35.81705567044714],[139.7695742147254,35.8170508403869]]]}},{"type":"Feature","properties":{"height":8.1,"gml_id":"bldg_131faa8d-dc17-4f03-a833-65ab1ee87052"},"geometry":{"type":"Polygon","coordinates":[[[139.76932047359165,35.81689468162952],[139.76931632844486,35.816819777130206],[139.76938859482337,35.81681720167492],[139.76939175922874,35.816873177273195],[139.7693967393042,35.81687299965184],[139.76939772018682,35.81689183841536],[139.76932047359165,35.81689468162952]]]}},{"type":"Feature","properties":{"height":8.3,"gml_id":"bldg_c867c013-46e9-4505-ae07-bb9f5be34f4d"},"geometry":{"type":"Polygon","coordinates":[[[139.76783031846452,35.81722269180238],[139.76769773356708,35.81723172312965],[139.7676857674019,35.81711463107066],[139.7678134825299,35.817105957642625],[139.76781787375103,35.81714904462511],[139.76782263259014,35.81714877681329],[139.76783031846452,35.81722269180238]]]}},{"type":"Feature","properties":{"height":6.4,"gml_id":"bldg_80e61fad-6b7f-48f5-97f4-e51b84cdeef2"},"geometry":{"type":"Polygon","coordinates":[[[139.76977064467053,35.816913488344646],[139.7697652623844,35.81686291969152],[139.76980499338782,35.81686014650618],[139.76980411417046,35.816852484555575],[139.76986509401436,35.81684828041621],[139.7698711342567,35.8169065108983],[139.76977064467053,35.816913488344646]]]}},{"type":"Feature","properties":{"height":8.5,"gml_id":"bldg_7d43bbd5-07d3-4551-8c09-f36ac87643a6"},"geometry":{"type":"Polygon","coordinates":[[[139.76958752001093,35.81688058218813],[139.76958215636182,35.816806848808206],[139.76965818619516,35.816803193565136],[139.769661799351,35.81685177831365],[139.7696568192055,35.816852046081095],[139.76965868050436,35.816877104632816],[139.76958752001093,35.81688058218813]]]}},{"type":"Feature","properties":{"height":7.3,"gml_id":"bldg_b8b02c04-57cd-42fe-b1cb-074f2f7e4841"},"geometry":{"type":"Polygon","coordinates":[[[139.76795863865937,35.81674612711092],[139.767963787379,35.81681021598764],[139.7678870931028,35.816814320472915],[139.76788292940654,35.81676366226355],[139.76791568771836,35.81676187739244],[139.76791459208596,35.816748446661904],[139.76795863865937,35.81674612711092]]]}},{"type":"Feature","properties":{"height":7.9,"gml_id":"bldg_fe680aa8-9ace-4a4d-a761-b7d7f31ce85c"},"geometry":{"type":"Polygon","coordinates":[[[139.7683347069914,35.81684674157747],[139.76836868256999,35.816845047376255],[139.76837218692015,35.81689038723943],[139.76823241087158,35.81689761256837],[139.7682261685996,35.81681720865343],[139.76833196887057,35.816811767667055],[139.7683347069914,35.81684674157747]]]}},{"type":"Feature","properties":{"height":7.4,"gml_id":"bldg_aeba3ce7-c892-49be-8b32-11b2d21eb518"},"geometry":{"type":"Polygon","coordinates":[[[139.76925068616416,35.81697973200685],[139.76917487899763,35.816981494273165],[139.76917325498823,35.81693678638339],[139.76917801366514,35.816936698788055],[139.76917714821258,35.81691200130121],[139.7692481966377,35.81691032663166],[139.76925068616416,35.81697973200685]]]}},{"type":"Feature","properties":{"height":7.1,"gml_id":"bldg_889ebc29-cc8d-440e-9cb7-07b86aababff"},"geometry":{"type":"Polygon","coordinates":[[[139.7677880125656,35.81672259906277],[139.76779130088053,35.816761088556014],[139.76771604521343,35.81676528385168],[139.76771549722855,35.816758793823276],[139.76770841437383,35.8167591504973],[139.767703702662,35.81670218252306],[139.76776689520486,35.81669870173704],[139.76776908797515,35.81672367036402],[139.7677880125656,35.81672259906277]]]}}]}