{"type":"FeatureCollection","crs":{"type":"name","properties":{"name":"urn:ogc:def:crs:OGC:1.3:CRS84"}},"features":[{"type":"Feature","properties":{"height":5.3,"gml_id":"bldg_2b49823f-d924-450f-91ec-d930cf595c1b"},"geometry":{"type":"Polygon","coordinates":[[[139.85558578781422,35.64083231672566],[139.85545395952718,35.64088867712349],[139.85541772557556,35.640832257517914],[139.85533597841595,35.640704907783814],[139.85541768090957,35.640669919370005],[139.85546769606245,35.64064854753375],[139.85558578781422,35.64083231672566]]]}},{"type":"Feature","properties":{"height":5.1,"gml_id":"bldg_bd1bd571-528d-4833-81f0-46126d74bf42"},"geometry":{"type":"Polygon","coordinates":[[[139.86101824347057,35.638988413481144],[139.86102244553354,35.639006169664476],[139.86065255992932,35.63906358176958],[139.86064902135163,35.63904843941961],[139.86063155079347,35.63897705423229],[139.86100287146525,35.638919641861314],[139.86101824347057,35.638988413481144]]]}},{"type":"Feature","properties":{"height":8.8,"gml_id":"bldg_3cd198ed-088a-4ef6-a6bb-de475ecead05"},"geometry":{"type":"Polygon","coordinates":[[[139.86185401032492,35.63961629874403],[139.86186572201913,35.639636396700624],[139.86183017496964,35.639659750806345],[139.86178182533436,35.63970059465945],[139.86174021295602,35.63974612406995],[139.86170588965462,35.6397955276745],[139.86167951767573,35.63984799408321],[139.86166131761883,35.63990280214693],[139.8616516204115,35.639958960275735],[139.8616515136478,35.63996932614766],[139.8616257882156,35.63997672349218],[139.8616291959439,35.63993327627286],[139.86164297786894,35.6398746834651],[139.8616655940861,35.639817981471445],[139.8616967136353,35.6397640717429],[139.86173600552848,35.63971376559124],[139.8617825866803,35.63966787445735],[139.86183579482025,35.639627119592],[139.86185401032492,35.63961629874403]]]}},{"type":"Feature","properties":{"height":8.9,"gml_id":"bldg_0cba685a-ab47-4769-8bd8-18f001534248"},"geometry":{"type":"Polygon","coordinates":[[[139.86186572201913,35.639636396700624],[139.86185401032492,35.63961629874403],[139.86182495200342,35.63956618900174],[139.86206773415768,35.63947707518059],[139.8620933697351,35.63952763637131],[139.8621044196014,35.63954953721907],[139.86207317230313,35.63955405156866],[139.8620068157902,35.639570923151844],[139.86194344294108,35.639594374049466],[139.86188426826976,35.63962413356492],[139.86186572201913,35.639636396700624]]]}},{"type":"Feature","properties":{"height":4.6,"gml_id":"bldg_af2e2536-12dd-47d7-a8fa-22d0408598dc"},"geometry":{"type":"Polygon","coordinates":[[[139.86101824347057,35.638988413481144],[139.86119854867124,35.63896042918429],[139.86120761661311,35.63899945675941],[139.86048374479958,35.639111843667145],[139.86047523017842,35.63907542991008],[139.86064902135163,35.63904843941961],[139.86065255992932,35.63906358176958],[139.86102244553354,35.639006169664476],[139.86101824347057,35.638988413481144]]]}},{"type":"Feature","properties":{"height":5.3,"gml_id":"bldg_08199bd5-4d56-4dd9-8da7-822cf848805b"},"geometry":{"type":"Polygon","coordinates":[[[139.85699650919372,35.63811006636217],[139.85699639747352,35.63810564963059],[139.85699528975775,35.638093661517146],[139.85699329867037,35.63808158343934],[139.8569904242915,35.63806968581062],[139.85698677706623,35.63805805874703],[139.85698213607893,35.63804643187844],[139.85697672227244,35.63803516571264],[139.85697053564695,35.63802426024952],[139.8569634657582,35.63801362537284],[139.85695573346908,35.63800335117694],[139.8569471179171,35.63799334756717],[139.8569392758766,35.63798532683741],[139.8569507593524,35.637985324586474],[139.85696434053207,35.63798451068249],[139.8569779214725,35.63798288553657],[139.8569913918084,35.63798062944603],[139.85700464112142,35.637977742432604],[139.85701755894007,35.63797404424245],[139.85703025573525,35.63796971512958],[139.85704251069728,35.63796484527534],[139.8570544341641,35.637959164244684],[139.85706580537936,35.63795294249465],[139.85707673476097,35.63794618000366],[139.8570870014462,35.63793878667754],[139.85708910333554,35.63795212666184],[139.8570920885697,35.63796546647184],[139.85709584665096,35.637978535715796],[139.85710048802443,35.63799142450969],[139.8571060126905,35.638004132853375],[139.85711231017808,35.638016480492944],[139.85711949093223,35.638028557544246],[139.85712733411708,35.63804036405076],[139.85713606056905,35.63805189996873],[139.857145449372,35.638062894928154],[139.85713065360807,35.63806379923032],[139.8571160788937,35.63806542458966],[139.8571015043656,35.638067680911995],[139.8570872613312,35.63807074840764],[139.85707312890045,35.638074446844605],[139.85705932790938,35.63807877617942],[139.85704596880254,35.63808382652829],[139.85703283069003,35.638089417659145],[139.85702024487938,35.638095729782584],[139.85700810092564,35.63810267278268],[139.85699650919372,35.63811006636217]]]}},{"type":"Feature","properties":{"height":5.2,"gml_id":"bldg_ff1feb4d-a0ee-44a5-9603-8d9a30088bae"},"geometry":{"type":"Polygon","coordinates":[[[139.85651744608523,35.6382538392128],[139.85651280015716,35.63822490586494],[139.85650384856817,35.63819822679069],[139.85649136463994,35.63817515390785],[139.85647954489184,35.638157849716926],[139.85647545770064,35.63815190140566],[139.85646717292772,35.6381400949417],[139.85645833668931,35.63813045189086],[139.85647247004167,35.638129818212015],[139.856487155225,35.63812828304715],[139.85650161941552,35.63812620799742],[139.85651597295222,35.63812331992404],[139.85653010546935,35.63811980182811],[139.85654390652212,35.63811556269178],[139.85655737611015,35.63811060251513],[139.8565704038411,35.638105011457434],[139.85658310015899,35.6380988796353],[139.85659524420115,35.63809211695371],[139.85660683596748,35.638084723412796],[139.85660926874797,35.638097071825115],[139.85661081800055,35.638108789443315],[139.8566131401812,35.63812050691208],[139.85661645610048,35.63813213405091],[139.8566205448962,35.638143580764535],[139.85662662135277,35.63815547778281],[139.856636563367,35.63817052887692],[139.8566499294261,35.638189274958314],[139.85666428915178,35.63820766029441],[139.8566322688789,35.63821127200502],[139.85660245764961,35.63821722686388],[139.8565745240239,35.63822489397179],[139.85655211178099,35.638234182489946],[139.85652892756784,35.638246806252084],[139.85651744608523,35.6382538392128]]]}},{"type":"Feature","properties":{"height":5.2,"gml_id":"bldg_04666386-bdea-4f31-b12f-29ebdeda596b"},"geometry":{"type":"Polygon","coordinates":[[[139.85644692438467,35.638377702135685],[139.856417437285,35.63835913939843],[139.85638596362327,35.638343912133585],[139.85635173044125,35.63833193034948],[139.85631606283545,35.63832346420444],[139.85630093480432,35.63832103336858],[139.8563275357476,35.638286415369095],[139.8563384621628,35.63826892654485],[139.85635678071174,35.63823088488272],[139.85636726132714,35.6381990642266],[139.8563915582276,35.63821600548938],[139.8564182835906,35.63823033138354],[139.85642888507738,35.638234927281864],[139.8564582593527,35.638245287496254],[139.85648895777243,35.6382525827629],[139.85651291952922,35.63825591325391],[139.85649117399367,35.638279803959996],[139.8564732936894,35.6383057670896],[139.85647285222333,35.638306488276996],[139.8564592786967,35.638334073057855],[139.85644990140324,35.63836282882355],[139.85644692438467,35.638377702135685]]]}},{"type":"Feature","properties":{"height":4.6,"gml_id":"bldg_d042595e-8e17-4299-b56a-c602bf83bbb2"},"geometry":{"type":"Polygon","coordinates":[[[139.8598180272468,35.640457028150486],[139.85977471591463,35.64037771640864],[139.8599254228369,35.64032278931652],[139.85996873428832,35.64040210100485],[139.8598180272468,35.640457028150486]]]}},{"type":"Feature","properties":{"height":8.9,"gml_id":"bldg_b5d4f163-1046-4de8-867e-89e42c638aa1"},"geometry":{"type":"Polygon","coordinates":[[[139.8553690150422,35.64077962597104],[139.85523442623875,35.64083634718526],[139.855115340218,35.64064789066359],[139.85524992878973,35.640591169580745],[139.8553690150422,35.64077962597104]]]}},{"type":"Feature","properties":{"height":15.9,"gml_id":"bldg_a11ea602-2320-4f80-8689-8dcb620c1bb5"},"geometry":{"type":"Polygon","coordinates":[[[139.8592267109446,35.6407699348411],[139.85919522241608,35.64071315479988],[139.85925627838643,35.640690607228635],[139.85935785427327,35.64065317814369],[139.85945390959873,35.64061764306367],[139.85965430069479,35.64054377659272],[139.8599467716155,35.640435817393474],[139.8599781501152,35.64049250712731],[139.8592267109446,35.6407699348411]]]}},{"type":"Feature","properties":{"height":5.3,"gml_id":"bldg_318d2680-e790-41f3-8a79-fe2e306614d8"},"geometry":{"type":"Polygon","coordinates":[[[139.85715263833137,35.641451534053914],[139.85708955644282,35.64134860916926],[139.8572246973619,35.641293418119915],[139.8572877793803,35.64139634293469],[139.85715263833137,35.641451534053914]]]}},{"type":"Feature","properties":{"height":3.7,"gml_id":"bldg_311bab79-c0f4-460a-97cd-cda4bceed781"},"geometry":{"type":"Polygon","coordinates":[[[139.85711026233938,35.64116778869714],[139.857071152918,35.64110055362547],[139.85716014308778,35.64106610342246],[139.8571992525669,35.64113333846559],[139.85711026233938,35.64116778869714]]]}},{"type":"Feature","properties":{"height":6.7,"gml_id":"bldg_5e8a4eb6-b5ba-43ea-9546-ce8b5d5700e6"},"geometry":{"type":"Polygon","coordinates":[[[139.85894408202014,35.64092998983398],[139.85888276218455,35.64081823200216],[139.8591036905395,35.64073742148199],[139.85916501062087,35.64084917920274],[139.85894408202014,35.64092998983398]]]}},{"type":"Feature","properties":{"height":6.4,"gml_id":"bldg_627786b4-ecc8-4b7f-8e30-cbecd760c4cb"},"geometry":{"type":"Polygon","coordinates":[[[139.8554704134734,35.640492157967586],[139.85544369455263,35.64050333996116],[139.85542955437222,35.64048071797011],[139.85545627331223,35.64046962611741],[139.8554704134734,35.640492157967586]]]}},{"type":"Feature","properties":{"height":4.0,"gml_id":"bldg_e94673c1-4018-4088-978a-897d4be26589"},"geometry":{"type":"Polygon","coordinates":[[[139.86212259086443,35.641262691744735],[139.86209222069334,35.64125161205274],[139.86210822834022,35.64124151279856],[139.86210358526372,35.64122664117407],[139.86211959122318,35.64121185475419],[139.8621195852749,35.64119526940415],[139.862154152097,35.64120806070311],[139.8621587957969,35.64122464494335],[139.86213826106356,35.64123537625143],[139.862145887626,35.6412560159788],[139.86212259086443,35.641262691744735]]]}},{"type":"Feature","properties":{"height":5.8,"gml_id":"bldg_cddf16db-7fc6-4ea3-bd06-b0dbb730c085"},"geometry":{"type":"Polygon","coordinates":[[[139.85925428904827,35.640685199389445],[139.8592070006753,35.64059876741679],[139.85930537473902,35.6405628714057],[139.85933410131423,35.640615235264086],[139.85943534595114,35.640578256873795],[139.85940529341573,35.64052327933031],[139.8596046908823,35.64045049480933],[139.8596535263843,35.640539630423575],[139.85925428904827,35.640685199389445]]]}},{"type":"Feature","properties":{"height":8.4,"gml_id":"bldg_4a0cc536-6f80-4aaf-a847-658c8dc150aa"},"geometry":{"type":"Polygon","coordinates":[[[139.86185907220286,35.63925646742302],[139.8618636112678,35.63928981733723],[139.86186991455497,35.63931613608414],[139.86190028951256,35.639342809675504],[139.86186683503863,35.63935056945619],[139.86183548039304,35.63936355672359],[139.8618023618954,35.6393846568023],[139.86179539562602,35.63935698614171],[139.8617821362908,35.63933175068781],[139.86175562568832,35.63930399450114],[139.8617937182661,35.639297585722645],[139.86182142945452,35.63928577111923],[139.86185907220286,35.63925646742302]]]}},{"type":"Feature","properties":{"height":6.1,"gml_id":"bldg_6eedde6e-7977-4eb9-a9ed-5ab88cfc659f"},"geometry":{"type":"Polygon","coordinates":[[[139.85820137614445,35.64090779128565],[139.85816756434966,35.64083460637952],[139.8582240949958,35.64081719811856],[139.85825790683475,35.64089038300902],[139.85820137614445,35.64090779128565]]]}},{"type":"Feature","properties":{"height":9.6,"gml_id":"bldg_6430e756-c087-4b55-810e-a048e1973e89"},"geometry":{"type":"Polygon","coordinates":[[[139.8570216439293,35.64171404108754],[139.856930875239,35.64171117449511],[139.85693537494296,35.641617159915256],[139.85702614352712,35.641620026504405],[139.8570216439293,35.64171404108754]]]}},{"type":"Feature","properties":{"height":13.7,"gml_id":"bldg_8076763f-cb11-40ba-a58f-842cd33d0e88"},"geometry":{"type":"Polygon","coordinates":[[[139.86265392185553,35.640294754174754],[139.8626860747979,35.64035045149988],[139.86254828704594,35.64039997064512],[139.86235054648338,35.64046663026993],[139.86230450389667,35.640475384718286],[139.86222964042028,35.64048171234604],[139.86215433246278,35.64048028818364],[139.8620799051356,35.640471202051806],[139.86200735231705,35.64045463399111],[139.8619379991152,35.64043067382802],[139.86187283953075,35.6403998621592],[139.8618129779482,35.64036264851783],[139.86175929793694,35.64031957623406],[139.86171257266912,35.64027127339432],[139.86168197135913,35.6402298172148],[139.86165810633815,35.64018998192372],[139.86165225030095,35.64017943717858],[139.86161435190274,35.640111392046734],[139.86155115125223,35.63999801351996],[139.8615796369641,35.639989894441754],[139.8616257882156,35.63997672349218],[139.8616515136478,35.63996932614766],[139.8616516204115,35.639958960275735],[139.86166131761883,35.63990280214693],[139.86167951767573,35.63984799408321],[139.86170588965462,35.6397955276745],[139.86174021295602,35.63974612406995],[139.86178182533436,35.63970059465945],[139.86183017496964,35.639659750806345],[139.86186572201913,35.639636396700624],[139.86188426826976,35.63962413356492],[139.86194344294108,35.639594374049466],[139.8620068157902,35.639570923151844],[139.86207317230313,35.63955405156866],[139.8621044196014,35.63954953721907],[139.86214173971476,35.63954421016892],[139.86221119300023,35.639541399266534],[139.86228042800852,35.63954570926309],[139.86234856136377,35.63955705023396],[139.86241448884863,35.63957533230976],[139.86247699572502,35.63960019523671],[139.86253519851155,35.63963127868303],[139.86258821365692,35.63966804204264],[139.86263504715131,35.63970985459948],[139.86267525714723,35.63975626577926],[139.8627078495255,35.639806374452945],[139.8627326031709,35.63985945957819],[139.8627490760577,35.63991461988973],[139.86275682615658,35.639970954120884],[139.86275596360605,35.640027741144],[139.86274626718262,35.640083989497214],[139.86272806780082,35.64013879771965],[139.8627015859566,35.64019126437581],[139.86266737347805,35.64024066822356],[139.86263988954204,35.64027060066097],[139.86265392185553,35.640294754174754]]]}},{"type":"Feature","properties":{"height":3.0,"gml_id":"bldg_9cc5fef5-e44d-49d0-88cc-615828b94477"},"geometry":{"type":"Polygon","coordinates":[[[139.85532268472124,35.64095071595599],[139.85537303163764,35.640930425752835],[139.8553876140157,35.64095467014799],[139.8553372670631,35.64097487021938],[139.85532268472124,35.64095071595599]]]}},{"type":"Feature","properties":{"height":1.2,"gml_id":"bldg_600efd13-8de5-45d1-966d-2618c739fb15"},"geometry":{"type":"Polygon","coordinates":[[[139.8623847186305,35.639084629268346],[139.8623640694586,35.639082651214814],[139.86236726344197,35.63906002585431],[139.86238791257546,35.6390619137695],[139.8623847186305,35.639084629268346]]]}},{"type":"Feature","properties":{"height":1.9,"gml_id":"bldg_5e1321f7-a3d7-420b-b9a6-721f1fc1af86"},"geometry":{"type":"Polygon","coordinates":[[[139.8554376525389,35.641017487011695],[139.85542782086833,35.6410026160811],[139.855446700753,35.640994229802644],[139.85545664284825,35.641009100711436],[139.8554376525389,35.641017487011695]]]}},{"type":"Feature","properties":{"height":9.7,"gml_id":"bldg_1e60128e-678e-4354-9f58-bc6d768591c4"},"geometry":{"type":"Polygon","coordinates":[[[139.86172801361633,35.63928390028188],[139.86171176839136,35.63924568567925],[139.8617002765173,35.63922243283127],[139.861676528986,35.63920179686291],[139.86169618200557,35.6391970149331],[139.8617170502769,35.63919403546993],[139.86175447808532,35.63918140735149],[139.8617824080342,35.63916382388536],[139.86178230323705,35.6391796881647],[139.86178407605397,35.639196904067695],[139.86179711350522,35.639219255164484],[139.86182009142922,35.63924917548531],[139.8617850901511,35.63925423147494],[139.86175826248615,35.63926649655061],[139.86172801361633,35.63928390028188]]]}},{"type":"Feature","properties":{"height":11.7,"gml_id":"bldg_7ff78bc6-67ab-4268-9d2d-adca7e7ef8fa"},"geometry":{"type":"Polygon","coordinates":[[[139.86172801361633,35.63928390028188],[139.86172591608613,35.63928516270562],[139.86169213192022,35.63929733926818],[139.86166662875587,35.639308161806596],[139.86163439435842,35.63933142493877],[139.86161837270782,35.639300871985014],[139.86160533319773,35.639272571774285],[139.86158202586415,35.63924769920714],[139.86162839943452,35.639239936471455],[139.86165655354677,35.63923163717639],[139.861687464485,35.63921297137773],[139.86168570712977,35.63923947230734],[139.86170062083687,35.63925938925194],[139.86172801361633,35.63928390028188]]]}},{"type":"Feature","properties":{"height":10.0,"gml_id":"bldg_7e48b3af-b62a-4dc6-81f9-20fedd669fb5"},"geometry":{"type":"Polygon","coordinates":[[[139.86185907220286,35.63925646742302],[139.86186128021407,35.63925538524642],[139.8618747482862,35.63924654855072],[139.86189495295469,35.63924050452847],[139.86192763335006,35.63922968023807],[139.8619560059209,35.63921480076106],[139.86196374732563,35.63924851046198],[139.86197612456797,35.63927717134271],[139.86199998133077,35.63929420171337],[139.86195438044686,35.639301243305994],[139.86192402006293,35.63931549228959],[139.86190161076587,35.639332173100854],[139.86189839967187,35.639307115551766],[139.8618851405049,35.63928242093582],[139.86186128159156,35.63925926117187],[139.86185907220286,35.63925646742302]]]}},{"type":"Feature","properties":{"height":9.0,"gml_id":"bldg_b7f95485-432f-4079-8f9d-c5a27a5b86f7"},"geometry":{"type":"Polygon","coordinates":[[[139.8615333909448,35.63941906257551],[139.861514718793,35.6393872482996],[139.8614996933915,35.63936363570843],[139.86147925641254,35.63933713997001],[139.86151315342067,35.639331723776415],[139.86154649648736,35.63932107971016],[139.86157917150706,35.63929475181266],[139.86158503514747,35.639327109910695],[139.861598736544,35.63935360721189],[139.8616228181556,35.63938217524362],[139.86158362224435,35.639391198223144],[139.8615658465003,35.639396520521316],[139.8615492876233,35.63940824231612],[139.8615333909448,35.63941906257551]]]}},{"type":"Feature","properties":{"height":11.5,"gml_id":"bldg_e901e38f-1f4b-4a43-ac4c-d4405bd90522"},"geometry":{"type":"Polygon","coordinates":[[[139.8615333909448,35.63941906257551],[139.8615320662214,35.639419964263716],[139.86151053587068,35.63942438605453],[139.86148061577717,35.63943502931086],[139.86145709997493,35.63944549078906],[139.86143171175854,35.63946947337031],[139.86142342078995,35.639442433962216],[139.86140994018152,35.63941566617657],[139.8613816634015,35.63938917224891],[139.86142306716576,35.6393785263397],[139.86145850669502,35.63936346505641],[139.86148555534123,35.63935138027167],[139.86149207770498,35.639373011820915],[139.8615051157679,35.63939725584245],[139.8615333909448,35.63941906257551]]]}},{"type":"Feature","properties":{"height":2.9,"gml_id":"bldg_69a368c8-745f-4e62-8fb0-724f11d81aa8"},"geometry":{"type":"Polygon","coordinates":[[[139.85532268472124,35.64095071595599],[139.85531672259347,35.64095315076444],[139.855282034322,35.640895649183086],[139.85533834336036,35.64087301432528],[139.85537303163764,35.640930425752835],[139.85532268472124,35.64095071595599]]]}},{"type":"Feature","properties":{"height":3.6,"gml_id":"bldg_d382ca9e-f28d-49bb-9263-b01a9a0a34db"},"geometry":{"type":"Polygon","coordinates":[[[139.8565869254784,35.638344324196154],[139.8565714570728,35.63831043535937],[139.8567421489345,35.6382585730604],[139.85675761740217,35.638292461875515],[139.8565869254784,35.638344324196154]]]}},{"type":"Feature","properties":{"height":5.8,"gml_id":"bldg_0a4e5bcc-43b7-44af-b326-1a5cbee7c272"},"geometry":{"type":"Polygon","coordinates":[[[139.8552837906722,35.64085761071731],[139.8552675522601,35.64083426798864],[139.8552963687158,35.640820832207616],[139.85531260713356,35.640844174932475],[139.8552837906722,35.64085761071731]]]}},{"type":"Feature","properties":{"height":1.6,"gml_id":"bldg_101061b1-c7b3-40dd-a8c8-81e3a6106274"},"geometry":{"type":"Polygon","coordinates":[[[139.8552909765593,35.64088852666826],[139.85528556356243,35.640880054703004],[139.85532785025603,35.64086201943182],[139.85533326325614,35.64087049139522],[139.8552909765593,35.64088852666826]]]}},{"type":"Feature","properties":{"height":4.9,"gml_id":"bldg_0d4b9607-7fc0-4613-94ae-5d4530675a4d"},"geometry":{"type":"Polygon","coordinates":[[[139.8537051279889,35.64145252700099],[139.8536401812703,35.64138096857163],[139.85382146733554,35.64127115005738],[139.85388652457254,35.64134279850921],[139.8537051279889,35.64145252700099]]]}},{"type":"Feature","properties":{"height":3.9,"gml_id":"bldg_ffd3cdfe-f4e1-4727-a124-fd59a5bf76cd"},"geometry":{"type":"Polygon","coordinates":[[[139.85465800938593,35.64161415938444],[139.85463457999185,35.64153989000282],[139.85472744046055,35.64152031364796],[139.85475086995888,35.641594673149505],[139.85465800938593,35.64161415938444]]]}},{"type":"Feature","properties":{"height":6.1,"gml_id":"bldg_350d3112-44bc-4eba-b22c-3034bd5e25c8"},"geometry":{"type":"Polygon","coordinates":[[[139.86161435190274,35.640111392046734],[139.86165225030095,35.64017943717858],[139.8615678984791,35.6402074898342],[139.8615303307688,35.640137641842806],[139.86161435190274,35.640111392046734]]]}},{"type":"Feature","properties":{"height":2.6,"gml_id":"bldg_786f36a2-54e2-487c-aee8-b4fc4c79932f"},"geometry":{"type":"Polygon","coordinates":[[[139.85666007515513,35.63814537587255],[139.85664902636532,35.63812140134966],[139.85672686422572,35.63809740959636],[139.85673791303546,35.638121384112175],[139.85666007515513,35.63814537587255]]]}}]}