{"type":"FeatureCollection","crs":{"type":"name","properties":{"name":"urn:ogc:def:crs:OGC:1.3:CRS84"}},"features":[{"type":"Feature","properties":{"height":0.6,"gml_id":"bldg_80ef6d36-1f86-48f4-95ae-ce640711392d"},"geometry":{"type":"Polygon","coordinates":[[[139.90135179348442,35.71760619709424],[139.9013646231257,35.71761610487026],[139.90134772487013,35.71763080669],[139.90133489522856,35.717620898912216],[139.90135179348442,35.71760619709424]]]}},{"type":"Feature","properties":{"height":1.9,"gml_id":"bldg_6e9ddbfa-b549-4968-9e1d-d1186dcba066"},"geometry":{"type":"Polygon","coordinates":[[[139.90114821518264,35.717752964255425],[139.90118106214285,35.71777674180802],[139.90113776878903,35.7178164263178],[139.90110492182535,35.717792648753544],[139.90114821518264,35.717752964255425]]]}},{"type":"Feature","properties":{"height":1.9,"gml_id":"bldg_e3216359-d79a-403b-872f-545a89eca228"},"geometry":{"type":"Polygon","coordinates":[[[139.90248858760248,35.71877615334285],[139.90244540395332,35.71881475661416],[139.90241200253345,35.71878980795367],[139.90245507573388,35.71875129489422],[139.90248858760248,35.71877615334285]]]}}]}