{"type":"FeatureCollection","crs":{"type":"name","properties":{"name":"urn:ogc:def:crs:OGC:1.3:CRS84"}},"features":[{"type":"Feature","properties":{"height":4.0,"gml_id":"bldg_07534158-e8de-454b-b694-56e9ccab9948"},"geometry":{"type":"Polygon","coordinates":[[[139.86318972664856,35.64070195523345],[139.86310578922067,35.640656456426655],[139.8632893361466,35.640430345344775],[139.86337327340814,35.640475753887664],[139.86318972664856,35.64070195523345]]]}},{"type":"Feature","properties":{"height":3.7,"gml_id":"bldg_bb58e77f-2a40-43a6-bd07-7c19e7e33ef6"},"geometry":{"type":"Polygon","coordinates":[[[139.86344120140728,35.64082024355252],[139.86334302013483,35.64077700191605],[139.86336851315082,35.640738416589706],[139.86346669435594,35.640781568067915],[139.86344120140728,35.64082024355252]]]}},{"type":"Feature","properties":{"height":3.8,"gml_id":"bldg_6114dfc0-fdde-4c92-bec3-4107c70ef621"},"geometry":{"type":"Polygon","coordinates":[[[139.86299244079524,35.64050559373086],[139.86298194329487,35.64048540545019],[139.86302345643298,35.64047097317863],[139.86303395397525,35.64049125159352],[139.86299244079524,35.64050559373086]]]}},{"type":"Feature","properties":{"height":3.5,"gml_id":"bldg_6c9a8ef6-e82d-480f-8e70-6a773fc574f8"},"geometry":{"type":"Polygon","coordinates":[[[139.86304089349005,35.641041901616674],[139.86301120224022,35.641075259914935],[139.86298657267668,35.6410606636601],[139.86301626393137,35.64102730536785],[139.86304089349005,35.641041901616674]]]}},{"type":"Feature","properties":{"height":3.3,"gml_id":"bldg_081c36ef-b6bc-49a9-b515-b05cb863e384"},"geometry":{"type":"Polygon","coordinates":[[[139.86373098812368,35.640049943349425],[139.86367114781362,35.640070599990935],[139.8636512575482,35.64003220629748],[139.8637110978348,35.64001154966574],[139.86373098812368,35.640049943349425]]]}},{"type":"Feature","properties":{"height":3.3,"gml_id":"bldg_607856ae-bb88-446e-8c00-edc8e923246f"},"geometry":{"type":"Polygon","coordinates":[[[139.86276853110314,35.640875213582305],[139.8627510835011,35.6408726939867],[139.86275670540792,35.64084646251824],[139.8627742634264,35.640848982086055],[139.86276853110314,35.640875213582305]]]}},{"type":"Feature","properties":{"height":3.8,"gml_id":"bldg_fba1c2d8-95cf-4a7f-81b9-3aec591cdd61"},"geometry":{"type":"Polygon","coordinates":[[[139.87060334217801,35.63929202730403],[139.87057836918902,35.63925300535816],[139.87065686213535,35.63921963007429],[139.87068183515208,35.63925865200409],[139.87060334217801,35.63929202730403]]]}},{"type":"Feature","properties":{"height":3.5,"gml_id":"bldg_bb9c8478-75e2-4593-be3d-1c813abbbecf"},"geometry":{"type":"Polygon","coordinates":[[[139.86313594290408,35.64097688879624],[139.8631132953279,35.640947148929115],[139.8631319531165,35.64093758970989],[139.86315460069687,35.64096732957354],[139.86313594290408,35.64097688879624]]]}},{"type":"Feature","properties":{"height":7.8,"gml_id":"bldg_6c8b60db-24c0-49d5-942e-d39424d7e53b"},"geometry":{"type":"Polygon","coordinates":[[[139.86552307007594,35.64020325285606],[139.86552823661964,35.64014529287365],[139.86566151796072,35.64015318930297],[139.86565624112797,35.6402112394584],[139.86552307007594,35.64020325285606]]]}},{"type":"Feature","properties":{"height":10.8,"gml_id":"bldg_2cd7926c-7e5a-4744-8234-db4270113ff8"},"geometry":{"type":"Polygon","coordinates":[[[139.86652940592992,35.639567778662524],[139.86646944414974,35.63955905180528],[139.86647870191504,35.63951659435282],[139.8665386636645,35.63952532120553],[139.86652940592992,35.639567778662524]]]}},{"type":"Feature","properties":{"height":7.5,"gml_id":"bldg_6532b671-7dbe-4926-8453-572d37096015"},"geometry":{"type":"Polygon","coordinates":[[[139.86648671406942,35.64127049327721],[139.86647189322113,35.64121181766213],[139.86650049018147,35.64120586069797],[139.8665155321182,35.64126507707534],[139.86648671406942,35.64127049327721]]]}},{"type":"Feature","properties":{"height":2.8,"gml_id":"bldg_d5a391ae-2e0b-49f6-b32c-c6b0bbe67245"},"geometry":{"type":"Polygon","coordinates":[[[139.86315437720694,35.64096020874402],[139.8631404572578,35.64094200435717],[139.86324324081664,35.64088987924007],[139.86325705035804,35.6409080836426],[139.86315437720694,35.64096020874402]]]}},{"type":"Feature","properties":{"height":3.2,"gml_id":"bldg_921692cc-158d-44ea-9f9e-fe68f3fec846"},"geometry":{"type":"Polygon","coordinates":[[[139.86284811016978,35.64077946778174],[139.8628982438922,35.64078540458104],[139.8628960397704,35.64079712303412],[139.8628460164627,35.64079118620689],[139.86284811016978,35.64077946778174]]]}},{"type":"Feature","properties":{"height":3.8,"gml_id":"bldg_2fc1ba20-b5b8-41e3-8077-d6a5159fc5a9"},"geometry":{"type":"Polygon","coordinates":[[[139.87153528640874,35.64068580648915],[139.87150036502317,35.64062668717229],[139.8715540199037,35.64060557791759],[139.8715888308979,35.64066469725413],[139.87153528640874,35.64068580648915]]]}},{"type":"Feature","properties":{"height":2.7,"gml_id":"bldg_a356b253-6be1-4bf4-8346-61a14f6af7ff"},"geometry":{"type":"Polygon","coordinates":[[[139.86320726731955,35.640361230040405],[139.863172129455,35.64029697050371],[139.86321032999345,35.64028298967684],[139.86324557830372,35.64034724917512],[139.86320726731955,35.640361230040405]]]}},{"type":"Feature","properties":{"height":3.4,"gml_id":"bldg_1ac010ce-ba91-471e-8ff0-600fa6e1207d"},"geometry":{"type":"Polygon","coordinates":[[[139.86343836402006,35.640320971049576],[139.86338071873217,35.64030656339603],[139.86342197504746,35.640196584989496],[139.86347973068482,35.64021099259596],[139.86343836402006,35.640320971049576]]]}},{"type":"Feature","properties":{"height":4.8,"gml_id":"bldg_12eb07da-e57a-43b2-a431-7644da410408"},"geometry":{"type":"Polygon","coordinates":[[[139.8630291824414,35.64042797604096],[139.8629916138228,35.64035939043751],[139.86301413670088,35.640351092213],[139.86305170533484,35.64041967780952],[139.8630291824414,35.64042797604096]]]}},{"type":"Feature","properties":{"height":4.8,"gml_id":"bldg_712b839e-4685-4383-84d4-950d0abd6538"},"geometry":{"type":"Polygon","coordinates":[[[139.86309509455344,35.64040245077872],[139.86305708390503,35.6403330540645],[139.86307894434165,35.64032502640467],[139.86311695500515,35.640394423112085],[139.86309509455344,35.64040245077872]]]}},{"type":"Feature","properties":{"height":3.8,"gml_id":"bldg_e3922db8-fb64-419b-8ac3-d41c299c0289"},"geometry":{"type":"Polygon","coordinates":[[[139.86286070274224,35.64049147446298],[139.86280180861468,35.640383954500756],[139.86294478498428,35.64033172965625],[139.86300367926498,35.64043924954942],[139.86286070274224,35.64049147446298]]]}},{"type":"Feature","properties":{"height":2.3,"gml_id":"bldg_e67f6c43-d874-4b1b-be58-9e19989b8ea1"},"geometry":{"type":"Polygon","coordinates":[[[139.86358128715293,35.64042188957127],[139.8635489282589,35.6404074756461],[139.86356526135222,35.640382863930874],[139.86359773066056,35.64039727782398],[139.86358128715293,35.64042188957127]]]}},{"type":"Feature","properties":{"height":1.4,"gml_id":"bldg_16fa961e-9fb4-4093-a243-a45d6d6ff40b"},"geometry":{"type":"Polygon","coordinates":[[[139.8633739077956,35.640695599795805],[139.86335226189456,35.64068695196464],[139.86336495243629,35.64066567628355],[139.86338659829917,35.640674233974686],[139.8633739077956,35.640695599795805]]]}},{"type":"Feature","properties":{"height":8.8,"gml_id":"bldg_9dfb0e22-5c6d-485b-b450-8e10b05a3de8"},"geometry":{"type":"Polygon","coordinates":[[[139.86885649636895,35.64003150481177],[139.8687975250298,35.64001655931428],[139.8688136277431,35.639974189808264],[139.86887259905407,35.639989135297995],[139.86885649636895,35.64003150481177]]]}},{"type":"Feature","properties":{"height":7.4,"gml_id":"bldg_2687409d-e030-4dab-af51-35229a4fd8b1"},"geometry":{"type":"Polygon","coordinates":[[[139.8662046942524,35.640460141756805],[139.86618026057388,35.640385514331776],[139.8662021220408,35.640380731065484],[139.8662265557382,35.640455358486136],[139.8662046942524,35.640460141756805]]]}},{"type":"Feature","properties":{"height":4.0,"gml_id":"bldg_40738b8f-17d6-4c8f-bf46-4815fcf8d046"},"geometry":{"type":"Polygon","coordinates":[[[139.86326843268483,35.640339671923066],[139.8631781571752,35.64017474216189],[139.86322927516844,35.640156070962206],[139.8632461811058,35.64018698402876],[139.86333748688878,35.64015370047385],[139.8633447796973,35.640167129188534],[139.8632801366332,35.640337776120234],[139.86326843268483,35.640339671923066]]]}},{"type":"Feature","properties":{"height":7.4,"gml_id":"bldg_ac7656f4-38f7-48db-af76-680df91e8718"},"geometry":{"type":"Polygon","coordinates":[[[139.86638401743005,35.64072527805861],[139.86637052790292,35.640681384657384],[139.8663953706772,35.64067623998737],[139.86640897075029,35.640720403768874],[139.86638401743005,35.64072527805861]]]}},{"type":"Feature","properties":{"height":3.8,"gml_id":"bldg_829257d8-4012-403f-b6e6-0988f6a78a73"},"geometry":{"type":"Polygon","coordinates":[[[139.86610488284634,35.640483604778495],[139.86608033886887,35.64040906750127],[139.86610231076952,35.64040428422309],[139.86612674434448,35.64047882152595],[139.86610488284634,35.640483604778495]]]}},{"type":"Feature","properties":{"height":7.9,"gml_id":"bldg_45eb2498-78d9-4845-8f3a-7a8a4cbdadae"},"geometry":{"type":"Polygon","coordinates":[[[139.86621969758315,35.64150402331311],[139.86619783189917,35.641499251978864],[139.86621999878864,35.641430651082366],[139.86624186441827,35.641435332274874],[139.86621969758315,35.64150402331311]]]}},{"type":"Feature","properties":{"height":4.2,"gml_id":"bldg_6842d6ac-2d01-46f9-bc9e-c1da469d7db0"},"geometry":{"type":"Polygon","coordinates":[[[139.86357878699644,35.64081984853309],[139.8634523328825,35.64076390465375],[139.8634981320032,35.6406948476489],[139.86339520187653,35.64064935379847],[139.8635372340753,35.64043533115637],[139.86376661780642,35.640536768572076],[139.86357878699644,35.64081984853309]]]}},{"type":"Feature","properties":{"height":7.9,"gml_id":"bldg_22edc7d5-6479-492a-b904-ff6ea36407a7"},"geometry":{"type":"Polygon","coordinates":[[[139.86625650374833,35.64105179202946],[139.8662377054351,35.64098707823908],[139.86626111308345,35.64098256495349],[139.86627980099223,35.64104727877046],[139.86625650374833,35.64105179202946]]]}},{"type":"Feature","properties":{"height":9.8,"gml_id":"bldg_d4e10b0d-b1f6-41ab-ae9f-142d7a5c31de"},"geometry":{"type":"Polygon","coordinates":[[[139.86915640587958,35.63979859006388],[139.86915385623186,35.63977623664801],[139.86927211269978,35.63976754819491],[139.86927455195962,35.63978990164127],[139.86915640587958,35.63979859006388]]]}},{"type":"Feature","properties":{"height":2.7,"gml_id":"bldg_6b2ca3be-a5f8-4f47-95c3-c609b70d9547"},"geometry":{"type":"Polygon","coordinates":[[[139.86287095960324,35.64075800938776],[139.86288675069042,35.64076007868357],[139.86288432585667,35.6407721577418],[139.86286853476713,35.640770088445684],[139.86287095960324,35.64075800938776]]]}},{"type":"Feature","properties":{"height":2.4,"gml_id":"bldg_031db843-7df8-4cc8-8fa7-d43ed18d4808"},"geometry":{"type":"Polygon","coordinates":[[[139.8634716419841,35.640724689887094],[139.86344469429727,35.6407119871986],[139.86345826897056,35.64069278445585],[139.8634852166531,35.64070548714137],[139.8634716419841,35.640724689887094]]]}},{"type":"Feature","properties":{"height":2.3,"gml_id":"bldg_73a9ac1e-1e31-4aca-9ab0-d0657ba4e990"},"geometry":{"type":"Polygon","coordinates":[[[139.86282884266254,35.64033175810242],[139.8628152516769,35.64030679326104],[139.8629058953476,35.640273780609306],[139.86291948632257,35.6402986553028],[139.86282884266254,35.64033175810242]]]}},{"type":"Feature","properties":{"height":1.8,"gml_id":"bldg_5c72509d-5cae-438d-8eb8-48e6f96e1cbc"},"geometry":{"type":"Polygon","coordinates":[[[139.8631295429459,35.63950178538329],[139.8630982815187,35.639467991435126],[139.86312588024668,35.63945103870487],[139.8631571416789,35.639484832645955],[139.8631295429459,35.63950178538329]]]}},{"type":"Feature","properties":{"height":0.8,"gml_id":"bldg_ee518e62-a250-498c-9b2f-762736fcebf4"},"geometry":{"type":"Polygon","coordinates":[[[139.86309440799337,35.63944419601153],[139.86308137421983,35.639432841867524],[139.86309605590506,35.63942157101508],[139.86310908964538,35.63943283501973],[139.86309440799337,35.63944419601153]]]}},{"type":"Feature","properties":{"height":4.8,"gml_id":"bldg_49f48c0c-317d-46e3-b5ee-e6416a39931e"},"geometry":{"type":"Polygon","coordinates":[[[139.86283431545277,35.640801284505166],[139.86275878376364,35.640792830028346],[139.8627673777312,35.64074117897725],[139.86284301979444,35.64074963342173],[139.86283431545277,35.640801284505166]]]}},{"type":"Feature","properties":{"height":1.7,"gml_id":"bldg_e60e25bf-ee00-4459-ad57-ecf7806d4b7c"},"geometry":{"type":"Polygon","coordinates":[[[139.86350891511512,35.640005741527624],[139.8634612132915,35.64000566333022],[139.86346120351388,35.639979613509205],[139.86350890528814,35.63997960156883],[139.86350891511512,35.640005741527624]]]}},{"type":"Feature","properties":{"height":10.3,"gml_id":"bldg_7414f52c-f7b3-4f6d-97f0-6af374167f22"},"geometry":{"type":"Polygon","coordinates":[[[139.86557045256382,35.6399577949673],[139.8655051921556,35.639950691528966],[139.86542866119453,35.63992998025135],[139.86536316452452,35.63988691181749],[139.86533565386387,35.639846988084656],[139.86533563675775,35.639804082496674],[139.86534302598284,35.63978163622112],[139.86536366371774,35.639754318981666],[139.86540174952216,35.63973114343354],[139.86546445804305,35.639705437449415],[139.8655314785583,35.63969379177704],[139.8656102083243,35.639693860844574],[139.86567050170012,35.63970339928051],[139.86575012823488,35.63973663872658],[139.86579707456505,35.63978025277876],[139.8658113348201,35.639819819428745],[139.86579953564396,35.63985894241432],[139.86576664643817,35.639898882319116],[139.86571222126966,35.63992918326114],[139.86565458870447,35.63994668547186],[139.86557045256382,35.6399577949673]]]}},{"type":"Feature","properties":{"height":9.9,"gml_id":"bldg_040cdc2e-92f1-49f7-bb44-48544dd59259"},"geometry":{"type":"Polygon","coordinates":[[[139.86265392185553,35.640294754174754],[139.86263988954204,35.64027060066097],[139.86266737347805,35.64024066822356],[139.8627015859566,35.64019126437581],[139.86272806780082,35.64013879771965],[139.86274626718262,35.640083989497214],[139.86275596360605,35.640027741144],[139.86275682615658,35.639970954120884],[139.8627490760577,35.63991461988973],[139.8627326031709,35.63985945957819],[139.8627078495255,35.639806374452945],[139.86267525714723,35.63975626577926],[139.86263504715131,35.63970985459948],[139.86258821365692,35.63966804204264],[139.86253519851155,35.63963127868303],[139.86247699572502,35.63960019523671],[139.86241448884863,35.63957533230976],[139.86234856136377,35.63955705023396],[139.86228042800852,35.63954570926309],[139.86221119300023,35.639541399266534],[139.86214173971476,35.63954421016892],[139.8621044196014,35.63954953721907],[139.8620933697351,35.63952763637131],[139.8620976757981,35.63952673396508],[139.8621702191827,35.63951932532031],[139.86224320692895,35.639519397963014],[139.86231564524329,35.63952686199368],[139.86238642997654,35.6395418078174],[139.8624543463618,35.63956378504166],[139.86251829011385,35.63959252352543],[139.86257726733058,35.639627662964955],[139.86263050481398,35.639668482453125],[139.8626770085852,35.63971444141271],[139.86271611585474,35.639764818910685],[139.86273733012467,35.63980177023236],[139.86274716379458,35.63981880387579],[139.86276959995894,35.639875495071166],[139.86277999580054,35.6399199304652],[139.86282858898693,35.63994191219917],[139.8628490262338,35.6399675063278],[139.86285721036634,35.640002838338845],[139.8628531341779,35.64002834833448],[139.86284232430162,35.640059268247455],[139.8628233400562,35.64008144679461],[139.86280302869713,35.640098037120005],[139.86280846004345,35.64015446205117],[139.86279224357023,35.64019647023061],[139.86275967949857,35.64022415049301],[139.8627339542191,35.64023190862503],[139.86270348016635,35.640237865153644],[139.86267643967588,35.640272574794345],[139.86265392185553,35.640294754174754]]]}},{"type":"Feature","properties":{"height":4.2,"gml_id":"bldg_ea71a872-afd5-4b4c-b274-84b889c497d3"},"geometry":{"type":"Polygon","coordinates":[[[139.86315164560452,35.64074090419014],[139.86306428444857,35.640693693584254],[139.86309220838692,35.64065925405403],[139.8631727220314,35.640702860824945],[139.8631555041391,35.64072413760662],[139.8631622412422,35.64072783158772],[139.86315164560452,35.64074090419014]]]}},{"type":"Feature","properties":{"height":3.6,"gml_id":"bldg_92bb66c2-9b2a-49d0-bb96-90f86b5aa059"},"geometry":{"type":"Polygon","coordinates":[[[139.86306606218025,35.641021434130224],[139.86304419134282,35.64100187962802],[139.86308978317214,35.6409680667054],[139.86311154362272,35.640987711364495],[139.86306606218025,35.641021434130224]]]}}]}