{"type":"FeatureCollection","crs":{"type":"name","properties":{"name":"urn:ogc:def:crs:OGC:1.3:CRS84"}},"features":[{"type":"Feature","properties":{"height":7.2,"gml_id":"bldg_fc00c413-21c3-40c7-a17f-64ff143d2b6e"},"geometry":{"type":"Polygon","coordinates":[[[139.7737826397464,35.61868060208043],[139.77372098218947,35.618760253674665],[139.77358426182897,35.6186865431212],[139.77364172178054,35.61861067531693],[139.7737826397464,35.61868060208043]]]}},{"type":"Feature","properties":{"height":3.4,"gml_id":"bldg_88099532-04fd-46dd-9b80-27a63b84e0cc"},"geometry":{"type":"Polygon","coordinates":[[[139.77432016945158,35.620738629015996],[139.77434425685075,35.620709436075416],[139.77448451178972,35.62078612202656],[139.77446009297108,35.62081567538518],[139.77432016945158,35.620738629015996]]]}},{"type":"Feature","properties":{"height":32.4,"gml_id":"bldg_4bacbcd4-af2b-459d-8c68-cf59a7db6ee8"},"geometry":{"type":"Polygon","coordinates":[[[139.7747552749753,35.62012157577815],[139.77472464660417,35.6201589952293],[139.7747411217953,35.62016799000934],[139.77446882422345,35.620500620034434],[139.77441420106453,35.62047081171374],[139.77473544670772,35.62007837196616],[139.77492406729277,35.62018132913636],[139.77489403563382,35.62021801880103],[139.77480173913034,35.62016764990658],[139.77481345127492,35.62015333265433],[139.7747552749753,35.62012157577815]]]}},{"type":"Feature","properties":{"height":3.5,"gml_id":"bldg_de039a33-ff58-472c-8067-ea0b848cec47"},"geometry":{"type":"Polygon","coordinates":[[[139.77408305222244,35.617582417271244],[139.77409830112094,35.617561963415284],[139.77412335046193,35.61757441478847],[139.7741079911775,35.6175948685933],[139.77408305222244,35.617582417271244]]]}},{"type":"Feature","properties":{"height":3.9,"gml_id":"bldg_cbba3a90-4890-4226-bebd-611e823e1013"},"geometry":{"type":"Polygon","coordinates":[[[139.76991341270565,35.62008586257502],[139.76985486760685,35.620132163619445],[139.76983644423055,35.62011656002337],[139.7698948789345,35.620070259831024],[139.76991341270565,35.62008586257502]]]}},{"type":"Feature","properties":{"height":4.3,"gml_id":"bldg_84952e99-2d1a-4041-804f-202493c78fc1"},"geometry":{"type":"Polygon","coordinates":[[[139.77197506537652,35.621674957440824],[139.77191758441316,35.62164343301417],[139.77192833589592,35.62163035856039],[139.7719196403692,35.621625595740106],[139.77193249131247,35.62160997235034],[139.7719411868376,35.62161473607107],[139.7719502808372,35.621603680764615],[139.77194172877165,35.621598989228076],[139.77195465705208,35.62158327573722],[139.77196320911668,35.62158796727286],[139.77197259041372,35.62157655155875],[139.77196322176115,35.62157141793132],[139.7719752550109,35.6215567766252],[139.77198463469512,35.62156191927112],[139.77199425908307,35.621550206223475],[139.77198553046378,35.621545415448225],[139.77199819353726,35.62153001730074],[139.7720069221556,35.62153480807505],[139.7720163586792,35.62152333830271],[139.77200710037718,35.621518267831455],[139.77202102312543,35.621501328961806],[139.77203028141946,35.621506408445796],[139.77203907705135,35.62149571443424],[139.77202994014533,35.62149069720794],[139.77204216120782,35.621475839659134],[139.77205129812046,35.621480846969334],[139.77206139761495,35.62146857530181],[139.77205194070052,35.62146337944105],[139.77206381922082,35.62144892643565],[139.77207328718,35.62145411418868],[139.77208326512303,35.62144198667837],[139.77207470202742,35.621437295145526],[139.77208778495338,35.62142139242863],[139.77209633700855,35.62142608395494],[139.77210571825398,35.62141468625774],[139.77209634961866,35.62140954362672],[139.77210791872727,35.621395469940836],[139.7721172984012,35.62140061257656],[139.77212804981824,35.62138753900573],[139.77211905637017,35.621382603884605],[139.77213129949936,35.62136771929629],[139.7721977738114,35.62140416882302],[139.77197506537652,35.621674957440824]]]}},{"type":"Feature","properties":{"height":110.8,"gml_id":"bldg_568b15eb-d449-4bf7-ac2b-832568104f94"},"geometry":{"type":"Polygon","coordinates":[[[139.77148185176767,35.62495678342032],[139.77145393225075,35.62495591277249],[139.7714537638518,35.62495954524779],[139.77142989591948,35.62495880286849],[139.77143008678166,35.624954674645714],[139.77140620781796,35.62495392324226],[139.77140605055348,35.62495743043139],[139.77138487632894,35.62495676063676],[139.77138581928423,35.62493654316597],[139.77138847986257,35.62493662565819],[139.77138936656,35.62491777825615],[139.7712158770684,35.6249123527606],[139.77121401370312,35.62495207562091],[139.77119281740093,35.624951406682534],[139.7711930081985,35.62494737761192],[139.77116935002545,35.624946644302995],[139.7711691592685,35.6249506192908],[139.77114726745373,35.62494994097174],[139.77114745826057,35.62494590288739],[139.77111884324484,35.62494501377529],[139.77111821474702,35.624958254724376],[139.77112098571888,35.6249583462933],[139.7711199978663,35.62497942906361],[139.77109823852416,35.62497875080406],[139.77109847428292,35.62497369418351],[139.77107298350344,35.62497290582618],[139.77107278147105,35.62497717826342],[139.77105019414955,35.62497647342728],[139.77105038494878,35.624972451567935],[139.77102493833652,35.62497165511085],[139.77102475857043,35.624975684186886],[139.77100342978352,35.62497501514669],[139.7710035983015,35.6249712555775],[139.7709775113906,35.62497043173772],[139.7709772980962,35.624974983596815],[139.77095558291657,35.62497430533436],[139.77095578496915,35.6249700148697],[139.77093117737894,35.624969244967254],[139.7709309864001,35.62497349036856],[139.77090846532164,35.624972784638786],[139.77090946444412,35.6249514774324],[139.7709132289957,35.62495159566094],[139.77091382412004,35.62493872426149],[139.77087351802652,35.62493746757997],[139.77087331599697,35.62494172289067],[139.7708506624479,35.6249410170814],[139.77085168412188,35.624919123088645],[139.7708558129842,35.624919251423094],[139.77085726106912,35.624888497084896],[139.7708150120107,35.624887177180995],[139.77080972165393,35.62487581704626],[139.77080476839419,35.62485688459192],[139.77080158279705,35.62483633237337],[139.7707998344429,35.62481315698314],[139.77080139350895,35.624795860307884],[139.77080493739908,35.62478161132753],[139.770820967958,35.62475260422021],[139.77086612210064,35.624751816398835],[139.77086494009404,35.62471017202398],[139.77092908324596,35.62470903256997],[139.77092953154275,35.62467199599377],[139.77094446821175,35.62467252743145],[139.77094415443622,35.624678521446874],[139.77096936905247,35.624679398925146],[139.77096967156217,35.62467369334544],[139.77099183922235,35.62467447099133],[139.7709915255553,35.62468032979992],[139.7710172479972,35.62468122555855],[139.77101757291143,35.62467509724304],[139.7710395970599,35.6246758657921],[139.77103929443632,35.62468172460651],[139.77106479607917,35.624682621142206],[139.77106508739536,35.62467710484633],[139.7710867361929,35.624677864178956],[139.7710865120192,35.62468221772921],[139.77111204677567,35.6246831232858],[139.77111230448688,35.62467822892475],[139.77113430655717,35.62467899744507],[139.7711331300687,35.62470132402367],[139.7711308006976,35.62470124169684],[139.77113010606163,35.62471435641916],[139.77115805852713,35.624715335324666],[139.77115837222402,35.62470942243288],[139.7711805509359,35.624710200049726],[139.77118029326365,35.62471504934192],[139.77120527605388,35.624715927552586],[139.77120548882561,35.624712033700135],[139.7712274136263,35.62471280216362],[139.7712262820202,35.624734227386035],[139.77122376497536,35.624734135950455],[139.77122279017928,35.62475264979577],[139.77139699640367,35.62475875168488],[139.77139793760878,35.62474079667655],[139.77139373157917,35.62474053311401],[139.7713949865199,35.62471659310286],[139.77141779450073,35.62471738902715],[139.7714174583052,35.62472386977753],[139.7714418339161,35.62472472959952],[139.77144218112883,35.62471827589613],[139.7714650564545,35.624719071846066],[139.7714647752335,35.62472441688585],[139.77149226404163,35.6247253774481],[139.77149295875117,35.62471209056014],[139.77148911693703,35.62471196329624],[139.77149027096218,35.624690006268494],[139.77151414978576,35.62469083877942],[139.7715138361082,35.624696760685985],[139.7715392494484,35.62469764806212],[139.77153952957423,35.62469228499398],[139.77156049391616,35.62469302586283],[139.7715602473138,35.62469786614772],[139.77158598079325,35.624698780719584],[139.77158626077733,35.62469359792726],[139.77160806413707,35.62469436625925],[139.77160780646986,35.62469924259378],[139.77163432377444,35.62470017558447],[139.77163461521084,35.62469445196985],[139.77165607634606,35.62469520209028],[139.77165576267203,35.62470113301101],[139.77168049155082,35.624702001979365],[139.7716808275313,35.62469577361451],[139.77170303936455,35.624696551152155],[139.7717018406358,35.62471929235981],[139.77169994180872,35.62471922829183],[139.7716992807313,35.62473189234451],[139.77173756635784,35.62473322793964],[139.77173785768267,35.62472764043313],[139.7717620566662,35.62472849018482],[139.77176086904896,35.62475115928823],[139.77175781105788,35.62475104955972],[139.77175613055462,35.6247830116402],[139.7717857169279,35.62478404531797],[139.7717851118854,35.624795636757305],[139.77178990356555,35.62480961961086],[139.77179419520857,35.62482782968152],[139.77179638932355,35.624845949444016],[139.77179604527828,35.62486271403706],[139.77179437960908,35.624875333409236],[139.77179135084072,35.62489471063314],[139.77178833894013,35.624906481118806],[139.77178422363946,35.624917466839975],[139.771749249738,35.624916376325196],[139.7717468141541,35.62496841175351],[139.77172641270286,35.62496777035674],[139.77172664842197,35.62496271373493],[139.77168820801543,35.62496152227796],[139.7716865691976,35.62499666624938],[139.7716673600326,35.624996062409274],[139.77166757339938,35.6249913654268],[139.77164277812233,35.62499058655981],[139.77164252002007,35.62499603076343],[139.77161964565542,35.62499531597188],[139.771619870092,35.62499058384135],[139.7715953728821,35.62498982314488],[139.77159515953952,35.62499448317065],[139.77157295859564,35.624993795756716],[139.7715731718078,35.62498930699315],[139.77154699655176,35.62498850035763],[139.7715467832133,35.624993151369516],[139.77152491346365,35.624992473130376],[139.7715251828983,35.624986659366996],[139.7715000453838,35.62498588029505],[139.7714997984923,35.62499109014528],[139.7714776086041,35.62499038469186],[139.77147858512166,35.62496956331302],[139.77148124570118,35.6249696458032],[139.77148185176767,35.62495678342032]]]}},{"type":"Feature","properties":{"height":17.7,"gml_id":"bldg_bd1ffa40-0ba7-4b53-ba25-294bdb49ecf0"},"geometry":{"type":"Polygon","coordinates":[[[139.77065699500616,35.620828810062875],[139.7706665915826,35.620838730242546],[139.77067210005214,35.62085315519891],[139.77066756136344,35.62086919741493],[139.7706559624911,35.62087874601705],[139.7706408336656,35.620884868435994],[139.77062570800578,35.62088693283876],[139.7706100342434,35.620884040261785],[139.77059590924307,35.62087700213801],[139.77058785974205,35.62086509972091],[139.77059085306539,35.620848876426976],[139.77060787189563,35.62082571980418],[139.77062476399598,35.6208234751455],[139.7706363560394,35.62082266993569],[139.77065699500616,35.620828810062875]]]}},{"type":"Feature","properties":{"height":10.8,"gml_id":"bldg_26764f22-099d-491f-be70-e3f2e64e8889"},"geometry":{"type":"Polygon","coordinates":[[[139.76914865103475,35.621412471188656],[139.7691518505506,35.62141490662076],[139.76946010728165,35.62165078056203],[139.76940278325807,35.6217007416265],[139.76932178493934,35.62177131277346],[139.76918450346508,35.6216662199077],[139.7689965487777,35.621522357595836],[139.76911994633994,35.62141488962101],[139.7691225977701,35.621412457306455],[139.76913485992108,35.6214020979638],[139.76914865103475,35.621412471188656]]]}},{"type":"Feature","properties":{"height":4.3,"gml_id":"bldg_9d3189e4-a676-4b9f-999d-46b1fa036416"},"geometry":{"type":"Polygon","coordinates":[[[139.77206999926665,35.621726671984796],[139.77201251822757,35.62169514940641],[139.77202326970183,35.621682074944246],[139.77201457416453,35.62167731122948],[139.7720274250977,35.6216616878297],[139.77203612063337,35.62166645244494],[139.77204521462642,35.62165539623003],[139.77203666254982,35.62165070470026],[139.77204959082005,35.62163499119933],[139.7720581428957,35.621639682728194],[139.77206752418533,35.621628267006805],[139.77205815552065,35.6216231333868],[139.77207018876084,35.621608492071296],[139.77207955741767,35.62161363470419],[139.77208919283754,35.621601921654644],[139.772080464207,35.62159713088633],[139.77209312727038,35.621581732728956],[139.77210185590076,35.62158652259499],[139.77211129241616,35.6215750537167],[139.77210203410223,35.621569983252776],[139.77211595683946,35.62155304437227],[139.77212521514542,35.62155812384894],[139.77213401077103,35.62154742892915],[139.77212487385256,35.62154241261146],[139.77213709490536,35.62152755505314],[139.77214623182982,35.62153256235613],[139.7721563313163,35.621520290680735],[139.77214686335083,35.62151509392048],[139.77215875290054,35.621500641812816],[139.77216822087198,35.62150582955835],[139.7721781988071,35.62149370204027],[139.77216963569973,35.6214890114156],[139.77218270757652,35.62147310778153],[139.77219127068227,35.62147779930667],[139.77220065192031,35.62146640160217],[139.77219127223333,35.62146125897297],[139.7722028523723,35.621447185283664],[139.77221222101883,35.621452327906376],[139.77222298346692,35.62143925433279],[139.7722139900072,35.62143431921879],[139.7722262331267,35.62141943462092],[139.77229270752466,35.62145588409506],[139.77206999926665,35.621726671984796]]]}},{"type":"Feature","properties":{"height":4.1,"gml_id":"bldg_278d2e2c-4e77-4140-a5af-ef645df4615a"},"geometry":{"type":"Polygon","coordinates":[[[139.77494726630675,35.621039689232006],[139.7749078729992,35.62109136431871],[139.77485810340823,35.62106600236234],[139.7748984911987,35.62101307485484],[139.77494726630675,35.621039689232006]]]}},{"type":"Feature","properties":{"height":11.1,"gml_id":"bldg_8e38430f-edaa-4ed9-80fb-93754963c710"},"geometry":{"type":"Polygon","coordinates":[[[139.7715328281873,35.62124900843968],[139.77094811511841,35.62092966340694],[139.77096515411515,35.620908859348],[139.77107999581406,35.620768672915894],[139.7710631898674,35.62075949718915],[139.77112590899208,35.620682930253764],[139.77114271492292,35.620692114985665],[139.7712583736906,35.6205509282673],[139.77165301044795,35.6207664527761],[139.7718287068553,35.62086241344784],[139.7718271046451,35.62086435961226],[139.77184149407,35.620872217983184],[139.77173767020972,35.62099896217262],[139.77179499625544,35.621030269376355],[139.77171533810818,35.62112751468045],[139.77165801203114,35.62109619842548],[139.7715328281873,35.62124900843968]]]}},{"type":"Feature","properties":{"height":70.6,"gml_id":"bldg_6bdbf69f-c2b6-46fc-94ba-3091e3e5160e"},"geometry":{"type":"Polygon","coordinates":[[[139.77309846618604,35.620697822845806],[139.77308167017353,35.62071926730928],[139.77303740221666,35.620719064887346],[139.77300218787443,35.62071715435959],[139.77296774683543,35.62071452310441],[139.772933638337,35.62071008924462],[139.77289655041903,35.62070403139531],[139.77285725713335,35.62069463731888],[139.77281818512063,35.62068461237423],[139.7727881655086,35.62067450182818],[139.77275549855142,35.62066159566327],[139.77271808710515,35.62064544213191],[139.7726832135817,35.62063082221378],[139.77267315845893,35.620643075929955],[139.77221918494982,35.62039577804251],[139.77219310710836,35.62042848493445],[139.77175535349528,35.62019507478613],[139.7717843043629,35.620158854070255],[139.7715626166294,35.62003812684903],[139.77157256310863,35.62002371886844],[139.77153030675322,35.61999214887079],[139.7714923522961,35.61996508797052],[139.7714559431606,35.6199382982661],[139.77142306614323,35.61991214133216],[139.77139272930134,35.61988454258431],[139.77136272296264,35.61985784718234],[139.77132940568816,35.6198300684119],[139.7712995102725,35.61980274028166],[139.7712724823771,35.61977892990778],[139.7712463377107,35.619755029844775],[139.7712208586232,35.61972698376707],[139.77119725211804,35.61970425679684],[139.77117132842343,35.61968017655508],[139.77118348418608,35.61966395797002],[139.77123922439313,35.6196745328661],[139.77128580382112,35.61968275942878],[139.77134054808457,35.61969648859817],[139.7715362289543,35.61975589998473],[139.77163445296537,35.61978939155475],[139.77167727312028,35.61980545805444],[139.77172251965706,35.61982450033652],[139.7717392018557,35.619809185391155],[139.77194444691713,35.6199202501262],[139.7719792527029,35.619878443783435],[139.7723533279542,35.620085861149676],[139.77232139510372,35.620124243806856],[139.7728590130247,35.62041521016262],[139.77284475986738,35.620431608138],[139.77289187749003,35.62045894362183],[139.77292321518584,35.620477798196816],[139.77295256329847,35.6204999868754],[139.7729819074316,35.62052749369133],[139.77300948406202,35.62055662210044],[139.77302911728006,35.62057916644795],[139.77304466349247,35.620604953717915],[139.77306076317345,35.62062875822497],[139.77307344335074,35.620648954595175],[139.77309846618604,35.620697822845806]]]}},{"type":"Feature","properties":{"height":5.4,"gml_id":"bldg_f9886e53-37c8-4d7e-bd31-3619503cc0c5"},"geometry":{"type":"Polygon","coordinates":[[[139.7740601088809,35.61787251642613],[139.77399634645988,35.61794851564183],[139.77395287394788,35.61791965002757],[139.7739367754772,35.61789458369608],[139.77392211542397,35.61786501116574],[139.77391518030123,35.61783868741552],[139.77391531082583,35.61781146576822],[139.7739207460803,35.61777613430597],[139.7739316960381,35.617747296408204],[139.7739500386621,35.617723148433896],[139.77398937383845,35.61767404163733],[139.77405569219292,35.617709408426094],[139.77400895404233,35.617767794924134],[139.77399513549415,35.617794559140805],[139.77398993177275,35.61781537758194],[139.77399101936132,35.61783746285792],[139.7740012731143,35.617855946221816],[139.77401307086106,35.617873438825654],[139.77403856175795,35.6178560997854],[139.7740601088809,35.61787251642613]]]}},{"type":"Feature","properties":{"height":4.4,"gml_id":"bldg_4f008f18-2b67-4a3e-9039-0812ba2e6baf"},"geometry":{"type":"Polygon","coordinates":[[[139.77221962039167,35.62137598472017],[139.77216213953838,35.621344470323926],[139.7721728909406,35.62133139674897],[139.77216420647184,35.62132663305034],[139.77217705732653,35.62131100061982],[139.7721857417875,35.621315773331325],[139.7721948357264,35.62130470899198],[139.77218628367905,35.621300016571205],[139.77219921186276,35.62128430395461],[139.77220776391056,35.62128899457172],[139.77221714513033,35.62127758875312],[139.77220777650382,35.62127244613066],[139.77221980966414,35.621257804799306],[139.7722291893292,35.62126294742643],[139.7722388246851,35.62125123436418],[139.77223008504419,35.621246443600846],[139.7722427480236,35.62123104542678],[139.7722514876636,35.6212358361892],[139.77226091307756,35.621224366391466],[139.77225165479456,35.621219295938765],[139.77226558847198,35.62120236605931],[139.77227483571377,35.62120743740672],[139.77228364232113,35.621196741579546],[139.7722745054263,35.621191734286754],[139.77228672640487,35.621176867698516],[139.77229586329196,35.6211818840042],[139.7723059627183,35.62116960330169],[139.77229649477755,35.62116441556671],[139.7723083842484,35.62114996344337],[139.7723178411487,35.621155151171834],[139.77232781902447,35.62114301462679],[139.77231925594637,35.6211383231111],[139.7723323387752,35.621122420366774],[139.7723409018455,35.62112712089533],[139.77235027198867,35.621115714159046],[139.77234090336563,35.62111058056062],[139.7723524723951,35.62109649783666],[139.77236185205055,35.6211016395522],[139.77237260338705,35.6210885668602],[139.77236362099,35.6210836407765],[139.77237585298877,35.6210687561569],[139.77244232717092,35.62110519743797],[139.77221962039167,35.62137598472017]]]}},{"type":"Feature","properties":{"height":5.8,"gml_id":"bldg_b7e4335f-76bb-4591-9a61-49a3bc32b00b"},"geometry":{"type":"Polygon","coordinates":[[[139.77435858271264,35.618533680823674],[139.7742955418915,35.618498685378356],[139.77447619336584,35.61827784525374],[139.7745407794339,35.618313021636034],[139.77435858271264,35.618533680823674]]]}},{"type":"Feature","properties":{"height":16.1,"gml_id":"bldg_08c86461-1ce0-4181-a48f-202a278857be"},"geometry":{"type":"Polygon","coordinates":[[[139.77124406925589,35.617119750964704],[139.7707233072127,35.61775756925068],[139.77067265963902,35.617729960657584],[139.77119342183497,35.617092232725916],[139.77124406925589,35.617119750964704]]]}},{"type":"Feature","properties":{"height":13.8,"gml_id":"bldg_741af201-d817-492b-a43a-399d90a48a35"},"geometry":{"type":"Polygon","coordinates":[[[139.77441538682046,35.62463340535635],[139.77445055497327,35.62461035623127],[139.77449249963814,35.62459004158755],[139.77432950498402,35.624786310411906],[139.77433650764758,35.624751745011395],[139.7743477468006,35.624721068435754],[139.7743645286535,35.624689518430436],[139.77439128199657,35.62465468416523],[139.77441538682046,35.62463340535635]]]}},{"type":"Feature","properties":{"height":3.9,"gml_id":"bldg_b6c07905-85b6-481e-a7ee-120424980c1b"},"geometry":{"type":"Polygon","coordinates":[[[139.77263611039982,35.621270968084445],[139.77262803282366,35.62126654724959],[139.7726415576213,35.621250076824865],[139.77264921586584,35.621254272102455],[139.77265823238943,35.62124329782706],[139.7726494596126,35.62123849806364],[139.77266227723354,35.62122287457815],[139.77273057248397,35.621260253150886],[139.77250787694254,35.621531492556535],[139.77244970062702,35.62149964443624],[139.77246002108595,35.62148706637757],[139.77245063034724,35.621481914749204],[139.7724639563216,35.62146568761732],[139.7724732918958,35.62147079414777],[139.77248298251388,35.62145898194245],[139.7724738676422,35.62145399270369],[139.77248602234573,35.62143918014525],[139.77249456340022,35.62144385361011],[139.77250415455995,35.62143216844748],[139.77249659561465,35.62142803540619],[139.77250956797855,35.62141224075327],[139.77251661931055,35.62141610222194],[139.77252549222018,35.62140530816045],[139.7725172380726,35.62140079709107],[139.77253023253436,35.62138496639177],[139.77253833218924,35.62138939625805],[139.7725473708426,35.62137839496098],[139.77253951396216,35.6213740914111],[139.77255277360223,35.621357945359875],[139.77256139189447,35.62136266392806],[139.77257107142654,35.621350878751244],[139.77256225450566,35.62134605191787],[139.77257496165655,35.62133057260716],[139.7725835027047,35.62133524606579],[139.7725917236724,35.621325235871694],[139.7725828184711,35.621320363926266],[139.77259657532798,35.621303614195746],[139.77260597710156,35.62130875680466],[139.7726158334162,35.62129675538188],[139.77260636543363,35.621291576685145],[139.77261745932174,35.621278052552654],[139.77262630934337,35.621282897426326],[139.77263611039982,35.621270968084445]]]}},{"type":"Feature","properties":{"height":6.2,"gml_id":"bldg_8bcd9eaf-5f9f-4cf4-b75c-93e7e30b7598"},"geometry":{"type":"Polygon","coordinates":[[[139.76909838591337,35.62449345269804],[139.76902220518622,35.62449981185595],[139.7690174885441,35.62446168095749],[139.7690065582828,35.62446257740354],[139.76900478126404,35.624448279663994],[139.76900222536278,35.62442779894196],[139.7689997792116,35.62440813042193],[139.7689978924747,35.62439298532622],[139.76909041327698,35.62438528282744],[139.76909230003184,35.624400427020376],[139.76909476828536,35.62442009555035],[139.76909732420924,35.62444057717184],[139.76909912323117,35.62445499119981],[139.76909929873906,35.62445640555886],[139.76909377840917,35.62445685420698],[139.76909838591337,35.62449345269804]]]}},{"type":"Feature","properties":{"height":3.7,"gml_id":"bldg_a15764eb-2123-455d-a0cb-fc73cc6658e2"},"geometry":{"type":"Polygon","coordinates":[[[139.7683178118616,35.62469133762236],[139.768312351048,35.62475461155949],[139.7682825444212,35.62475297298515],[139.7682878948585,35.624689698989776],[139.7683178118616,35.62469133762236]]]}},{"type":"Feature","properties":{"height":4.7,"gml_id":"bldg_c7b4bdc1-692d-44f2-b810-b1da7a1efd46"},"geometry":{"type":"Polygon","coordinates":[[[139.77446437219172,35.62085137215313],[139.77450547833038,35.62079757980104],[139.77455425311192,35.62082428357467],[139.7745141414658,35.62087681539706],[139.77446437219172,35.62085137215313]]]}},{"type":"Feature","properties":{"height":3.9,"gml_id":"bldg_9ece9877-1011-4b61-8f80-852fc5df048c"},"geometry":{"type":"Polygon","coordinates":[[[139.77410728048966,35.61782515311283],[139.77406640188872,35.61787149104587],[139.77403830869852,35.617854963920585],[139.77407919834627,35.617808626002386],[139.77410728048966,35.61782515311283]]]}},{"type":"Feature","properties":{"height":8.3,"gml_id":"bldg_e5a9173b-3949-44bc-af09-3c5cf6437ca9"},"geometry":{"type":"Polygon","coordinates":[[[139.77189593044338,35.622299970439634],[139.77192517343406,35.622315758605446],[139.77189268634334,35.62235566418477],[139.7718635537417,35.622339875166126],[139.77189593044338,35.622299970439634]]]}},{"type":"Feature","properties":{"height":30.0,"gml_id":"bldg_583a0e76-b232-4a65-8e8e-22763687a55b"},"geometry":{"type":"Polygon","coordinates":[[[139.77462208257245,35.620004421575494],[139.7747035150422,35.61990494878188],[139.77481629203734,35.619966477783656],[139.77481894383828,35.619963234100446],[139.77499980669745,35.620061932868474],[139.77490887213813,35.62017302906529],[139.77473544670772,35.62007837196616],[139.77442426697274,35.62045851278801],[139.77428896721037,35.62038473163747],[139.7746069646919,35.619996211641876],[139.77462208257245,35.620004421575494]]]}},{"type":"Feature","properties":{"height":5.7,"gml_id":"bldg_4f189ad6-d507-4a3b-8ce4-74e76867225b"},"geometry":{"type":"Polygon","coordinates":[[[139.76984473542018,35.620101781747266],[139.76978928378333,35.62014492865552],[139.7697717430657,35.620129955580296],[139.7698271947009,35.620086809581395],[139.76984473542018,35.620101781747266]]]}},{"type":"Feature","properties":{"height":8.2,"gml_id":"bldg_d1a255b2-0ab3-4f0c-81ba-8c0d89a8c5cc"},"geometry":{"type":"Polygon","coordinates":[[[139.77463014010343,35.62086705593502],[139.77459227154503,35.62091678468051],[139.77454250222206,35.6208913405676],[139.7745813652713,35.620840351290845],[139.77463014010343,35.62086705593502]]]}},{"type":"Feature","properties":{"height":7.4,"gml_id":"bldg_c30c4869-9ed2-42a1-9b1c-fb394716e110"},"geometry":{"type":"Polygon","coordinates":[[[139.7700106414369,35.62397205542302],[139.76996277787973,35.62397927555114],[139.769960786362,35.62397078440314],[139.7699592019621,35.623964014204134],[139.769930251951,35.623968397707955],[139.7699174026094,35.62396703887481],[139.76990903688622,35.623963870626454],[139.76990027570042,35.62395820534602],[139.76989457273848,35.62395371256826],[139.76989064656078,35.623947229576906],[139.76988781703983,35.62393744901264],[139.769885168452,35.6239222323193],[139.7698610656791,35.623925698951304],[139.76985068017683,35.62387998358567],[139.76986105888236,35.623878421553705],[139.76979979227238,35.623607407309756],[139.76981849596703,35.6236045868374],[139.76993401940425,35.623587169920356],[139.76995967517053,35.62370009031314],[139.76998013447061,35.62369694624232],[139.76998641645358,35.6237245407958],[139.7699649524653,35.62372775554829],[139.76998317104471,35.62380813309551],[139.76999486594227,35.62385944580869],[139.76998555824926,35.62386082904065],[139.7700106414369,35.62397205542302]]]}},{"type":"Feature","properties":{"height":3.9,"gml_id":"bldg_0ed058b4-4236-49b1-aca7-a8b0463e0f46"},"geometry":{"type":"Polygon","coordinates":[[[139.77249144130187,35.621601413365816],[139.77249909957885,35.621605599638904],[139.77250811615562,35.62159463438926],[139.7724993433563,35.621589825601355],[139.77251217210207,35.621574202138405],[139.77258045653466,35.62161158980251],[139.77235777055046,35.62188282891896],[139.77229958300072,35.621850980722286],[139.77230991456793,35.62183840268286],[139.77230051276507,35.621833242023655],[139.772313838835,35.62181700589561],[139.77232318547382,35.62182212055544],[139.77233287614206,35.62181032729194],[139.77232375021399,35.621805320008896],[139.77233591603186,35.621790515584536],[139.7723444571211,35.62179518094739],[139.77235404833854,35.62178350390986],[139.77234648936724,35.62177937176075],[139.7723594507779,35.62176357711941],[139.77236651317307,35.62176743860228],[139.77237537510146,35.62175664544829],[139.77236712092764,35.621752132566115],[139.77238012652163,35.621736293777204],[139.7723882262036,35.62174072365334],[139.77239726491027,35.621729731382004],[139.77238939697082,35.62172541880318],[139.77240265669917,35.62170927276952],[139.77241128605976,35.621713991353786],[139.77242096564947,35.62170221520358],[139.77241214870588,35.621697379345676],[139.77242484490182,35.62168190004618],[139.7724333970174,35.621686574422164],[139.77244161803372,35.62167657235138],[139.7724327128026,35.621671700395126],[139.77244646975785,35.62165494166901],[139.77245561774882,35.62165995796782],[139.77246572794314,35.62164808287962],[139.7724562599289,35.62164290417136],[139.77246735388402,35.621629389067365],[139.7724762039421,35.621634224938006],[139.7724859940242,35.621622295603515],[139.77247791642105,35.62161787475883],[139.77249144130187,35.621601413365816]]]}},{"type":"Feature","properties":{"height":7.0,"gml_id":"bldg_b67ccba5-8a77-48dd-ade3-161b3c939d74"},"geometry":{"type":"Polygon","coordinates":[[[139.7750196784499,35.62107946617637],[139.77498070506252,35.62113060066141],[139.7749309354111,35.621105256762846],[139.77497090335916,35.621052761690606],[139.7750196784499,35.62107946617637]]]}},{"type":"Feature","properties":{"height":5.3,"gml_id":"bldg_52f425e2-bbb2-497c-b2ab-958e2d48a009"},"geometry":{"type":"Polygon","coordinates":[[[139.77197571238452,35.62321246859257],[139.77200528642658,35.62322889778673],[139.77193832410873,35.62330907842129],[139.77190875011365,35.62329256718532],[139.77197571238452,35.62321246859257]]]}},{"type":"Feature","properties":{"height":3.3,"gml_id":"bldg_9261af3c-2387-43d1-8368-e61d79952d60"},"geometry":{"type":"Polygon","coordinates":[[[139.77481155684825,35.620965602006784],[139.77479424142354,35.62098836157041],[139.77474436159622,35.6209629192902],[139.77476278183022,35.62093898757442],[139.77481155684825,35.620965602006784]]]}},{"type":"Feature","properties":{"height":4.5,"gml_id":"bldg_6f251a05-8904-4281-bd58-3d3e2f5ff119"},"geometry":{"type":"Polygon","coordinates":[[[139.77144448532638,35.621283856438986],[139.77139458370013,35.62134508772265],[139.77095527494205,35.62110640983905],[139.77100516570863,35.6210451868418],[139.77144448532638,35.621283856438986]]]}},{"type":"Feature","properties":{"height":3.5,"gml_id":"bldg_a3c25c98-6ed0-4f9c-9708-77233340b388"},"geometry":{"type":"Polygon","coordinates":[[[139.77116720276635,35.61959066730357],[139.7711140527062,35.61965671108793],[139.7710544653439,35.61962477141817],[139.7711075050392,35.61955872760278],[139.77116720276635,35.61959066730357]]]}},{"type":"Feature","properties":{"height":5.6,"gml_id":"bldg_bc983bf6-e14e-482f-bc4f-5ae283ed4432"},"geometry":{"type":"Polygon","coordinates":[[[139.7746145691231,35.61835236684993],[139.77434916851178,35.61868106103348],[139.77427214576056,35.618639568787415],[139.7745416292337,35.61831330959127],[139.7746145691231,35.61835236684993]]]}},{"type":"Feature","properties":{"height":9.4,"gml_id":"bldg_ed7ef7eb-23f7-49ef-812d-ff1b1d4fcea0"},"geometry":{"type":"Polygon","coordinates":[[[139.77497510436882,35.6207861803767],[139.7749151059621,35.62086078562545],[139.77469065177473,35.620739990718846],[139.7747361743344,35.62068501962767],[139.77484586396864,35.6207430317078],[139.7748180210364,35.620775377757276],[139.77488158146508,35.620812103820015],[139.77492456400753,35.62075831223475],[139.77497510436882,35.6207861803767]]]}},{"type":"Feature","properties":{"height":3.8,"gml_id":"bldg_e58eaa04-046b-4b15-80da-d3c1e7abdfff"},"geometry":{"type":"Polygon","coordinates":[[[139.77237076003382,35.62159734121916],[139.7723612920392,35.62159215258823],[139.77237238600256,35.62157863839425],[139.7723812360357,35.6215834922995],[139.7723908275097,35.62157143667888],[139.77238295957923,35.62156713311334],[139.77239648447093,35.62155067173084],[139.77240414273132,35.62155486702381],[139.7724131593221,35.62154389276738],[139.77240438652717,35.62153909298633],[139.77241720424996,35.621523461415364],[139.7724824319202,35.62155916110664],[139.77248011227834,35.62156092664104],[139.77248432837206,35.62156226281375],[139.77226280243212,35.62183208717518],[139.7722046259964,35.62180023893804],[139.77221494653236,35.62178766090105],[139.7722055557811,35.62178250024],[139.7722188818618,35.62176626412234],[139.77222821744155,35.62177138869916],[139.77223791917086,35.62175957742119],[139.77222879324145,35.621754587257136],[139.77224094803574,35.62173977472425],[139.77224948911473,35.621744439192476],[139.77225883757228,35.62173262683227],[139.7722515213851,35.62172862099352],[139.77226449383892,35.62171283538168],[139.7722715451855,35.62171669686453],[139.77228031885323,35.62170583967472],[139.77227216399666,35.62170139173572],[139.77228515856223,35.62168555204996],[139.7722932692734,35.62168998193808],[139.77230229695465,35.62167898065441],[139.77229444005798,35.621674677088755],[139.77230769979698,35.621658531065414],[139.77231631810704,35.62166324965092],[139.7723259977038,35.62165147440963],[139.77231718077908,35.62164662862956],[139.77232988801111,35.62163116737316],[139.77233842908373,35.62163583183514],[139.772346650106,35.62162583067214],[139.77233774488627,35.621620958708824],[139.77235150185263,35.62160419999341],[139.7723606608714,35.62160921630506],[139.77237076003382,35.62159734121916]]]}},{"type":"Feature","properties":{"height":4.3,"gml_id":"bldg_555514ef-3e7b-4232-800f-f1a64148820c"},"geometry":{"type":"Polygon","coordinates":[[[139.77238282338013,35.62078642921796],[139.77241261795555,35.62080212831154],[139.77244140218372,35.62084000085288],[139.77239974349018,35.62089271056343],[139.7722803445509,35.620829643606804],[139.7723250972749,35.62077305956661],[139.77238282338013,35.62078642921796]]]}},{"type":"Feature","properties":{"height":3.9,"gml_id":"bldg_a00482f5-639c-437c-860d-672429a25620"},"geometry":{"type":"Polygon","coordinates":[[[139.7682491207073,35.62485535171346],[139.76824299662454,35.624919616805435],[139.76821937219214,35.62491816183142],[139.76822549629364,35.62485389674062],[139.7682491207073,35.62485535171346]]]}},{"type":"Feature","properties":{"height":7.3,"gml_id":"bldg_db5f9d55-bfd5-44c2-8d6b-86bbbad1f3fb"},"geometry":{"type":"Polygon","coordinates":[[[139.7682828619788,35.624906117635604],[139.76827596358527,35.62497227520884],[139.76824339738783,35.624970004168595],[139.768250406208,35.624903846656856],[139.7682828619788,35.624906117635604]]]}},{"type":"Feature","properties":{"height":19.0,"gml_id":"bldg_6462cca2-6505-4e57-9e05-7107693b3c73"},"geometry":{"type":"Polygon","coordinates":[[[139.77330205260242,35.6211149933129],[139.77332246580633,35.62112816364015],[139.77333945354576,35.62114565888557],[139.77334805128356,35.62116314995164],[139.7733512383971,35.621182350946796],[139.77316294968983,35.621416976583355],[139.77302604510098,35.62158330299719],[139.77300352246942,35.62158590572515],[139.772984312987,35.621586796583955],[139.77294898773403,35.621585067162705],[139.7729232748182,35.6215727945952],[139.77290087702616,35.62155619886086],[139.77288488678846,35.62153347604768],[139.7728783919152,35.621508955235996],[139.77295662105413,35.62141687336354],[139.77321010156953,35.62110449144667],[139.77322721208512,35.621105401364616],[139.77324432327538,35.62110540989979],[139.77327103820525,35.62110623356175],[139.77330205260242,35.6211149933129]]]}},{"type":"Feature","properties":{"height":29.6,"gml_id":"bldg_b801f592-fda3-46d6-8659-07514f110326"},"geometry":{"type":"Polygon","coordinates":[[[139.77124406925589,35.617119750964704],[139.7714129035452,35.61691297084316],[139.77179910421643,35.61712319053771],[139.7710102852348,35.618089246021256],[139.77062408199123,35.617879023829474],[139.7707233072127,35.61775756925068],[139.77124406925589,35.617119750964704]]]}},{"type":"Feature","properties":{"height":5.6,"gml_id":"bldg_1c67c364-4fa0-4038-a7a5-493ef356fced"},"geometry":{"type":"Polygon","coordinates":[[[139.77058857509346,35.61797067580696],[139.77064275387897,35.61800008903401],[139.77042606888716,35.618267145458745],[139.77037343250566,35.6182415187421],[139.77058857509346,35.61797067580696]]]}},{"type":"Feature","properties":{"height":7.5,"gml_id":"bldg_f8f6bb5a-6718-42d3-a2bd-e813dbcd35b5"},"geometry":{"type":"Polygon","coordinates":[[[139.77306332831586,35.62074260389663],[139.7731414974857,35.62065413639878],[139.77318944391058,35.6206806519229],[139.77317568770943,35.620696833853415],[139.7731941381716,35.620706794307814],[139.77312923280547,35.62078654310206],[139.77310772429544,35.62077673434399],[139.77306861019457,35.620822712244475],[139.77303891533188,35.62080635535508],[139.7730455450758,35.62079825525991],[139.7729886507145,35.62076499286984],[139.77302546765816,35.62072031183333],[139.77306332831586,35.62074260389663]]]}},{"type":"Feature","properties":{"height":3.8,"gml_id":"bldg_4d753ebb-fa6d-4ba1-b35c-a97b54e112f3"},"geometry":{"type":"Polygon","coordinates":[[[139.77267173916,35.62104603656577],[139.77266565076107,35.621053515861306],[139.7726452029992,35.62104241858084],[139.77265089359634,35.62103544476053],[139.772638203412,35.62102855181983],[139.7726328332517,35.62103513820727],[139.77261336761634,35.62102456421698],[139.77261879302932,35.62101790574777],[139.77260550712148,35.621010480688795],[139.77260000434987,35.6210172472841],[139.77257994283008,35.621006358406134],[139.77258498150957,35.62100016755999],[139.77257196028896,35.620993094169215],[139.77256698791453,35.62099919400881],[139.7725473567729,35.62098852978625],[139.77255271589758,35.62098194339699],[139.77253854705037,35.62097424656957],[139.7725331547787,35.62098086989809],[139.77251347950863,35.62097017860629],[139.77251866183363,35.62096381657308],[139.77250538681895,35.62095660874123],[139.7724999945464,35.62096323116691],[139.77247984477282,35.6209522962572],[139.7724850823437,35.620945872058066],[139.77247310945862,35.620939367055826],[139.77246863431998,35.62094485420371],[139.77244910251193,35.620934253111876],[139.7724927379179,35.620880670043555],[139.77282567300935,35.621061447358144],[139.77278602668176,35.621110120025534],[139.77277031289415,35.62110158506644],[139.77276583776674,35.62110707222522],[139.77274646037145,35.621096552383726],[139.77275185263946,35.621089920933365],[139.7727385334462,35.62108268516235],[139.7727330306876,35.62108944274985],[139.77271251670444,35.62107830037851],[139.77271763272873,35.621072011315334],[139.7727038059299,35.62106450487085],[139.77269852417004,35.621070983139994],[139.77267863918078,35.621060192617875],[139.77268451763035,35.62105297641917],[139.77267173916,35.62104603656577]]]}},{"type":"Feature","properties":{"height":18.1,"gml_id":"bldg_44ffb68c-8025-4b09-b5ea-5cbf9684d530"},"geometry":{"type":"Polygon","coordinates":[[[139.77106137019422,35.61968913358274],[139.77104965723257,35.61970372989873],[139.77102615320507,35.619691278689984],[139.77103775577638,35.619676682319195],[139.77106137019422,35.61968913358274]]]}},{"type":"Feature","properties":{"height":3.1,"gml_id":"bldg_55f8d392-df42-404b-9322-85640aa1579b"},"geometry":{"type":"Polygon","coordinates":[[[139.77395289910675,35.61996142225833],[139.77393026595996,35.619949917594134],[139.77394910627,35.61992521191969],[139.77397173941318,35.61993671567898],[139.77395289910675,35.61996142225833]]]}},{"type":"Feature","properties":{"height":4.5,"gml_id":"bldg_6ae040b3-ea88-4d3f-9b76-a6afe1ef3ded"},"geometry":{"type":"Polygon","coordinates":[[[139.7724857718171,35.6199774018565],[139.77278216720862,35.62013781669236],[139.77278911764756,35.620143589022526],[139.77279750014563,35.620153418285526],[139.77280024714412,35.620170455763294],[139.77279836148816,35.62018235304276],[139.7727891915576,35.62019199320992],[139.77277527585818,35.62020009864375],[139.77275794087905,35.6202043264194],[139.77274083035687,35.620203686849],[139.7727233926671,35.62019772896476],[139.7724329552672,35.6200414633494],[139.77242622715292,35.620033708073166],[139.77242104652825,35.62002333957445],[139.7724188495302,35.62000900740966],[139.77242062532414,35.61999647821229],[139.77242692423226,35.61998791827858],[139.77243797066203,35.61997855040274],[139.77245343063302,35.61997206737204],[139.7724654641084,35.61997126220911],[139.7724857718171,35.6199774018565]]]}},{"type":"Feature","properties":{"height":7.3,"gml_id":"bldg_2a2ec432-2b6d-4cf3-b07f-f48fffbe4ca1"},"geometry":{"type":"Polygon","coordinates":[[[139.7747141609784,35.6244071514369],[139.77468738677453,35.624410383375526],[139.7746630492593,35.62441790706458],[139.77464126109479,35.62442662181253],[139.77461923346274,35.62444576540866],[139.77460683942968,35.62444054037655],[139.7746089592157,35.62442528104312],[139.77461452448773,35.62440861723583],[139.7746264041953,35.624392506347235],[139.77465220551005,35.624376041686915],[139.77467811096622,35.62436813116989],[139.77470630841196,35.62436612580295],[139.77473441947538,35.624376594588064],[139.77475684377177,35.624388720944154],[139.77476609901566,35.624398676681125],[139.7747688437846,35.62440440177965],[139.77477506471894,35.624412067436566],[139.7747739144635,35.62441495039273],[139.77473677140304,35.624406279083395],[139.7747141609784,35.6244071514369]]]}},{"type":"Feature","properties":{"height":7.9,"gml_id":"bldg_c91bf6e7-2a15-4e9b-b27d-2691ca44d225"},"geometry":{"type":"Polygon","coordinates":[[[139.7721053935785,35.62129028655023],[139.7719202762336,35.62151588001649],[139.7717360374046,35.621415083720734],[139.77192115503314,35.62118949143544],[139.7721053935785,35.62129028655023]]]}},{"type":"Feature","properties":{"height":28.4,"gml_id":"bldg_d23e2b49-b343-4e07-b915-9331ce42819c"},"geometry":{"type":"Polygon","coordinates":[[[139.7710102852348,35.618089246021256],[139.77094752364854,35.61816610135041],[139.77064275387897,35.61800008903401],[139.77058857509346,35.61797067580696],[139.77056021678897,35.617955247418244],[139.77062408199123,35.617879023829474],[139.7710102852348,35.618089246021256]]]}},{"type":"Feature","properties":{"height":44.7,"gml_id":"bldg_f83e8b04-2f4f-4fff-9110-2079f32ac1b5"},"geometry":{"type":"Polygon","coordinates":[[[139.77524794108214,35.62120250673792],[139.77428866340614,35.62067788755889],[139.77429261924823,35.6206728147238],[139.77422629900119,35.62063655571379],[139.77443694398013,35.62060391170518],[139.7750266598141,35.620921304281765],[139.7750718626718,35.6208655487094],[139.775120969062,35.620891982900936],[139.77508616348968,35.620935142216005],[139.77506133432948,35.620921879913254],[139.77504763697058,35.62093350109902],[139.7752751805385,35.621058100652526],[139.77532351544568,35.62123587620661],[139.77525178948704,35.62119329558124],[139.77524794108214,35.62120250673792]]]}},{"type":"Feature","properties":{"height":3.9,"gml_id":"bldg_471fa00c-e333-49d5-a0db-1e458e44535e"},"geometry":{"type":"Polygon","coordinates":[[[139.77027558631298,35.62447965341083],[139.77018884965693,35.6244321935824],[139.77022487433499,35.62438831614505],[139.77031161096644,35.6244357741451],[139.77027558631298,35.62447965341083]]]}},{"type":"Feature","properties":{"height":4.7,"gml_id":"bldg_7934962e-ce11-47c6-8970-8dfbf452df31"},"geometry":{"type":"Polygon","coordinates":[[[139.7747800367817,35.618818380266305],[139.77475408387608,35.61880299910432],[139.77485035467313,35.618684117656336],[139.77483012790913,35.61867313802927],[139.77492937113493,35.61854989527429],[139.77497704102254,35.618576265741],[139.7747800367817,35.618818380266305]]]}},{"type":"Feature","properties":{"height":4.3,"gml_id":"bldg_6be32f07-2a31-4225-b28a-794424e8eb91"},"geometry":{"type":"Polygon","coordinates":[[[139.7686705178089,35.62334648787316],[139.7686337636763,35.62333610226742],[139.76860750075994,35.62332148579964],[139.76860321718408,35.6232942618123],[139.76866059542735,35.62319270706194],[139.76868489762975,35.623201860101474],[139.76870907842925,35.62321097701576],[139.76873633840142,35.62322124934299],[139.76875760559784,35.62322926500129],[139.76870019436063,35.62333078372437],[139.76869823753364,35.62333424397505],[139.7686705178089,35.62334648787316]]]}},{"type":"Feature","properties":{"height":3.8,"gml_id":"bldg_0e974f3d-d3bb-4ea3-bf8c-8b8c75c03092"},"geometry":{"type":"Polygon","coordinates":[[[139.77259171294384,35.62110584882599],[139.7725790337929,35.62109895588469],[139.7725736636231,35.62110554226942],[139.77255419797848,35.62109496826967],[139.77255974494452,35.62108816564361],[139.77254633748714,35.621080884737786],[139.77254082366625,35.62108765132472],[139.77252077317638,35.62107676244259],[139.77252581186488,35.621070571599034],[139.7725127795986,35.62106349819636],[139.77250781825478,35.62106959803899],[139.77248818710382,35.62105893380691],[139.77249354623805,35.62105234742038],[139.77247937738412,35.621044650586065],[139.77247398510283,35.62105127391185],[139.77245430982344,35.621040582610505],[139.77245949215765,35.621034220579915],[139.77244620609721,35.62102701273607],[139.77244081381505,35.621033635159],[139.77242067507137,35.62102270024511],[139.77242591265156,35.62101627604861],[139.77241393976078,35.62100977104058],[139.77240946461419,35.621015258186176],[139.77238993279684,35.62100465708488],[139.77243356828058,35.62095107403867],[139.7727665035295,35.62113185241621],[139.77272685713197,35.6211805241621],[139.7727111433369,35.621171989195396],[139.77270666820152,35.621177476351896],[139.77268729079637,35.62116695740239],[139.77269268307467,35.62116032505337],[139.77267936387506,35.62115308927588],[139.77267386111347,35.62115983784678],[139.77265334711444,35.62114870357792],[139.77265846314717,35.62114241541871],[139.77264463634177,35.62113490896753],[139.7726393545725,35.62114138723398],[139.7726194695738,35.62113059670223],[139.77262534803455,35.62112337960514],[139.7726125695567,35.62111644154829],[139.77260647010814,35.62112391993379],[139.77258603337603,35.62111282264898],[139.77259171294384,35.62110584882599]]]}},{"type":"Feature","properties":{"height":3.9,"gml_id":"bldg_b4d7cd49-e276-4de8-ae61-120bfa7156e0"},"geometry":{"type":"Polygon","coordinates":[[[139.7727314409603,35.62132361163398],[139.77272336337361,35.62131919080557],[139.7727368881606,35.621302720370245],[139.77274454641517,35.62130691564175],[139.77275356293163,35.62129594135933],[139.77274479014335,35.62129114160286],[139.77275761879366,35.6212755181129],[139.772825903087,35.62131290563962],[139.77260321876736,35.621584136211034],[139.7725450313363,35.62155228813143],[139.7725553628266,35.62153971007025],[139.77254596102995,35.6215345665562],[139.77255932010493,35.62151834934579],[139.77256862258636,35.621523437824536],[139.7725783242295,35.62151163463099],[139.77256919831316,35.621506636380126],[139.7725813640467,35.62149182381773],[139.77258989407278,35.62149649727025],[139.77259948522567,35.621484811198734],[139.77259193730933,35.621480679070395],[139.77260489862348,35.62146488440179],[139.77261196100423,35.62146874587042],[139.77262082286737,35.621457951796415],[139.772612568709,35.62145344073361],[139.77262557420005,35.62143761002973],[139.77263367385865,35.621442048903376],[139.77264271251175,35.62143103858541],[139.77263484458152,35.62142673503621],[139.77264810421116,35.62141058897464],[139.7726567335535,35.62141530844293],[139.77266641307864,35.62140352235716],[139.772657585106,35.62139869642662],[139.7726702922476,35.62138321620458],[139.77267883330006,35.62138789867024],[139.7726870542688,35.621377878554526],[139.77267816009405,35.621373008424506],[139.7726919059012,35.62135625777629],[139.77270130768028,35.62136140939153],[139.77271116399396,35.62134939894727],[139.77270169599902,35.62134422025804],[139.77271280091108,35.62133070513624],[139.7727216399116,35.62133554098352],[139.7727314409603,35.62132361163398]]]}},{"type":"Feature","properties":{"height":28.9,"gml_id":"bldg_b782a8bb-c96f-49a5-8556-0285b4c91677"},"geometry":{"type":"Polygon","coordinates":[[[139.77472464660417,35.6201589952293],[139.7747552749753,35.62012157577815],[139.77481345127492,35.62015333265433],[139.77478282291875,35.62019075212008],[139.77472464660417,35.6201589952293]]]}},{"type":"Feature","properties":{"height":4.8,"gml_id":"bldg_36229c4e-b972-4057-95f0-3fd094b62454"},"geometry":{"type":"Polygon","coordinates":[[[139.7686705178089,35.62334648787316],[139.7686805616911,35.62334937768045],[139.76871820431248,35.62335318367203],[139.76875276224783,35.623348965713525],[139.76876199523068,35.623399267684235],[139.76874002466667,35.623400969431025],[139.76869851533905,35.62340058571576],[139.76865137949193,35.62339551268932],[139.76860270556259,35.62338115460081],[139.76855558739874,35.62335417800459],[139.7685177463212,35.623322698578065],[139.76849216211684,35.62328789243222],[139.76854605418563,35.62326565733017],[139.7685592875204,35.623283511776236],[139.76859138987328,35.6233125525766],[139.76860750075994,35.62332148579964],[139.7686337636763,35.62333610226742],[139.7686705178089,35.62334648787316]]]}},{"type":"Feature","properties":{"height":52.6,"gml_id":"bldg_06007ca9-04e9-48a7-857e-98b1da04e6b1"},"geometry":{"type":"Polygon","coordinates":[[[139.76883949532962,35.62196851199201],[139.7688788267565,35.62199935124006],[139.76893077959906,35.622040076352995],[139.76891727042704,35.62204971390258],[139.7688662108016,35.62201022415315],[139.76882658115312,35.62197957403128],[139.76880367715827,35.62196187668008],[139.76868821896363,35.621873398368514],[139.76862569719805,35.6218242756212],[139.7686231265746,35.62182229120333],[139.76857484746577,35.62178496613578],[139.76853437954964,35.62175367458461],[139.76852586231334,35.62174709082675],[139.76881496806408,35.62149783398302],[139.76882463269163,35.62150531160325],[139.76886073164644,35.62153322865554],[139.76891219914737,35.621573070166804],[139.76900018004036,35.621633554746026],[139.76910343429657,35.62171475211553],[139.76911855889037,35.62172807356866],[139.76915526304134,35.621758722037455],[139.76920111334607,35.621796487256375],[139.76918686243644,35.621808828583454],[139.76913956498984,35.6217722614243],[139.7691014689021,35.621742802031086],[139.76883949532962,35.62196851199201]]]}},{"type":"Feature","properties":{"height":13.2,"gml_id":"bldg_a740e904-2183-4dec-bb68-f00cc2afd4a5"},"geometry":{"type":"Polygon","coordinates":[[[139.77375507632127,35.61818762313628],[139.773784428031,35.61820414193492],[139.77369128689048,35.6183141445842],[139.77367308142186,35.61830196782737],[139.77359750746393,35.618391447441],[139.7735893386612,35.61839126221312],[139.77345162681405,35.61831582937542],[139.773355252334,35.61829047967124],[139.77265552771553,35.61791122474451],[139.7726979976073,35.617863779392856],[139.77339152132387,35.61823864126502],[139.77360532046572,35.6179793389623],[139.77368476814735,35.618024447377664],[139.7736117315803,35.61811644221261],[139.7736313716806,35.61812915240619],[139.77369974298733,35.61807601379179],[139.77372746187282,35.61806141611938],[139.77375219812362,35.618049620261054],[139.7737819025438,35.61803701561023],[139.77383788637266,35.61801568954807],[139.77388470209695,35.61800201166264],[139.7739091022008,35.617996885826656],[139.77375507632127,35.61818762313628]]]}},{"type":"Feature","properties":{"height":3.8,"gml_id":"bldg_1e405318-deea-4292-932b-d3bed268e2ec"},"geometry":{"type":"Polygon","coordinates":[[[139.77107057374053,35.61963631741902],[139.77103952422823,35.619673888952775],[139.77102120685404,35.619663784014854],[139.77105214597825,35.61962621242869],[139.77107057374053,35.61963631741902]]]}},{"type":"Feature","properties":{"height":3.3,"gml_id":"bldg_a4d7b8dc-94c6-4221-99f7-9617e7873223"},"geometry":{"type":"Polygon","coordinates":[[[139.76847521832823,35.62195895109985],[139.76842335001533,35.62200522708442],[139.7683674792279,35.6219634720662],[139.76841934754597,35.62191719610536],[139.76847521832823,35.62195895109985]]]}},{"type":"Feature","properties":{"height":5.4,"gml_id":"bldg_a80f167d-0f07-4843-9328-99a19209ec6d"},"geometry":{"type":"Polygon","coordinates":[[[139.7706153706297,35.62168437891433],[139.770548957792,35.62176763188964],[139.77044511864798,35.62171241324196],[139.77051153161798,35.62162907018515],[139.7706153706297,35.62168437891433]]]}},{"type":"Feature","properties":{"height":3.7,"gml_id":"bldg_084d08a9-0a62-4735-8e36-374ac83b4be0"},"geometry":{"type":"Polygon","coordinates":[[[139.7713260165498,35.6226473400192],[139.77141374372042,35.622697141337866],[139.77138147860742,35.622734982729504],[139.77129375141556,35.622685181387645],[139.7713260165498,35.6226473400192]]]}},{"type":"Feature","properties":{"height":3.6,"gml_id":"bldg_98282536-3d94-48ab-b14f-3f2ffd9a95fc"},"geometry":{"type":"Polygon","coordinates":[[[139.76816821112644,35.62238940194435],[139.7681432605596,35.62239056024124],[139.7681394437248,35.62233259941178],[139.7681642838041,35.62233153119395],[139.76816821112644,35.62238940194435]]]}},{"type":"Feature","properties":{"height":3.9,"gml_id":"bldg_2377c093-bec1-478c-8828-5c7312a0ab79"},"geometry":{"type":"Polygon","coordinates":[[[139.7725453318555,35.621198956085294],[139.77255300112964,35.6212031513746],[139.7725620066211,35.62119217710076],[139.7725532338556,35.62118737733031],[139.77256606252655,35.62117175386048],[139.77263435768938,35.6212091315866],[139.77241166197146,35.62148036270411],[139.77235347469096,35.621448515432974],[139.77236377309367,35.62143591844229],[139.7723544044256,35.621430793858956],[139.7723677414573,35.621414557729395],[139.77237707701258,35.62141967328114],[139.77238676763864,35.62140786108345],[139.77237764173915,35.6214028718318],[139.77238980749908,35.62138805027474],[139.77239834854254,35.621392723746446],[139.772407939704,35.62138104670379],[139.7724003807739,35.621376906445406],[139.7724133531423,35.62136111991515],[139.77242040446518,35.621364981389476],[139.77242926634256,35.62135418732939],[139.77242102325198,35.62134966724517],[139.7724340177244,35.62133383655614],[139.77244211736195,35.62133827544272],[139.77245115602958,35.62132726513895],[139.77244329915246,35.621322970596566],[139.77245655880955,35.6213068164434],[139.77246517708448,35.62131154313093],[139.77247485663136,35.62129974894795],[139.77246603972185,35.62129492210751],[139.77247874687635,35.6212794518206],[139.77248728791344,35.621284125286095],[139.7724955088879,35.62127411509847],[139.77248660369813,35.62126924314592],[139.7725003605731,35.62125248441246],[139.7725097623277,35.62125763604269],[139.7725196186504,35.62124563462771],[139.7725101506869,35.62124044690955],[139.7725212445773,35.621226931799626],[139.7725300945875,35.6212317766804],[139.7725398846193,35.621219838326894],[139.77253181809377,35.62121541658975],[139.7725453318555,35.621198956085294]]]}},{"type":"Feature","properties":{"height":3.7,"gml_id":"bldg_eb4e2bde-580b-446d-9f2f-35f5c82cbe34"},"geometry":{"type":"Polygon","coordinates":[[[139.77125052133727,35.619483986764564],[139.77117670985942,35.61957345583329],[139.7711241852876,35.61954458543747],[139.77119788647522,35.61945502530415],[139.77125052133727,35.619483986764564]]]}},{"type":"Feature","properties":{"height":4.1,"gml_id":"bldg_1d5fa2c1-e666-4367-94db-fb2b51eb46d5"},"geometry":{"type":"Polygon","coordinates":[[[139.76910065320342,35.62138233859508],[139.7690625408398,35.62141485901195],[139.76900796822252,35.62146152140378],[139.76894817142056,35.62141479794776],[139.76893184319465,35.62140198961617],[139.76902452810882,35.62132289790467],[139.76910065320342,35.62138233859508]]]}},{"type":"Feature","properties":{"height":4.6,"gml_id":"bldg_f20288f4-fad8-4639-bdcf-3efed916a052"},"geometry":{"type":"Polygon","coordinates":[[[139.77080835015124,35.61855398362731],[139.77083692956737,35.6185693219328],[139.7708117358704,35.61860076706081],[139.77078315644795,35.618585428749434],[139.77080835015124,35.61855398362731]]]}},{"type":"Feature","properties":{"height":18.0,"gml_id":"bldg_45d184c8-40e9-4239-91be-2c9fe29fc4be"},"geometry":{"type":"Polygon","coordinates":[[[139.77278415795138,35.62452627879345],[139.77268010174782,35.624459353057276],[139.77275114410912,35.62438573702676],[139.77285520033098,35.62445259059198],[139.77278415795138,35.62452627879345]]]}},{"type":"Feature","properties":{"height":3.8,"gml_id":"bldg_8d04a782-10e7-4a46-a2a9-91c14a452a1a"},"geometry":{"type":"Polygon","coordinates":[[[139.77220546429277,35.62162710217977],[139.7721976074132,35.621622789593964],[139.77221085612354,35.62160664357556],[139.77221948546187,35.621611362173624],[139.7722289774704,35.62159948679163],[139.77222034814653,35.62159475016664],[139.77223305540267,35.62157927089271],[139.7722415964573,35.6215839443754],[139.7722498064467,35.62157394321332],[139.7722409122782,35.621569071248416],[139.77225466925512,35.621552313445314],[139.77226381722306,35.62155732885737],[139.7722739274328,35.62154545378509],[139.77226445944302,35.62154027506169],[139.7722755534162,35.62152675997513],[139.77228440345144,35.621531595859935],[139.77229399492688,35.62151954926073],[139.7722861270067,35.62151524568884],[139.77229964087,35.62149878431149],[139.7723073101667,35.62150297060243],[139.77231631571854,35.62149200536137],[139.7723075429419,35.62148719655944],[139.77232037170856,35.621471573116665],[139.7723869124426,35.62150800544591],[139.77238589586244,35.621509247935535],[139.7723877060586,35.6215096274311],[139.77238229367103,35.62151359978167],[139.77238471119892,35.62151377226697],[139.7721659696182,35.62178019965615],[139.77210778221894,35.62174835136644],[139.77211808069796,35.62173575529884],[139.77210871202445,35.62173061266903],[139.7721220381092,35.62171438557576],[139.77213137369048,35.621719492132506],[139.77214107541468,35.62170769798847],[139.77213194951023,35.62170269069083],[139.77214411534717,35.62168788718699],[139.77215264537548,35.621692551656515],[139.77216199384807,35.62168073028992],[139.77215468869696,35.621676741577105],[139.772167650128,35.62166094785752],[139.77217471250495,35.62166480935168],[139.7721834751405,35.62165395216322],[139.77217533133413,35.62164950422325],[139.7721883259104,35.6216336645478],[139.77219642557142,35.62163809443688],[139.77220546429277,35.62162710217977]]]}},{"type":"Feature","properties":{"height":4.0,"gml_id":"bldg_cb1f4df3-2ebc-43af-966f-e9cf9fadda06"},"geometry":{"type":"Polygon","coordinates":[[[139.7728479675575,35.62008609155461],[139.7728642435375,35.620066126026366],[139.77354992879197,35.620438558210296],[139.77353136564534,35.620461353931795],[139.7728479675575,35.62008609155461]]]}},{"type":"Feature","properties":{"height":3.1,"gml_id":"bldg_f59cfe0a-bafd-4162-a460-86535ef1b535"},"geometry":{"type":"Polygon","coordinates":[[[139.7749623702781,35.62023182502558],[139.77490937921195,35.62020439736414],[139.77492740130847,35.62018114957505],[139.7749803813189,35.6202085871385],[139.7749623702781,35.62023182502558]]]}},{"type":"Feature","properties":{"height":3.6,"gml_id":"bldg_9e8b1749-658b-4497-8dcd-17081576ad09"},"geometry":{"type":"Polygon","coordinates":[[[139.77101596384912,35.61973408901219],[139.770926568399,35.619846804587205],[139.7708972158992,35.619831287431985],[139.77098661137455,35.6197185700757],[139.77101596384912,35.61973408901219]]]}},{"type":"Feature","properties":{"height":3.5,"gml_id":"bldg_1db1dfa3-173e-4ea5-a9e8-f8a4603b2ff6"},"geometry":{"type":"Polygon","coordinates":[[[139.76820404906798,35.62243989862872],[139.76817435194403,35.62244042339972],[139.76817306872002,35.62238922429551],[139.76820276582433,35.62238870042618],[139.76820404906798,35.62243989862872]]]}},{"type":"Feature","properties":{"height":6.0,"gml_id":"bldg_30b4f79e-7225-400b-9e98-ebbfa62cee70"},"geometry":{"type":"Polygon","coordinates":[[[139.77470059864845,35.62090587665672],[139.77466134895192,35.62095729033343],[139.77461157951538,35.62093193728859],[139.77465172434842,35.62087926213086],[139.77470059864845,35.62090587665672]]]}},{"type":"Feature","properties":{"height":25.0,"gml_id":"bldg_3472ec5e-7fca-4312-9d82-243617a3d613"},"geometry":{"type":"Polygon","coordinates":[[[139.77144161321385,35.62472460329292],[139.77141754668753,35.624723788698745],[139.77141790496998,35.62471729894591],[139.77139479917406,35.62471616034407],[139.77139338919392,35.624740722227806],[139.77139758418355,35.624740985784705],[139.77139653300955,35.6247583818808],[139.7712228233271,35.624752613757636],[139.7712238201404,35.624734181047884],[139.7712263371859,35.6247342715821],[139.77122768973018,35.62471266709893],[139.77120535640103,35.624711962422815],[139.77120514362997,35.624715855373886],[139.7711805251868,35.62471494129595],[139.77118078285207,35.62471010101756],[139.7711582398839,35.62470924208854],[139.77115792618702,35.62471515498034],[139.77113021654515,35.62471424831058],[139.77113091096467,35.62470141301601],[139.77113325137577,35.624701495348546],[139.77113482567302,35.62467869124382],[139.771112172105,35.62467810266315],[139.7711119143938,35.62468299702421],[139.77108668874254,35.6246821096549],[139.77108691291622,35.624677756104646],[139.77106485566713,35.62467696140712],[139.77106456435163,35.62468247680162],[139.77103940489195,35.62468165255322],[139.77103970751554,35.62467579373879],[139.7710174073819,35.62467500701941],[139.77101708246693,35.62468113623629],[139.7709916028631,35.62468029378472],[139.7709919165301,35.62467443497612],[139.77096957227243,35.62467360315604],[139.77096926976273,35.62467930873573],[139.77094426488495,35.624678458407466],[139.77094457877317,35.62467231926989],[139.7709296421035,35.62467178873361],[139.7709303819665,35.62460050797504],[139.77102322947792,35.624598663132446],[139.77102147819056,35.6245791924154],[139.77102231092024,35.62450194456647],[139.77117929867987,35.62450234114112],[139.77120410491304,35.62451729881912],[139.77121386112995,35.62452130597783],[139.771236366194,35.624528285248196],[139.7712446889766,35.62453002018756],[139.77126470257002,35.624532401129784],[139.77129304176202,35.62453287543033],[139.77131320349187,35.62452928029031],[139.77133252821582,35.6245230526861],[139.77134706336025,35.624514542122796],[139.7713553827902,35.624506316801984],[139.77155431944553,35.624510511243486],[139.77169835010415,35.62462106717993],[139.77170775061734,35.62462828302995],[139.77179046859004,35.62469177255968],[139.77178571699696,35.62478395518],[139.77175620788287,35.62478294858311],[139.77175787725628,35.624751103676374],[139.77176093524736,35.62475121340488],[139.77176228861626,35.62472834608255],[139.77173771426044,35.624727513265206],[139.77173743398183,35.624733092664925],[139.77169933599345,35.62473181124858],[139.77170003006003,35.62471931757361],[139.77170193992643,35.62471938254861],[139.7717031388488,35.62469638895463],[139.77168060685645,35.62469561125317],[139.77168027087595,35.624701839618],[139.7716559504346,35.624701024941515],[139.77165626410863,35.62469509402079],[139.77163450494274,35.62469428065116],[139.7716342135063,35.62470000426579],[139.77160810468834,35.624699061569174],[139.7716083623548,35.62469418613602],[139.77158605110105,35.624693489654184],[139.77158577111697,35.6246986724465],[139.77156046821028,35.62469774006777],[139.77156071481264,35.624692899782865],[139.77153941931323,35.624692104661406],[139.77153913919437,35.624697458715744],[139.77151420054517,35.62469660763835],[139.77151451422273,35.62469068573179],[139.7714901937518,35.62468991609085],[139.77148894020723,35.624712080384946],[139.77149278204078,35.6247121824102],[139.7714920322855,35.62472526916354],[139.77146500726738,35.624724164618556],[139.77146528738436,35.624718819578206],[139.7714419604266,35.624718149589526],[139.77144161321385,35.62472460329292]]]}},{"type":"Feature","properties":{"height":3.3,"gml_id":"bldg_86410485-d052-435c-8449-3f1175fef9bb"},"geometry":{"type":"Polygon","coordinates":[[[139.77285910151298,35.62106015713964],[139.77285576411717,35.62106477143496],[139.7728447396835,35.621059455866984],[139.7728487069811,35.62105397656272],[139.77284471214406,35.62105204740526],[139.7728588463263,35.62103252969333],[139.7728915554451,35.62104831125505],[139.77286438112665,35.62108584012535],[139.772853676725,35.62108066984113],[139.7728660869605,35.62106353180944],[139.77285910151298,35.62106015713964]]]}},{"type":"Feature","properties":{"height":1.4,"gml_id":"bldg_eb0a8fe3-95c6-4f44-954e-c072c7823389"},"geometry":{"type":"Polygon","coordinates":[[[139.77030545671653,35.61820966444956],[139.77031606505093,35.61819587886752],[139.77033780319726,35.61820715749891],[139.7703271949358,35.618220852944766],[139.77030545671653,35.61820966444956]]]}},{"type":"Feature","properties":{"height":4.1,"gml_id":"bldg_43c2a430-1485-44e3-a00a-39a8cc3698a9"},"geometry":{"type":"Polygon","coordinates":[[[139.77214254876574,35.62122281004275],[139.7721501849163,35.62122698731323],[139.77213653848446,35.62124359282814],[139.77212891337248,35.6212394155624],[139.77207066016996,35.62120753116344],[139.77229419603944,35.62093530055718],[139.77235244912606,35.620967194764575],[139.77234184143808,35.62098010618061],[139.7723494444713,35.620984265394235],[139.772335842314,35.62100082588581],[139.77232825031936,35.62099666667691],[139.772319344269,35.62100751479069],[139.77232701351303,35.62101171009447],[139.7723141627286,35.621027351555675],[139.77230649348374,35.621023156251084],[139.7722967807936,35.62103499457194],[139.77230435071743,35.621039145659175],[139.77229225130003,35.62105387710405],[139.77228468137477,35.621049726917434],[139.77227531123685,35.62106112463494],[139.77228251701774,35.621065067320046],[139.77226996454917,35.62108035738907],[139.7722627587675,35.621076414703204],[139.77225236098573,35.62108908284473],[139.77225953366397,35.62109300658542],[139.77224785411357,35.62110723436672],[139.77224068144218,35.62110330071016],[139.77223128917925,35.62111474258055],[139.7722388149767,35.62111885759426],[139.77222586470663,35.62113462518858],[139.77221833890766,35.62113051107545],[139.77220867040367,35.62114227820233],[139.77221616309163,35.62114638328544],[139.7722030802222,35.621162304044695],[139.77219559856604,35.62115820798018],[139.77218634993943,35.62116947144648],[139.7721940743695,35.62117369292666],[139.7721813782165,35.62118916318937],[139.77217365379315,35.62118493179321],[139.7721643167703,35.62119629256199],[139.7721716218714,35.62120029028831],[139.7721591246129,35.62121550826298],[139.7721518305499,35.6212115114429],[139.77214254876574,35.62122281004275]]]}},{"type":"Feature","properties":{"height":4.8,"gml_id":"bldg_6d3d6ce9-7f06-4183-b95e-3b5f7c01cc6f"},"geometry":{"type":"Polygon","coordinates":[[[139.76995900546774,35.62064519423996],[139.76992903116866,35.62064808091569],[139.7698971811214,35.62065115588635],[139.76986658745685,35.620654105317094],[139.76983535455875,35.62065711659846],[139.76981987315537,35.62055065627406],[139.7698511722711,35.62054761708873],[139.7698817537737,35.62054464061399],[139.7699136049046,35.62054153860648],[139.7699434135806,35.620538642833566],[139.76995900546774,35.62064519423996]]]}},{"type":"Feature","properties":{"height":4.8,"gml_id":"bldg_d5e0d637-eea0-44f4-9cea-bd588af6d2e2"},"geometry":{"type":"Polygon","coordinates":[[[139.7705414634287,35.61878595045081],[139.77051992699114,35.61879882897362],[139.77028786635032,35.61854109306934],[139.770173547966,35.618479919561345],[139.7701854860125,35.61845982502102],[139.7703041076115,35.618522172564454],[139.7705414634287,35.61878595045081]]]}},{"type":"Feature","properties":{"height":42.8,"gml_id":"bldg_96f44bb2-0603-4b2d-bb51-1509af68c5ab"},"geometry":{"type":"Polygon","coordinates":[[[139.77467101645325,35.61890567105751],[139.77437671781612,35.618747235886225],[139.7743947278991,35.61872507973767],[139.77433845033386,35.61869495508175],[139.77466716248787,35.61828769133351],[139.77467378346742,35.61829108375014],[139.77469119683423,35.61826950414889],[139.7748045349202,35.61833048360796],[139.7747871215706,35.61835206322537],[139.77499710262344,35.61846504503035],[139.77482915643168,35.6186731826266],[139.77484979155864,35.6186842796316],[139.77467101645325,35.61890567105751]]]}},{"type":"Feature","properties":{"height":12.4,"gml_id":"bldg_00d4f221-4d3e-4dd3-8494-08ac6586da6f"},"geometry":{"type":"Polygon","coordinates":[[[139.77138662198692,35.6243681873426],[139.771399078614,35.62439216955837],[139.7714053458652,35.624425254334035],[139.77139759559842,35.624454184653665],[139.77137968934477,35.62448211823235],[139.77135593649857,35.62450409969161],[139.77134761706893,35.62451232501249],[139.77133308192495,35.62452083557586],[139.77131375720157,35.62452706318015],[139.7712935954723,35.62453065832025],[139.77126525627412,35.624530193033664],[139.77124524268817,35.62452780307771],[139.7712369199058,35.624526068138394],[139.77121441484235,35.624519088868134],[139.7712046586257,35.62451508170946],[139.77117985239306,35.62450012403156],[139.77116639432973,35.62448633498518],[139.7711499603795,35.62446622572632],[139.77113728922996,35.62443422018943],[139.7711353256355,35.624403753427096],[139.7711468319412,35.62437175856754],[139.77116937599453,35.62434256638518],[139.7711955532326,35.624326264907744],[139.7712233811499,35.624316814765024],[139.77125286114656,35.62431241319624],[139.77127582515104,35.62431116309477],[139.77129304596062,35.62431306486227],[139.77131291468086,35.6243171313029],[139.77133873841922,35.62432967377852],[139.7713641155612,35.62434870595621],[139.77138662198692,35.6243681873426]]]}}]}