{"type":"FeatureCollection","crs":{"type":"name","properties":{"name":"urn:ogc:def:crs:OGC:1.3:CRS84"}},"features":[{"type":"Feature","properties":{"height":38.3,"gml_id":"bldg_65b6b2f6-1f53-4546-8a33-b60dcdc764d2"},"geometry":{"type":"Polygon","coordinates":[[[139.79038615915024,35.62202728055558],[139.7905521930461,35.62182344732478],[139.79105909618258,35.622098637484584],[139.7907274708061,35.62250585455527],[139.79022056623876,35.62223066301785],[139.79027690548747,35.62216145713487],[139.79038615915024,35.62202728055558]]]}},{"type":"Feature","properties":{"height":7.6,"gml_id":"bldg_6c504271-ffe9-4e8e-a0c9-94931f36d6bc"},"geometry":{"type":"Polygon","coordinates":[[[139.79412918744643,35.61740366095917],[139.79397777279698,35.61732185630958],[139.79429953061634,35.616924992619154],[139.79445094484618,35.61700679686954],[139.79412918744643,35.61740366095917]]]}},{"type":"Feature","properties":{"height":8.1,"gml_id":"bldg_b1745e5e-65fe-423c-a954-169167f36141"},"geometry":{"type":"Polygon","coordinates":[[[139.797107340503,35.617273712606114],[139.7970870453377,35.61723711041901],[139.79713253340677,35.61722026826292],[139.79715293901867,35.61725678033749],[139.797107340503,35.617273712606114]]]}},{"type":"Feature","properties":{"height":5.8,"gml_id":"bldg_e4a09210-8cc7-4428-b056-5d72b3c2bde8"},"geometry":{"type":"Polygon","coordinates":[[[139.79243628625946,35.61863420472429],[139.79160295310055,35.618186563505084],[139.79179935395268,35.617942897884575],[139.79263268568104,35.618390537762565],[139.79243628625946,35.61863420472429]]]}},{"type":"Feature","properties":{"height":36.4,"gml_id":"bldg_4261f2fc-a96d-40b5-8fae-11cdc41bc633"},"geometry":{"type":"Polygon","coordinates":[[[139.79019578268938,35.62377147393893],[139.7895504039427,35.62456166151953],[139.78917703558756,35.624355379590135],[139.7891736142014,35.62435357557556],[139.78915463122922,35.624343202742956],[139.78917363268772,35.62431995409806],[139.78917705734324,35.624315809003996],[139.78980067259332,35.62355653287742],[139.79019578268938,35.62377147393893]]]}},{"type":"Feature","properties":{"height":2.7,"gml_id":"bldg_8e617e6e-9a26-4bbd-89b9-3899d14d54c0"},"geometry":{"type":"Polygon","coordinates":[[[139.79185343078723,35.61925370497625],[139.79187804188902,35.61926606236702],[139.79184004077797,35.61931670690057],[139.7918153192742,35.6193043494641],[139.79185343078723,35.61925370497625]]]}},{"type":"Feature","properties":{"height":8.0,"gml_id":"bldg_df3d6605-90df-459f-ae85-bde5f211fb47"},"geometry":{"type":"Polygon","coordinates":[[[139.79648587776737,35.619132532785535],[139.79645376376288,35.61911052926157],[139.79648192627067,35.61908322603162],[139.79651392992122,35.61910513937635],[139.79648587776737,35.619132532785535]]]}},{"type":"Feature","properties":{"height":18.9,"gml_id":"bldg_dceba0ae-2543-4781-a81e-4b775ebc9245"},"geometry":{"type":"Polygon","coordinates":[[[139.78735234012362,35.6245760759945],[139.787287114235,35.62454071697784],[139.78722579923877,35.62461604891523],[139.78645434998253,35.624197510769434],[139.78651621774452,35.624121548468175],[139.78645353097886,35.624087542054916],[139.787736378325,35.622510979205956],[139.7877977400523,35.62254426335516],[139.78785131980194,35.62247839267591],[139.788626622646,35.62289890646007],[139.78857226996706,35.62296567857296],[139.78863495670578,35.62299977402819],[139.78735234012362,35.6245760759945]]]}},{"type":"Feature","properties":{"height":7.0,"gml_id":"bldg_a9daad77-3c48-49de-9c84-496e8a89bfcc"},"geometry":{"type":"Polygon","coordinates":[[[139.7911059720254,35.620079651136734],[139.79123013114713,35.620143512357025],[139.79114076193062,35.62025939867794],[139.791016602701,35.620195537366705],[139.7911059720254,35.620079651136734]]]}},{"type":"Feature","properties":{"height":29.2,"gml_id":"bldg_b7008e2a-72b9-436a-96eb-ef08c7022f9c"},"geometry":{"type":"Polygon","coordinates":[[[139.78833803405993,35.624296299173494],[139.78889538473342,35.62459513331891],[139.78885616606942,35.62464352296528],[139.7883026794836,35.62434414925693],[139.78833803405993,35.624296299173494]]]}},{"type":"Feature","properties":{"height":24.2,"gml_id":"bldg_5b4c7a09-4f35-4758-a4ae-79959fb3f45a"},"geometry":{"type":"Polygon","coordinates":[[[139.7881766560752,35.6246433603301],[139.78797238760063,35.62489026177088],[139.78832886960427,35.62508671606454],[139.78828920870683,35.62513519549498],[139.78825885792136,35.62511859874874],[139.78823289602875,35.62515031761409],[139.787886786282,35.624963241305466],[139.78790380151176,35.62493918087198],[139.7878833838238,35.62492799605694],[139.78813427472778,35.62462180145012],[139.7881766560752,35.6246433603301]]]}},{"type":"Feature","properties":{"height":40.1,"gml_id":"bldg_6871079a-d9bf-4e81-96c4-44096b620db3"},"geometry":{"type":"Polygon","coordinates":[[[139.78832886960427,35.62508671606454],[139.78797238760063,35.62489026177088],[139.7881766560752,35.6246433603301],[139.78820858325446,35.62460479321881],[139.7881194080237,35.62455563456258],[139.78817718626252,35.62448579926331],[139.78842870909526,35.6246245255545],[139.7882020096317,35.62490810519674],[139.78839161938077,35.62501093341656],[139.78832886960427,35.62508671606454]]]}},{"type":"Feature","properties":{"height":37.3,"gml_id":"bldg_140661ed-8f52-4689-95c7-ca24f84d7e20"},"geometry":{"type":"Polygon","coordinates":[[[139.78889538473342,35.62459513331891],[139.78833803405993,35.624296299173494],[139.78852617442502,35.62406237096684],[139.78908352422673,35.62436111411485],[139.78889538473342,35.62459513331891]]]}},{"type":"Feature","properties":{"height":5.7,"gml_id":"bldg_ea4c04f0-eaaf-4e39-85fa-63d936d72702"},"geometry":{"type":"Polygon","coordinates":[[[139.79259317054357,35.6190339302596],[139.79262984300922,35.61898986511902],[139.79267778215404,35.61893246332895],[139.79278681870093,35.6189930728814],[139.79273887959775,35.619050474714314],[139.7927468255891,35.61905489415852],[139.79271015315786,35.61909895933426],[139.79259317054357,35.6190339302596]]]}},{"type":"Feature","properties":{"height":13.0,"gml_id":"bldg_065f7865-d252-4ecc-8102-1804a6f63de8"},"geometry":{"type":"Polygon","coordinates":[[[139.7884534385642,35.62462462490718],[139.78817763302962,35.624476605352214],[139.78822204458814,35.62442145751808],[139.78849785001543,35.62456947697267],[139.7884534385642,35.62462462490718]]]}},{"type":"Feature","properties":{"height":31.5,"gml_id":"bldg_94840dac-3985-4e9f-8a92-e7f3905ea8df"},"geometry":{"type":"Polygon","coordinates":[[[139.78851490347446,35.62506992960518],[139.78821614118993,35.62490747952353],[139.78843809019256,35.62462966691797],[139.78873927868895,35.62479572287544],[139.78851490347446,35.62506992960518]]]}},{"type":"Feature","properties":{"height":3.6,"gml_id":"bldg_68b369df-2fd8-42e9-99b3-be4913640314"},"geometry":{"type":"Polygon","coordinates":[[[139.79907469724787,35.62375891225947],[139.7990379426421,35.62373997281421],[139.79905826714852,35.62371374842836],[139.7990951321455,35.62373268789886],[139.79907469724787,35.62375891225947]]]}},{"type":"Feature","properties":{"height":3.0,"gml_id":"bldg_25f9bc27-8af1-404a-b986-585e5e7cdb2a"},"geometry":{"type":"Polygon","coordinates":[[[139.79964820298994,35.62405634922094],[139.79969400817802,35.62408105984076],[139.79968914813398,35.62408700759398],[139.79970691835908,35.62409656718679],[139.7996728978469,35.624138652148716],[139.7996509333628,35.624126928065614],[139.79964750921783,35.62413116359588],[139.79962907674968,35.624121243256965],[139.799632611332,35.62411691762008],[139.79960943277413,35.62410447208547],[139.79964820298994,35.62405634922094]]]}},{"type":"Feature","properties":{"height":7.1,"gml_id":"bldg_5f36c366-300d-4ef3-93ed-c1d780da6cdc"},"geometry":{"type":"Polygon","coordinates":[[[139.7981504740622,35.62494396100954],[139.7981271853722,35.62493088419317],[139.79815281157468,35.62490033488952],[139.79817610025998,35.62491341170101],[139.7981504740622,35.62494396100954]]]}},{"type":"Feature","properties":{"height":4.8,"gml_id":"bldg_d09f270e-3e5e-49d0-bb78-d8c59025249f"},"geometry":{"type":"Polygon","coordinates":[[[139.79811910257192,35.62498469422972],[139.79809813132886,35.624973781397664],[139.7981161365901,35.62495089160478],[139.79813699739,35.62496189453949],[139.79811910257192,35.62498469422972]]]}},{"type":"Feature","properties":{"height":2.5,"gml_id":"bldg_08c5e51e-37c7-4786-b7c8-26d415d318fb"},"geometry":{"type":"Polygon","coordinates":[[[139.79054632548974,35.62351245208026],[139.7905413659309,35.623496766299766],[139.79058221773525,35.6234883078268],[139.79058706690347,35.623503993566466],[139.79054632548974,35.62351245208026]]]}},{"type":"Feature","properties":{"height":5.1,"gml_id":"bldg_2b5efc69-2f0f-49d8-9b09-7c8b7110f3ac"},"geometry":{"type":"Polygon","coordinates":[[[139.7979694273578,35.624922455153474],[139.79792932976417,35.62497319108299],[139.79786012500577,35.62493666482764],[139.79790022262486,35.624885928920854],[139.7979694273578,35.624922455153474]]]}},{"type":"Feature","properties":{"height":3.9,"gml_id":"bldg_74e0e907-63d5-494d-ac0c-0f9f5b19ae99"},"geometry":{"type":"Polygon","coordinates":[[[139.7906358427776,35.62146508803812],[139.790662661174,35.62147951963063],[139.79062432883563,35.62152682853559],[139.79059751043033,35.62151239693466],[139.7906358427776,35.62146508803812]]]}},{"type":"Feature","properties":{"height":25.5,"gml_id":"bldg_e6c34581-7d52-40ba-9bbc-aabc907bcc99"},"geometry":{"type":"Polygon","coordinates":[[[139.79580728892253,35.6177328389178],[139.79548161124393,35.61708644662609],[139.7953965799758,35.61691939391031],[139.7956605622767,35.61682978928683],[139.79610314980673,35.617700120421844],[139.79583298479818,35.6177864791046],[139.79580728892253,35.6177328389178]]]}},{"type":"Feature","properties":{"height":3.0,"gml_id":"bldg_243995a5-30ae-4c04-88c6-050900fd9f04"},"geometry":{"type":"Polygon","coordinates":[[[139.79125207815386,35.620184172303425],[139.7912748129934,35.62019607846978],[139.79120289903832,35.62028709281526],[139.79118016423098,35.62027509649742],[139.79125207815386,35.620184172303425]]]}},{"type":"Feature","properties":{"height":41.2,"gml_id":"bldg_0425e1cf-282e-4894-8157-1b6532dd64aa"},"geometry":{"type":"Polygon","coordinates":[[[139.78917324288219,35.62502888950209],[139.78900940855448,35.625229656837135],[139.788622241926,35.62501714861029],[139.7891302044683,35.624395023148864],[139.7891735784181,35.624418655217816],[139.78917699980704,35.624420459232354],[139.7895190243085,35.6246096035405],[139.78946102565783,35.62468070133429],[139.789176667568,35.625024744408556],[139.78917324288219,35.62502888950209]]]}},{"type":"Feature","properties":{"height":6.6,"gml_id":"bldg_95cb06ad-cd4b-4594-9c0c-32aa442954f8"},"geometry":{"type":"Polygon","coordinates":[[[139.79932150114894,35.62387012238823],[139.7996220487478,35.62403182435985],[139.799593220905,35.624064536396936],[139.79929432891615,35.62390355592635],[139.79932150114894,35.62387012238823]]]}},{"type":"Feature","properties":{"height":13.8,"gml_id":"bldg_3263cf5a-fd68-4a37-82b4-c175e292e547"},"geometry":{"type":"Polygon","coordinates":[[[139.79038615915024,35.62202728055558],[139.79027690548747,35.62216145713487],[139.790118642939,35.622076490418955],[139.7902292219855,35.621941413074865],[139.79038615915024,35.62202728055558]]]}},{"type":"Feature","properties":{"height":21.6,"gml_id":"bldg_d5e2f593-4511-443a-a5cf-ac6936e59f92"},"geometry":{"type":"Polygon","coordinates":[[[139.79125328637707,35.622513791225884],[139.7917860711231,35.62185425566522],[139.79183124700617,35.62180785013128],[139.79190607451284,35.621848257737376],[139.79187205086873,35.62189034051026],[139.79190659520438,35.62190892083444],[139.79136740448962,35.62257530518331],[139.79125328637707,35.622513791225884]]]}},{"type":"Feature","properties":{"height":3.4,"gml_id":"bldg_15ade032-73e3-42b0-83cd-f649e4dfcdf0"},"geometry":{"type":"Polygon","coordinates":[[[139.789797432396,35.622813163248914],[139.78977293131672,35.622800084375534],[139.78977514067702,35.62279747117085],[139.78975551248425,35.62275600056938],[139.78977120055285,35.622734463248385],[139.78977848460704,35.62273843195616],[139.78979548072002,35.62274772231854],[139.78978642273628,35.62275772436864],[139.78980505507528,35.62280343109367],[139.789797432396,35.622813163248914]]]}},{"type":"Feature","properties":{"height":11.0,"gml_id":"bldg_8dbcfe77-1aea-4e90-b093-07163c5bc3cd"},"geometry":{"type":"Polygon","coordinates":[[[139.79130661841228,35.62270490251629],[139.79127207387347,35.62268632202242],[139.79129328386998,35.62266000911366],[139.7913278284024,35.62267858960153],[139.79130661841228,35.62270490251629]]]}},{"type":"Feature","properties":{"height":5.8,"gml_id":"bldg_ad58b5db-b450-4513-a7f0-ec438c5b4b32"},"geometry":{"type":"Polygon","coordinates":[[[139.79265091121022,35.61836882063133],[139.7918136084382,35.61791559094572],[139.7920065828352,35.61767787291169],[139.79284399461162,35.61813110131035],[139.79265091121022,35.61836882063133]]]}},{"type":"Feature","properties":{"height":38.3,"gml_id":"bldg_08e83864-cd45-4180-b5e1-69d1c42344e3"},"geometry":{"type":"Polygon","coordinates":[[[139.79125328637707,35.622513791225884],[139.79110139194358,35.62270185619746],[139.79077404776677,35.62252561125152],[139.79145883929007,35.62167801259439],[139.7917860711231,35.62185425566522],[139.79125328637707,35.622513791225884]]]}},{"type":"Feature","properties":{"height":11.0,"gml_id":"bldg_728f1972-62fc-4938-869e-e443a1af0150"},"geometry":{"type":"Polygon","coordinates":[[[139.79130661841228,35.62270490251629],[139.79124541870092,35.6227807773927],[139.79112158810477,35.622714212188335],[139.79118278792956,35.622638247236004],[139.79127207387347,35.62268632202242],[139.79130661841228,35.62270490251629]]]}},{"type":"Feature","properties":{"height":8.4,"gml_id":"bldg_0e6ea690-1324-4b91-8b31-30fc7d6c477b"},"geometry":{"type":"Polygon","coordinates":[[[139.79932150114894,35.62387012238823],[139.7992465576263,35.623829719366775],[139.79937303014452,35.623673275445704],[139.79996783390487,35.623993431676816],[139.79984147240148,35.62414996638303],[139.7996220487478,35.62403182435985],[139.79932150114894,35.62387012238823]]]}},{"type":"Feature","properties":{"height":12.5,"gml_id":"bldg_8157c669-5619-480f-bfcb-65679614641d"},"geometry":{"type":"Polygon","coordinates":[[[139.789797432396,35.622813163248914],[139.78997732847014,35.62290823362525],[139.78997301995906,35.62291382063376],[139.7899950931431,35.622925456384124],[139.78996416087114,35.62296438489047],[139.78997243833737,35.622968714496146],[139.78995641976624,35.62298898979084],[139.78994814229878,35.622984660184066],[139.78991743092232,35.623023318343435],[139.78989524737403,35.62301159240119],[139.78989071795934,35.62301735960311],[139.78976534241338,35.62295106286473],[139.78969508156322,35.623039643137595],[139.789684045001,35.62303378016653],[139.7896390823928,35.623090460699885],[139.78950509844884,35.6230195635288],[139.78955204963998,35.62296035990209],[139.7895421167285,35.62295512828535],[139.789615360459,35.6228627633848],[139.789611608033,35.622860778986045],[139.78962873137314,35.622839152066796],[139.78963293853084,35.62281697963248],[139.78963769168928,35.62280580423817],[139.78965204944538,35.62279454218822],[139.78966232044593,35.62278706445341],[139.7896667393199,35.622781567633936],[139.78966894662503,35.622782740228594],[139.78967203985107,35.6227788654134],[139.78967446790142,35.62278012822599],[139.7896773401859,35.62277652374476],[139.7896799889325,35.62277796691332],[139.78969501327194,35.6227589532273],[139.78977293131672,35.622800084375534],[139.789797432396,35.622813163248914]]]}},{"type":"Feature","properties":{"height":4.1,"gml_id":"bldg_9a932c0d-da3d-48fd-8eab-890935762c60"},"geometry":{"type":"Polygon","coordinates":[[[139.78977848460704,35.62273843195616],[139.78988464653264,35.62260840107781],[139.78998695441769,35.62266405310839],[139.78992531204952,35.6227396567409],[139.78994032166568,35.62274777457246],[139.78992353020476,35.6227683199993],[139.78990841023816,35.62276011198787],[139.7898806821869,35.622794084035924],[139.78979548072002,35.62274772231854],[139.78977848460704,35.62273843195616]]]}},{"type":"Feature","properties":{"height":3.0,"gml_id":"bldg_9923b088-4268-4acf-b749-653be98d4605"},"geometry":{"type":"Polygon","coordinates":[[[139.79188423342347,35.6228843872036],[139.791828607927,35.6228558844298],[139.79186064457525,35.62281434182043],[139.79191615965718,35.62284284454166],[139.79188423342347,35.6228843872036]]]}},{"type":"Feature","properties":{"height":2.8,"gml_id":"bldg_19bf98e6-a4aa-4c4f-992c-8e751d3e61c4"},"geometry":{"type":"Polygon","coordinates":[[[139.78961842019638,35.6231232634534],[139.7895347604108,35.62308366246696],[139.78954890215323,35.62306374709884],[139.78963267232263,35.62310334811563],[139.78961842019638,35.6231232634534]]]}},{"type":"Feature","properties":{"height":4.0,"gml_id":"bldg_95ba0d0c-3b32-48d9-9fb2-87d6cb0ecbdb"},"geometry":{"type":"Polygon","coordinates":[[[139.79979626252813,35.624550076526376],[139.7997699938007,35.62453483588441],[139.79980887298512,35.6244904086612],[139.79983503130592,35.624505649264094],[139.79979626252813,35.624550076526376]]]}},{"type":"Feature","properties":{"height":3.5,"gml_id":"bldg_3d725ecf-c961-4d14-90aa-8248969c1ece"},"geometry":{"type":"Polygon","coordinates":[[[139.79195084346426,35.62280580972073],[139.79189466717557,35.622775053336596],[139.7918775447846,35.62279604961229],[139.79184244836821,35.62277692826395],[139.79187801866036,35.622733493967154],[139.79190296132535,35.622747203530906],[139.79190715906375,35.622742067105364],[139.79197348908235,35.62277823525307],[139.79195084346426,35.62280580972073]]]}},{"type":"Feature","properties":{"height":19.8,"gml_id":"bldg_6cd91113-9d99-4a14-9fb8-3afc47eefb39"},"geometry":{"type":"Polygon","coordinates":[[[139.79808635661016,35.6248869750384],[139.7970464221862,35.62432339377937],[139.7977851745619,35.62341475218638],[139.79827754362006,35.62368152478656],[139.79829311816465,35.62366232991459],[139.79843980308462,35.62374169396271],[139.79841881613518,35.62376755749991],[139.79881980048577,35.623984815570054],[139.79808635661016,35.6248869750384]]]}},{"type":"Feature","properties":{"height":16.1,"gml_id":"bldg_a4255042-e806-47a7-90aa-dca008c3c259"},"geometry":{"type":"Polygon","coordinates":[[[139.79896406710944,35.62378429967773],[139.79887731407496,35.62373722284163],[139.79890327138577,35.62370532139619],[139.79853661408274,35.623506371536074],[139.79850944164656,35.623539804899075],[139.79841496307864,35.623488579145004],[139.79844312962823,35.62345397429637],[139.79796257134538,35.62319315494223],[139.79833790360712,35.62273211827767],[139.79881548028135,35.62299140295323],[139.79884607650308,35.62295382414781],[139.79894033396124,35.623004959367094],[139.79890973776406,35.623042538196145],[139.79927440713672,35.62324049485525],[139.79930577640457,35.62320201477267],[139.7993976062672,35.62325179687587],[139.79896406710944,35.62378429967773]]]}},{"type":"Feature","properties":{"height":6.1,"gml_id":"bldg_d8473374-e4b8-4b5b-b15e-b7194d2a2c4a"},"geometry":{"type":"Polygon","coordinates":[[[139.79952880800556,35.62444643318398],[139.79942538864708,35.62438745384994],[139.79950347947184,35.62429607583939],[139.7996070091694,35.62435505513817],[139.79952880800556,35.62444643318398]]]}},{"type":"Feature","properties":{"height":2.8,"gml_id":"bldg_fdf90eef-7b11-4b8e-a5da-a2ae859313f3"},"geometry":{"type":"Polygon","coordinates":[[[139.79024099317277,35.622635480337436],[139.79019684699594,35.62261202864563],[139.79022214495922,35.6225802189675],[139.79026629112596,35.62260367065015],[139.79024099317277,35.622635480337436]]]}},{"type":"Feature","properties":{"height":2.7,"gml_id":"bldg_297ff9b3-2ac1-4d11-8f4c-dced6e1f7f2e"},"geometry":{"type":"Polygon","coordinates":[[[139.79019923661426,35.62268486104821],[139.79015586513935,35.6226578040968],[139.79018524767315,35.622626266304565],[139.79022872948948,35.622653413423066],[139.79019923661426,35.62268486104821]]]}},{"type":"Feature","properties":{"height":2.8,"gml_id":"bldg_1963561f-843c-4d50-a52c-62f956d471df"},"geometry":{"type":"Polygon","coordinates":[[[139.79016266953752,35.622732621118764],[139.79011421935044,35.62270637357513],[139.79014006940946,35.62267447397473],[139.79018862993436,35.62270081168567],[139.79016266953752,35.622732621118764]]]}},{"type":"Feature","properties":{"height":2.8,"gml_id":"bldg_a7e3c331-1f64-4559-bd7f-d624335c1344"},"geometry":{"type":"Polygon","coordinates":[[[139.7901329527103,35.62276983748229],[139.79010447768295,35.62275603614682],[139.7901218229715,35.622731975509296],[139.79015029799336,35.622745776840716],[139.7901329527103,35.62276983748229]]]}},{"type":"Feature","properties":{"height":8.2,"gml_id":"bldg_e872f9f7-30bf-437d-843e-715c86f29387"},"geometry":{"type":"Polygon","coordinates":[[[139.79974272485254,35.62453545925081],[139.79965111297358,35.624488381622626],[139.7997114238743,35.6244100685211],[139.79980303573697,35.62445705596597],[139.79974272485254,35.62453545925081]]]}},{"type":"Feature","properties":{"height":3.1,"gml_id":"bldg_8e974413-4284-4dae-877b-5e20be40e765"},"geometry":{"type":"Polygon","coordinates":[[[139.7996652547612,35.62446296665123],[139.79964571852304,35.6244523249027],[139.799665711171,35.624427632671186],[139.79968535784303,35.624438184309334],[139.7996652547612,35.62446296665123]]]}},{"type":"Feature","properties":{"height":4.7,"gml_id":"bldg_d0ff6faa-00f4-4e5f-80c3-71d2683e65e5"},"geometry":{"type":"Polygon","coordinates":[[[139.797439877599,35.618164106435074],[139.79742564178244,35.6181538264473],[139.7974661718927,35.618116431198075],[139.7974804077078,35.61812671118112],[139.797439877599,35.618164106435074]]]}},{"type":"Feature","properties":{"height":2.8,"gml_id":"bldg_cf3ea499-bceb-46dc-8a7e-f063f0d78ca4"},"geometry":{"type":"Polygon","coordinates":[[[139.79185398939333,35.61945462300075],[139.79182496384078,35.619439740217835],[139.7918374466233,35.61942342952116],[139.79186647217227,35.6194383123011],[139.79185398939333,35.61945462300075]]]}},{"type":"Feature","properties":{"height":5.8,"gml_id":"bldg_ece4e042-af26-4de4-8a2a-78c2c57d5f2e"},"geometry":{"type":"Polygon","coordinates":[[[139.79221989578994,35.61889535132912],[139.79139108895652,35.61844428495953],[139.79158837317783,35.61820260303993],[139.79241717862826,35.61865366806965],[139.79221989578994,35.61889535132912]]]}},{"type":"Feature","properties":{"height":29.8,"gml_id":"bldg_8c73ff02-e968-4e5d-92b2-88de9bad625e"},"geometry":{"type":"Polygon","coordinates":[[[139.78917314306204,35.625210427429366],[139.78911193892824,35.62528720256756],[139.78900940855448,35.625229656837135],[139.78917324288219,35.62502888950209],[139.789176667568,35.625024744408556],[139.78946102565783,35.62468070133429],[139.78955748641766,35.624733196751016],[139.78917656780516,35.62520619219794],[139.78917314306204,35.625210427429366]]]}},{"type":"Feature","properties":{"height":3.8,"gml_id":"bldg_6bd2010b-2fd6-4011-be19-77eec49c4c43"},"geometry":{"type":"Polygon","coordinates":[[[139.7965889645132,35.61893380973595],[139.79657152941041,35.61891893162915],[139.79661382455353,35.618885953977646],[139.79663125961582,35.61890092221649],[139.7965889645132,35.61893380973595]]]}},{"type":"Feature","properties":{"height":27.7,"gml_id":"bldg_dc12be31-1d75-478b-ac9c-edcda26639c1"},"geometry":{"type":"Polygon","coordinates":[[[139.79080023951198,35.621639383075404],[139.79068292253314,35.62178419347699],[139.79061239940802,35.62174703160777],[139.79057564791233,35.621727729024336],[139.79082044523645,35.62142450104738],[139.79086639982475,35.62136745985419],[139.7909717971174,35.62142455435771],[139.79097532876705,35.6214264484989],[139.79085480884967,35.62157522402215],[139.79084741459522,35.62157098492565],[139.79079350719812,35.62163595545195],[139.79080023951198,35.621639383075404]]]}},{"type":"Feature","properties":{"height":39.7,"gml_id":"bldg_3f310981-df2d-473b-839a-c3f44bb8f12f"},"geometry":{"type":"Polygon","coordinates":[[[139.79145147521538,35.62161581476727],[139.7910822950731,35.622068809923796],[139.79057484030628,35.62179316897416],[139.79061239940802,35.62174703160777],[139.79068292253314,35.62178419347699],[139.79080023951198,35.621639383075404],[139.79079350719812,35.62163595545195],[139.79084741459522,35.62157098492565],[139.79085480884967,35.62157522402215],[139.79097532876705,35.6214264484989],[139.79097698569393,35.6214245561819],[139.7910145443922,35.62137841868706],[139.7910995244162,35.62142459919888],[139.79145147521538,35.62161581476727]]]}},{"type":"Feature","properties":{"height":6.7,"gml_id":"bldg_0f34b2d2-e603-4a5c-b964-476c99e3fdee"},"geometry":{"type":"Polygon","coordinates":[[[139.79397285351953,35.61789927956458],[139.7938032291533,35.61780638176247],[139.79390263982089,35.61768535883052],[139.7940722640909,35.617778166356366],[139.79397285351953,35.61789927956458]]]}},{"type":"Feature","properties":{"height":6.2,"gml_id":"bldg_615cac38-d116-42f5-968f-2e087c77e0b8"},"geometry":{"type":"Polygon","coordinates":[[[139.79216362419666,35.621424967508844],[139.79216075207208,35.62142857205028],[139.7921541302054,35.6214249642643],[139.79214342482467,35.62141919176823],[139.7921390062414,35.62142459854191],[139.792078857452,35.62139221839325],[139.7920852644934,35.62138419829844],[139.79207919442453,35.621380951249506],[139.7920968689456,35.62135896361028],[139.79218052547603,35.62140388097399],[139.79216362419666,35.621424967508844]]]}},{"type":"Feature","properties":{"height":5.0,"gml_id":"bldg_0137b1bc-638f-460d-9738-961898fd4346"},"geometry":{"type":"Polygon","coordinates":[[[139.79221683341402,35.62142750954511],[139.7921983852666,35.62145120956095],[139.7921785194267,35.62144083689845],[139.7921908918228,35.621424976823306],[139.7921968571362,35.62141722698598],[139.7922118669198,35.621424983984085],[139.79221683341402,35.62142750954511]]]}},{"type":"Feature","properties":{"height":2.6,"gml_id":"bldg_456e04ed-9dd1-456c-aa43-42ad44a64f88"},"geometry":{"type":"Polygon","coordinates":[[[139.79190835837733,35.6176337616361],[139.7918780095363,35.61761743619663],[139.7918909333985,35.61760148619365],[139.7919211718461,35.61761781159196],[139.79190835837733,35.6176337616361]]]}},{"type":"Feature","properties":{"height":11.0,"gml_id":"bldg_8fb96fbc-2db1-439c-9e6e-c416162a2b6b"},"geometry":{"type":"Polygon","coordinates":[[[139.79132322790792,35.61838783485615],[139.79124189216896,35.61834490072525],[139.79126299077822,35.618318317349186],[139.79122447500566,35.618297932679624],[139.79124833527,35.61826774474628],[139.79123575420206,35.61826107013032],[139.79128446881313,35.61819952280526],[139.79141701168285,35.61826951616972],[139.79132322790792,35.61838783485615]]]}},{"type":"Feature","properties":{"height":5.5,"gml_id":"bldg_2bb0ca37-b78b-4d80-9efe-7e6c5f72dfc0"},"geometry":{"type":"Polygon","coordinates":[[[139.79678642339107,35.618761796135935],[139.7967717461501,35.61875115538555],[139.7968840612973,35.618647800997614],[139.79689873857512,35.61865835159638],[139.79678642339107,35.618761796135935]]]}},{"type":"Feature","properties":{"height":9.3,"gml_id":"bldg_3b179492-2939-47f2-93a1-ed21c0db500a"},"geometry":{"type":"Polygon","coordinates":[[[139.79194654297072,35.619368032112135],[139.79185979858858,35.61932140088465],[139.79197324403157,35.619180644161716],[139.79206009876626,35.619227185208274],[139.79194654297072,35.619368032112135]]]}},{"type":"Feature","properties":{"height":12.5,"gml_id":"bldg_65ebd796-42e1-4f95-bffb-ec6080ffe8d0"},"geometry":{"type":"Polygon","coordinates":[[[139.7921683435675,35.62147887168843],[139.79209168057264,35.6215735805831],[139.79197458348767,35.621510443793895],[139.79204373495807,35.621424926482135],[139.7920512465602,35.62141573497277],[139.7920683530982,35.62142493491633],[139.7921683435675,35.62147887168843]]]}},{"type":"Feature","properties":{"height":15.1,"gml_id":"bldg_54f3c0ea-bbf9-4f39-a714-9bdd6d6d640e"},"geometry":{"type":"Polygon","coordinates":[[[139.79379831897637,35.622399997634055],[139.79377059264957,35.622434060718604],[139.7937235762178,35.62240862633813],[139.7935826375868,35.62233214284641],[139.79307406860505,35.62205651206436],[139.79358750211497,35.62142544564483],[139.7943560909236,35.6204805088336],[139.79505238650995,35.62085814023836],[139.7945907741554,35.621425772436424],[139.79385631222934,35.62232871744562],[139.79379831897637,35.622399997634055]]]}},{"type":"Feature","properties":{"height":21.3,"gml_id":"bldg_f646d3d9-8e82-4494-b101-560a644b6e53"},"geometry":{"type":"Polygon","coordinates":[[[139.7891740376944,35.62358334623815],[139.78879124820463,35.624051472418905],[139.78876972683017,35.62403992679227],[139.7887053834914,35.62400538010896],[139.78917412675224,35.62342136821279],[139.78917744102097,35.623417132939586],[139.78930448309632,35.62326322365703],[139.7893979624446,35.62331364494867],[139.78917735192024,35.62357920110307],[139.7891740376944,35.62358334623815]]]}},{"type":"Feature","properties":{"height":3.0,"gml_id":"bldg_8375d4be-14bd-42a7-885e-a0174c5f877f"},"geometry":{"type":"Polygon","coordinates":[[[139.79613335074484,35.619229683476206],[139.79614715820313,35.6192114798409],[139.7962175720243,35.61924701596662],[139.79620376453417,35.61926530974797],[139.79613335074484,35.619229683476206]]]}},{"type":"Feature","properties":{"height":4.2,"gml_id":"bldg_0a2acc7a-43ca-4870-8a26-6bfe882d1c8f"},"geometry":{"type":"Polygon","coordinates":[[[139.79186868421016,35.61943020063322],[139.7918103020904,35.61940016453893],[139.791843883886,35.619356639403904],[139.7919022659867,35.61938667548211],[139.79186868421016,35.61943020063322]]]}},{"type":"Feature","properties":{"height":2.4,"gml_id":"bldg_9be8bb67-f32c-48be-8466-826b10549cb3"},"geometry":{"type":"Polygon","coordinates":[[[139.79623665498292,35.61927929128567],[139.7962191088952,35.61926567502805],[139.79624417784902,35.61924422987836],[139.79626172393637,35.61925784613238],[139.79623665498292,35.61927929128567]]]}},{"type":"Feature","properties":{"height":20.1,"gml_id":"bldg_360b0f6e-5007-4dba-ab71-763e647db6aa"},"geometry":{"type":"Polygon","coordinates":[[[139.79580728892253,35.6177328389178],[139.79570924775314,35.61776417641162],[139.79563227063448,35.61760379661708],[139.7955818793764,35.61748254505174],[139.79552334090147,35.61731568101034],[139.795464608574,35.617092210124326],[139.79548161124393,35.61708644662609],[139.79580728892253,35.6177328389178]]]}},{"type":"Feature","properties":{"height":2.9,"gml_id":"bldg_675cc8fb-8358-4fdf-b146-2299beb4e431"},"geometry":{"type":"Polygon","coordinates":[[[139.79626636315703,35.61925189844469],[139.7962481549664,35.61923774115889],[139.79628890583385,35.6192027801096],[139.7963072243744,35.619217027561334],[139.79626636315703,35.61925189844469]]]}},{"type":"Feature","properties":{"height":2.5,"gml_id":"bldg_59b01f06-e457-4297-a2b2-6c46d6697f6d"},"geometry":{"type":"Polygon","coordinates":[[[139.79631374295698,35.61920522147235],[139.79629619691391,35.6191915150877],[139.79633772068948,35.619156103568656],[139.79635526673192,35.61916980994734],[139.79631374295698,35.61920522147235]]]}},{"type":"Feature","properties":{"height":3.0,"gml_id":"bldg_5af2bc22-7dca-45eb-8669-64aec623eaf4"},"geometry":{"type":"Polygon","coordinates":[[[139.79748390688957,35.61721190033614],[139.79747199223107,35.61719531137323],[139.797507545309,35.617178105565465],[139.79751957036177,35.61719469455772],[139.79748390688957,35.61721190033614]]]}},{"type":"Feature","properties":{"height":1.6,"gml_id":"bldg_ddf5df00-0d77-4992-bf9c-c71f26049f4f"},"geometry":{"type":"Polygon","coordinates":[[[139.7969538602364,35.617115564069934],[139.79693422943612,35.617074725564215],[139.79694814048523,35.617070312997065],[139.7969677713323,35.61711106136242],[139.7969538602364,35.617115564069934]]]}},{"type":"Feature","properties":{"height":5.1,"gml_id":"bldg_9e21fc53-3eea-42b6-94d0-4e7f4da809fe"},"geometry":{"type":"Polygon","coordinates":[[[139.79723446582207,35.61835306470803],[139.79722133338174,35.61834395682258],[139.7972615330363,35.61830538974882],[139.79727466547487,35.618314497629946],[139.79723446582207,35.61835306470803]]]}},{"type":"Feature","properties":{"height":37.2,"gml_id":"bldg_7a853429-fffa-455d-a3fa-477ded95cd61"},"geometry":{"type":"Polygon","coordinates":[[[139.78917367441818,35.624244057893456],[139.7891120301699,35.62431948081259],[139.78871703083283,35.624104265843506],[139.78876972683017,35.62403992679227],[139.78879124820463,35.624051472418905],[139.7891740376944,35.62358334623815],[139.78917735192024,35.62357920110307],[139.7893979624446,35.62331364494867],[139.7897713280436,35.623517131947416],[139.78917709907046,35.62423991279935],[139.78917367441818,35.624244057893456]]]}},{"type":"Feature","properties":{"height":2.9,"gml_id":"bldg_8032e8ef-6b81-4cbb-adac-56e672f5c05e"},"geometry":{"type":"Polygon","coordinates":[[[139.79285504313097,35.61811235629327],[139.79276090577096,35.618061036038746],[139.79277968373518,35.61803814727723],[139.79287382112577,35.618089377379164],[139.79285504313097,35.61811235629327]]]}},{"type":"Feature","properties":{"height":2.9,"gml_id":"bldg_1d2d3ea6-dc46-445f-a946-ba2ff3efbdfc"},"geometry":{"type":"Polygon","coordinates":[[[139.79297798219133,35.61796466114835],[139.7929187191844,35.617931470454636],[139.79294191500134,35.6179039861047],[139.79300106760718,35.6179371767502],[139.79297798219133,35.61796466114835]]]}},{"type":"Feature","properties":{"height":3.2,"gml_id":"bldg_3ab57954-8a83-4c5e-b869-7256b0a78da4"},"geometry":{"type":"Polygon","coordinates":[[[139.7971551129547,35.61733195619568],[139.79717829842784,35.61732385072302],[139.79718921759132,35.61734476604646],[139.79716603215383,35.61735278138308],[139.7971551129547,35.61733195619568]]]}},{"type":"Feature","properties":{"height":2.8,"gml_id":"bldg_2c39911e-0bc8-4f1e-933d-93b8a9943ee3"},"geometry":{"type":"Polygon","coordinates":[[[139.79374115264733,35.61698583395258],[139.793679240174,35.6169537244147],[139.79370685461234,35.61691894017761],[139.7937687670699,35.616951049701484],[139.79374115264733,35.61698583395258]]]}},{"type":"Feature","properties":{"height":2.6,"gml_id":"bldg_eac3f5fc-d44a-4a97-ba30-656a94feebc7"},"geometry":{"type":"Polygon","coordinates":[[[139.7935337412547,35.61808004253191],[139.79351662056195,35.61810049822924],[139.79347214546226,35.61807560540165],[139.7934892661163,35.618055239848694],[139.7935337412547,35.61808004253191]]]}},{"type":"Feature","properties":{"height":2.8,"gml_id":"bldg_aec0f77f-a987-402a-bdb8-dd77363aa0b4"},"geometry":{"type":"Polygon","coordinates":[[[139.7913721151801,35.61989775530983],[139.79131737587917,35.619867720247605],[139.79133748024245,35.619843209694835],[139.79139232997443,35.619873154648374],[139.7913721151801,35.61989775530983]]]}},{"type":"Feature","properties":{"height":3.1,"gml_id":"bldg_391a42ea-745a-4747-848c-0b06460963b2"},"geometry":{"type":"Polygon","coordinates":[[[139.7923825083201,35.621266669509026],[139.79236870025298,35.62128370091113],[139.79232632024093,35.62126079142329],[139.7923402387081,35.62124376006356],[139.7923825083201,35.621266669509026]]]}},{"type":"Feature","properties":{"height":2.5,"gml_id":"bldg_49483793-7fe7-4846-a41e-85007403be5b"},"geometry":{"type":"Polygon","coordinates":[[[139.7906001754943,35.620860609457196],[139.79058680898513,35.620877099984256],[139.79057025456208,35.620868170439806],[139.79056528349895,35.62087438820286],[139.79054574934028,35.62086374497376],[139.7905511622222,35.62085707667799],[139.79051981927455,35.6208400294472],[139.79053274392547,35.620824079599004],[139.7906001754943,35.620860609457196]]]}},{"type":"Feature","properties":{"height":8.7,"gml_id":"bldg_baaa0c79-5af5-4954-8272-b3a8db962457"},"geometry":{"type":"Polygon","coordinates":[[[139.79358286705755,35.61807609267185],[139.79343056911134,35.61799320539463],[139.79397004071004,35.61733167884042],[139.79412244839378,35.61741447534222],[139.79400956226453,35.617552980861376],[139.7939837155681,35.617584520768766],[139.79358286705755,35.61807609267185]]]}},{"type":"Feature","properties":{"height":7.4,"gml_id":"bldg_c22a0fb2-f47c-42c9-9402-4cc729cf615b"},"geometry":{"type":"Polygon","coordinates":[[[139.7984166209261,35.62450001852682],[139.79845591386467,35.62452139262091],[139.7984254273406,35.62455879107296],[139.79838602399232,35.62453741693704],[139.7984166209261,35.62450001852682]]]}},{"type":"Feature","properties":{"height":2.9,"gml_id":"bldg_d5136563-6ef4-4f65-8472-4cb08b923872"},"geometry":{"type":"Polygon","coordinates":[[[139.79959095211825,35.62447204980509],[139.7995463607533,35.62444824086837],[139.79960313580614,35.62437740828541],[139.79962785972975,35.62439057535728],[139.79964299237878,35.6243716506035],[139.79967422839408,35.6243883348699],[139.7996586538873,35.624407890470266],[139.79966218587313,35.62440978435607],[139.79964937392225,35.624425825344034],[139.79965610566867,35.62442943274715],[139.79962628221045,35.624466651413094],[139.79960453836662,35.62445510765995],[139.79959095211825,35.62447204980509]]]}},{"type":"Feature","properties":{"height":11.8,"gml_id":"bldg_27d8502f-c30a-42e6-9f29-21e1117f4837"},"geometry":{"type":"Polygon","coordinates":[[[139.79968351611672,35.623827498612876],[139.7993879354833,35.62366958398656],[139.79946448178748,35.623574149343106],[139.79976006222046,35.62373206378402],[139.79968351611672,35.623827498612876]]]}},{"type":"Feature","properties":{"height":3.0,"gml_id":"bldg_6773c553-880a-48ac-b471-10fdc6a2659d"},"geometry":{"type":"Polygon","coordinates":[[[139.7970626346329,35.624848272390466],[139.79697301178032,35.624799841257094],[139.79700051672674,35.62476586752006],[139.79709013951734,35.624814388771256],[139.7970626346329,35.624848272390466]]]}},{"type":"Feature","properties":{"height":15.1,"gml_id":"bldg_2ebbf07e-9df3-4c91-aae1-d5906390425a"},"geometry":{"type":"Polygon","coordinates":[[[139.79212641083686,35.62445728891366],[139.79142899493192,35.624077567254886],[139.79203734454896,35.62333305684168],[139.79273475682672,35.62371286516157],[139.79212641083686,35.62445728891366]]]}},{"type":"Feature","properties":{"height":3.2,"gml_id":"bldg_f0045810-aff8-46aa-97f6-12b50d98297c"},"geometry":{"type":"Polygon","coordinates":[[[139.79045388462583,35.621721826775996],[139.7904310388401,35.62171037110846],[139.79047511810597,35.62165152663822],[139.79049796388125,35.62166298229751],[139.79045388462583,35.621721826775996]]]}},{"type":"Feature","properties":{"height":4.6,"gml_id":"bldg_12f882f2-ec6f-4675-a3d6-e6e3e7bcf184"},"geometry":{"type":"Polygon","coordinates":[[[139.79683212218134,35.62484234380087],[139.79671899017558,35.624781015616264],[139.79672871099214,35.62476866966087],[139.7968421740239,35.62483035848884],[139.79683212218134,35.62484234380087]]]}},{"type":"Feature","properties":{"height":2.7,"gml_id":"bldg_bdac20c0-a607-4a2b-8c0d-317d4e169388"},"geometry":{"type":"Polygon","coordinates":[[[139.79691760309115,35.624773233804945],[139.79687809013058,35.62475077748727],[139.79689775172713,35.62472779823886],[139.79693726468187,35.62475025455018],[139.79691760309115,35.624773233804945]]]}}]}