{"type":"FeatureCollection","crs":{"type":"name","properties":{"name":"urn:ogc:def:crs:OGC:1.3:CRS84"}},"features":[{"type":"Feature","properties":{"height":7.2,"gml_id":"bldg_8ff57a14-fd34-43b1-8740-6a2d6df514b4"},"geometry":{"type":"Polygon","coordinates":[[[139.8342686264364,35.62351391674622],[139.8342648724551,35.62347560810454],[139.83435153488733,35.62346992870619],[139.83435252859937,35.62348011429736],[139.83459308581624,35.6234645181397],[139.83459474207055,35.6234825457322],[139.83435550957407,35.62349787146773],[139.8343565032881,35.62350814719686],[139.8342686264364,35.62351391674622]]]}},{"type":"Feature","properties":{"height":10.4,"gml_id":"bldg_1604a074-fc40-4631-9e03-2e47ea70de91"},"geometry":{"type":"Polygon","coordinates":[[[139.82858521549974,35.62358025855579],[139.82863964150448,35.623585849247384],[139.82864560526144,35.62354727039516],[139.82880093461316,35.62356332091127],[139.82879541268568,35.623599015370196],[139.828818044198,35.623601359809726],[139.8286888299159,35.62443675426091],[139.82845644060257,35.62441276836076],[139.82858521549974,35.62358025855579]]]}},{"type":"Feature","properties":{"height":10.1,"gml_id":"bldg_ef46b292-b222-4f8b-a904-21d6fd5d4bab"},"geometry":{"type":"Polygon","coordinates":[[[139.82884718898302,35.623607760699834],[139.82886871652656,35.62360992481264],[139.82887434892555,35.62357233745549],[139.8290332111203,35.62358829766471],[139.82902779971675,35.62362354144787],[139.82904546334814,35.62362534483874],[139.8289200051673,35.6244572242849],[139.82872206010887,35.62443729636558],[139.82884718898302,35.623607760699834]]]}},{"type":"Feature","properties":{"height":1.9,"gml_id":"bldg_b60c500c-eff7-40e0-9f41-64c8726b60c5"},"geometry":{"type":"Polygon","coordinates":[[[139.8319433480571,35.62132995718294],[139.83193893198998,35.62134501019147],[139.83190437842325,35.62133824943052],[139.83190879449648,35.621323196423255],[139.8319433480571,35.62132995718294]]]}},{"type":"Feature","properties":{"height":20.4,"gml_id":"bldg_2f3900a5-4156-4f24-b07b-392e1c151552"},"geometry":{"type":"Polygon","coordinates":[[[139.82847329128398,35.621431903485416],[139.82844579276048,35.621597846575455],[139.8280722167173,35.62156159533446],[139.828072216735,35.62156132492023],[139.82789183270282,35.621545813158946],[139.8279074050587,35.62143178919156],[139.82794075754234,35.62123655160525],[139.82849416442644,35.621291919886225],[139.82847329128398,35.621431903485416]]]}},{"type":"Feature","properties":{"height":16.8,"gml_id":"bldg_74fb4828-32fe-4af1-819d-5a9dffeb170c"},"geometry":{"type":"Polygon","coordinates":[[[139.82844579276048,35.621597846575455],[139.82843850350363,35.62164958553562],[139.8278845419899,35.62159755208597],[139.82789183270282,35.621545813158946],[139.82844579276048,35.621597846575455]]]}},{"type":"Feature","properties":{"height":2.7,"gml_id":"bldg_f41b8d96-0602-40a3-96aa-a8cd692e0ddc"},"geometry":{"type":"Polygon","coordinates":[[[139.83298833562964,35.624327235439935],[139.83300909068456,35.62432894812029],[139.8330032393274,35.62437663112543],[139.83298248426027,35.6243749184441],[139.83298833562964,35.624327235439935]]]}},{"type":"Feature","properties":{"height":2.6,"gml_id":"bldg_14eaafb7-fe76-47dc-8401-8811c4d0bb10"},"geometry":{"type":"Polygon","coordinates":[[[139.83192341488223,35.624864720770866],[139.8319212065287,35.62488482152528],[139.83183840662247,35.62487851086435],[139.83184061499654,35.62485841011144],[139.83192341488223,35.624864720770866]]]}},{"type":"Feature","properties":{"height":4.6,"gml_id":"bldg_62999d56-6804-4d5e-8cdd-f39f95f0a8df"},"geometry":{"type":"Polygon","coordinates":[[[139.83347076953066,35.61796420822397],[139.83333852169898,35.618138715722836],[139.8333367554468,35.618137814341594],[139.8333333333333,35.61813610171719],[139.83323740382417,35.61808751722718],[139.8333333333333,35.61796105346773],[139.83333675543906,35.61795645642296],[139.83336965179123,35.61791309997594],[139.83347076953066,35.61796420822397]]]}},{"type":"Feature","properties":{"height":3.3,"gml_id":"bldg_573e4db8-df6d-463b-9343-f295769dc41d"},"geometry":{"type":"Polygon","coordinates":[[[139.83176576410762,35.62484263500579],[139.83175980162423,35.624887794080244],[139.83171332329104,35.62488373725297],[139.83171928580023,35.624838578180785],[139.83176576410762,35.62484263500579]]]}},{"type":"Feature","properties":{"height":20.5,"gml_id":"bldg_eb559841-490a-40c3-a7ff-a75a97f3278e"},"geometry":{"type":"Polygon","coordinates":[[[139.8333333333333,35.6194266091745],[139.83315968542527,35.61963888429434],[139.83278976044605,35.619437154107175],[139.833159576447,35.6189849322947],[139.8333333333333,35.61907966757965],[139.83333675548698,35.619081560480026],[139.8333473531253,35.6190872391805],[139.8334092833058,35.6193336767586],[139.8333367555015,35.619422372683296],[139.8333333333333,35.6194266091745]]]}},{"type":"Feature","properties":{"height":5.2,"gml_id":"bldg_f3233844-7561-4425-8e97-543743d1ce26"},"geometry":{"type":"Polygon","coordinates":[[[139.8346222161754,35.622546371591206],[139.8346142664646,35.622474892191526],[139.83468999851945,35.62246930280257],[139.8346979482971,35.622540782197305],[139.8346222161754,35.622546371591206]]]}},{"type":"Feature","properties":{"height":3.0,"gml_id":"bldg_c8dd17c2-bdd6-4ea3-abda-3e755e9f28dd"},"geometry":{"type":"Polygon","coordinates":[[[139.833897569289,35.62223639235717],[139.83389480908247,35.62219393734001],[139.83397517758542,35.62219051169207],[139.83397793783362,35.62223287656934],[139.833897569289,35.62223639235717]]]}},{"type":"Feature","properties":{"height":2.7,"gml_id":"bldg_ab4151f3-bfef-45db-8f6c-821bf21f2574"},"geometry":{"type":"Polygon","coordinates":[[[139.83375725756568,35.622632369451075],[139.83374842592167,35.6226538223405],[139.83371387162637,35.622644267820064],[139.8337227032785,35.62262281493314],[139.83375725756568,35.622632369451075]]]}},{"type":"Feature","properties":{"height":17.2,"gml_id":"bldg_53cff5e0-cd65-4ab5-a9e5-4ef986213369"},"geometry":{"type":"Polygon","coordinates":[[[139.83187341100108,35.618388209214444],[139.83180642960934,35.61847187098612],[139.83167404439985,35.61840127666196],[139.8317058378479,35.618361526182255],[139.83156807141393,35.61828797153148],[139.8316031766881,35.6182439846346],[139.83187341100108,35.618388209214444]]]}},{"type":"Feature","properties":{"height":9.4,"gml_id":"bldg_0e6c9ae1-b406-492a-9c01-930c2b802cde"},"geometry":{"type":"Polygon","coordinates":[[[139.83311320886756,35.62006947393855],[139.83300082862337,35.620008991015276],[139.833133411421,35.61984493996193],[139.8331257943075,35.61984079359629],[139.83316001625954,35.619798428741504],[139.83328001345177,35.61986305787478],[139.83311320886756,35.62006947393855]]]}},{"type":"Feature","properties":{"height":8.9,"gml_id":"bldg_319293f7-8515-4000-b6ba-11d1549b41ac"},"geometry":{"type":"Polygon","coordinates":[[[139.83021200413208,35.62460455023189],[139.83009994893393,35.62459355043673],[139.82993335658517,35.62457714072863],[139.8300458850257,35.623813945081345],[139.8303246403652,35.62384126419239],[139.83021200413208,35.62460455023189]]]}},{"type":"Feature","properties":{"height":10.2,"gml_id":"bldg_e5340680-bd28-420a-ad72-b8b058f5d019"},"geometry":{"type":"Polygon","coordinates":[[[139.829880034237,35.62456172560845],[139.82961529724102,35.62453548756174],[139.82972584066678,35.623790229617754],[139.82999057524242,35.623816467424675],[139.829880034237,35.62456172560845]]]}},{"type":"Feature","properties":{"height":16.5,"gml_id":"bldg_9c471b8d-1aa2-49dd-9f8c-e5d527764686"},"geometry":{"type":"Polygon","coordinates":[[[139.83148803396412,35.61846211719093],[139.83152037947792,35.618422637183414],[139.83180364021803,35.61857758764597],[139.83178332772897,35.618602376271404],[139.83181136685346,35.6186177001096],[139.83179933390835,35.61863239247088],[139.83148803396412,35.61846211719093]]]}},{"type":"Feature","properties":{"height":9.2,"gml_id":"bldg_7632fb68-eacc-44eb-b227-359de4491abc"},"geometry":{"type":"Polygon","coordinates":[[[139.83107045391193,35.625238780575266],[139.8309477992897,35.62522688089142],[139.8310110714026,35.624790252627626],[139.8310260887516,35.62468713500962],[139.83114874256108,35.62469903551617],[139.83112820432703,35.62484019129656],[139.83107045391193,35.625238780575266]]]}},{"type":"Feature","properties":{"height":6.5,"gml_id":"bldg_3f18b62d-03d5-4bdb-a583-71ac47dd58d8"},"geometry":{"type":"Polygon","coordinates":[[[139.82879372689558,35.622173301644935],[139.82874713995372,35.62216807187259],[139.82875785201966,35.62210443480307],[139.82880443892532,35.622109664571305],[139.82879372689558,35.622173301644935]]]}},{"type":"Feature","properties":{"height":3.1,"gml_id":"bldg_a6553541-6f09-47c6-847a-5711090b5796"},"geometry":{"type":"Polygon","coordinates":[[[139.83396135364433,35.61906975075024],[139.83385438380046,35.61907624120463],[139.83385272780083,35.61905785303626],[139.83395958722838,35.61905136258392],[139.83396135364433,35.61906975075024]]]}},{"type":"Feature","properties":{"height":6.0,"gml_id":"bldg_4a1d0e28-adbb-441e-9b79-7f23205b7b0a"},"geometry":{"type":"Polygon","coordinates":[[[139.83396135364433,35.61906975075024],[139.8339996596625,35.6190674069535],[139.83398287859566,35.61888469708278],[139.83407119197307,35.61887919814909],[139.8340944870355,35.619132215696254],[139.83385780641416,35.619146729195386],[139.8338514032163,35.6190764214937],[139.83385438380046,35.61907624120463],[139.83396135364433,35.61906975075024]]]}},{"type":"Feature","properties":{"height":3.2,"gml_id":"bldg_70e7c113-a879-47f3-88d4-18a1396a3a9b"},"geometry":{"type":"Polygon","coordinates":[[[139.83385085194539,35.61918341543774],[139.83384831274574,35.61915547263338],[139.83390869722916,35.61915177669748],[139.83391123644967,35.61917971950061],[139.83385085194539,35.61918341543774]]]}},{"type":"Feature","properties":{"height":2.9,"gml_id":"bldg_4f79962e-0446-4666-8ed3-c8549ae47cc8"},"geometry":{"type":"Polygon","coordinates":[[[139.8336955366977,35.62064076884724],[139.83368504904365,35.62059389707046],[139.8337446618302,35.62058497321054],[139.83375514951788,35.6206318449822],[139.8336955366977,35.62064076884724]]]}},{"type":"Feature","properties":{"height":3.5,"gml_id":"bldg_7d4c69ed-529b-4130-88a8-3d3ccc8059c8"},"geometry":{"type":"Polygon","coordinates":[[[139.83435790199633,35.620649328154],[139.8343241208911,35.62061065919515],[139.83433284193526,35.620603087523364],[139.83434332928059,35.620595245421896],[139.83435205031668,35.620587313196324],[139.83435657632884,35.620575775482145],[139.83435933600887,35.62056225474476],[139.83435988778118,35.62054675098807],[139.83442060448255,35.620544046312666],[139.8344199422681,35.62055513330409],[139.83441905930917,35.6205694652688],[139.83441497492655,35.62058424795271],[139.8344104489102,35.62059488428819],[139.83440272150077,35.620608405070854],[139.83439576680976,35.62061904142724],[139.83438583146923,35.6206293172569],[139.83437125959557,35.6206415761638],[139.83435790199633,35.620649328154]]]}},{"type":"Feature","properties":{"height":5.7,"gml_id":"bldg_3a63c0d7-87e0-48ce-97ce-84a7396aa909"},"geometry":{"type":"Polygon","coordinates":[[[139.83129728623032,35.62249119678652],[139.83125699146632,35.62248939333756],[139.83125975249013,35.622446577804595],[139.8313001576294,35.62244838125451],[139.83129728623032,35.62249119678652]]]}},{"type":"Feature","properties":{"height":4.6,"gml_id":"bldg_dea936a5-5867-4117-9320-979033183dc2"},"geometry":{"type":"Polygon","coordinates":[[[139.83344350249618,35.617544164543204],[139.83339217111745,35.61746862881903],[139.83348611278933,35.61742599339654],[139.8335374442289,35.61750143894309],[139.83344350249618,35.617544164543204]]]}},{"type":"Feature","properties":{"height":4.6,"gml_id":"bldg_4502a5e8-6310-4651-a2de-a3afc16fefbc"},"geometry":{"type":"Polygon","coordinates":[[[139.83418634797155,35.62051538428525],[139.8341343521705,35.62049384163776],[139.83414848242,35.620475904062275],[139.83416448939855,35.62046166213403],[139.834183587433,35.62045039473896],[139.83420246468594,35.62044020899959],[139.8342287383481,35.62043200624057],[139.8342546808728,35.62042813010691],[139.8342615258324,35.620474641311105],[139.8342478370099,35.620477255420525],[139.83423734961085,35.6204797793663],[139.8342244335565,35.62048347512438],[139.83421229027866,35.62048897363732],[139.83420434199158,35.620496365018724],[139.83419506898937,35.620505108480515],[139.83418634797155,35.62051538428525]]]}},{"type":"Feature","properties":{"height":47.3,"gml_id":"bldg_e7a01dc5-0068-4f3f-8b4c-f96f44e23720"},"geometry":{"type":"Polygon","coordinates":[[[139.82785547863514,35.62202768965697],[139.82779630659064,35.622023811015055],[139.82780127783576,35.62197414516621],[139.8277810754557,35.62197279216582],[139.82778980289456,35.62188364601428],[139.8278691772014,35.62188878751041],[139.82785547863514,35.62202768965697]]]}},{"type":"Feature","properties":{"height":5.5,"gml_id":"bldg_3c78ae1d-2597-4ff0-8839-00e57894b264"},"geometry":{"type":"Polygon","coordinates":[[[139.83509284399682,35.617789147200575],[139.83504040873095,35.6177946463811],[139.83503731738614,35.61777499631153],[139.83508975263936,35.61776949713235],[139.83509284399682,35.617789147200575]]]}},{"type":"Feature","properties":{"height":2.4,"gml_id":"bldg_766ed99a-07f9-482e-afcb-9229b653d4e9"},"geometry":{"type":"Polygon","coordinates":[[[139.83378903032582,35.61883259813944],[139.83372180179205,35.61883665459031],[139.83371981463657,35.61881493131005],[139.83378704315228,35.618810874860294],[139.83378903032582,35.61883259813944]]]}},{"type":"Feature","properties":{"height":3.5,"gml_id":"bldg_be8d9c62-1244-4be1-a6c0-aefefba72d9a"},"geometry":{"type":"Polygon","coordinates":[[[139.83671193395227,35.62031225880548],[139.8367549870642,35.62030171143319],[139.83677165845074,35.62034687014485],[139.83672860531684,35.62035741752301],[139.83671193395227,35.62031225880548]]]}},{"type":"Feature","properties":{"height":7.7,"gml_id":"bldg_4c90e6a0-ca2c-4513-983c-2e6e605ef395"},"geometry":{"type":"Polygon","coordinates":[[[139.83506890738016,35.618625719514846],[139.83505720297947,35.6184901519461],[139.83518713329735,35.618482578414614],[139.8351987275269,35.618618236110756],[139.83506890738016,35.618625719514846]]]}},{"type":"Feature","properties":{"height":14.1,"gml_id":"bldg_60648a18-cbe7-49f0-aa68-7daa5cbce72e"},"geometry":{"type":"Polygon","coordinates":[[[139.82965481844877,35.62216503831047],[139.8291545048269,35.62211932199516],[139.82916433378745,35.622048113260405],[139.8292081608436,35.62205217098216],[139.82921224704535,35.6220220650064],[139.82928400418086,35.62202855738059],[139.8292877590195,35.622001335809294],[139.82936569829616,35.62200836917069],[139.82936183305628,35.62203622170725],[139.82955933086052,35.622054255669724],[139.8295629751856,35.62202757491493],[139.82960724383935,35.62203154236725],[139.82960326822314,35.62206074697908],[139.8296682912838,35.622066698087266],[139.82965481844877,35.62216503831047]]]}},{"type":"Feature","properties":{"height":6.6,"gml_id":"bldg_954652bd-25c4-4cda-915a-6fb7296f85db"},"geometry":{"type":"Polygon","coordinates":[[[139.83547598761078,35.621138763275056],[139.83546903092608,35.62107079928272],[139.83552676729252,35.621066832169696],[139.83553372402324,35.62113470602064],[139.83547598761078,35.621138763275056]]]}},{"type":"Feature","properties":{"height":2.9,"gml_id":"bldg_2d9a5174-32ff-4469-b682-b530d32420be"},"geometry":{"type":"Polygon","coordinates":[[[139.82994935404193,35.622205789350105],[139.82982140513062,35.62219532967252],[139.82982449732663,35.622170181241515],[139.8299524461983,35.62218064091586],[139.82994935404193,35.622205789350105]]]}},{"type":"Feature","properties":{"height":5.4,"gml_id":"bldg_ffd90712-30b0-48f2-b929-c3459d4f491f"},"geometry":{"type":"Polygon","coordinates":[[[139.8351758649937,35.61811643751666],[139.83516438136644,35.61798519657376],[139.83528029127876,35.61797843439666],[139.83529177509442,35.618109675328654],[139.8351758649937,35.61811643751666]]]}},{"type":"Feature","properties":{"height":8.7,"gml_id":"bldg_11478444-cff4-45bd-a347-4c66da20c8fc"},"geometry":{"type":"Polygon","coordinates":[[[139.83499956543346,35.617848098866254],[139.83499658433385,35.617821057467324],[139.83502815591874,35.617818803574025],[139.8350311370289,35.617845844972166],[139.83499956543346,35.617848098866254]]]}},{"type":"Feature","properties":{"height":10.2,"gml_id":"bldg_7bef0e7d-4b8a-4e68-9fc2-8bf51ea86ba9"},"geometry":{"type":"Polygon","coordinates":[[[139.83505841693471,35.61847392706639],[139.8350161270388,35.61799376185807],[139.83514484226166,35.61798618838857],[139.83518713292293,35.61846635355229],[139.83505841693471,35.61847392706639]]]}},{"type":"Feature","properties":{"height":9.7,"gml_id":"bldg_83f31e54-31d2-453d-bb20-9e1160048114"},"geometry":{"type":"Polygon","coordinates":[[[139.83666600637278,35.620221130468344],[139.83664580256334,35.620178045014555],[139.83668543333303,35.62016560486086],[139.8367055267708,35.62020878044928],[139.83666600637278,35.620221130468344]]]}},{"type":"Feature","properties":{"height":8.6,"gml_id":"bldg_ab27052b-6270-4f19-ae38-5ac6cbe6502e"},"geometry":{"type":"Polygon","coordinates":[[[139.8338007259636,35.61782133845522],[139.83376253089622,35.61781845417705],[139.83377169283239,35.61773408575147],[139.83380999824914,35.617736788848696],[139.8338007259636,35.61782133845522]]]}},{"type":"Feature","properties":{"height":2.6,"gml_id":"bldg_2be1c88e-7a63-4cf3-bebe-0f6639a1c95f"},"geometry":{"type":"Polygon","coordinates":[[[139.83365126143443,35.618824215736694],[139.83364618320974,35.61877121453586],[139.83367499541686,35.61876932155708],[139.83368018405253,35.61882241289453],[139.83365126143443,35.618824215736694]]]}},{"type":"Feature","properties":{"height":5.1,"gml_id":"bldg_adf66eec-4626-4771-9b52-1cce0e8ee2b7"},"geometry":{"type":"Polygon","coordinates":[[[139.83395706017328,35.62059182279322],[139.83395131918195,35.620527283948334],[139.83403731609582,35.62052214560521],[139.83404316755002,35.620586684445435],[139.83395706017328,35.62059182279322]]]}},{"type":"Feature","properties":{"height":1.8,"gml_id":"bldg_ffa9a2c2-0adf-4b0c-bb9c-76bf1f32bb03"},"geometry":{"type":"Polygon","coordinates":[[[139.83510156823348,35.61794382410949],[139.83510388695433,35.617967440266],[139.83506050354026,35.61797032531592],[139.83505807444163,35.61794670916016],[139.83510156823348,35.61794382410949]]]}},{"type":"Feature","properties":{"height":4.6,"gml_id":"bldg_9b086801-736b-460b-ab6f-8800651c4769"},"geometry":{"type":"Polygon","coordinates":[[[139.8336195777624,35.61847240672783],[139.83359584367815,35.61848087976554],[139.8335434075863,35.618382358898],[139.83356714164722,35.618373976008606],[139.8336195777624,35.61847240672783]]]}},{"type":"Feature","properties":{"height":2.9,"gml_id":"bldg_419b358a-38e6-4ac8-ab8e-37ef52064f69"},"geometry":{"type":"Polygon","coordinates":[[[139.83369817644373,35.618501881681986],[139.8337001635749,35.61852126137253],[139.83364353286075,35.61852522760906],[139.83364154574315,35.61850584791759],[139.83369817644373,35.618501881681986]]]}},{"type":"Feature","properties":{"height":2.7,"gml_id":"bldg_6e88c6af-10c1-41d4-9b70-789081ce9b39"},"geometry":{"type":"Polygon","coordinates":[[[139.8335957339332,35.61867873294479],[139.83359761066583,35.61870216885212],[139.83356581790898,35.61870388154195],[139.83356383079408,35.61868044563435],[139.8335957339332,35.61867873294479]]]}},{"type":"Feature","properties":{"height":3.8,"gml_id":"bldg_1f5f2c1d-1348-4831-a15b-7f36a7a17aa6"},"geometry":{"type":"Polygon","coordinates":[[[139.83368559256277,35.618666654207345],[139.83357928558675,35.61867458662591],[139.83357354507368,35.61862266707949],[139.8335685774606,35.61862302764178],[139.8335636097191,35.61857858955712],[139.8335758631578,35.61857768815185],[139.8335748696117,35.61856975599906],[139.8336738906232,35.6185623644338],[139.83368559256277,35.618666654207345]]]}},{"type":"Feature","properties":{"height":2.9,"gml_id":"bldg_34a23e48-b246-4089-9619-00f8cd5f2cbb"},"geometry":{"type":"Polygon","coordinates":[[[139.83370215068632,35.61853613415682],[139.83370369624976,35.61855461246729],[139.83365567603116,35.6185572266109],[139.83365413047866,35.61853874829979],[139.83370215068632,35.61853613415682]]]}},{"type":"Feature","properties":{"height":4.1,"gml_id":"bldg_5d961680-3620-449d-a284-09097c9049a5"},"geometry":{"type":"Polygon","coordinates":[[[139.8337779894511,35.61852486663539],[139.83378130131598,35.618547491292034],[139.83371870946564,35.61855353076274],[139.83371539761814,35.61853090610438],[139.8337779894511,35.61852486663539]]]}},{"type":"Feature","properties":{"height":7.5,"gml_id":"bldg_57ee1661-7808-42ac-a9e4-1d7f19836a8d"},"geometry":{"type":"Polygon","coordinates":[[[139.83390151912846,35.61878266114349],[139.8338151928937,35.618787889530594],[139.8338109977365,35.61874173882996],[139.83370148931132,35.61874840943523],[139.83369729422355,35.61870270942096],[139.8336664949932,35.61870460241059],[139.83367080046042,35.6187515643593],[139.83361306566485,35.61875507989384],[139.83360633152475,35.618680896236135],[139.8337577886208,35.61867170170942],[139.83375933419202,35.618688737808846],[139.83379123732925,35.61868684479128],[139.83378527582292,35.61862203550447],[139.83368912491864,35.6186278948047],[139.83368393627703,35.61857191904598],[139.83379863285475,35.61856497802219],[139.83379454811256,35.61851927800947],[139.833877562323,35.618514229928195],[139.8338877190917,35.61862600115403],[139.83393320034045,35.61862329679252],[139.83393695396455,35.618665301138435],[139.83389114151834,35.618668095640984],[139.83390151912846,35.61878266114349]]]}},{"type":"Feature","properties":{"height":2.6,"gml_id":"bldg_8bdac55c-17b5-4bf8-b117-dde0541b461c"},"geometry":{"type":"Polygon","coordinates":[[[139.833796094924,35.61875075270013],[139.83379940690315,35.618790593736286],[139.83374112012595,35.61879392905806],[139.83373780817507,35.61875399788223],[139.833796094924,35.61875075270013]]]}},{"type":"Feature","properties":{"height":4.5,"gml_id":"bldg_26f4f978-7a90-49f8-bd94-4d2a6dff474a"},"geometry":{"type":"Polygon","coordinates":[[[139.8341411049682,35.6223596998459],[139.8341376822163,35.622313909731155],[139.83419928343,35.62231093474795],[139.83420270621593,35.6223566347229],[139.8341411049682,35.6223596998459]]]}},{"type":"Feature","properties":{"height":3.3,"gml_id":"bldg_df0ef9ae-eb2f-4718-a22c-1229ad67fb8a"},"geometry":{"type":"Polygon","coordinates":[[[139.8336120873395,35.62313488954791],[139.83352774353236,35.62312632659838],[139.83354419249386,35.62301852145669],[139.83362853618925,35.62302699425681],[139.8336120873395,35.62313488954791]]]}},{"type":"Feature","properties":{"height":2.4,"gml_id":"bldg_ce815b24-576d-4244-9bd5-163d7340778f"},"geometry":{"type":"Polygon","coordinates":[[[139.83273386324112,35.62460621165862],[139.8327354089496,35.62459097833885],[139.83277625679185,35.62459386295166],[139.8327746006914,35.62460909627147],[139.83273386324112,35.62460621165862]]]}},{"type":"Feature","properties":{"height":2.5,"gml_id":"bldg_70d24745-9515-4323-b90e-4c5f645b851e"},"geometry":{"type":"Polygon","coordinates":[[[139.83267270186616,35.62460251567945],[139.83267435800354,35.62458511904828],[139.83272503140373,35.62458845442198],[139.83272326487827,35.624605760915244],[139.83267270186616,35.62460251567945]]]}},{"type":"Feature","properties":{"height":2.9,"gml_id":"bldg_27a2fa59-0402-4f58-8c43-d47ad4099181"},"geometry":{"type":"Polygon","coordinates":[[[139.8299717643763,35.62220876453371],[139.82997551889233,35.622183886531566],[139.8300364574125,35.622189927465094],[139.8300328133114,35.62221480547214],[139.8299717643763,35.62220876453371]]]}},{"type":"Feature","properties":{"height":16.7,"gml_id":"bldg_1422a726-35a4-4965-aef6-4e1c353da43d"},"geometry":{"type":"Polygon","coordinates":[[[139.8333333333333,35.61975408091869],[139.83325903877392,35.61984494010489],[139.8331658670995,35.61979419225889],[139.83330330649065,35.61962608480457],[139.8333333333333,35.61964239980564],[139.83333675551097,35.61964429270582],[139.8333964780569,35.61967683254571],[139.83333675551546,35.61974984442772],[139.8333333333333,35.61975408091869]]]}},{"type":"Feature","properties":{"height":8.1,"gml_id":"bldg_1491e4e9-de4c-4c66-8da6-c0336b067324"},"geometry":{"type":"Polygon","coordinates":[[[139.83133766928316,35.62338284312411],[139.83121413428157,35.62337058223962],[139.83129484893234,35.622828853923174],[139.83141849351028,35.622841114727734],[139.83133766928316,35.62338284312411]]]}},{"type":"Feature","properties":{"height":9.0,"gml_id":"bldg_1b4210c0-bf13-4445-8ee1-b4b74f017136"},"geometry":{"type":"Polygon","coordinates":[[[139.8311522767688,35.62464693579819],[139.83103392862358,35.624635125515404],[139.831114535285,35.62409619171092],[139.83123299304688,35.62410800191748],[139.83115371222428,35.6246373811928],[139.8311522767688,35.62464693579819]]]}},{"type":"Feature","properties":{"height":24.0,"gml_id":"bldg_56217aa7-fea6-4a1f-b2df-bbf680a05124"},"geometry":{"type":"Polygon","coordinates":[[[139.82791968505242,35.621044286127],[139.82834613854254,35.62106747002201],[139.82834050407192,35.62113723666616],[139.8279140502191,35.62111396261336],[139.82791968505242,35.621044286127]]]}},{"type":"Feature","properties":{"height":12.0,"gml_id":"bldg_60e1529c-5415-4da6-a0f5-59cf34de8772"},"geometry":{"type":"Polygon","coordinates":[[[139.83114062080278,35.622947292623095],[139.83004537278555,35.6228428878406],[139.83006922537024,35.62267595280237],[139.83007805709696,35.62267676428386],[139.83008313688347,35.62263908671136],[139.83010002755066,35.622640709650945],[139.8311600562956,35.62274195847778],[139.8311549769442,35.62278197968461],[139.83116413988503,35.622782791092476],[139.83114062080278,35.622947292623095]]]}},{"type":"Feature","properties":{"height":9.0,"gml_id":"bldg_5e4fc6ea-3df1-4557-ab6b-6d9b394c0e43"},"geometry":{"type":"Polygon","coordinates":[[[139.83267263553296,35.61924551989757],[139.83291362338656,35.6189575297015],[139.83300922254762,35.61900990024226],[139.83277121546183,35.619299513127004],[139.83267263553296,35.61924551989757]]]}},{"type":"Feature","properties":{"height":23.7,"gml_id":"bldg_651c1b6c-5479-4cda-8f70-015e54430662"},"geometry":{"type":"Polygon","coordinates":[[[139.82836733795227,35.6210090614182],[139.82815968623981,35.62099778541963],[139.8281639950204,35.620945144962015],[139.82837186742003,35.62095588013383],[139.82836733795227,35.6210090614182]]]}},{"type":"Feature","properties":{"height":19.0,"gml_id":"bldg_fed84b12-7409-4364-bb67-a27f6bdbc28c"},"geometry":{"type":"Polygon","coordinates":[[[139.83148803396412,35.61846211719093],[139.83179933390835,35.61863239247088],[139.8318854383804,35.61867953577386],[139.83172801626404,35.61887134769778],[139.83106103953472,35.61850636771359],[139.8313788654078,35.618119139896784],[139.831549637796,35.61821261578543],[139.83138923514525,35.61840803276246],[139.83148803396412,35.61846211719093]]]}},{"type":"Feature","properties":{"height":12.1,"gml_id":"bldg_cca5ee82-8a5d-4c54-b6f3-478db2f06a62"},"geometry":{"type":"Polygon","coordinates":[[[139.8297544771709,35.62281881268907],[139.8288097031489,35.62272747106596],[139.82881500434786,35.62268943300333],[139.8287988864653,35.622687990188815],[139.82881710947336,35.622554586541725],[139.82883344811808,35.62255611950014],[139.8288380867171,35.622521596795124],[139.82929413373785,35.6225631665946],[139.82978628086497,35.62260816098217],[139.8297812009571,35.622645477990105],[139.8297923510057,35.622646469836994],[139.8297737984331,35.62277924265346],[139.82976033001447,35.62277852115031],[139.8297544771709,35.62281881268907]]]}},{"type":"Feature","properties":{"height":13.7,"gml_id":"bldg_e2cdb834-677d-492e-a9a6-41abf7bb8255"},"geometry":{"type":"Polygon","coordinates":[[[139.83267263553296,35.61924551989757],[139.83264945291916,35.61927310203059],[139.83212928866547,35.618982763089036],[139.8324059346321,35.61865222905371],[139.83292609774585,35.61894247667876],[139.83291362338656,35.6189575297015],[139.83267263553296,35.61924551989757]]]}},{"type":"Feature","properties":{"height":29.9,"gml_id":"bldg_e1793eb9-e7c1-4496-b667-5b5b0a93c42b"},"geometry":{"type":"Polygon","coordinates":[[[139.82836733795227,35.6210090614182],[139.82836247691483,35.62106837207806],[139.82834613854254,35.62106747002201],[139.82791968505242,35.621044286127],[139.82791824992674,35.621044195924426],[139.82792742021957,35.620932334971116],[139.8281639950204,35.620945144962015],[139.82815968623981,35.62099778541963],[139.82836733795227,35.6210090614182]]]}},{"type":"Feature","properties":{"height":3.2,"gml_id":"bldg_78bc0f44-e8ec-45c0-b5fd-3e224dac2e8a"},"geometry":{"type":"Polygon","coordinates":[[[139.83047919657375,35.62078594804963],[139.8304748900022,35.62081938917862],[139.83043271945493,35.620815782647206],[139.83043691564944,35.62078234151704],[139.83047919657375,35.62078594804963]]]}},{"type":"Feature","properties":{"height":3.8,"gml_id":"bldg_f652cab9-22ba-4990-ab37-46adf0294294"},"geometry":{"type":"Polygon","coordinates":[[[139.83024074554598,35.6207633175045],[139.83020232901265,35.620745198756225],[139.83022231148817,35.620716805775416],[139.8302607280124,35.620734924517414],[139.83024074554598,35.6207633175045]]]}},{"type":"Feature","properties":{"height":5.5,"gml_id":"bldg_f08d6083-4b57-4f1e-9a3c-45f36715d4cc"},"geometry":{"type":"Polygon","coordinates":[[[139.83243373385156,35.62038720757605],[139.8325035036539,35.62030112619501],[139.83253860867234,35.620320145570076],[139.83255549911974,35.62029923364188],[139.8325971173498,35.620321678289436],[139.83255163457608,35.62037765376054],[139.83253595873538,35.62036918067683],[139.83249467091218,35.62042019855848],[139.83243373385156,35.62038720757605]]]}},{"type":"Feature","properties":{"height":2.7,"gml_id":"bldg_6b93c88a-fb28-4fb2-a9ef-275d6cba1088"},"geometry":{"type":"Polygon","coordinates":[[[139.83210688463805,35.6186204076238],[139.83214519014808,35.61864159046624],[139.83210876029878,35.618685577504685],[139.8320703443873,35.61866430451152],[139.83210688463805,35.6186204076238]]]}},{"type":"Feature","properties":{"height":6.0,"gml_id":"bldg_bb166b8e-6d66-4dd7-8170-66c350aeed87"},"geometry":{"type":"Polygon","coordinates":[[[139.83177783392077,35.6172719373697],[139.83180918420084,35.61729077664203],[139.83178401483437,35.617318719144926],[139.83175266454927,35.617299879866124],[139.83177783392077,35.6172719373697]]]}},{"type":"Feature","properties":{"height":4.0,"gml_id":"bldg_38030353-3679-4e61-87d8-7c84c6d3343e"},"geometry":{"type":"Polygon","coordinates":[[[139.83231223712193,35.616697672952604],[139.83228397719284,35.61672840981914],[139.83225041926926,35.61670776788576],[139.83227867920388,35.616677031026995],[139.83231223712193,35.616697672952604]]]}},{"type":"Feature","properties":{"height":6.0,"gml_id":"bldg_9add7196-b7da-498c-8429-817665277aae"},"geometry":{"type":"Polygon","coordinates":[[[139.83016279918556,35.620964413553466],[139.83005174255783,35.620955036218774],[139.8300737182074,35.62077962809567],[139.83018477459518,35.62078900541035],[139.83016279918556,35.620964413553466]]]}},{"type":"Feature","properties":{"height":7.9,"gml_id":"bldg_cae18a93-7a43-4848-adac-7d0e96a5533c"},"geometry":{"type":"Polygon","coordinates":[[[139.83249422557955,35.6207798495435],[139.83247866218517,35.620571720581694],[139.83259082264667,35.62056604262527],[139.83260638633055,35.62077417157278],[139.83249422557955,35.6207798495435]]]}},{"type":"Feature","properties":{"height":5.3,"gml_id":"bldg_b85d67e7-21c4-42c1-b057-d6b5283723e8"},"geometry":{"type":"Polygon","coordinates":[[[139.83270024074753,35.61833900097933],[139.83261060365206,35.6182917680967],[139.8326709881429,35.61821533131172],[139.83276062518925,35.618262474011885],[139.83270024074753,35.61833900097933]]]}},{"type":"Feature","properties":{"height":5.3,"gml_id":"bldg_3d110727-e3f9-4d99-b1c9-b245cf1942fb"},"geometry":{"type":"Polygon","coordinates":[[[139.83239313494744,35.61816304934943],[139.83230217354824,35.61811518525871],[139.83236333094942,35.61803748669845],[139.8324544026868,35.61808544088256],[139.83239313494744,35.61816304934943]]]}},{"type":"Feature","properties":{"height":5.3,"gml_id":"bldg_23b6c676-000a-49e0-9ff9-5143710d996d"},"geometry":{"type":"Polygon","coordinates":[[[139.83201240026023,35.61797096142135],[139.83192386793354,35.61792093375495],[139.8319861293837,35.61784756202696],[139.83207466166834,35.61789758964824],[139.83201240026023,35.61797096142135]]]}},{"type":"Feature","properties":{"height":4.8,"gml_id":"bldg_68805203-cb71-4941-ba6b-fd986fbbc267"},"geometry":{"type":"Polygon","coordinates":[[[139.8326904257864,35.61710933648454],[139.83260101085224,35.617061562757435],[139.83265819309676,35.61699044409434],[139.83274749759786,35.617038037502745],[139.8326904257864,35.61710933648454]]]}},{"type":"Feature","properties":{"height":12.0,"gml_id":"bldg_c2d2b338-e3d8-4f8b-80f9-ce2386a9944b"},"geometry":{"type":"Polygon","coordinates":[[[139.82974674690013,35.62287406708908],[139.82974056276618,35.62291625151587],[139.82975458316628,35.62291760400401],[139.82973558901986,35.62304722196354],[139.8297214582,35.62304586946991],[139.82971571575155,35.62308534976581],[139.82876994513833,35.62299265573411],[139.8287751358075,35.62295759222659],[139.8287608946273,35.62295614947805],[139.82878099467516,35.622819861495714],[139.8287962294012,35.62282139441739],[139.8288020827002,35.622781553615525],[139.82974674690013,35.62287406708908]]]}},{"type":"Feature","properties":{"height":11.3,"gml_id":"bldg_066ad1c0-18e2-4ede-a37b-6d573c3b0884"},"geometry":{"type":"Polygon","coordinates":[[[139.82944201294265,35.62136938283984],[139.8292787392482,35.62135342301551],[139.8293991103881,35.62052866350943],[139.82956238243852,35.62054444289652],[139.82944201294265,35.62136938283984]]]}},{"type":"Feature","properties":{"height":21.4,"gml_id":"bldg_bb6abf80-a629-4870-b5d9-4db60159fec2"},"geometry":{"type":"Polygon","coordinates":[[[139.83285300957652,35.620406679805654],[139.83272241415807,35.62033601094723],[139.83298471118155,35.62001259649375],[139.8331154166984,35.62008326507188],[139.83285300957652,35.620406679805654]]]}},{"type":"Feature","properties":{"height":34.4,"gml_id":"bldg_a2bd1f9b-a7ff-4714-a048-85719b58bed8"},"geometry":{"type":"Polygon","coordinates":[[[139.83103013638973,35.61828282457607],[139.83094524716878,35.61823486943969],[139.83100386673453,35.61816582478108],[139.83108864552662,35.618213779874644],[139.83103013638973,35.61828282457607]]]}},{"type":"Feature","properties":{"height":25.4,"gml_id":"bldg_e2859bdc-2573-4145-8aae-24cf4709258f"},"geometry":{"type":"Polygon","coordinates":[[[139.83206968536768,35.61845266019214],[139.83187650268755,35.6183476470953],[139.83193909574086,35.618271030428254],[139.8321322783186,35.61837604342608],[139.83206968536768,35.61845266019214]]]}},{"type":"Feature","properties":{"height":12.0,"gml_id":"bldg_e7501a41-2368-4682-a9cb-46e6ffab7576"},"geometry":{"type":"Polygon","coordinates":[[[139.8296766227046,35.62335576274438],[139.82917078187663,35.62330779288631],[139.82873305672769,35.62326622332589],[139.82873891012656,35.62322575156367],[139.8287210257893,35.62322403825734],[139.82874002182618,35.623090724801436],[139.82875647097606,35.62309225777438],[139.82876199308097,35.62305313806811],[139.82970831651556,35.62314294776025],[139.82970213229177,35.62318621383981],[139.8297160423447,35.623187476191006],[139.82969771049625,35.62331628291616],[139.82968247565503,35.62331484024664],[139.8296766227046,35.62335576274438]]]}},{"type":"Feature","properties":{"height":2.4,"gml_id":"bldg_357cc584-8493-404f-821f-cfc484d64bde"},"geometry":{"type":"Polygon","coordinates":[[[139.83280277419462,35.62134051018826],[139.83280707939855,35.621372148673544],[139.83277760386054,35.62137485268362],[139.83277318827285,35.62134321419679],[139.83280277419462,35.62134051018826]]]}},{"type":"Feature","properties":{"height":2.8,"gml_id":"bldg_d8794fa9-c67f-45ec-8970-35c81b142617"},"geometry":{"type":"Polygon","coordinates":[[[139.83274769360935,35.62043534325397],[139.8327246210562,35.62046499857271],[139.8326663332978,35.62043480200245],[139.8326894058638,35.62040514669474],[139.83274769360935,35.62043534325397]]]}},{"type":"Feature","properties":{"height":4.4,"gml_id":"bldg_6dee6f7b-e80e-4874-99e7-47d4669ea2f2"},"geometry":{"type":"Polygon","coordinates":[[[139.83269052384728,35.61865006759321],[139.83264316539493,35.61871000918173],[139.8324262472999,35.618595712605924],[139.83247360584582,35.618535861239636],[139.83269052384728,35.61865006759321]]]}},{"type":"Feature","properties":{"height":3.2,"gml_id":"bldg_a3c572a4-ab51-4d67-b265-c9e722375717"},"geometry":{"type":"Polygon","coordinates":[[[139.8321794086441,35.618840255215595],[139.83220027251969,35.618851612816535],[139.83216472574756,35.61889505904996],[139.8321438618657,35.618883701442925],[139.8321794086441,35.618840255215595]]]}},{"type":"Feature","properties":{"height":10.1,"gml_id":"bldg_15634764-eb58-4f6d-a3c3-96769e7df7ec"},"geometry":{"type":"Polygon","coordinates":[[[139.8322080000172,35.61884620460186],[139.83207255052497,35.61877210972671],[139.83227766145976,35.61852206854929],[139.83241300032822,35.61859616319608],[139.8322080000172,35.61884620460186]]]}},{"type":"Feature","properties":{"height":9.0,"gml_id":"bldg_8506b99c-38ac-44c7-a6c3-ea6a470dd6fc"},"geometry":{"type":"Polygon","coordinates":[[[139.82922558392232,35.62027500911843],[139.8291447760758,35.620268516393295],[139.8291561515754,35.62017333095687],[139.82926190817216,35.6201818075583],[139.82925925760648,35.620203891302786],[139.82923430875465,35.620201907418405],[139.82922558392232,35.62027500911843]]]}},{"type":"Feature","properties":{"height":7.7,"gml_id":"bldg_06ec935a-3215-4847-bd41-7872815c3ddb"},"geometry":{"type":"Polygon","coordinates":[[[139.83186916540956,35.62117140341716],[139.83180911117964,35.62113922337642],[139.83186861537118,35.62106522074695],[139.83192866956648,35.6210975810346],[139.83186916540956,35.62117140341716]]]}},{"type":"Feature","properties":{"height":5.1,"gml_id":"bldg_aa3594f2-1ad0-4e05-b7f7-12e66a290e6e"},"geometry":{"type":"Polygon","coordinates":[[[139.83275574904994,35.62089639962973],[139.83275045056877,35.62083339308049],[139.83281723924205,35.620829787861545],[139.8328224273814,35.62089270426932],[139.83275574904994,35.62089639962973]]]}},{"type":"Feature","properties":{"height":8.3,"gml_id":"bldg_2a093d67-fd19-469b-951d-f533570dd902"},"geometry":{"type":"Polygon","coordinates":[[[139.8327524394917,35.62058136698864],[139.8326014210794,35.62050024188205],[139.83264315045867,35.62044841272418],[139.83279438960375,35.62052953778016],[139.8327524394917,35.62058136698864]]]}},{"type":"Feature","properties":{"height":4.3,"gml_id":"bldg_ccf0b95c-ac49-49b3-a88f-a393472514c6"},"geometry":{"type":"Polygon","coordinates":[[[139.83236200896596,35.61781385398143],[139.8323211646227,35.617808084804665],[139.83232569088756,35.61778717279545],[139.83231752202303,35.61778591079297],[139.83231277495722,35.61780826501017],[139.83227215140096,35.61780249581863],[139.83228882135083,35.617724436339564],[139.83232745784753,35.61773002523272],[139.83232260039304,35.61775274000211],[139.83233286666638,35.61775418229796],[139.83233695134422,35.6177348927709],[139.83237757487095,35.61774066194064],[139.83236200896596,35.61781385398143]]]}},{"type":"Feature","properties":{"height":4.3,"gml_id":"bldg_b5a73c20-093a-4cff-bcb1-22f53c942fdd"},"geometry":{"type":"Polygon","coordinates":[[[139.83275687384264,35.61799142863908],[139.83273104263534,35.617967001079066],[139.83275389359014,35.617950866465534],[139.83273788708033,35.61793563304316],[139.83271790629493,35.617949784629495],[139.8326908608271,35.61792418525877],[139.8327128286494,35.61790868161511],[139.83272452995237,35.61791976866512],[139.83275146536147,35.61790083979037],[139.8327385497716,35.61788858094125],[139.83276658907718,35.617868750687116],[139.8327969462427,35.61789741475237],[139.83277199898575,35.61791517185087],[139.83278535504115,35.61792770111277],[139.8328053358092,35.61791354951519],[139.83283436832687,35.617941041769285],[139.83280886800642,35.61795906928738],[139.83279827058382,35.61794906390812],[139.83277541963844,35.617965198530094],[139.83278336770414,35.61797277016971],[139.83275687384264,35.61799142863908]]]}},{"type":"Feature","properties":{"height":5.9,"gml_id":"bldg_836b089b-124b-4595-97ac-089134927f12"},"geometry":{"type":"Polygon","coordinates":[[[139.83304786490922,35.6175531780692],[139.83300779338947,35.617544795120764],[139.83301441686876,35.617523973228536],[139.8330060272422,35.617522260581424],[139.83299874141224,35.61754524578666],[139.83295911146126,35.617536862823236],[139.83298284562517,35.61746159754876],[139.83301938462805,35.61746943966764],[139.83301298193717,35.61748954045578],[139.83302633910048,35.617492334772855],[139.8330329625713,35.617471332603166],[139.83307126782026,35.617479445125085],[139.83304786490922,35.6175531780692]]]}},{"type":"Feature","properties":{"height":4.7,"gml_id":"bldg_85b3fbb3-1649-46f3-995f-1f977905906d"},"geometry":{"type":"Polygon","coordinates":[[[139.8326378780305,35.617389755954],[139.83261436526394,35.617362263683106],[139.83263787838555,35.617348743099974],[139.83263114468318,35.61734099118079],[139.83260752117303,35.61735451176195],[139.83258478114627,35.61732792087118],[139.83266249582712,35.61728357336324],[139.83268667091977,35.617311696595664],[139.8326655864013,35.61732377499161],[139.83267187855142,35.61733098607761],[139.83269230073014,35.61731926822963],[139.83271493040175,35.61734567882329],[139.8326378780305,35.617389755954]]]}},{"type":"Feature","properties":{"height":12.0,"gml_id":"bldg_c3f34ecd-31ad-4f03-8d68-90926af82349"},"geometry":{"type":"Polygon","coordinates":[[[139.83109192796672,35.6232195086532],[139.83001113833774,35.623116275626955],[139.83001710151643,35.62307490242408],[139.83001169205914,35.62307436144675],[139.83003631776734,35.62290246884959],[139.83113222896506,35.62300705400161],[139.83110727432967,35.623180659436755],[139.8310975593581,35.623179757876336],[139.83109192796672,35.6232195086532]]]}},{"type":"Feature","properties":{"height":6.5,"gml_id":"bldg_1ea1124f-db54-497b-a9bd-519db45217a2"},"geometry":{"type":"Polygon","coordinates":[[[139.82970479603173,35.62042825926664],[139.82959296988432,35.6203664211136],[139.82965490423567,35.6202917886767],[139.82976661992905,35.62035371690786],[139.82970479603173,35.62042825926664]]]}},{"type":"Feature","properties":{"height":6.8,"gml_id":"bldg_e54b5dea-4307-43a7-a62a-1818251dcf5a"},"geometry":{"type":"Polygon","coordinates":[[[139.82872301470064,35.62127020558287],[139.82854616274992,35.62125442452136],[139.82855687586624,35.621173751362306],[139.82873372764658,35.62118944227019],[139.82872301470064,35.62127020558287]]]}},{"type":"Feature","properties":{"height":3.3,"gml_id":"bldg_91865c0a-e4a2-4019-b60d-a3182d174528"},"geometry":{"type":"Polygon","coordinates":[[[139.82854428842577,35.62121431300009],[139.8285076374799,35.621211156704774],[139.8285128284188,35.621171586294004],[139.82854947934683,35.62117474258777],[139.82854428842577,35.62121431300009]]]}},{"type":"Feature","properties":{"height":4.6,"gml_id":"bldg_bac7053c-a011-4deb-adf0-ad9a4d2e4d55"},"geometry":{"type":"Polygon","coordinates":[[[139.8287581207722,35.62126245504603],[139.82872599600847,35.62125902857472],[139.8287335055662,35.62121197678251],[139.82876563031147,35.62121540325186],[139.8287581207722,35.62126245504603]]]}},{"type":"Feature","properties":{"height":11.9,"gml_id":"bldg_b9287767-98eb-4395-ab63-77efa405085f"},"geometry":{"type":"Polygon","coordinates":[[[139.83105394365575,35.623483342015795],[139.8300999973205,35.62339164979461],[139.8299780080433,35.623379928512435],[139.82998308783473,35.62334432412374],[139.82996542424033,35.6233426110083],[139.82998485988708,35.62320794530017],[139.83000318583865,35.623209658431136],[139.83000892816585,35.623169907708174],[139.8310845298113,35.623273320932704],[139.83107856715253,35.623315235015376],[139.8310956787778,35.62331685781933],[139.83107635539054,35.623450622325834],[139.83105891254556,35.62344890937487],[139.83105394365575,35.623483342015795]]]}},{"type":"Feature","properties":{"height":4.1,"gml_id":"bldg_a75ca61b-4273-42cc-ba57-6519111190af"},"geometry":{"type":"Polygon","coordinates":[[[139.83280135159634,35.61944724962719],[139.8327815911681,35.61947059530865],[139.83275575940635,35.61945608295198],[139.83277540944664,35.61943264713608],[139.83280135159634,35.61944724962719]]]}},{"type":"Feature","properties":{"height":2.3,"gml_id":"bldg_296a9ac0-4493-4c63-9231-42cef8d2df4f"},"geometry":{"type":"Polygon","coordinates":[[[139.8328824829293,35.62072955456775],[139.83288369717297,35.62074632025706],[139.83285620897348,35.6207476722227],[139.83285499473604,35.62073081639503],[139.8328824829293,35.62072955456775]]]}},{"type":"Feature","properties":{"height":5.2,"gml_id":"bldg_18bac1fc-b609-482c-aaa6-61ee116a42f7"},"geometry":{"type":"Polygon","coordinates":[[[139.82950089917983,35.62041374072018],[139.82949615074858,35.620445018487935],[139.82934855480337,35.62043014091125],[139.82935010080533,35.620420315910046],[139.8293326586552,35.620418602708334],[139.8293350881374,35.620402197655686],[139.82934954966288,35.62040364034425],[139.82935032267474,35.62039850249838],[139.82950089917983,35.62041374072018]]]}},{"type":"Feature","properties":{"height":6.9,"gml_id":"bldg_d7de7db3-72fa-4da8-8d03-3a15a26a974a"},"geometry":{"type":"Polygon","coordinates":[[[139.82859619056995,35.62093452643596],[139.82875648262754,35.62095039693501],[139.8287353891021,35.621092814307524],[139.8287137518368,35.621090740303885],[139.82870083064228,35.621177452644716],[139.8286321653934,35.621170599490654],[139.82863415329305,35.62115707885565],[139.82856416333382,35.62115013547305],[139.82859619056995,35.62093452643596]]]}},{"type":"Feature","properties":{"height":22.5,"gml_id":"bldg_62fc5353-a6f9-413f-99e5-9683c4cb5782"},"geometry":{"type":"Polygon","coordinates":[[[139.82852520412177,35.62097995321975],[139.82850245257507,35.62115031329066],[139.8283763822856,35.62113922118545],[139.82839913410206,35.62096877099997],[139.82852520412177,35.62097995321975]]]}},{"type":"Feature","properties":{"height":39.8,"gml_id":"bldg_e2b53edb-b452-4aea-9e25-a6f44691d13c"},"geometry":{"type":"Polygon","coordinates":[[[139.82789926316357,35.621027429385656],[139.82783402020573,35.62102264910681],[139.8278365608388,35.62099993442509],[139.82784980813403,35.621000926547694],[139.82785743008716,35.62093170084381],[139.8279094256809,35.620935579133516],[139.82789926316357,35.621027429385656]]]}},{"type":"Feature","properties":{"height":9.9,"gml_id":"bldg_cdbc5d05-de6b-48b5-a2f1-ca740153f4f0"},"geometry":{"type":"Polygon","coordinates":[[[139.8288503298847,35.6207384858174],[139.82863152944742,35.62071918792617],[139.82865891926306,35.62051250234714],[139.82887771913892,35.62053189032734],[139.8288503298847,35.6207384858174]]]}},{"type":"Feature","properties":{"height":29.6,"gml_id":"bldg_c675c34f-dde1-4496-a238-a8505370e6c0"},"geometry":{"type":"Polygon","coordinates":[[[139.8285787717415,35.62053719704855],[139.82857435408346,35.620569195897104],[139.8286480969371,35.62057613942044],[139.82863771557007,35.62065005225171],[139.8285643038267,35.620643198873296],[139.8285599966049,35.62067429634422],[139.82839628288298,35.620658966271456],[139.82840346159992,35.62060857937218],[139.82835477805753,35.62060407046574],[139.82835974799872,35.620568466124524],[139.82841825653446,35.62057396694921],[139.82842543527408,35.620522858943154],[139.8285787717415,35.62053719704855]]]}},{"type":"Feature","properties":{"height":25.8,"gml_id":"bldg_92c9d062-bde2-4db8-9ed5-44851dc8b25a"},"geometry":{"type":"Polygon","coordinates":[[[139.82835665829313,35.620547013130846],[139.82834583495625,35.620622999095154],[139.82816931575087,35.62060622597363],[139.8281800288584,35.620530240020244],[139.82835665829313,35.620547013130846]]]}},{"type":"Feature","properties":{"height":18.2,"gml_id":"bldg_97cc01cf-e523-4d68-8546-65ea876719ed"},"geometry":{"type":"Polygon","coordinates":[[[139.8280352159725,35.62016481389841],[139.82802858892518,35.62021682328951],[139.8279807887601,35.62021276496106],[139.82797990510664,35.620220336522024],[139.8279221695713,35.62021546648556],[139.82792426817892,35.62019870089355],[139.8279146639913,35.620197889219114],[139.8279188611593,35.62016507914],[139.82792669905842,35.62016571045865],[139.82792791405464,35.62015579532232],[139.8280352159725,35.62016481389841]]]}},{"type":"Feature","properties":{"height":25.9,"gml_id":"bldg_93ef4b9d-682b-4e42-a92d-b2f75a8cb965"},"geometry":{"type":"Polygon","coordinates":[[[139.82790219295913,35.62014696063192],[139.8278941307471,35.6201984291225],[139.82790925455936,35.620200052290066],[139.82790395335175,35.620234304528495],[139.82780283350445,35.62022375377185],[139.82780327528994,35.62022068909681],[139.82773560449058,35.62021365520017],[139.8277398013371,35.62018652382754],[139.82772158652972,35.62018463008049],[139.82773031150114,35.62012901527961],[139.82790219295913,35.62014696063192]]]}},{"type":"Feature","properties":{"height":22.8,"gml_id":"bldg_6958d294-26bf-4bfb-b73d-37cce442f686"},"geometry":{"type":"Polygon","coordinates":[[[139.82782924291624,35.61985400849279],[139.82782703363893,35.61987465001747],[139.82784193663954,35.61987573235486],[139.82783674483719,35.61992431655544],[139.82774622284757,35.61991791258649],[139.8277514147544,35.61986860728496],[139.8276860623471,35.61986391705816],[139.82768816121654,35.61984399663569],[139.82782924291624,35.61985400849279]]]}},{"type":"Feature","properties":{"height":2.8,"gml_id":"bldg_39e926c0-5670-41c4-9d76-697aa2224ff4"},"geometry":{"type":"Polygon","coordinates":[[[139.82801988259862,35.61999355083328],[139.82804118843586,35.61999463342822],[139.82803842628587,35.62002978716622],[139.82801712043934,35.62002870457082],[139.82801988259862,35.61999355083328]]]}},{"type":"Feature","properties":{"height":1.9,"gml_id":"bldg_0a4e5792-ab15-4180-9f4e-e2a51a9a94e2"},"geometry":{"type":"Polygon","coordinates":[[[139.82745157359744,35.62005157336699],[139.8274479288391,35.62007582033796],[139.82740918104074,35.620071852362564],[139.82741293621064,35.6200475152601],[139.82745157359744,35.62005157336699]]]}},{"type":"Feature","properties":{"height":20.7,"gml_id":"bldg_4d584e9f-1bb4-4f3a-8cb8-9435b7442d92"},"geometry":{"type":"Polygon","coordinates":[[[139.83187341100108,35.618388209214444],[139.83204396379335,35.618479250666276],[139.83194405757322,35.61860409085623],[139.83177350462913,35.61851304926487],[139.83180642960934,35.61847187098612],[139.83187341100108,35.618388209214444]]]}},{"type":"Feature","properties":{"height":11.3,"gml_id":"bldg_c48f17b4-78be-488c-8116-987fdcccebee"},"geometry":{"type":"Polygon","coordinates":[[[139.82939663843652,35.62366420632337],[139.82939785321147,35.62365618407693],[139.82966711355513,35.62368278329512],[139.82955402965536,35.624446970106135],[139.82954353836215,35.624517908409324],[139.82927427525513,35.62449139905651],[139.82939663843652,35.62366420632337]]]}},{"type":"Feature","properties":{"height":10.9,"gml_id":"bldg_18b9cbd6-a391-4149-a331-2bbe63027824"},"geometry":{"type":"Polygon","coordinates":[[[139.82920185365765,35.62448229265333],[139.82897156160465,35.6244591190612],[139.8290965773997,35.62363219713861],[139.82932686711774,35.623655370494824],[139.82920185365765,35.62448229265333]]]}},{"type":"Feature","properties":{"height":8.1,"gml_id":"bldg_cfb157dc-db03-4951-a872-260aa3e96b51"},"geometry":{"type":"Polygon","coordinates":[[[139.8284743515055,35.6221548108838],[139.8284658473868,35.62221430166569],[139.82832144981347,35.62220041448296],[139.8283509382843,35.62199652339241],[139.82843053337675,35.62200418839374],[139.82842733052527,35.62202654250496],[139.82849202226643,35.622032764648715],[139.82848318686547,35.62209423845726],[139.8284743515055,35.6221548108838]]]}},{"type":"Feature","properties":{"height":24.2,"gml_id":"bldg_84713305-a318-421b-96a8-8277fa72d274"},"geometry":{"type":"Polygon","coordinates":[[[139.83194021899806,35.62352058253784],[139.83202257589326,35.62352851561025],[139.83202831725114,35.62348831410289],[139.83206850210289,35.62349219046756],[139.83207071030327,35.623477047298486],[139.8321101223661,35.62348083350314],[139.83210802457938,35.62349543584575],[139.83219347260922,35.62350363924692],[139.83218762093472,35.623543840761],[139.8322648995682,35.62355123279106],[139.83225054646326,35.62365056479101],[139.8325567911605,35.62367995215721],[139.83245587939274,35.62438041417983],[139.8321087843818,35.62434706007867],[139.83209851614447,35.62441880985015],[139.8318561899089,35.6243955515097],[139.83187794132675,35.62424411987313],[139.8318365417191,35.62424015329224],[139.83194021899806,35.62352058253784]]]}},{"type":"Feature","properties":{"height":38.1,"gml_id":"bldg_d920725d-9c0e-4039-bb69-60d50568b860"},"geometry":{"type":"Polygon","coordinates":[[[139.82830876499852,35.62202834038004],[139.8278628772982,35.621996502220576],[139.82787381348663,35.62189383545266],[139.82787491743971,35.62189392564076],[139.82813765851677,35.621912685976845],[139.8283213565552,35.621925763779124],[139.82830876499852,35.62202834038004]]]}},{"type":"Feature","properties":{"height":9.2,"gml_id":"bldg_3615cc96-85d8-48d3-a8cf-10275186812d"},"geometry":{"type":"Polygon","coordinates":[[[139.83004537278555,35.6228428878406],[139.83114062080278,35.622947292623095],[139.83113222896506,35.62300705400161],[139.83003631776734,35.62290246884959],[139.83004537278555,35.6228428878406]]]}},{"type":"Feature","properties":{"height":8.5,"gml_id":"bldg_bacd5346-deb3-46f3-9cbc-32a2e8e1b261"},"geometry":{"type":"Polygon","coordinates":[[[139.83001113833774,35.623116275626955],[139.83109192796672,35.6232195086532],[139.8310845298113,35.623273320932704],[139.83000892816585,35.623169907708174],[139.83001113833774,35.623116275626955]]]}},{"type":"Feature","properties":{"height":8.7,"gml_id":"bldg_79863b46-1ebf-4f85-885b-a45c5c6b0407"},"geometry":{"type":"Polygon","coordinates":[[[139.8288097031489,35.62272747106596],[139.8297544771709,35.62281881268907],[139.82974674690013,35.62287406708908],[139.8288020827002,35.622781553615525],[139.8288097031489,35.62272747106596]]]}},{"type":"Feature","properties":{"height":8.8,"gml_id":"bldg_48510e7b-cdaa-4ef9-860d-d911311fd4bf"},"geometry":{"type":"Polygon","coordinates":[[[139.82876994513833,35.62299265573411],[139.82971571575155,35.62308534976581],[139.82970831651556,35.62314294776025],[139.82876199308097,35.62305313806811],[139.82876994513833,35.62299265573411]]]}},{"type":"Feature","properties":{"height":7.8,"gml_id":"bldg_a0d5126f-03ee-494b-9afd-cc578b2dc3d3"},"geometry":{"type":"Polygon","coordinates":[[[139.82920185365765,35.62448229265333],[139.82932686711774,35.623655370494824],[139.82939663843652,35.62366420632337],[139.82927427525513,35.62449139905651],[139.82920185365765,35.62448229265333]]]}},{"type":"Feature","properties":{"height":11.4,"gml_id":"bldg_421479e2-bb6a-44ec-8b4b-345c2f4741f2"},"geometry":{"type":"Polygon","coordinates":[[[139.83194021899806,35.62352058253784],[139.8318365417191,35.62424015329224],[139.8318356583276,35.624250789569714],[139.83160834692364,35.624229063262476],[139.83171279923434,35.62349885642381],[139.83194021899806,35.62352058253784]]]}},{"type":"Feature","properties":{"height":3.7,"gml_id":"bldg_f9b3451a-d93d-4eed-ae2e-c652679a21b1"},"geometry":{"type":"Polygon","coordinates":[[[139.8284743515055,35.6221548108838],[139.82848318686547,35.62209423845726],[139.82850007738574,35.62209586162127],[139.8284913524346,35.6221564340535],[139.8284743515055,35.6221548108838]]]}},{"type":"Feature","properties":{"height":21.1,"gml_id":"bldg_6461c0b5-a47a-4bec-b72a-fc79ff561b9c"},"geometry":{"type":"Polygon","coordinates":[[[139.8278628772982,35.621996502220576],[139.82830876499852,35.62202834038004],[139.8283051196643,35.622064485594215],[139.82785901097256,35.62203264741141],[139.8278628772982,35.621996502220576]]]}},{"type":"Feature","properties":{"height":23.1,"gml_id":"bldg_c1b99770-4fe4-40e1-b293-d85641e7a6af"},"geometry":{"type":"Polygon","coordinates":[[[139.8283213565552,35.621925763779124],[139.82813765851677,35.621912685976845],[139.82787491743971,35.62189392564076],[139.82787723718067,35.62187292357484],[139.82832400722762,35.621907015170315],[139.8283213565552,35.621925763779124]]]}},{"type":"Feature","properties":{"height":9.1,"gml_id":"bldg_6bcf6d45-a122-493a-8f05-cfe38b4b8c27"},"geometry":{"type":"Polygon","coordinates":[[[139.82873305672769,35.62326622332589],[139.82917078187663,35.62330779288631],[139.8296766227046,35.62335576274438],[139.82966734631623,35.62342066185877],[139.82872377958725,35.623331122368526],[139.82873305672769,35.62326622332589]]]}},{"type":"Feature","properties":{"height":8.9,"gml_id":"bldg_cb5e4f93-25f8-4921-ad9b-50bb9bafe616"},"geometry":{"type":"Polygon","coordinates":[[[139.8299780080433,35.623379928512435],[139.8300999973205,35.62339164979461],[139.83105394365575,35.623483342015795],[139.83104455796226,35.62354842150889],[139.82996862149005,35.6234450079228],[139.8299780080433,35.623379928512435]]]}},{"type":"Feature","properties":{"height":6.4,"gml_id":"bldg_a7788db5-1c4f-4e01-a1e7-9c799c05b0e5"},"geometry":{"type":"Polygon","coordinates":[[[139.83129044292997,35.622440178526304],[139.8312589799089,35.622439006193865],[139.83125986346622,35.622424133428396],[139.83129121608482,35.62242530575872],[139.83129044292997,35.622440178526304]]]}},{"type":"Feature","properties":{"height":3.5,"gml_id":"bldg_05989799-4da8-4175-84e0-7885c722f455"},"geometry":{"type":"Polygon","coordinates":[[[139.83330341488096,35.625002279646765],[139.83328067244253,35.62500020646436],[139.83328442606538,35.62497334533405],[139.83330716849625,35.62497550865376],[139.83330341488096,35.625002279646765]]]}},{"type":"Feature","properties":{"height":9.6,"gml_id":"bldg_87009604-9c84-4b79-a478-ee73241541e0"},"geometry":{"type":"Polygon","coordinates":[[[139.83088036150914,35.62467271004571],[139.83063770367036,35.62464917883456],[139.8307484590388,35.623889137331865],[139.8309911146137,35.62391266832285],[139.83088036150914,35.62467271004571]]]}},{"type":"Feature","properties":{"height":9.4,"gml_id":"bldg_d1b9ad7f-5801-4055-823a-13b482ebfd1b"},"geometry":{"type":"Polygon","coordinates":[[[139.83055920977407,35.624640613939725],[139.83028431556156,35.62461347574881],[139.83039684059946,35.62385352474774],[139.83067162185029,35.62388066268279],[139.83055920977407,35.624640613939725]]]}},{"type":"Feature","properties":{"height":8.6,"gml_id":"bldg_8f931f22-de70-4484-8976-05fccf3f1e7e"},"geometry":{"type":"Polygon","coordinates":[[[139.83124326149223,35.62405644313715],[139.83112480379748,35.624044903354715],[139.8311645547707,35.623771695669596],[139.83128301206827,35.62378323541345],[139.83124326149223,35.62405644313715]]]}},{"type":"Feature","properties":{"height":9.3,"gml_id":"bldg_7bd42d5e-485e-4a91-b786-612acda3a580"},"geometry":{"type":"Polygon","coordinates":[[[139.83129261864477,35.62370824072304],[139.83117371985563,35.62369697139471],[139.8312125872965,35.62342412421429],[139.8313314856872,35.62343539350475],[139.83129261864477,35.62370824072304]]]}},{"type":"Feature","properties":{"height":2.7,"gml_id":"bldg_50bddc9b-c55d-421e-85a6-5b6619120830"},"geometry":{"type":"Polygon","coordinates":[[[139.83123425785806,35.62217868702927],[139.8312596489446,35.622181211334876],[139.83125114698427,35.62223691651436],[139.83122586627675,35.622234392208895],[139.83123425785806,35.62217868702927]]]}},{"type":"Feature","properties":{"height":6.5,"gml_id":"bldg_745bf14f-cb1c-4f6b-b69f-ecdcee622abe"},"geometry":{"type":"Polygon","coordinates":[[[139.8286696844963,35.621431911247505],[139.82865289727496,35.621554408245586],[139.8285438271581,35.62154448877054],[139.82855917881585,35.621431906919355],[139.82856216078426,35.62141009362216],[139.82867123072091,35.621420013080815],[139.8286696844963,35.621431911247505]]]}},{"type":"Feature","properties":{"height":2.8,"gml_id":"bldg_f1861e15-a085-41a8-a136-8b02efa4dbac"},"geometry":{"type":"Polygon","coordinates":[[[139.82988245290178,35.62222796141719],[139.8298799128549,35.62224959448064],[139.82981522078018,35.62224454577857],[139.82981776084432,35.622222911815086],[139.82988245290178,35.62222796141719]]]}},{"type":"Feature","properties":{"height":2.7,"gml_id":"bldg_1992cc1b-4068-4888-820e-c2a97006fe24"},"geometry":{"type":"Polygon","coordinates":[[[139.82987726309673,35.6222552731029],[139.82987439186994,35.62227663574245],[139.82981168692947,35.62227113550381],[139.82981455817276,35.62224977286575],[139.82987726309673,35.6222552731029]]]}}]}