{"type":"FeatureCollection","crs":{"type":"name","properties":{"name":"urn:ogc:def:crs:OGC:1.3:CRS84"}},"features":[{"type":"Feature","properties":{"height":5.5,"gml_id":"bldg_7758d2d6-f4f0-4da9-9208-9ce833064798"},"geometry":{"type":"Polygon","coordinates":[[[139.83158809210576,35.65708140357484],[139.8315852214215,35.657041562738094],[139.83153971833175,35.65704381550765],[139.8315243712976,35.656834515893216],[139.83161283702066,35.65683028072474],[139.83163116543656,35.65707933102779],[139.83158809210576,35.65708140357484]]]}},{"type":"Feature","properties":{"height":9.3,"gml_id":"bldg_05f6050a-4cb1-48f9-8c31-859b61f1dae6"},"geometry":{"type":"Polygon","coordinates":[[[139.83040499695048,35.65750719036706],[139.83040444888923,35.6573931663661],[139.8305610595665,35.65739271938531],[139.83056160785347,35.657506653248056],[139.83040499695048,35.65750719036706]]]}},{"type":"Feature","properties":{"height":12.4,"gml_id":"bldg_0e22d942-11b7-417a-8cb7-3e8de7df2b3f"},"geometry":{"type":"Polygon","coordinates":[[[139.8290843105051,35.6572465633824],[139.82908519588977,35.6572120407347],[139.8291769751939,35.6572135762754],[139.8291760898487,35.65724809892376],[139.8290843105051,35.6572465633824]]]}},{"type":"Feature","properties":{"height":26.9,"gml_id":"bldg_41267f52-dea1-428c-afa0-94203f2448a5"},"geometry":{"type":"Polygon","coordinates":[[[139.8293672672066,35.657291912216934],[139.82933181449874,35.657291640631556],[139.8293320361748,35.65727586656905],[139.82927173345,35.657275413862706],[139.8292720660068,35.65725125701256],[139.82923528798253,35.65725098535407],[139.82923495513373,35.65728064059418],[139.8291924339816,35.65728027858948],[139.82919475739197,35.65720131818191],[139.82923584272845,35.6572015899994],[139.8292355102346,35.657224304648956],[139.8292704106898,35.657224576244076],[139.82927063269273,35.65720258269102],[139.82931933869557,35.65720294487443],[139.82931933918272,35.65719321001975],[139.82939145940085,35.6571937532272],[139.82939046135994,35.657275958633576],[139.82936737844892,35.65727577760057],[139.8293672672066,35.657291912216934]]]}},{"type":"Feature","properties":{"height":19.4,"gml_id":"bldg_8b635585-eca2-453c-b561-7e78854855cd"},"geometry":{"type":"Polygon","coordinates":[[[139.82909535769855,35.6571947346844],[139.82906255573567,35.657193832150206],[139.82906410405,35.657154532236035],[139.82908685557302,35.65715507386568],[139.82908740857283,35.657140381465474],[139.82931779531083,35.657146248307946],[139.8293161365546,35.65718798193545],[139.82909591057327,35.65718238586039],[139.82909535769855,35.6571947346844]]]}},{"type":"Feature","properties":{"height":29.4,"gml_id":"bldg_2e5ade9c-c71b-47bf-9288-05b362f69389"},"geometry":{"type":"Polygon","coordinates":[[[139.82945076768942,35.657201957670246],[139.82938825925498,35.65713795798274],[139.8295822055275,35.65701177161647],[139.82964471401837,35.65707577120466],[139.82945076768942,35.657201957670246]]]}},{"type":"Feature","properties":{"height":11.3,"gml_id":"bldg_000d698c-655b-490c-bc56-ce634cacd6eb"},"geometry":{"type":"Polygon","coordinates":[[[139.82921033370653,35.65713047060669],[139.829085863048,35.6571272213295],[139.8290870796015,35.65709576336931],[139.82921155021586,35.657098922507714],[139.82921033370653,35.65713047060669]]]}},{"type":"Feature","properties":{"height":12.8,"gml_id":"bldg_84781065-4ab5-4b2d-9056-7b515f8f9a20"},"geometry":{"type":"Polygon","coordinates":[[[139.83000706463767,35.657490234176436],[139.82973956751084,35.65748148314991],[139.82974421032142,35.65738927258511],[139.82992103211907,35.65739504652756],[139.8299221475139,35.65713761373813],[139.83005512255974,35.65713797798136],[139.83005400750687,35.65739748393547],[139.83001137583315,35.657397392629534],[139.83000949668863,35.657435609993314],[139.83004251964323,35.65743669345206],[139.83004052994198,35.65747797639077],[139.83000772786008,35.65747689383896],[139.83000706463767,35.657490234176436]]]}},{"type":"Feature","properties":{"height":21.9,"gml_id":"bldg_9b5f4d1d-bf23-4d5a-be10-2da0ade85df6"},"geometry":{"type":"Polygon","coordinates":[[[139.82962448352924,35.65749058355218],[139.82897429553455,35.65747100192763],[139.82897893974288,35.657369236812926],[139.82951139297973,35.65738529936983],[139.82951227756382,35.657363756525655],[139.82955943738875,35.65736520021337],[139.82955855284698,35.65738611209509],[139.82962912693884,35.65738827758744],[139.82962448352924,35.65749058355218]]]}},{"type":"Feature","properties":{"height":23.2,"gml_id":"bldg_458698b4-01eb-4219-b677-ef29dfb2ea59"},"geometry":{"type":"Polygon","coordinates":[[[139.8294001776025,35.65733472862852],[139.82927217239447,35.657331389290974],[139.82927349953246,35.65729578500676],[139.82940161512835,35.65729912434654],[139.8294001776025,35.65733472862852]]]}},{"type":"Feature","properties":{"height":4.3,"gml_id":"bldg_ae0633aa-8de4-430e-bb81-996d0ff5bb92"},"geometry":{"type":"Polygon","coordinates":[[[139.83278364709255,35.65778683135332],[139.83277867741256,35.6577350022479],[139.83287730503397,35.65772878317181],[139.83288227477527,35.65778097282335],[139.83278364709255,35.65778683135332]]]}},{"type":"Feature","properties":{"height":16.9,"gml_id":"bldg_a1587977-2698-4c00-bc6c-53f94980ca86"},"geometry":{"type":"Polygon","coordinates":[[[139.83186981629794,35.652084360019906],[139.83175661811944,35.65207399276486],[139.83172591674278,35.65206254488123],[139.83123402965236,35.652018189602465],[139.8311187333499,35.6520074611607],[139.8311301107177,35.65192291227999],[139.83111100524775,35.651916782570645],[139.83109488173122,35.6519054249316],[139.83108880807356,35.65189154362464],[139.83108704149254,35.651876761021505],[139.83109278470565,35.65185954484242],[139.83111862745838,35.651842779722415],[139.8311412671356,35.651840256283116],[139.83115043526237,35.65177238281854],[139.83175772734572,35.65182692555707],[139.83180897032065,35.65181827300462],[139.8318407762466,35.651815749549506],[139.83187490126548,35.651817823132916],[139.83190449828874,35.651824223259],[139.83193321176486,35.65183377818436],[139.8319505502251,35.65184333297279],[139.83197926353247,35.651863614264336],[139.83199803746712,35.65188641929265],[139.832012614628,35.65191959009859],[139.8320128349862,35.6519509579936],[139.83200775429728,35.65198575105983],[139.83199571613153,35.65201567661705],[139.83197727267336,35.65204055439418],[139.8319504360639,35.65205939285175],[139.83191796712777,35.65207850165009],[139.83187787823965,35.652083909429514],[139.83186981629794,35.652084360019906]]]}},{"type":"Feature","properties":{"height":2.4,"gml_id":"bldg_e4f05c11-2fe7-4a4b-a0ee-20076df6c3e5"},"geometry":{"type":"Polygon","coordinates":[[[139.8314867166687,35.65174237261485],[139.83155419355867,35.651746970649405],[139.83155198433474,35.65176878392201],[139.83148450742655,35.65176418588623],[139.8314867166687,35.65174237261485]]]}},{"type":"Feature","properties":{"height":4.7,"gml_id":"bldg_7096545c-bcfa-41ef-a132-0b78ac2cd551"},"geometry":{"type":"Polygon","coordinates":[[[139.8322630867126,35.651884258636606],[139.83212493002532,35.651870105722836],[139.83213431809781,35.65180890237009],[139.83218158509385,35.651813680125464],[139.83218291047186,35.65180439596283],[139.83221029882378,35.65180719048767],[139.8322088630093,35.65181665492482],[139.83222631204393,35.65181836770133],[139.83222774785514,35.65180899340161],[139.832254804899,35.651811787913275],[139.8322533690897,35.651821252350956],[139.832272474679,35.65182323554849],[139.8322630867126,35.651884258636606]]]}},{"type":"Feature","properties":{"height":9.4,"gml_id":"bldg_95ed19b3-80e3-4690-bb09-4427afc38362"},"geometry":{"type":"Polygon","coordinates":[[[139.83062365836784,35.65154513516258],[139.83033608216454,35.651519078574715],[139.83034856491486,35.651427499053376],[139.83063614079703,35.65145346547418],[139.83062365836784,35.65154513516258]]]}},{"type":"Feature","properties":{"height":10.9,"gml_id":"bldg_850bab94-64b6-4671-8d40-92b488835383"},"geometry":{"type":"Polygon","coordinates":[[[139.8310091916395,35.65158867969358],[139.83083061588468,35.65157290203036],[139.8308500572652,35.65142705974924],[139.83102863269923,35.65144283738401],[139.8310091916395,35.65158867969358]]]}},{"type":"Feature","properties":{"height":6.2,"gml_id":"bldg_bceb10bb-bbec-4d67-9a3d-7c55fe23c60c"},"geometry":{"type":"Polygon","coordinates":[[[139.8309512034322,35.65188865657767],[139.83089985029818,35.65188360784413],[139.8308666095997,35.65185467299082],[139.83081304777576,35.65184881293637],[139.8308183503201,35.65179896694112],[139.8309929509146,35.6518122206913],[139.83098886317313,35.65186594263559],[139.8309512034322,35.65188865657767]]]}},{"type":"Feature","properties":{"height":3.0,"gml_id":"bldg_7c373a82-e429-4e73-8283-a77baa458bbf"},"geometry":{"type":"Polygon","coordinates":[[[139.8310523653184,35.651838271604525],[139.83102773791347,35.651835837419746],[139.83103845240345,35.65176273601099],[139.8310630797863,35.6517651701936],[139.8310523653184,35.651838271604525]]]}},{"type":"Feature","properties":{"height":2.1,"gml_id":"bldg_84fc658d-dd22-42a3-b584-55b380a6dc18"},"geometry":{"type":"Polygon","coordinates":[[[139.8323673482854,35.651146392889586],[139.8323638140017,35.65117343415139],[139.83230616637397,35.651168385966045],[139.8323097006769,35.65114134470591],[139.8323673482854,35.651146392889586]]]}},{"type":"Feature","properties":{"height":6.2,"gml_id":"bldg_cc134dc5-69ea-44ee-b6b1-81f714f88c8b"},"geometry":{"type":"Polygon","coordinates":[[[139.83218930869072,35.65230447954283],[139.8321840077046,35.65230267674002],[139.83218003199235,35.652299431747814],[139.83217782329982,35.652295105121034],[139.83217782336604,35.65229050810256],[139.83218003218283,35.652286181518114],[139.83218400798737,35.652282936601914],[139.83218930902362,35.652281133900026],[139.83219505178488,35.65228113395444],[139.83220024233214,35.65228293675573],[139.83220432848208,35.652286181748316],[139.83220653717578,35.65229050837463],[139.83220653711123,35.6522951053931],[139.83220432829563,35.65229943197802],[139.83220024205335,35.65230267689385],[139.83219505145368,35.65230447959724],[139.83218930869072,35.65230447954283]]]}},{"type":"Feature","properties":{"height":2.1,"gml_id":"bldg_43b12cad-b2dc-4921-9e3d-6a332ae9ad86"},"geometry":{"type":"Polygon","coordinates":[[[139.83259649943383,35.65156814848518],[139.83256160145834,35.65156472303678],[139.832564252117,35.65154624483997],[139.83259926052128,35.6515496702883],[139.83259649943383,35.65156814848518]]]}},{"type":"Feature","properties":{"height":15.1,"gml_id":"bldg_1b588364-878f-4334-a04d-702190d6daed"},"geometry":{"type":"Polygon","coordinates":[[[139.83256060904696,35.65140698217944],[139.83248319312347,35.651400131197946],[139.8324898198425,35.65134983444656],[139.8325672357189,35.65135659528621],[139.83256060904696,35.65140698217944]]]}},{"type":"Feature","properties":{"height":11.5,"gml_id":"bldg_47d1ac04-88e5-43f7-b1cf-50db5cc08469"},"geometry":{"type":"Polygon","coordinates":[[[139.83244884741634,35.651395984619626],[139.83239086832023,35.651390395646786],[139.83239804727427,35.65134045945522],[139.83245602633477,35.651346048424635],[139.83244884741634,35.651395984619626]]]}},{"type":"Feature","properties":{"height":5.8,"gml_id":"bldg_c59b294a-1b4d-4fda-9bd4-f6e7463c3a9f"},"geometry":{"type":"Polygon","coordinates":[[[139.83202301019423,35.65779547868277],[139.83201660540797,35.6577320217883],[139.83206409690436,35.65772877734691],[139.8320705017265,35.65779232437641],[139.83202301019423,35.65779547868277]]]}},{"type":"Feature","properties":{"height":9.7,"gml_id":"bldg_42fdc376-76ff-487e-a186-87ef866a25b4"},"geometry":{"type":"Polygon","coordinates":[[[139.83049953005033,35.6577264071189],[139.83042763044836,35.65772000564057],[139.8304334855464,35.65767845237765],[139.83050472236752,35.657686927000285],[139.83049953005033,35.6577264071189]]]}},{"type":"Feature","properties":{"height":3.4,"gml_id":"bldg_dba65907-b571-4193-9894-ec4f0e81c4f6"},"geometry":{"type":"Polygon","coordinates":[[[139.83094031765455,35.65770099789912],[139.83084235306137,35.65769198215909],[139.83084522528992,35.657670890035],[139.8309433003028,35.65767990577492],[139.83094031765455,35.65770099789912]]]}},{"type":"Feature","properties":{"height":6.3,"gml_id":"bldg_00064862-62ed-4770-a24d-c59c506960d5"},"geometry":{"type":"Polygon","coordinates":[[[139.8254404890504,35.65086472844187],[139.82561795756735,35.65088303788168],[139.8255816014542,35.651118384915215],[139.825404132425,35.651100075422455],[139.8254404890504,35.65086472844187]]]}},{"type":"Feature","properties":{"height":2.9,"gml_id":"bldg_c16a6192-fe59-4b16-ac0c-65656fa5a1f2"},"geometry":{"type":"Polygon","coordinates":[[[139.82550763433917,35.65086121745549],[139.8254477787677,35.65085499405443],[139.82546026592377,35.65077432168452],[139.82552023187168,35.65078054508662],[139.82550763433917,35.65086121745549]]]}},{"type":"Feature","properties":{"height":2.1,"gml_id":"bldg_0f0fe035-ce50-4e81-9451-00cf680c7346"},"geometry":{"type":"Polygon","coordinates":[[[139.82559278445916,35.65081822730448],[139.82559654226296,35.650787220198076],[139.8256359674908,35.65079037754156],[139.8256322097021,35.650821384649184],[139.82559278445916,35.65081822730448]]]}},{"type":"Feature","properties":{"height":2.6,"gml_id":"bldg_71b7283e-1f2e-4349-96f0-d2d55fae83a5"},"geometry":{"type":"Polygon","coordinates":[[[139.82566622419262,35.650818322139585],[139.8256684351627,35.65079470621888],[139.82571294048086,35.650797413172164],[139.82571061907953,35.65082111922433],[139.82566622419262,35.650818322139585]]]}},{"type":"Feature","properties":{"height":2.0,"gml_id":"bldg_cdd6a7cd-16c5-47a2-bcae-83a5491958fe"},"geometry":{"type":"Polygon","coordinates":[[[139.82573024767126,35.651126777190576],[139.8257102588693,35.65112533372493],[139.825713464299,35.65109603919655],[139.82573356352984,35.651097482668646],[139.82573024767126,35.651126777190576]]]}},{"type":"Feature","properties":{"height":18.9,"gml_id":"bldg_d6f1c86e-69e0-441a-95a4-b16449ce6a60"},"geometry":{"type":"Polygon","coordinates":[[[139.82634604195746,35.65109878168548],[139.82631169657054,35.65109607555902],[139.82627492180626,35.651090935564255],[139.82624223334858,35.6510839029086],[139.8261766366155,35.65105820980261],[139.8261431757819,35.65104387592565],[139.8260907211899,35.651016020253316],[139.8260934927521,35.65089784997807],[139.82614208568893,35.65088469279413],[139.826181180659,35.65087685314756],[139.82627306397617,35.65086838563085],[139.8263669342333,35.650870103712094],[139.82640945157064,35.65087515387157],[139.82645749004618,35.65088786603057],[139.82649724578164,35.650901388939296],[139.82654263337668,35.65091941903441],[139.82658835178444,35.65094357849021],[139.8265625007608,35.65105057041394],[139.82652075488815,35.65106300705356],[139.82649104643284,35.65107661615237],[139.82645504342014,35.651086619379114],[139.82642080767096,35.651093197466416],[139.82638359036034,35.65109725151818],[139.82634604195746,35.65109878168548]]]}},{"type":"Feature","properties":{"height":3.5,"gml_id":"bldg_b4d0f6bb-850c-48d8-a71e-9b88ea0e4656"},"geometry":{"type":"Polygon","coordinates":[[[139.82529127128956,35.652156480924354],[139.82519883589663,35.652148272193386],[139.82520811964176,35.652079227403576],[139.82530044450962,35.65208752625776],[139.82529127128956,35.652156480924354]]]}},{"type":"Feature","properties":{"height":3.3,"gml_id":"bldg_2e1bb3e2-0b59-44f0-8741-92d413dd900f"},"geometry":{"type":"Polygon","coordinates":[[[139.82615589529945,35.650827275942255],[139.82611503447418,35.650822946893626],[139.82611890192038,35.65079851982519],[139.82615976272535,35.65080293901015],[139.82615589529945,35.650827275942255]]]}},{"type":"Feature","properties":{"height":13.4,"gml_id":"bldg_0ca6ffa5-7ad5-41b7-b727-e300c648461c"},"geometry":{"type":"Polygon","coordinates":[[[139.82597244475718,35.65101060482461],[139.82586388699863,35.6510020350656],[139.82587073930955,35.650945248779344],[139.82597918654787,35.65095390866314],[139.82597244475718,35.65101060482461]]]}},{"type":"Feature","properties":{"height":13.5,"gml_id":"bldg_ed335c5d-f2ad-428d-845b-14a12f5e92e9"},"geometry":{"type":"Polygon","coordinates":[[[139.83087669934093,35.65776274082995],[139.83079088368282,35.65775291405754],[139.83079706975394,35.657716949311364],[139.83088288537434,35.657726776079414],[139.83087669934093,35.65776274082995]]]}},{"type":"Feature","properties":{"height":6.2,"gml_id":"bldg_b1342a0b-358e-46c7-a874-850035942283"},"geometry":{"type":"Polygon","coordinates":[[[139.83057992832096,35.657896678786],[139.83054016806966,35.65789352305675],[139.830547128152,35.65783538450893],[139.83058688837477,35.6578385402359],[139.83057992832096,35.657896678786]]]}},{"type":"Feature","properties":{"height":9.2,"gml_id":"bldg_fd1a43d4-011d-4208-8b12-4fd877b5ccec"},"geometry":{"type":"Polygon","coordinates":[[[139.83043348008832,35.65782943274878],[139.83034921060434,35.657820777486904],[139.83035849024617,35.65776056584341],[139.83044275966463,35.65776931123642],[139.83043348008832,35.65782943274878]]]}},{"type":"Feature","properties":{"height":12.0,"gml_id":"bldg_16b5cfe2-24e0-4a0c-a09d-d7404b779979"},"geometry":{"type":"Polygon","coordinates":[[[139.83050361107948,35.65788072267364],[139.83045435258137,35.65787621462948],[139.83045777730382,35.65785070578935],[139.83050714623502,35.657855123697175],[139.83050361107948,35.65788072267364]]]}},{"type":"Feature","properties":{"height":11.4,"gml_id":"bldg_524c3f19-6657-4332-860b-e835b8fb02b0"},"geometry":{"type":"Polygon","coordinates":[[[139.83028680634948,35.65789018182529],[139.83028459943458,35.65783772172498],[139.83033816549113,35.65783628086856],[139.83034037244104,35.6578887409679],[139.83028680634948,35.65789018182529]]]}},{"type":"Feature","properties":{"height":10.9,"gml_id":"bldg_37943f46-1327-42d6-8f68-8b5e86f1cc0f"},"geometry":{"type":"Polygon","coordinates":[[[139.82968522909104,35.65747138611176],[139.82963298871704,35.657470393005035],[139.82963542249306,35.65738386104143],[139.82968755236598,35.657384854143764],[139.82968522909104,35.65747138611176]]]}},{"type":"Feature","properties":{"height":9.3,"gml_id":"bldg_b582e013-2f31-430b-b1a6-de279c043cc9"},"geometry":{"type":"Polygon","coordinates":[[[139.830286137551,35.658051437852784],[139.83021998061778,35.65805098547303],[139.83022097793025,35.657965895669285],[139.83028702434777,35.65796634804572],[139.830286137551,35.658051437852784]]]}},{"type":"Feature","properties":{"height":16.7,"gml_id":"bldg_c41ee312-5c43-4c40-9ee5-2aec251746b9"},"geometry":{"type":"Polygon","coordinates":[[[139.83101742971522,35.65696232225468],[139.83100914908002,35.6568699311088],[139.8310544312108,35.656867227847734],[139.8310325703299,35.65662187302034],[139.831170846054,35.65661367306536],[139.8312009882011,35.65695141900142],[139.83101742971522,35.65696232225468]]]}},{"type":"Feature","properties":{"height":3.7,"gml_id":"bldg_2d2e3881-6d4b-4aa9-b315-971765cde78c"},"geometry":{"type":"Polygon","coordinates":[[[139.82922480039934,35.65069059079152],[139.8291573246487,35.65068373801014],[139.829164063515,35.65063948066167],[139.8292251340043,35.65064570225752],[139.82922734346548,35.65063100989727],[139.82928841395324,35.65063723146103],[139.82929128621046,35.65061866320322],[139.82935346104367,35.65062497490874],[139.8293458384944,35.65067536159827],[139.8292878601535,35.65066941058047],[139.82928565070688,35.6506840128041],[139.8292266784446,35.650678061723454],[139.82922480039934,35.65069059079152]]]}},{"type":"Feature","properties":{"height":29.6,"gml_id":"bldg_d2b6c080-4a6b-4917-bf08-2b6fdb4df0b2"},"geometry":{"type":"Polygon","coordinates":[[[139.83073004466686,35.65044320490321],[139.8302511992818,35.650401910559886],[139.83032090404876,35.64986388069431],[139.83079952538998,35.64990517475946],[139.83073004466686,35.65044320490321]]]}},{"type":"Feature","properties":{"height":15.1,"gml_id":"bldg_8d51d302-385f-4ee5-aff1-674c5d750e49"},"geometry":{"type":"Polygon","coordinates":[[[139.82970265234462,35.65074766327074],[139.8294939300241,35.65072728569127],[139.82955490998873,35.650312654459405],[139.8297636312461,35.650333031934544],[139.82970265234462,35.65074766327074]]]}},{"type":"Feature","properties":{"height":16.8,"gml_id":"bldg_41e175f6-eb5c-4bfd-acc4-7059dc68bd63"},"geometry":{"type":"Polygon","coordinates":[[[139.8307625234906,35.65699665948838],[139.83052153418353,35.65699791602862],[139.8305215344489,35.65699034447473],[139.83052109441329,35.65694067867611],[139.83056240052466,35.65694049935847],[139.83056009111982,35.656653501347904],[139.83055954101744,35.6565922979374],[139.8305653945341,35.65659220793452],[139.8305651745768,35.65656525680121],[139.83075889271137,35.6565641794474],[139.8307625234906,35.65699665948838]]]}},{"type":"Feature","properties":{"height":5.6,"gml_id":"bldg_daa2b6b3-7349-4215-8e50-e278df433265"},"geometry":{"type":"Polygon","coordinates":[[[139.83240163619368,35.65611811259371],[139.8322875485193,35.656122438259935],[139.83228478808158,35.656073673816],[139.83239887568675,35.65606934815237],[139.83240163619368,35.65611811259371]]]}},{"type":"Feature","properties":{"height":5.4,"gml_id":"bldg_0b4f11df-e391-4036-ae45-125cbd53ca41"},"geometry":{"type":"Polygon","coordinates":[[[139.83252521396787,35.65690645653133],[139.83252300537845,35.656877522363565],[139.83258960316655,35.656874367979064],[139.8325915908984,35.65690258104389],[139.83252521396787,35.65690645653133]]]}},{"type":"Feature","properties":{"height":1.5,"gml_id":"bldg_d3ef4056-7d80-4353-b221-68bde3e2dbed"},"geometry":{"type":"Polygon","coordinates":[[[139.83259182097677,35.65590836380989],[139.83259237302215,35.65592657160094],[139.8325523927432,35.65592747272396],[139.8325518407069,35.65590926493272],[139.83259182097677,35.65590836380989]]]}},{"type":"Feature","properties":{"height":5.3,"gml_id":"bldg_24b3620d-349e-4cd6-a7cd-d78e8bb119f5"},"geometry":{"type":"Polygon","coordinates":[[[139.83264582776874,35.655872579517776],[139.83258397983317,35.65587744657724],[139.83258177115292,35.65585896836297],[139.83256829714026,35.655860049928904],[139.8325629963322,35.65581435015023],[139.83264527611055,35.65580786074379],[139.832647484804,35.65582633895705],[139.8326404164731,35.65582687974198],[139.83264582776874,35.655872579517776]]]}},{"type":"Feature","properties":{"height":2.6,"gml_id":"bldg_b7a849cb-fd31-400e-b16f-791d6f2d104e"},"geometry":{"type":"Polygon","coordinates":[[[139.83221156025556,35.6563710369603],[139.83223795623525,35.656369595002374],[139.83224193154078,35.65641772849311],[139.83221553554537,35.6564191704519],[139.83221156025556,35.6563710369603]]]}},{"type":"Feature","properties":{"height":2.8,"gml_id":"bldg_16c37a82-700c-4c6b-b544-a2960627b4e1"},"geometry":{"type":"Polygon","coordinates":[[[139.83229406367104,35.65619851441614],[139.8323459719581,35.65619644168906],[139.83234928455693,35.65625304810261],[139.8322974866765,35.656255120832064],[139.83229406367104,35.65619851441614]]]}},{"type":"Feature","properties":{"height":2.6,"gml_id":"bldg_6d62efbe-367f-412e-bf4f-e01026d5a5b7"},"geometry":{"type":"Polygon","coordinates":[[[139.83246072024292,35.65638978763495],[139.83245586130636,35.656337507817206],[139.83250810102115,35.65633426323444],[139.83250721756667,35.65632533961029],[139.8325317359911,35.65632380743752],[139.83253747843546,35.65638492073866],[139.83246072024292,35.65638978763495]]]}},{"type":"Feature","properties":{"height":2.7,"gml_id":"bldg_c17a5991-dc1e-45a1-8f8b-bfe902c52164"},"geometry":{"type":"Polygon","coordinates":[[[139.83227263788652,35.65618499359555],[139.83227451515972,35.656204643599835],[139.8322117834119,35.6562086992221],[139.83220990615402,35.65618904921686],[139.83227263788652,35.65618499359555]]]}},{"type":"Feature","properties":{"height":3.1,"gml_id":"bldg_68f26f10-02b0-4dae-86ef-7714957cc49d"},"geometry":{"type":"Polygon","coordinates":[[[139.832118456821,35.656350755107],[139.83215103762413,35.65634913295524],[139.83215147930312,35.656355532726074],[139.83217511419176,35.65635436116745],[139.83218008319668,35.65642007149317],[139.83212386745646,35.656422865205954],[139.832118456821,35.656350755107]]]}},{"type":"Feature","properties":{"height":5.4,"gml_id":"bldg_236c6c17-2e38-4e87-bf25-e7cba82ea6c4"},"geometry":{"type":"Polygon","coordinates":[[[139.83206124579374,35.65643827808269],[139.83205572480753,35.656363824403485],[139.83211381804676,35.65636094060396],[139.83211933908672,35.656435394280535],[139.83206124579374,35.65643827808269]]]}},{"type":"Feature","properties":{"height":9.1,"gml_id":"bldg_c258ecbf-ca28-4c30-9a1d-aa6c507c4872"},"geometry":{"type":"Polygon","coordinates":[[[139.82938246597922,35.658156511956946],[139.82937925825658,35.6582537702447],[139.82921149106028,35.65825015911846],[139.82921469898616,35.65815290083513],[139.82938246597922,35.658156511956946]]]}},{"type":"Feature","properties":{"height":14.6,"gml_id":"bldg_1d6855dd-36ca-4bee-96e7-62d769426e78"},"geometry":{"type":"Polygon","coordinates":[[[139.83255911732823,35.65721454688463],[139.8325395708408,35.65699316894719],[139.83328529013093,35.65694927456813],[139.8333048386656,35.65717074252369],[139.83255911732823,35.65721454688463]]]}},{"type":"Feature","properties":{"height":4.1,"gml_id":"bldg_5e6bc6c9-5893-4082-917f-ad039b1757ae"},"geometry":{"type":"Polygon","coordinates":[[[139.8329295564063,35.655805608593305],[139.83292646306217,35.655775592773885],[139.83299261815603,35.65577090582585],[139.83299582086286,35.655800921643895],[139.8329295564063,35.655805608593305]]]}},{"type":"Feature","properties":{"height":7.8,"gml_id":"bldg_7f95a681-b07b-4e4f-ad69-f4d07016f9c4"},"geometry":{"type":"Polygon","coordinates":[[[139.83284959650453,35.65553654766311],[139.83284506877652,35.655470476806855],[139.8328794162806,35.65546894460253],[139.83288394403732,35.65553492531995],[139.83284959650453,35.65553654766311]]]}},{"type":"Feature","properties":{"height":10.8,"gml_id":"bldg_71d13c13-88d9-4840-b330-0ec068d65924"},"geometry":{"type":"Polygon","coordinates":[[[139.82933326668015,35.65696272878011],[139.82898636206693,35.65695352272851],[139.82899034340485,35.656854732119776],[139.82933713714726,35.65686393815636],[139.82933326668015,35.65696272878011]]]}},{"type":"Feature","properties":{"height":14.3,"gml_id":"bldg_3da59623-1fad-446e-b19c-f905f7d498a3"},"geometry":{"type":"Polygon","coordinates":[[[139.82977810215377,35.65024460733083],[139.8295707062906,35.65022531157366],[139.82961323787669,35.64992001667342],[139.82982063296097,35.64993931235829],[139.82977810215377,35.65024460733083]]]}},{"type":"Feature","properties":{"height":20.0,"gml_id":"bldg_2b0915e7-6e67-45db-86ad-1217f2d0e9b2"},"geometry":{"type":"Polygon","coordinates":[[[139.82953683692833,35.65650510702636],[139.82952920882718,35.656663208052905],[139.82902812640305,35.65664705656099],[139.8290357554854,35.65648904570337],[139.82953683692833,35.65650510702636]]]}},{"type":"Feature","properties":{"height":4.7,"gml_id":"bldg_3d95fa5c-ed17-4ce0-ada2-ffd2bcb8dbcb"},"geometry":{"type":"Polygon","coordinates":[[[139.8316434246652,35.65708365780261],[139.8316407745034,35.65705986145342],[139.8316384558417,35.657028223142255],[139.8317204055999,35.657022094914545],[139.83171852838524,35.6570053293058],[139.8317946245621,35.65699965163665],[139.83180268561196,35.65707185191362],[139.8316434246652,35.65708365780261]]]}},{"type":"Feature","properties":{"height":3.8,"gml_id":"bldg_175c8310-8b0c-4db4-b291-17666facbc8f"},"geometry":{"type":"Polygon","coordinates":[[[139.82649167475475,35.65665892747231],[139.82642209575593,35.65665243359579],[139.82643392053834,35.656567524699746],[139.8265036099081,35.656574018575796],[139.82649167475475,35.65665892747231]]]}},{"type":"Feature","properties":{"height":4.5,"gml_id":"bldg_2f74aaa5-470e-49e5-b70c-e55bf0856c2c"},"geometry":{"type":"Polygon","coordinates":[[[139.82680047066023,35.658074013870895],[139.82674292884022,35.65806932358416],[139.826745470764,35.65804895264138],[139.82680290211655,35.658053733058445],[139.82680047066023,35.658074013870895]]]}},{"type":"Feature","properties":{"height":2.8,"gml_id":"bldg_ceec45e3-5f2f-4182-ab29-fa334d8709d2"},"geometry":{"type":"Polygon","coordinates":[[[139.82572220019776,35.65795992657543],[139.82568431775786,35.65795595812392],[139.8256889592618,35.657926663720716],[139.82572684168812,35.65793063217079],[139.82572220019776,35.65795992657543]]]}},{"type":"Feature","properties":{"height":3.0,"gml_id":"bldg_8e9d1b6a-b0c6-4049-90f3-462019efe5a0"},"geometry":{"type":"Polygon","coordinates":[[[139.82548695341498,35.657937377095266],[139.8254296327142,35.65793214537016],[139.82543239587582,35.6579115941941],[139.8254898270076,35.65791682592509],[139.82548695341498,35.657937377095266]]]}},{"type":"Feature","properties":{"height":8.0,"gml_id":"bldg_26f23b27-2a82-47a6-b466-e78e77b97880"},"geometry":{"type":"Polygon","coordinates":[[[139.82727196777083,35.65801508857967],[139.82730278192668,35.6580173435649],[139.82729493479192,35.658090354571364],[139.827264231054,35.65808809958971],[139.82727196777083,35.65801508857967]]]}},{"type":"Feature","properties":{"height":8.4,"gml_id":"bldg_0db109c1-a5e0-414c-b439-9d136be72622"},"geometry":{"type":"Polygon","coordinates":[[[139.82726348043565,35.65779073583325],[139.82698416629506,35.65776512237179],[139.82717390663538,35.65638701929823],[139.82722581466174,35.65639170909471],[139.82723874369293,35.656297516003555],[139.82738552177028,35.65631095383787],[139.82725181174882,35.65728272007922],[139.8273324357552,35.657290115402],[139.82726348043565,35.65779073583325]]]}},{"type":"Feature","properties":{"height":5.8,"gml_id":"bldg_18b2bb52-0714-441f-942c-d2ff2359db37"},"geometry":{"type":"Polygon","coordinates":[[[139.82686853772935,35.65767047180805],[139.82683584629774,35.65766641385961],[139.8268456802301,35.65761305296807],[139.82687848208548,35.65761711091981],[139.82686853772935,35.65767047180805]]]}},{"type":"Feature","properties":{"height":2.4,"gml_id":"bldg_d6f4980b-dca5-40f7-be7d-ef785ecb42c8"},"geometry":{"type":"Polygon","coordinates":[[[139.8294609910626,35.658195544057406],[139.82946165529094,35.658163364981014],[139.82951091409424,35.658163997517256],[139.82951024988566,35.658196176593904],[139.8294609910626,35.658195544057406]]]}},{"type":"Feature","properties":{"height":12.1,"gml_id":"bldg_21277c49-4087-482d-b5aa-5588310c19a1"},"geometry":{"type":"Polygon","coordinates":[[[139.83203174407598,35.65725916042336],[139.831989341634,35.65676538647934],[139.832345965206,35.65674501884482],[139.83236827172897,35.657005786952844],[139.8323667255088,35.65700587707798],[139.8323860505183,35.65723698989591],[139.83238472516038,35.65723897291142],[139.83203174407598,35.65725916042336]]]}},{"type":"Feature","properties":{"height":10.4,"gml_id":"bldg_10e4286a-d6c3-4fc0-80f0-53b4ffa00d10"},"geometry":{"type":"Polygon","coordinates":[[[139.83056713016114,35.65750485062426],[139.83056845993664,35.65737613424796],[139.8307599710538,35.65737758069307],[139.8307586415885,35.657506206933895],[139.83056713016114,35.65750485062426]]]}},{"type":"Feature","properties":{"height":20.7,"gml_id":"bldg_bbeaa0a0-3b5e-452c-9557-2988483b6e18"},"geometry":{"type":"Polygon","coordinates":[[[139.82766629166238,35.65754711370124],[139.82764394462865,35.65807090185854],[139.827584083189,35.6580691864026],[139.8276058783497,35.65754593905527],[139.82766629166238,35.65754711370124]]]}},{"type":"Feature","properties":{"height":25.2,"gml_id":"bldg_f22911e1-0c03-42bf-9290-1462181b0f02"},"geometry":{"type":"Polygon","coordinates":[[[139.82764394462865,35.65807090185854],[139.8281126752567,35.658084263444614],[139.82811046290925,35.65813699380353],[139.82764173197342,35.65812363220894],[139.82764394462865,35.65807090185854]]]}},{"type":"Feature","properties":{"height":14.8,"gml_id":"bldg_137d73b1-0dcf-4de9-a754-3cd256bed1c3"},"geometry":{"type":"Polygon","coordinates":[[[139.82993040681148,35.657704128411076],[139.82949006246085,35.657691766321165],[139.82949702747692,35.657546014145765],[139.82990490018847,35.657558735840624],[139.82993659730295,35.657572798194714],[139.82993040681148,35.657704128411076]]]}},{"type":"Feature","properties":{"height":5.1,"gml_id":"bldg_322e7883-fc5e-4169-85bc-f91ed9e10889"},"geometry":{"type":"Polygon","coordinates":[[[139.832375242301,35.6559519888619],[139.83241864633231,35.655950006173015],[139.83241522318525,35.65589943897437],[139.83244901866772,35.6558979068887],[139.83245244182513,35.65594946559958],[139.8324459256989,35.65594973596442],[139.83244647782203,35.655957938486644],[139.83237579440726,35.655961002622504],[139.832375242301,35.6559519888619]]]}},{"type":"Feature","properties":{"height":2.5,"gml_id":"bldg_973fed0c-d0b6-4c8b-bc8b-409155d7aa69"},"geometry":{"type":"Polygon","coordinates":[[[139.83108014590636,35.65753523766559],[139.83107727605395,35.65747421449809],[139.83110157365613,35.65748385966751],[139.8311214537518,35.657483229071495],[139.83112377169886,35.65753388641083],[139.83108014590636,35.65753523766559]]]}},{"type":"Feature","properties":{"height":5.4,"gml_id":"bldg_f86f70cd-1fc5-446d-9d66-885c116657d5"},"geometry":{"type":"Polygon","coordinates":[[[139.83241522318525,35.65589943897437],[139.83241864633231,35.655950006173015],[139.832375242301,35.6559519888619],[139.83231737025739,35.65595451223936],[139.83231405761782,35.65590385490125],[139.83241522318525,35.65589943897437]]]}},{"type":"Feature","properties":{"height":2.6,"gml_id":"bldg_869483fa-db7b-46a3-87c5-2867e23e3330"},"geometry":{"type":"Polygon","coordinates":[[[139.83108014590636,35.65753523766559],[139.8310190697944,35.657537129395735],[139.83101895942227,35.65753460554252],[139.83100736269216,35.657534965869274],[139.83100659005595,35.6575184706848],[139.83101796589384,35.65751811035388],[139.83101597912466,35.65747520484713],[139.83105728554085,35.65747394370931],[139.8310568440607,35.657463397608865],[139.83107672415161,35.65746276702025],[139.83107727605395,35.65747421449809],[139.83108014590636,35.65753523766559]]]}},{"type":"Feature","properties":{"height":23.1,"gml_id":"bldg_eb37f8c8-f7d2-42c7-ae0e-f10e1fe2ee8a"},"geometry":{"type":"Polygon","coordinates":[[[139.82502012229327,35.65772489160838],[139.82523785862207,35.65614677826705],[139.8253182604148,35.656154174924616],[139.82510019461728,35.657729313848286],[139.82502012229327,35.65772489160838]]]}},{"type":"Feature","properties":{"height":19.6,"gml_id":"bldg_e65b55a0-f876-48f6-a532-2782349a7194"},"geometry":{"type":"Polygon","coordinates":[[[139.82595480869045,35.657849071886346],[139.82605515832788,35.657130140982886],[139.8261247377275,35.65713645479583],[139.82602505121395,35.6578571876461],[139.82595480869045,35.657849071886346]]]}},{"type":"Feature","properties":{"height":18.1,"gml_id":"bldg_dc0263ed-2e25-40af-901f-6a78e6f5d6fa"},"geometry":{"type":"Polygon","coordinates":[[[139.826077815106,35.656956807849916],[139.82617805197575,35.65623904851866],[139.8262461948509,35.65624536217696],[139.82614816696562,35.65696871022394],[139.826077815106,35.656956807849916]]]}},{"type":"Feature","properties":{"height":18.4,"gml_id":"bldg_06237170-58b9-4272-af4d-e7f36c3a2f89"},"geometry":{"type":"Polygon","coordinates":[[[139.82566526827443,35.65619809450974],[139.8255650268591,35.6569159435561],[139.82550803818896,35.65691098230154],[139.825609605486,35.65619250242419],[139.82566526827443,35.65619809450974]]]}},{"type":"Feature","properties":{"height":12.4,"gml_id":"bldg_78638557-8556-44ad-811d-cc26eb2e98df"},"geometry":{"type":"Polygon","coordinates":[[[139.82553916612508,35.65708900597375],[139.82543958562627,35.65780189728754],[139.82537906189688,35.6577988286291],[139.82547764944277,35.65708070932266],[139.82553916612508,35.65708900597375]]]}},{"type":"Feature","properties":{"height":11.7,"gml_id":"bldg_2ece6b7c-4682-41ea-8ce6-ad0f04d77a8a"},"geometry":{"type":"Polygon","coordinates":[[[139.82778912968973,35.65721108666752],[139.8277777354774,35.657477172163844],[139.82771058512935,35.65747527615909],[139.8277133508042,35.65741028712211],[139.8274863872529,35.65740387655155],[139.82749214022635,35.657268670518874],[139.82759142970605,35.657271469557514],[139.8275943059858,35.65720548901334],[139.82778912968973,35.65721108666752]]]}},{"type":"Feature","properties":{"height":3.6,"gml_id":"bldg_e5bdbe59-3196-4f40-ac8b-552ee6a0c8ac"},"geometry":{"type":"Polygon","coordinates":[[[139.82697753000878,35.65788590631712],[139.82694671595567,35.65788311042342],[139.82696196648874,35.65776899711335],[139.82699278049856,35.65777179300319],[139.82697753000878,35.65788590631712]]]}},{"type":"Feature","properties":{"height":4.6,"gml_id":"bldg_c61fa56d-0ce0-459a-add3-2f4de67ba2f1"},"geometry":{"type":"Polygon","coordinates":[[[139.83309722227256,35.65065748998407],[139.83315420697267,35.65066136600089],[139.8331517773377,35.65068534260984],[139.8330947926207,35.6506814665919],[139.83309722227256,35.65065748998407]]]}},{"type":"Feature","properties":{"height":11.8,"gml_id":"bldg_9a804659-cac3-4230-8f7b-246d24499f20"},"geometry":{"type":"Polygon","coordinates":[[[139.82882046556563,35.65123050076512],[139.8288445405112,35.65123338606904],[139.82883680766344,35.65127457867864],[139.82883371501143,35.65128233039952],[139.82882775107947,35.651288910223684],[139.8288196889571,35.65129368721632],[139.82881019128808,35.6512962107137],[139.8288002520156,35.651296210340014],[139.82879075463146,35.65129368612849],[139.82878269304834,35.651288908529665],[139.82877672985907,35.65128232825708],[139.82877374851836,35.65127457630787],[139.8287737489794,35.651266463921],[139.82878126202945,35.65120688322992],[139.82880721442842,35.65120895737356],[139.82879870751128,35.651267816927756],[139.82879804479654,35.651269529517826],[139.82879804468956,35.65127142240809],[139.8287987072056,35.6512732251857],[139.828800032355,35.65127475757533],[139.82880190970644,35.65127592943519],[139.82880632712926,35.651276470427106],[139.8288105238014,35.65127484810739],[139.82881262228466,35.65127142295614],[139.82882046556563,35.65123050076512]]]}},{"type":"Feature","properties":{"height":11.2,"gml_id":"bldg_8049694d-2ffc-4efb-a636-651f377abc1e"},"geometry":{"type":"Polygon","coordinates":[[[139.8310784460666,35.65121235640323],[139.83107170813187,35.651259317983616],[139.8310259876238,35.65125499051003],[139.83103272558492,35.65120802893219],[139.8310784460666,35.65121235640323]]]}},{"type":"Feature","properties":{"height":18.3,"gml_id":"bldg_380de6ee-f299-4826-b617-924b550706c8"},"geometry":{"type":"Polygon","coordinates":[[[139.82928717282655,35.65115948889314],[139.8292856259926,35.65117391086257],[139.8289299126933,35.651143341724726],[139.82893212256835,35.6511223397367],[139.828935326041,35.65110728686874],[139.82894062777328,35.65109268476537],[139.82894769646092,35.65107844327663],[139.8289566425194,35.65106492295677],[139.82896713463015,35.65105230406863],[139.82897928322393,35.651040676753425],[139.82899286742355,35.65103013114036],[139.82900766635223,35.65102075735862],[139.8290236800005,35.651012735683096],[139.82904068749684,35.65100606610539],[139.82905824708848,35.65100092888468],[139.82907646921228,35.65099732402465],[139.82909502256132,35.65099525151333],[139.82911379669596,35.65099480148436],[139.8291330124845,35.65099606408295],[139.82915145514215,35.650998858991436],[139.82916934554177,35.65100318621783],[139.8291867941203,35.65100904576617],[139.82920324870332,35.65101634748009],[139.8292187092962,35.651025001222315],[139.8292329550319,35.6510349168481],[139.82924587547922,35.65104600421647],[139.82925724977076,35.651058173182754],[139.8292670779199,35.65107115333448],[139.82927513904954,35.651085034802165],[139.82928143317724,35.65109945703567],[139.82928573943445,35.651114329890206],[139.82928827869702,35.651129563235735],[139.82928871967363,35.65114479651074],[139.82928717282655,35.65115948889314]]]}},{"type":"Feature","properties":{"height":26.8,"gml_id":"bldg_bdbb255d-afe2-42b6-bab6-98a853b848fa"},"geometry":{"type":"Polygon","coordinates":[[[139.8314511114221,35.65834801416339],[139.83052535070394,35.65839847315077],[139.8305197194527,35.65835565769461],[139.83051828404908,35.65834439047029],[139.83117212570065,35.6583090700685],[139.831157440525,35.65815628669425],[139.83143432850207,35.658141779236466],[139.83144989672485,35.6583390905293],[139.8314511114221,35.65834801416339]]]}},{"type":"Feature","properties":{"height":3.3,"gml_id":"bldg_ff72cc3e-4cb7-4d64-b910-79713398fc2e"},"geometry":{"type":"Polygon","coordinates":[[[139.8304894640625,35.65816285281264],[139.8305516449996,35.65816447674045],[139.83054987631826,35.65820909477623],[139.83048769534662,35.658207470847515],[139.8304894640625,35.65816285281264]]]}},{"type":"Feature","properties":{"height":33.3,"gml_id":"bldg_485c6e62-4d18-4e55-8fd4-73ffd010d7cc"},"geometry":{"type":"Polygon","coordinates":[[[139.82595480869045,35.657849071886346],[139.82594419910032,35.65792325442543],[139.82542952786406,35.657875358717746],[139.82543958562627,35.65780189728754],[139.82553916612508,35.65708900597375],[139.82555010754814,35.657012389767786],[139.82565304065497,35.65702195095598],[139.82565635621648,35.65699860554296],[139.8255549693492,35.656989134594994],[139.8255650268591,35.6569159435561],[139.82566526827443,35.65619809450974],[139.82567576745103,35.65612391196692],[139.82618733521568,35.656171536038805],[139.82617805197575,35.65623904851866],[139.826077815106,35.656956807849916],[139.82606720568245,35.657031711511245],[139.82596482473488,35.65702215071083],[139.8259612882245,35.65704711859457],[139.8260652154154,35.657056769628795],[139.82605515832788,35.657130140982886],[139.82595480869045,35.657849071886346]]]}},{"type":"Feature","properties":{"height":30.5,"gml_id":"bldg_9b10162d-66fc-4492-b47f-85a71068e7d1"},"geometry":{"type":"Polygon","coordinates":[[[139.8277777354774,35.657477172163844],[139.82778912968973,35.65721108666752],[139.82778924041455,35.65720703048318],[139.82819909920147,35.65721867639672],[139.82818737448136,35.65749305457101],[139.82777751429424,35.65748140861799],[139.8277777354774,35.657477172163844]]]}},{"type":"Feature","properties":{"height":18.4,"gml_id":"bldg_2ed0ad6e-19ed-46a7-868a-772e54bdbbd6"},"geometry":{"type":"Polygon","coordinates":[[[139.83107170813187,35.651259317983616],[139.8310784460666,35.65121235640323],[139.83109468337364,35.65109842273669],[139.83140003848837,35.65112628055442],[139.8313284633121,35.65162915722608],[139.83102310633953,35.65160021757763],[139.83107170813187,35.651259317983616]]]}},{"type":"Feature","properties":{"height":25.2,"gml_id":"bldg_f30b4e86-3c1b-4109-a9d8-783caf9b77ee"},"geometry":{"type":"Polygon","coordinates":[[[139.82993040681148,35.657704128411076],[139.83003566094808,35.65770710587784],[139.83001963068983,35.65808730555168],[139.82924474469584,35.65806555859264],[139.8292607786225,35.657685359020796],[139.82949006246085,35.657691766321165],[139.82993040681148,35.657704128411076]]]}},{"type":"Feature","properties":{"height":21.7,"gml_id":"bldg_3aa28047-f0ea-44db-996f-6768b7034a61"},"geometry":{"type":"Polygon","coordinates":[[[139.83607054314956,35.655840551539484],[139.83673838806115,35.65580303728239],[139.83675496279258,35.65599872546161],[139.8360870058167,35.656036238910595],[139.83607054314956,35.655840551539484]]]}},{"type":"Feature","properties":{"height":14.0,"gml_id":"bldg_18a9ed44-5986-4826-8517-55e138bbe7f4"},"geometry":{"type":"Polygon","coordinates":[[[139.83374727899323,35.65714514275315],[139.8337442968126,35.65710971870836],[139.83381354540631,35.65710593267527],[139.8338165276174,35.65714135671836],[139.83374727899323,35.65714514275315]]]}},{"type":"Feature","properties":{"height":22.6,"gml_id":"bldg_69a1c4a8-49e8-4650-ada3-766f8e364238"},"geometry":{"type":"Polygon","coordinates":[[[139.8341099682719,35.65609431737769],[139.83409947512695,35.655982997557274],[139.83423598235456,35.65597506450607],[139.83424636523876,35.656085843490224],[139.8341099682719,35.65609431737769]]]}},{"type":"Feature","properties":{"height":21.0,"gml_id":"bldg_5673b99e-e16e-4bc9-8762-58c8d237fddc"},"geometry":{"type":"Polygon","coordinates":[[[139.83533787142682,35.65602453672785],[139.8353310212551,35.65591556052939],[139.8354668655922,35.655907716231496],[139.8354744890767,35.656017774059364],[139.83533787142682,35.65602453672785]]]}},{"type":"Feature","properties":{"height":21.8,"gml_id":"bldg_bc4a7645-515e-4768-a76a-230cf3ba371c"},"geometry":{"type":"Polygon","coordinates":[[[139.8341993284612,35.65719011898539],[139.83418618424048,35.65706518844249],[139.8343218097267,35.65705563282586],[139.83433506460156,35.65718056335322],[139.8341993284612,35.65719011898539]]]}},{"type":"Feature","properties":{"height":20.0,"gml_id":"bldg_f6d6108e-bf4b-4c62-bfce-2779433d9539"},"geometry":{"type":"Polygon","coordinates":[[[139.8354542001101,35.65724779145177],[139.8354465788113,35.657224085411976],[139.8354264717626,35.65698855635852],[139.8355648581237,35.65698071190727],[139.8355334818386,35.65661114853176],[139.83605367046624,35.65657886866137],[139.8361093559237,35.65721073160194],[139.8354542001101,35.65724779145177]]]}},{"type":"Feature","properties":{"height":14.0,"gml_id":"bldg_bc5f8117-bc84-4d7f-b086-c2d8fa0c82c9"},"geometry":{"type":"Polygon","coordinates":[[[139.83371016965648,35.65714216833602],[139.8337079617877,35.657123960558934],[139.83372761977563,35.657122338020365],[139.83372982875326,35.657140545797105],[139.83371016965648,35.65714216833602]]]}},{"type":"Feature","properties":{"height":18.2,"gml_id":"bldg_a9c28441-9ca2-410c-8863-e262c965125b"},"geometry":{"type":"Polygon","coordinates":[[[139.83389626782827,35.657048514700676],[139.8338946110083,35.657026250734575],[139.83369879340026,35.65703634689314],[139.8336873065394,35.656887349562275],[139.83388411778094,35.65687716328004],[139.83388268187753,35.65685805412635],[139.83394795426645,35.65685471872161],[139.83394927972887,35.65687220539924],[139.8340451451092,35.656867247305634],[139.83405674307932,35.65701660515239],[139.83399202278437,35.65701994061297],[139.83399390053017,35.65704346650217],[139.83389626782827,35.657048514700676]]]}},{"type":"Feature","properties":{"height":21.4,"gml_id":"bldg_4a524747-ea9d-4445-8e7f-236d82ebf5f2"},"geometry":{"type":"Polygon","coordinates":[[[139.8354979517498,35.657825752569266],[139.83548767713674,35.6577067712074],[139.83562595428316,35.6576988365513],[139.8356362290977,35.657817727763955],[139.8354979517498,35.657825752569266]]]}},{"type":"Feature","properties":{"height":4.5,"gml_id":"bldg_d0fcf86b-6c65-462c-a76a-e3ed3ae2b624"},"geometry":{"type":"Polygon","coordinates":[[[139.83660915672775,35.65817618219198],[139.83660628404377,35.658149411424],[139.83663787145218,35.6581472472607],[139.83664074414662,35.65817401802795],[139.83660915672775,35.65817618219198]]]}},{"type":"Feature","properties":{"height":18.7,"gml_id":"bldg_4b35ed89-1961-47ec-9a37-50f73e279d44"},"geometry":{"type":"Polygon","coordinates":[[[139.83663188922807,35.65770584392814],[139.83661387865624,35.65751006568918],[139.83688623508263,35.65749347265509],[139.8369041358703,35.657689250857096],[139.83663188922807,35.65770584392814]]]}},{"type":"Feature","properties":{"height":14.7,"gml_id":"bldg_098ae91e-15e2-4acd-8ac3-596d41517081"},"geometry":{"type":"Polygon","coordinates":[[[139.8336941552091,35.65714036563417],[139.83366775900197,35.657141807911074],[139.83366433505643,35.65710088547529],[139.83369073125016,35.65709944319912],[139.8336941552091,35.65714036563417]]]}},{"type":"Feature","properties":{"height":6.1,"gml_id":"bldg_182e3907-163e-4585-bb38-093cb8cd85f3"},"geometry":{"type":"Polygon","coordinates":[[[139.83425235109408,35.65800054519204],[139.83418641512722,35.658005322966304],[139.83418254914767,35.65796908770592],[139.83424848508602,35.65796440007125],[139.83425235109408,35.65800054519204]]]}},{"type":"Feature","properties":{"height":22.6,"gml_id":"bldg_fa38f5ac-407e-4575-808e-141c9d946315"},"geometry":{"type":"Polygon","coordinates":[[[139.83426151798832,35.65789733764738],[139.83425091277627,35.65777979838452],[139.8343942706417,35.65777096372852],[139.83440487496543,35.65788904380412],[139.83426151798832,35.65789733764738]]]}},{"type":"Feature","properties":{"height":11.8,"gml_id":"bldg_96f28088-f82b-4117-826c-63cf92d30602"},"geometry":{"type":"Polygon","coordinates":[[[139.83373756459298,35.658079418359655],[139.83372917025366,35.65798495425511],[139.83393095422014,35.657973055268634],[139.8339393487965,35.65806760949683],[139.83373756459298,35.658079418359655]]]}},{"type":"Feature","properties":{"height":30.9,"gml_id":"bldg_3ddcc6e6-450e-462d-a762-86b39070e414"},"geometry":{"type":"Polygon","coordinates":[[[139.8281126752567,35.658084263444614],[139.82764394462865,35.65807090185854],[139.82766629166238,35.65754711370124],[139.82766640231748,35.6575441391677],[139.8281351298712,35.65755750066727],[139.8281126752567,35.658084263444614]]]}},{"type":"Feature","properties":{"height":7.6,"gml_id":"bldg_b029dc1b-5500-42ea-a8b4-c5fc3a4b109e"},"geometry":{"type":"Polygon","coordinates":[[[139.8368046601375,35.650849253088616],[139.83676567458406,35.65080869226842],[139.8368847208866,35.650732522511376],[139.8369237064632,35.650773083293544],[139.8368046601375,35.650849253088616]]]}},{"type":"Feature","properties":{"height":4.4,"gml_id":"bldg_1a97b9f4-57ee-4c5a-8607-19ffe311b0c9"},"geometry":{"type":"Polygon","coordinates":[[[139.8263474655013,35.65123804441209],[139.8262427726404,35.651229745631895],[139.82624863018793,35.65117962945258],[139.8263534334124,35.65118801837177],[139.8263474655013,35.65123804441209]]]}},{"type":"Feature","properties":{"height":6.0,"gml_id":"bldg_bf214541-7d04-4906-b2c2-ae690284108e"},"geometry":{"type":"Polygon","coordinates":[[[139.83017168634325,35.65039289473433],[139.83010156025045,35.650387755027275],[139.83010741547844,35.65033385287195],[139.83017754152453,35.65033899257565],[139.83017168634325,35.65039289473433]]]}},{"type":"Feature","properties":{"height":14.7,"gml_id":"bldg_698221f3-9601-4eec-924c-afee4d30dad7"},"geometry":{"type":"Polygon","coordinates":[[[139.83529393800097,35.656958903336175],[139.8352982464513,35.6570049635523],[139.83513876521883,35.65701479104127],[139.83513456730168,35.65696864068031],[139.83529393800097,35.656958903336175]]]}},{"type":"Feature","properties":{"height":12.8,"gml_id":"bldg_7eb77249-ad4a-4103-ba39-dfae8fa07e16"},"geometry":{"type":"Polygon","coordinates":[[[139.83674346835016,35.6558014146625],[139.83729921366827,35.655767866470036],[139.83745912100537,35.65765416962131],[139.83747060722746,35.65765281716423],[139.83747889570242,35.65775133720586],[139.8367718269247,35.6577909298472],[139.83676840138332,35.65775036805429],[139.8363163499328,35.657775708747096],[139.83631701289616,35.6577835506962],[139.83620734094418,35.65778977285327],[139.836204578605,35.65775606148115],[139.8361645974994,35.65775822572855],[139.8361674702576,35.65779166668638],[139.83372961178168,35.65793348572286],[139.8337014467918,35.65763107438336],[139.83366356251335,35.657238705781985],[139.83365958634195,35.65719742279807],[139.83365251760546,35.65712468181899],[139.83365472647256,35.65711954397309],[139.83362258580655,35.65674457185718],[139.83361927249135,35.65674475214021],[139.83361905159333,35.65674186773912],[139.83362115002308,35.656740876221086],[139.8336217022281,35.65673691016753],[139.83355686961968,35.65599480780729],[139.8360419388405,35.65585028704309],[139.83607253106126,35.655838929018145],[139.83674346835016,35.6558014146625]]]}},{"type":"Feature","properties":{"height":7.4,"gml_id":"bldg_d599a1ca-8c65-4396-801c-7994de21f988"},"geometry":{"type":"Polygon","coordinates":[[[139.8306649881228,35.650750482702534],[139.8306162861653,35.65074615500697],[139.8306453379976,35.650529194354995],[139.83069415026026,35.65053352204138],[139.8306649881228,35.650750482702534]]]}},{"type":"Feature","properties":{"height":5.0,"gml_id":"bldg_69775d74-7b9b-49b6-aa04-9b892e85c89c"},"geometry":{"type":"Polygon","coordinates":[[[139.8371933686859,35.65032382893964],[139.8372142402599,35.65031048789723],[139.83726338633565,35.6503615042114],[139.83724251475655,35.65037484526223],[139.8371933686859,35.65032382893964]]]}},{"type":"Feature","properties":{"height":2.3,"gml_id":"bldg_8067cda8-83b8-468b-a64f-d5322c2e55df"},"geometry":{"type":"Polygon","coordinates":[[[139.83692933754975,35.65074784458635],[139.83691652648807,35.65073594679965],[139.83694523882036,35.65071548469764],[139.836958049883,35.65072738248133],[139.83692933754975,35.65074784458635]]]}},{"type":"Feature","properties":{"height":5.8,"gml_id":"bldg_314548ac-9f2c-42d7-a414-d037c5afcc6c"},"geometry":{"type":"Polygon","coordinates":[[[139.8298966895961,35.650703501519835],[139.82983550855946,35.650697640811906],[139.82984136343964,35.650656357942125],[139.8298617939177,35.650658341560856],[139.82988664940922,35.65048356538533],[139.82986754419014,35.6504817620842],[139.8298729571535,35.650443814291535],[139.82993281278462,35.65044949466799],[139.8298966895961,35.650703501519835]]]}},{"type":"Feature","properties":{"height":6.1,"gml_id":"bldg_a4b0689e-737d-4863-afd7-5e934d06cf48"},"geometry":{"type":"Polygon","coordinates":[[[139.83000360467764,35.6503788287321],[139.82993889002648,35.650371345501014],[139.82994850019108,35.65031654208258],[139.8300132147989,35.65032402530858],[139.83000360467764,35.6503788287321]]]}},{"type":"Feature","properties":{"height":5.8,"gml_id":"bldg_cf97fee9-c4f1-4463-a09c-02ac7724e55f"},"geometry":{"type":"Polygon","coordinates":[[[139.83008521593436,35.65038577155939],[139.8300188447175,35.65037891929011],[139.8300271295709,35.65032501720545],[139.83009361117897,35.650331869473206],[139.83008521593436,35.65038577155939]]]}},{"type":"Feature","properties":{"height":2.5,"gml_id":"bldg_63a3e9fd-0fb2-40de-a893-870059741c44"},"geometry":{"type":"Polygon","coordinates":[[[139.83023649865552,35.65073235478151],[139.8299053036803,35.65070088777374],[139.8299078444674,35.650682860317836],[139.83023914980478,35.65071432732155],[139.83023649865552,35.65073235478151]]]}},{"type":"Feature","properties":{"height":3.1,"gml_id":"bldg_094a0bcb-4fa6-4b40-8478-ef1b7952d3b6"},"geometry":{"type":"Polygon","coordinates":[[[139.82985100426973,35.65753034096974],[139.82974343102418,35.65752745340993],[139.8297442049534,35.657509245650196],[139.82985166772576,35.65751222334366],[139.82985100426973,35.65753034096974]]]}},{"type":"Feature","properties":{"height":2.8,"gml_id":"bldg_570edac5-daa3-4e0f-958b-dc3cb2512b6b"},"geometry":{"type":"Polygon","coordinates":[[[139.83022828693112,35.65745968345753],[139.83022762573472,35.657421645398685],[139.8302547951678,35.65742128554611],[139.83025534592872,35.65745941373952],[139.83022828693112,35.65745968345753]]]}},{"type":"Feature","properties":{"height":4.7,"gml_id":"bldg_62da957d-9959-47f2-a69d-b8f4d90167b4"},"geometry":{"type":"Polygon","coordinates":[[[139.8302618353363,35.65816032337142],[139.83025808191002,35.65811516437345],[139.83031131687284,35.65811219118258],[139.83031507032894,35.658157350178925],[139.8302618353363,35.65816032337142]]]}},{"type":"Feature","properties":{"height":5.8,"gml_id":"bldg_d583d934-4840-4a79-b2ea-8d542709c488"},"geometry":{"type":"Polygon","coordinates":[[[139.83309722227256,35.65065748998407],[139.8330998728015,35.65063089938492],[139.83317364366923,35.65063585707563],[139.8331708827289,35.650662537813865],[139.83315420697267,35.65066136600089],[139.83309722227256,35.65065748998407]]]}},{"type":"Feature","properties":{"height":9.8,"gml_id":"bldg_9f53b4c4-b230-42b5-9044-f9c9ff09ec48"},"geometry":{"type":"Polygon","coordinates":[[[139.82893212256835,35.6511223397367],[139.8289299126933,35.651143341724726],[139.8292856259926,35.65117391086257],[139.82928717282655,35.65115948889314],[139.82932019316107,35.65116111247533],[139.8293253838279,35.65115777755573],[139.82932936011483,35.651146059795536],[139.82933896879166,35.65113136768022],[139.82935586621724,35.651117306768455],[139.82938126716294,35.651104327785234],[139.82940854499796,35.65110189496107],[139.82943206772808,35.65110514068018],[139.82945271875087,35.65111604800111],[139.82946961468184,35.65113254373143],[139.82947403116043,35.651152644565464],[139.82947248442522,35.6511657144728],[139.82948628794955,35.6511865367079],[139.82949788304495,35.651201319649594],[139.82950064323595,35.65121628258457],[139.82953112353871,35.651218446853875],[139.82954195034222,35.65113272630549],[139.8295921995238,35.65111686365316],[139.8296585721816,35.651104787253495],[139.8296966726434,35.651104608134695],[139.82973234321153,35.65111109911617],[139.82975962057247,35.651119122178116],[139.8297893272112,35.65113444645377],[139.8298181504983,35.651146886291976],[139.83011654777985,35.65117709073876],[139.8301036217268,35.651301750738945],[139.83005911606517,35.651296972242775],[139.83005281929823,35.65134330281406],[139.8301611569117,35.651356465810345],[139.8301462441964,35.651452011304784],[139.8299274701439,35.65143307641462],[139.82994713374998,35.65129327350352],[139.8297237219163,35.65127289591019],[139.82971841958766,35.65130363268368],[139.82967866272395,35.651298583776466],[139.82968330237983,35.65126937932436],[139.82942797483148,35.6512440426411],[139.82942521333592,35.6512561209943],[139.82935442395896,35.65125016959273],[139.82935663327018,35.651238361635805],[139.82932250857638,35.65123601692579],[139.8293156602182,35.651262156611],[139.82890252016753,35.651222301287135],[139.82889478868194,35.6512394271527],[139.8288445405112,35.65123338606904],[139.82882046556563,35.65123050076512],[139.82881715249778,35.65123014009039],[139.8288291966293,35.651112961617535],[139.82893212256835,35.6511223397367]]]}},{"type":"Feature","properties":{"height":10.0,"gml_id":"bldg_bf162002-f0dd-422a-b9e8-86c7eee0c1c4"},"geometry":{"type":"Polygon","coordinates":[[[139.83150656474842,35.65793527527072],[139.83104545601395,35.65789209151541],[139.8310664448254,35.65774426635634],[139.83148712982145,35.65778402419309],[139.83150656474842,35.65793527527072]]]}},{"type":"Feature","properties":{"height":3.1,"gml_id":"bldg_9c8faee2-2641-420d-b2fe-8d0c2b6cb4de"},"geometry":{"type":"Polygon","coordinates":[[[139.83669400646122,35.65091947344712],[139.8366285197132,35.65096102870738],[139.83662443340742,35.65095670221253],[139.83660621070547,35.65093759353002],[139.836600578234,35.65093164459888],[139.83666606497252,35.650890089353595],[139.83669400646122,35.65091947344712]]]}},{"type":"Feature","properties":{"height":4.9,"gml_id":"bldg_fe0802fa-f437-490a-9e3a-d611deac91a2"},"geometry":{"type":"Polygon","coordinates":[[[139.83673133277586,35.650895856338714],[139.83670339128167,35.65086647225375],[139.83670140334704,35.65086430900604],[139.83676534392083,35.65082374526359],[139.83679538379542,35.65085529257741],[139.83673133277586,35.650895856338714]]]}},{"type":"Feature","properties":{"height":3.9,"gml_id":"bldg_0ba0d64d-8343-4354-8dff-ee5c2cdd0b63"},"geometry":{"type":"Polygon","coordinates":[[[139.83660621070547,35.65093759353002],[139.83662443340742,35.65095670221253],[139.8365953895113,35.65097500094294],[139.83660124286467,35.65098113014357],[139.83656700859905,35.65100276410033],[139.83655309308608,35.65098825231369],[139.8365627007659,35.650982122697165],[139.83655265066963,35.65097148672509],[139.83660621070547,35.65093759353002]]]}},{"type":"Feature","properties":{"height":3.4,"gml_id":"bldg_fd03d241-c443-43a3-a3e4-c33f4f8eb137"},"geometry":{"type":"Polygon","coordinates":[[[139.83670339128167,35.65086647225375],[139.83673133277586,35.650895856338714],[139.83669400646122,35.65091947344712],[139.83666606497252,35.650890089353595],[139.83670339128167,35.65086647225375]]]}},{"type":"Feature","properties":{"height":4.2,"gml_id":"bldg_66201295-6bce-49ba-904a-559cf4dea78f"},"geometry":{"type":"Polygon","coordinates":[[[139.8305516449996,35.65816447674045],[139.8304894640625,35.65816285281264],[139.8304909009281,35.658132656774264],[139.83055275050137,35.65813437083125],[139.8305516449996,35.65816447674045]]]}},{"type":"Feature","properties":{"height":9.6,"gml_id":"bldg_ece3a7f3-e485-4c9e-9def-dcdcd452a85a"},"geometry":{"type":"Polygon","coordinates":[[[139.8309067366487,35.657888483298876],[139.83064100576078,35.657863689829775],[139.83065691368213,35.657750297166224],[139.83064531696755,35.65774921525753],[139.83065172431046,35.65770378608247],[139.83072892525857,35.657710998779606],[139.83072284936205,35.65775435480259],[139.8309228651522,35.65777301744182],[139.8309067366487,35.657888483298876]]]}},{"type":"Feature","properties":{"height":9.3,"gml_id":"bldg_26a769fd-01fd-47f9-b221-6167e896a271"},"geometry":{"type":"Polygon","coordinates":[[[139.83339230563658,35.65032533298277],[139.83339418305025,35.65034939973342],[139.8333333333333,35.650343630939425],[139.8332559183702,35.65033632976519],[139.8332676245545,35.65025078914513],[139.8333333333333,35.65025592700897],[139.833407987351,35.65026178593293],[139.83340301778648,35.650270619425356],[139.83339473518637,35.65029820154987],[139.83339230563658,35.65032533298277]]]}},{"type":"Feature","properties":{"height":16.6,"gml_id":"bldg_8696d7e0-b6fe-4622-8281-3c2df310921a"},"geometry":{"type":"Polygon","coordinates":[[[139.83575468201994,35.652338893205915],[139.8358207225115,35.65229661731791],[139.83589173633405,35.65237052867577],[139.83582569581907,35.652412804602214],[139.83575468201994,35.652338893205915]]]}},{"type":"Feature","properties":{"height":2.1,"gml_id":"bldg_83eff5d7-242f-497f-bdc5-bb7f23daf914"},"geometry":{"type":"Polygon","coordinates":[[[139.83467535602026,35.65129773037249],[139.8346597842293,35.651281776184135],[139.83467999385886,35.65126861586554],[139.83469556565132,35.651284570051345],[139.83467535602026,35.65129773037249]]]}},{"type":"Feature","properties":{"height":5.1,"gml_id":"bldg_0df656a1-6545-4b0f-aaf9-b37d09974b09"},"geometry":{"type":"Polygon","coordinates":[[[139.834794076998,35.65140138726695],[139.83473366717521,35.65134099577182],[139.8347803812212,35.65130989773674],[139.83484079105406,35.65137019907114],[139.834794076998,35.65140138726695]]]}},{"type":"Feature","properties":{"height":1.8,"gml_id":"bldg_0ba03402-be5d-4cd5-b974-0a7c05653cf0"},"geometry":{"type":"Polygon","coordinates":[[[139.83465536723307,35.65130953862334],[139.83463935368954,35.65129304361142],[139.83465348939342,35.65128393955647],[139.83466950293806,35.651300434566544],[139.83465536723307,35.65130953862334]]]}},{"type":"Feature","properties":{"height":12.3,"gml_id":"bldg_a88b77d2-398a-409e-9003-bf4cd0d41330"},"geometry":{"type":"Polygon","coordinates":[[[139.83556284597947,35.652137799884514],[139.83550320813436,35.65207921152089],[139.83556836499545,35.65203513303294],[139.8356278924179,35.65209372136684],[139.83556284597947,35.652137799884514]]]}},{"type":"Feature","properties":{"height":9.4,"gml_id":"bldg_68dff812-3745-47b7-8dd7-78eb8a928197"},"geometry":{"type":"Polygon","coordinates":[[[139.83144989672485,35.6583390905293],[139.83143432850207,35.658141779236466],[139.831157440525,35.65815628669425],[139.8305571664918,35.65818755207523],[139.83054888669213,35.65808272193742],[139.8315466543411,35.658030641380655],[139.83157028307144,35.65833251231245],[139.83144989672485,35.6583390905293]]]}},{"type":"Feature","properties":{"height":5.7,"gml_id":"bldg_3362abb8-0e97-4b33-a695-a8805f0215d7"},"geometry":{"type":"Polygon","coordinates":[[[139.83396713195654,35.651846403922335],[139.83390705372898,35.65178556132719],[139.8341272637439,35.651640799049986],[139.83417850698154,35.651692627836475],[139.83415476320621,35.65170822181005],[139.83416359825375,35.65171723551204],[139.83396713195654,35.651846403922335]]]}},{"type":"Feature","properties":{"height":10.4,"gml_id":"bldg_d302d3f3-08b8-4608-ba8b-1b18a0159bee"},"geometry":{"type":"Polygon","coordinates":[[[139.83444696641348,35.65077844978075],[139.83441737237663,35.65097954712162],[139.8343305696329,35.65097098479613],[139.83436016388413,35.65076988747629],[139.83444696641348,35.65077844978075]]]}},{"type":"Feature","properties":{"height":8.6,"gml_id":"bldg_f0ed8fd7-40df-46fd-b6b5-f435c01634b1"},"geometry":{"type":"Polygon","coordinates":[[[139.83484288129316,35.65094213542079],[139.83479815462275,35.65093438413625],[139.834820018223,35.65078863130693],[139.83495364565863,35.650802691055105],[139.8350153783507,35.65076194799566],[139.83504254558187,35.650765102430576],[139.8350364727128,35.650816480971145],[139.83484288129316,35.65094213542079]]]}},{"type":"Feature","properties":{"height":9.6,"gml_id":"bldg_90a487e5-7a99-4b88-b8ae-e8a964b1d126"},"geometry":{"type":"Polygon","coordinates":[[[139.83587908447507,35.65041823800548],[139.83587753868875,35.65042788276617],[139.83587301113224,35.65043689662621],[139.8358657226523,35.65044455847948],[139.83585622541312,35.650450507763345],[139.83584518201192,35.65045429377524],[139.83583336548458,35.65045555594812],[139.8358215488786,35.6504542942658],[139.83581050524148,35.65045050871237],[139.8358010076316,35.65044455982278],[139.83579382910938,35.650436898269845],[139.83578919055597,35.650427884600035],[139.83578764416865,35.65041823990353],[139.8357891899628,35.65040850500634],[139.83579382796503,35.650399581284795],[139.83580100600986,35.65039182930043],[139.83581050324622,35.65038588002086],[139.83582154664242,35.65038218414975],[139.83583336315914,35.65038092197803],[139.83584517975447,35.65038218365919],[139.835856223381,35.65038587907184],[139.83586572098804,35.65039182795713],[139.8358730099511,35.65039957964116],[139.83587753807424,35.65040850317248],[139.83587908447507,35.65041823800548]]]}},{"type":"Feature","properties":{"height":2.2,"gml_id":"bldg_d089f836-8ff8-4a84-af1b-f9bc815f4020"},"geometry":{"type":"Polygon","coordinates":[[[139.8359805786955,35.65054902553908],[139.83596224686738,35.65056236631178],[139.83593165536735,35.65053433416861],[139.83595009762945,35.650520993398096],[139.8359805786955,35.65054902553908]]]}},{"type":"Feature","properties":{"height":5.5,"gml_id":"bldg_798f2028-4cf8-438d-abce-19baba6f7947"},"geometry":{"type":"Polygon","coordinates":[[[139.835908234947,35.65028086761309],[139.83590602680553,35.65029826422616],[139.83585401179332,35.650294028856585],[139.83585610950814,35.650276542109125],[139.835908234947,35.65028086761309]]]}},{"type":"Feature","properties":{"height":19.2,"gml_id":"bldg_e655c13c-efd7-4fab-996f-5e93cbf059d1"},"geometry":{"type":"Polygon","coordinates":[[[139.8370274048709,35.657954161351626],[139.83727424988786,35.657939190696624],[139.83728430592086,35.6580506904935],[139.83703757100832,35.65806566116546],[139.8370274048709,35.657954161351626]]]}},{"type":"Feature","properties":{"height":24.1,"gml_id":"bldg_9be5accc-49c3-4e02-a250-513a493031b0"},"geometry":{"type":"Polygon","coordinates":[[[139.83699219602317,35.65846443097375],[139.83699042805748,35.65844631338502],[139.83674479638523,35.658462455210525],[139.83671220088584,35.6581333640187],[139.83769240361732,35.65806879405719],[139.83772577667415,35.658405907198514],[139.837400734742,35.658427281208574],[139.83740206076826,35.65844053137992],[139.83725781850333,35.65845009074439],[139.8372564924875,35.65843657015888],[139.8371422914814,35.65844405523953],[139.83714317545343,35.65845252813888],[139.8371195400362,35.658454061222194],[139.8371185455524,35.658444146125746],[139.83706994937077,35.658447302456715],[139.83707116483768,35.658459290709764],[139.83699219602317,35.65846443097375]]]}},{"type":"Feature","properties":{"height":3.2,"gml_id":"bldg_5e020fc1-8822-4348-853d-9be713e5794f"},"geometry":{"type":"Polygon","coordinates":[[[139.8265122229968,35.65789065815063],[139.82647853740758,35.65788750142435],[139.8264954458322,35.65776698850288],[139.82652913137147,35.65777014522448],[139.8265122229968,35.65789065815063]]]}},{"type":"Feature","properties":{"height":6.3,"gml_id":"bldg_f27dee38-9195-4118-bb89-0d27be4ad228"},"geometry":{"type":"Polygon","coordinates":[[[139.8268402661459,35.65764117558778],[139.8265337834746,35.657612044249355],[139.82654229268877,35.65755363560519],[139.82685120497402,35.65758222622781],[139.8268402661459,35.65764117558778]]]}},{"type":"Feature","properties":{"height":4.1,"gml_id":"bldg_4d0af63a-dc88-4b28-a41c-ede48766d64d"},"geometry":{"type":"Polygon","coordinates":[[[139.82938847896423,35.65042387897817],[139.8292979225589,35.65041540303948],[139.82931327849101,35.650306697552004],[139.82940394520585,35.650315263620556],[139.82938847896423,35.65042387897817]]]}},{"type":"Feature","properties":{"height":1.4,"gml_id":"bldg_19703c9b-b935-4d70-8359-aa93a4ee2779"},"geometry":{"type":"Polygon","coordinates":[[[139.8321822991525,35.65592611769203],[139.83219566273362,35.65592539671852],[139.83219853370662,35.65596343479688],[139.83218528056196,35.655964155771755],[139.8321822991525,35.65592611769203]]]}},{"type":"Feature","properties":{"height":2.1,"gml_id":"bldg_15b298d7-d8ae-4668-87d4-4329724410e5"},"geometry":{"type":"Polygon","coordinates":[[[139.83211934652232,35.65594405444884],[139.83214099332992,35.655942251913835],[139.8321451896554,35.65597596340351],[139.83212354283876,35.655977765939255],[139.83211934652232,35.65594405444884]]]}},{"type":"Feature","properties":{"height":2.3,"gml_id":"bldg_bb327a91-c556-4b82-b389-cbf1cec379f0"},"geometry":{"type":"Polygon","coordinates":[[[139.83263732441822,35.65578794029636],[139.83263809742851,35.65579803570805],[139.83259911118645,35.65580010864067],[139.8325982277385,35.655790013228064],[139.83263732441822,35.65578794029636]]]}},{"type":"Feature","properties":{"height":13.0,"gml_id":"bldg_3dfb0734-5230-4388-8505-0bb4104d4d7b"},"geometry":{"type":"Polygon","coordinates":[[[139.83540284153196,35.65717568231069],[139.835410133188,35.65726536904056],[139.83539908874639,35.65726600019331],[139.83539168665823,35.65717631346466],[139.83540284153196,35.65717568231069]]]}},{"type":"Feature","properties":{"height":13.7,"gml_id":"bldg_04124478-752e-4e54-bfbd-5835a31d3729"},"geometry":{"type":"Polygon","coordinates":[[[139.83365428261777,35.65660035169475],[139.83367736533677,35.65659881929262],[139.83368321909532,35.656654884833124],[139.83366013636032,35.656656417236356],[139.83365428261777,35.65660035169475]]]}},{"type":"Feature","properties":{"height":13.6,"gml_id":"bldg_950d907e-4a52-4e2d-ac1a-a8a1fb2f24c8"},"geometry":{"type":"Polygon","coordinates":[[[139.83530065521023,35.65614811593644],[139.8352932533221,35.656057888359705],[139.83530595423971,35.656057167051856],[139.835313245699,35.65614739462964],[139.83530065521023,35.65614811593644]]]}},{"type":"Feature","properties":{"height":15.9,"gml_id":"bldg_4a8fb191-649e-478b-b7b4-3b3a4a68b08f"},"geometry":{"type":"Polygon","coordinates":[[[139.83502012563866,35.65594603178116],[139.83501946274149,35.65593458432004],[139.83512869051665,35.65593007586315],[139.8351293534294,35.655941523323676],[139.83502012563866,35.65594603178116]]]}},{"type":"Feature","properties":{"height":13.2,"gml_id":"bldg_2dd01028-bb57-4dd2-8915-0dd9fabc6883"},"geometry":{"type":"Polygon","coordinates":[[[139.8352257963657,35.65706103026614],[139.8351170088653,35.65706698100449],[139.83511623553878,35.65705724616102],[139.83522502302392,35.657051205285825],[139.8352257963657,35.65706103026614]]]}},{"type":"Feature","properties":{"height":13.7,"gml_id":"bldg_8ca650d3-ebea-490f-99ee-5c1c063503f6"},"geometry":{"type":"Polygon","coordinates":[[[139.8336229153371,35.656245660495024],[139.83364666061541,35.6562445787849],[139.83365063679642,35.65630190626094],[139.83362689150118,35.656302987971856],[139.8336229153371,35.656245660495024]]]}},{"type":"Feature","properties":{"height":13.7,"gml_id":"bldg_d0106698-a0d9-4aef-ab61-92a331b943ee"},"geometry":{"type":"Polygon","coordinates":[[[139.83404226835626,35.65627792800217],[139.83401620376424,35.656278829528354],[139.83401311087516,35.65622231329719],[139.83403917544805,35.65622132163411],[139.83404226835626,35.65627792800217]]]}},{"type":"Feature","properties":{"height":13.9,"gml_id":"bldg_711d8c47-8328-4a00-ba5b-b55cb1a8bc24"},"geometry":{"type":"Polygon","coordinates":[[[139.83407209129516,35.65663297965046],[139.83404282372294,35.656634151614604],[139.8340395099038,35.65657646360059],[139.83406877745503,35.65657529163723],[139.83407209129516,35.65663297965046]]]}},{"type":"Feature","properties":{"height":14.0,"gml_id":"bldg_f85861f6-f49a-489f-8cef-961b0baee46a"},"geometry":{"type":"Polygon","coordinates":[[[139.83461194173236,35.65673293767319],[139.83461304633622,35.65674330347975],[139.83450171903718,35.65675096540165],[139.8345007248915,35.65674060049439],[139.83461194173236,35.65673293767319]]]}},{"type":"Feature","properties":{"height":13.6,"gml_id":"bldg_84e8ec70-a8a9-4aa1-9065-fbef092d1fd3"},"geometry":{"type":"Polygon","coordinates":[[[139.83432699399393,35.65652165793942],[139.8343336217694,35.65661486011425],[139.83432600115975,35.6566152207275],[139.83431926294955,35.65652201855316],[139.83432699399393,35.65652165793942]]]}},{"type":"Feature","properties":{"height":14.1,"gml_id":"bldg_a5ac145d-fea6-4553-926e-cf91eff49204"},"geometry":{"type":"Polygon","coordinates":[[[139.83443158973407,35.656937551688884],[139.83442794471995,35.65691132169574],[139.8344587585809,35.656908437010216],[139.8344624036062,35.656934757139986],[139.83443158973407,35.656937551688884]]]}},{"type":"Feature","properties":{"height":14.5,"gml_id":"bldg_87717e55-494d-473a-bf1b-8d4015783df9"},"geometry":{"type":"Polygon","coordinates":[[[139.83422449950743,35.65626350478241],[139.83422096505774,35.656239347943064],[139.83425199955227,35.65623628303336],[139.8342555340122,35.65626053000937],[139.83422449950743,35.65626350478241]]]}},{"type":"Feature","properties":{"height":14.1,"gml_id":"bldg_d712265d-c7ec-48aa-81be-760189b8a274"},"geometry":{"type":"Polygon","coordinates":[[[139.8350353877409,35.65693583205569],[139.83500854980352,35.65693511133161],[139.835009543277,35.65691005307957],[139.835036381206,35.65691077380343],[139.8350353877409,35.65693583205569]]]}},{"type":"Feature","properties":{"height":14.6,"gml_id":"bldg_a24e6e07-f0ab-4331-ae8c-c4a188b47bfe"},"geometry":{"type":"Polygon","coordinates":[[[139.83425222314787,35.65647280397888],[139.83425023489207,35.656448917542086],[139.83427762485073,35.656447384992006],[139.83427961311463,35.65647127142836],[139.83425222314787,35.65647280397888]]]}},{"type":"Feature","properties":{"height":12.3,"gml_id":"bldg_727ffa80-b2a9-4852-a4ea-20aa764d5df3"},"geometry":{"type":"Polygon","coordinates":[[[139.82917936149744,35.65805311737595],[139.8289266622368,35.658045536841996],[139.82894911012062,35.65754392228224],[139.82920180780778,35.65755141263208],[139.82917936149744,35.65805311737595]]]}},{"type":"Feature","properties":{"height":15.1,"gml_id":"bldg_ca2d6d02-893c-4cff-9003-c88e1efb3b72"},"geometry":{"type":"Polygon","coordinates":[[[139.83466716824736,35.65700911852236],[139.83466352294369,35.65697026928009],[139.83476347480865,35.65696404864391],[139.83476712015883,35.65700280774562],[139.83466716824736,35.65700911852236]]]}},{"type":"Feature","properties":{"height":14.2,"gml_id":"bldg_ee7a5624-da82-469b-bc19-97d9673b9f16"},"geometry":{"type":"Polygon","coordinates":[[[139.83551182773002,35.65634794726711],[139.83550961815942,35.65632198769082],[139.83554131533108,35.65632018436273],[139.83554352490938,35.656346053800895],[139.83551182773002,35.65634794726711]]]}},{"type":"Feature","properties":{"height":14.2,"gml_id":"bldg_f26fd70f-cfbf-47d9-90ad-9588703359f9"},"geometry":{"type":"Polygon","coordinates":[[[139.83556207934834,35.656344701395604],[139.8355603115297,35.65631856153694],[139.83559156693843,35.6563172088916],[139.83559322432393,35.65634334875187],[139.83556207934834,35.656344701395604]]]}},{"type":"Feature","properties":{"height":15.0,"gml_id":"bldg_93711cef-c683-45bf-bc61-e4b8d9559955"},"geometry":{"type":"Polygon","coordinates":[[[139.83562683352517,35.657547766022454],[139.83562252404155,35.65747313222236],[139.8356648243775,35.65747150893517],[139.83566913389777,35.65754605259622],[139.83562683352517,35.657547766022454]]]}},{"type":"Feature","properties":{"height":15.8,"gml_id":"bldg_8d22b419-3951-4de8-88a2-b33c1c186a06"},"geometry":{"type":"Polygon","coordinates":[[[139.83459627626667,35.65784829978394],[139.83470826778426,35.657842529755264],[139.83470915154203,35.65785388707442],[139.83459716001008,35.65785974724143],[139.83459627626667,35.65784829978394]]]}},{"type":"Feature","properties":{"height":16.5,"gml_id":"bldg_79bd7d64-f3a7-46c9-9a7a-57f3489f5508"},"geometry":{"type":"Polygon","coordinates":[[[139.8344224337278,35.65773716190145],[139.83441845655463,35.65765252279105],[139.83443148907284,35.65765216212278],[139.83443546625978,35.657736801232744],[139.8344224337278,35.65773716190145]]]}},{"type":"Feature","properties":{"height":13.9,"gml_id":"bldg_235410f7-987e-4c19-9dc8-cc7755b03dca"},"geometry":{"type":"Polygon","coordinates":[[[139.83426217327954,35.657355250494625],[139.83429221421054,35.657352906683116],[139.83429519653515,35.657379407096386],[139.8342651555933,35.65738166077108],[139.83426217327954,35.657355250494625]]]}},{"type":"Feature","properties":{"height":13.8,"gml_id":"bldg_553b8c2c-d2f7-44f9-9b8e-6e4aacd433d7"},"geometry":{"type":"Polygon","coordinates":[[[139.8342712307948,35.657445027414695],[139.83430060909677,35.657443224431525],[139.83430292875073,35.65746909388673],[139.83427355043938,35.65747089687045],[139.8342712307948,35.657445027414695]]]}},{"type":"Feature","properties":{"height":15.8,"gml_id":"bldg_c9223fd4-7b6b-4587-b8c9-0325834f72b4"},"geometry":{"type":"Polygon","coordinates":[[[139.83428846355557,35.657727878872336],[139.834285591675,35.65770218969739],[139.8343155222923,35.65770002615614],[139.83431839418236,35.65772571533038],[139.83428846355557,35.657727878872336]]]}},{"type":"Feature","properties":{"height":3.7,"gml_id":"bldg_bb81293e-7f28-480d-a990-23e62e7b3ad7"},"geometry":{"type":"Polygon","coordinates":[[[139.82956073418663,35.65092640184674],[139.82955918760982,35.65093649721367],[139.82955443842607,35.65094587137904],[139.82954681797187,35.65095389338939],[139.8295368784475,35.650960112573465],[139.82952539293012,35.650963988129256],[139.82951302404453,35.65096533980212],[139.82950076572357,35.650963987348106],[139.8294891701394,35.65096011106018],[139.82947934164318,35.65095389124912],[139.8294717219529,35.65094586875536],[139.82946697366182,35.65093649428874],[139.82946531761053,35.65092639882019],[139.82946697463478,35.65091630345799],[139.829471723827,35.650906929296035],[139.8294793442886,35.650898817152715],[139.8294891733697,35.65089268810746],[139.82950076931874,35.65088872242096],[139.82951302775263,35.65088746088347],[139.82952539650216,35.6508887232021],[139.8295368816377,35.65089268962074],[139.82954682057093,35.650898819293],[139.82955444026004,35.650906931919714],[139.82955918855956,35.65091630638291],[139.82956073418663,35.65092640184674]]]}},{"type":"Feature","properties":{"height":8.1,"gml_id":"bldg_fd6568a5-d650-4076-b2de-240e00219f18"},"geometry":{"type":"Polygon","coordinates":[[[139.83337994071996,35.65687734480559],[139.83337740048825,35.65684327281322],[139.83344554442996,35.65683993767969],[139.8334479742465,35.65687400967077],[139.83337994071996,35.65687734480559]]]}},{"type":"Feature","properties":{"height":3.3,"gml_id":"bldg_42c84125-289b-4c54-824d-ba8672bff5dd"},"geometry":{"type":"Polygon","coordinates":[[[139.83065072856044,35.65115033294406],[139.83059385411332,35.6511451938187],[139.83061219114302,35.65100872585465],[139.83066917593058,35.651013864973905],[139.83065072856044,35.65115033294406]]]}},{"type":"Feature","properties":{"height":9.4,"gml_id":"bldg_b4d872e6-10f0-4c40-a044-c42e4d72e0bc"},"geometry":{"type":"Polygon","coordinates":[[[139.83030648655554,35.65148149044333],[139.83028826455495,35.651480408332446],[139.83029179997882,35.65144209992926],[139.83031002197077,35.65144318203962],[139.83030648655554,35.65148149044333]]]}},{"type":"Feature","properties":{"height":4.1,"gml_id":"bldg_266c34fe-f547-438a-b8a1-80ec61be86ed"},"geometry":{"type":"Polygon","coordinates":[[[139.8305768464874,35.65115853380051],[139.83036701847453,35.65113923936173],[139.83039109995005,35.650964823627554],[139.8304788962091,35.650972847990005],[139.83045934398612,35.65111427347548],[139.8304923642747,35.65111733893848],[139.83051224783986,35.65097329946399],[139.83060125890938,35.650981504040956],[139.8305768464874,35.65115853380051]]]}},{"type":"Feature","properties":{"height":4.2,"gml_id":"bldg_b1e7b270-601e-4d36-9ce1-ef70609ab5be"},"geometry":{"type":"Polygon","coordinates":[[[139.83042388514335,35.651358365333834],[139.83033630933073,35.65135061135018],[139.83035785039252,35.651189986623486],[139.8304454260319,35.65119774059168],[139.83042388514335,35.651358365333834]]]}},{"type":"Feature","properties":{"height":4.0,"gml_id":"bldg_b30f2731-ae8a-4b9d-9366-89181ed91ab5"},"geometry":{"type":"Polygon","coordinates":[[[139.83054105781486,35.651369815586484],[139.83046518820362,35.651363143618944],[139.83048595591558,35.65120369064048],[139.83056182537774,35.651210362595116],[139.83054105781486,35.651369815586484]]]}},{"type":"Feature","properties":{"height":4.2,"gml_id":"bldg_8e315896-52b3-4b9d-ac39-d4c5b1caf1f4"},"geometry":{"type":"Polygon","coordinates":[[[139.83071389087263,35.65136999974468],[139.83062775069925,35.65136206572892],[139.8306474132005,35.65121829664591],[139.83073366365775,35.6512262306502],[139.83071389087263,35.65136999974468]]]}},{"type":"Feature","properties":{"height":2.1,"gml_id":"bldg_c7bcd6bb-b5a2-44b7-b337-ccac4bb3b351"},"geometry":{"type":"Polygon","coordinates":[[[139.83214458480793,35.652074628182355],[139.83209643415955,35.65206994054122],[139.83212548219748,35.6518710071046],[139.83217352229104,35.651875694733235],[139.83214458480793,35.652074628182355]]]}},{"type":"Feature","properties":{"height":2.3,"gml_id":"bldg_16e88cd0-5eae-472f-9009-d1d57fb221d4"},"geometry":{"type":"Polygon","coordinates":[[[139.83103204636956,35.65178671249696],[139.8309905221518,35.651783016053756],[139.83099427784387,35.65175444249969],[139.831035912484,35.65175813894369],[139.83103204636956,35.65178671249696]]]}},{"type":"Feature","properties":{"height":3.5,"gml_id":"bldg_7798e33c-51f6-4103-84e5-cd2a5b3a7275"},"geometry":{"type":"Polygon","coordinates":[[[139.8311370711941,35.651815828910586],[139.83110990375823,35.6518127637329],[139.83111454287553,35.65178527184299],[139.83114171030223,35.65178833701965],[139.8311370711941,35.651815828910586]]]}},{"type":"Feature","properties":{"height":2.0,"gml_id":"bldg_1c3f7ab3-372e-4558-a091-97aaa6bea0e3"},"geometry":{"type":"Polygon","coordinates":[[[139.8333333333333,35.65216801662281],[139.83332482964042,35.65217405584298],[139.83330981013506,35.652160084510044],[139.8333333333333,35.65214331891518],[139.8333526598972,35.652129437720234],[139.8333676794043,35.6521434090479],[139.8333333333333,35.65216801662281]]]}},{"type":"Feature","properties":{"height":15.0,"gml_id":"bldg_c35c3dad-a3f3-4855-a86d-2b4362ff67a2"},"geometry":{"type":"Polygon","coordinates":[[[139.8341020771206,35.65090761971225],[139.83406154721158,35.65091194657073],[139.83395332007433,35.65090915290972],[139.83362654043844,35.65090383602793],[139.8335016375028,35.65089338030123],[139.83352990857068,35.65068984946832],[139.83395884049057,35.650732753521446],[139.83405094378998,35.650735096586544],[139.83406309169328,35.65073383458658],[139.83407623350394,35.65073122051467],[139.83408793964188,35.65072761493627],[139.8340979892383,35.65072328826614],[139.834110799687,35.650715265934124],[139.83412824836464,35.65070102407299],[139.83413774571733,35.65069065818121],[139.83414282567887,35.65068344713588],[139.834147684741,35.650673531962596],[139.83414967252415,35.65066803355302],[139.83415453144613,35.650644597733184],[139.83436943912974,35.650665508008984],[139.834360825698,35.6507074220859],[139.83435221313505,35.650731488909116],[139.8343377453359,35.6507607837637],[139.83431897160864,35.65078755479783],[139.83429224652878,35.65081684974637],[139.83425348395835,35.650848308084726],[139.83421527345422,35.650872284982434],[139.8341775045899,35.65088860016559],[139.83414006697055,35.650900228177484],[139.8341020771206,35.65090761971225]]]}},{"type":"Feature","properties":{"height":17.8,"gml_id":"bldg_1a8ff9e0-499f-414b-a3e0-a3eac4907c01"},"geometry":{"type":"Polygon","coordinates":[[[139.83497131188625,35.650632150400064],[139.83493354299566,35.65063377338534],[139.83494745595107,35.65053876812438],[139.83504861343886,35.650479636431896],[139.83506053869624,35.6503984222435],[139.83513716813795,35.649840829619755],[139.83523766362197,35.64985002211341],[139.83515982006483,35.650406803579834],[139.83516158818335,35.650457551047104],[139.83515871752826,35.65048657541211],[139.83515286497325,35.650509200049285],[139.83514182195947,35.65053200503946],[139.83512757626414,35.650552556635176],[139.8350983115421,35.65058176166388],[139.8350703718013,35.65060069097501],[139.83504187978764,35.650615744368814],[139.8350099641609,35.65062584023326],[139.83497131188625,35.650632150400064]]]}},{"type":"Feature","properties":{"height":27.7,"gml_id":"bldg_e4f6429d-9a54-4c31-92db-4717404fb5fa"},"geometry":{"type":"Polygon","coordinates":[[[139.83359550594903,35.65028450035784],[139.83356447433275,35.65049623375081],[139.83352405500844,35.65048821157127],[139.83349677747844,35.65047667399293],[139.83347137734796,35.65046108021224],[139.83343924066696,35.650435030465474],[139.8334157179444,35.65040573574921],[139.8334025761442,35.65038365203432],[139.83339473523094,35.65035643046952],[139.83339418305025,35.65034939973342],[139.83339230563658,35.65032533298277],[139.83339473518637,35.65029820154987],[139.83340301778648,35.650270619425356],[139.833407987351,35.65026178593293],[139.83341649082567,35.65024682307786],[139.8334333873403,35.65022464920362],[139.8334587873285,35.65020184435485],[139.83348297252843,35.65018399707282],[139.83352007859096,35.65016660045478],[139.8335405090083,35.65015812748237],[139.83355155247529,35.65015353044277],[139.8335526569806,35.650211129299656],[139.83356171284166,35.65028206671018],[139.83359550594903,35.65028450035784]]]}}]}