{"type":"FeatureCollection","crs":{"type":"name","properties":{"name":"urn:ogc:def:crs:OGC:1.3:CRS84"}},"features":[{"type":"Feature","properties":{"height":1.5,"gml_id":"bldg_7e7f7f40-50b9-4da5-8d7f-3e9f2197de45"},"geometry":{"type":"Polygon","coordinates":[[[139.8408536787545,35.64616190930183],[139.8408539002889,35.6461691203047],[139.84083247705442,35.64616966246667],[139.84083225552197,35.64616245146377],[139.8408536787545,35.64616190930183]]]}},{"type":"Feature","properties":{"height":5.4,"gml_id":"bldg_5104aa65-679f-45f9-9723-2628aef1d3e3"},"geometry":{"type":"Polygon","coordinates":[[[139.83900995704258,35.64936595431303],[139.838984445016,35.64933981559107],[139.83903181887666,35.64930907641646],[139.83905733090893,35.64933521512853],[139.83900995704258,35.64936595431303]]]}},{"type":"Feature","properties":{"height":23.5,"gml_id":"bldg_59471b28-f775-4394-801c-f14b45e93717"},"geometry":{"type":"Polygon","coordinates":[[[139.83866417086554,35.64410418186183],[139.83918615454812,35.64407387134847],[139.83918759122255,35.64408937496993],[139.83866560743965,35.64411968548946],[139.83866417086554,35.64410418186183]]]}},{"type":"Feature","properties":{"height":5.7,"gml_id":"bldg_31245c8c-2b53-4074-8fa3-b0fae54e527f"},"geometry":{"type":"Polygon","coordinates":[[[139.8403786364148,35.64644082408957],[139.84036128083073,35.646233868930246],[139.84069974518354,35.64621491978709],[139.84070549381218,35.64628351423071],[139.84071951827912,35.646282702132154],[139.84072217144114,35.64631370934052],[139.84070803653103,35.64631443130845],[139.84071776490273,35.64642935628702],[139.84073775261336,35.64642872409601],[139.84073919139325,35.64646333688607],[139.84070904416558,35.646464240113005],[139.840708933595,35.646462707778795],[139.8403820632739,35.64648111544289],[139.84038184220066,35.646478681737825],[139.8403786364148,35.64644082408957]]]}},{"type":"Feature","properties":{"height":9.6,"gml_id":"bldg_b4885451-dd7f-4d7d-bccd-bf3fa7806d7d"},"geometry":{"type":"Polygon","coordinates":[[[139.83795632658564,35.64583629766664],[139.8378693089601,35.645841709237935],[139.83787361823528,35.64588677793224],[139.8377305028488,35.64589570687553],[139.83771868006738,35.64576969478264],[139.83774518286455,35.64576780092278],[139.8377438570359,35.64575536196669],[139.83797189157204,35.645741472192604],[139.83797001327352,35.645723985548166],[139.83801639314538,35.64572091907149],[139.83801904446545,35.645738585960586],[139.83853242552792,35.64570737724524],[139.83853032626246,35.645690070894396],[139.83857239942924,35.64568781562882],[139.8385740569714,35.64570485158499],[139.83907705735007,35.64567418182563],[139.83907562073958,35.6456596697218],[139.839105546742,35.645657595123915],[139.83910709380595,35.64567237763522],[139.83973189590998,35.64563430794807],[139.8397331117168,35.645648008816394],[139.83975630161194,35.645646655516266],[139.83976160707937,35.645707768604716],[139.8380250115313,35.64580555805034],[139.8380275529281,35.6458317880261],[139.83799851024787,35.645833591908776],[139.83795632658564,35.64583629766664]]]}},{"type":"Feature","properties":{"height":19.3,"gml_id":"bldg_4a536e44-4e3e-4c28-b94f-17a2771213c1"},"geometry":{"type":"Polygon","coordinates":[[[139.83856366150715,35.64377770736611],[139.83856863439973,35.64383476434214],[139.83853528584248,35.6438366586796],[139.83853064453172,35.64378392829965],[139.8385303129735,35.643779601702214],[139.83856366150715,35.64377770736611]]]}},{"type":"Feature","properties":{"height":5.1,"gml_id":"bldg_7a8b5095-7cb6-4b7c-bf43-c181fd1f0d8f"},"geometry":{"type":"Polygon","coordinates":[[[139.8381999867922,35.64490859064657],[139.8381921414468,35.64482620507966],[139.83827849538474,35.64482079330152],[139.83828623039068,35.64490317886742],[139.8381999867922,35.64490859064657]]]}},{"type":"Feature","properties":{"height":2.4,"gml_id":"bldg_40942bc7-8448-416b-a937-8f3b020b0815"},"geometry":{"type":"Polygon","coordinates":[[[139.83758487574914,35.64435219371026],[139.8375820025526,35.64431253320765],[139.837605412966,35.64431145072676],[139.8376082861741,35.64435111122882],[139.83758487574914,35.64435219371026]]]}},{"type":"Feature","properties":{"height":2.1,"gml_id":"bldg_e243e836-af9e-4a4c-a43e-493cef2bf62d"},"geometry":{"type":"Polygon","coordinates":[[[139.8384690451464,35.64234479154058],[139.83843105691133,35.642307566256775],[139.83844806147076,35.642296027901764],[139.83848604970825,35.64233325318029],[139.8384690451464,35.64234479154058]]]}},{"type":"Feature","properties":{"height":2.5,"gml_id":"bldg_818925eb-ed31-48d6-98db-61785e0fa1aa"},"geometry":{"type":"Polygon","coordinates":[[[139.83807240504018,35.64426663480311],[139.8380711892185,35.64424752565059],[139.83812353132652,35.64424536027466],[139.8381247471606,35.64426446942665],[139.83807240504018,35.64426663480311]]]}},{"type":"Feature","properties":{"height":12.5,"gml_id":"bldg_e93c7fdd-90a4-4cce-9d64-a86a964ea5c5"},"geometry":{"type":"Polygon","coordinates":[[[139.83790875791135,35.644358221070995],[139.8379029014821,35.64429133909288],[139.83808543622717,35.64428078591444],[139.83808643157298,35.644306204716955],[139.83811282348898,35.64430494174431],[139.83811647001033,35.64434586413188],[139.83790875791135,35.644358221070995]]]}},{"type":"Feature","properties":{"height":2.3,"gml_id":"bldg_e92cbf10-b394-4d2c-b38e-d9afc024abe4"},"geometry":{"type":"Polygon","coordinates":[[[139.83773130577757,35.64241161282049],[139.83772997976953,35.64239484724455],[139.83776156097593,35.6423932236079],[139.8377627765664,35.642409989187534],[139.83773130577757,35.64241161282049]]]}},{"type":"Feature","properties":{"height":5.9,"gml_id":"bldg_67929acf-5433-4b34-a757-32ae2d239634"},"geometry":{"type":"Polygon","coordinates":[[[139.83748152613816,35.64240684437991],[139.83747511759893,35.642330497912816],[139.83771495784367,35.6423170588999],[139.83772136660508,35.64239331521662],[139.83748152613816,35.64240684437991]]]}},{"type":"Feature","properties":{"height":6.6,"gml_id":"bldg_2e2cc522-44d7-488c-a927-1cd0a9068701"},"geometry":{"type":"Polygon","coordinates":[[[139.83807464212234,35.64288067670661],[139.83801324675937,35.64289465046012],[139.83797271399075,35.642775850462066],[139.83803410927518,35.64276196686671],[139.83807464212234,35.64288067670661]]]}},{"type":"Feature","properties":{"height":14.1,"gml_id":"bldg_d5948826-a3d6-4379-af6b-b0d4bbd92895"},"geometry":{"type":"Polygon","coordinates":[[[139.83790007058755,35.64305717317945],[139.8374726164911,35.643079813203805],[139.83744499236616,35.64273116130301],[139.83787233418894,35.64270852137966],[139.83790007058755,35.64305717317945]]]}},{"type":"Feature","properties":{"height":4.4,"gml_id":"bldg_afcaeabe-dd46-41a8-a795-173b623c2ad8"},"geometry":{"type":"Polygon","coordinates":[[[139.83866830765018,35.64321028564754],[139.83865383936322,35.64317134677804],[139.8386878497653,35.64316305259761],[139.83870220764206,35.643201991468004],[139.83866830765018,35.64321028564754]]]}},{"type":"Feature","properties":{"height":6.5,"gml_id":"bldg_26596898-3122-4386-8ba7-bef5f5dba0b2"},"geometry":{"type":"Polygon","coordinates":[[[139.83871326055078,35.643356937770655],[139.83871204501318,35.6433441382643],[139.83873976167152,35.6433423342684],[139.8387409772135,35.643355133774485],[139.83871326055078,35.643356937770655]]]}},{"type":"Feature","properties":{"height":8.4,"gml_id":"bldg_bc2f2c20-289a-4351-8ba6-9b87ac0aa534"},"geometry":{"type":"Polygon","coordinates":[[[139.83840782033218,35.64330214727299],[139.8383828599022,35.64323382390574],[139.83865030558428,35.643168732939216],[139.83866654103213,35.64321307999613],[139.83865152344475,35.64321677630799],[139.83866488732417,35.64325328150708],[139.83846446853596,35.64330205473538],[139.8384598298648,35.64328943564764],[139.83840782033218,35.64330214727299]]]}},{"type":"Feature","properties":{"height":6.8,"gml_id":"bldg_f442282c-823c-4851-8524-8405c1f2fc80"},"geometry":{"type":"Polygon","coordinates":[[[139.83871668683486,35.643403088145845],[139.8387128193505,35.64336441922368],[139.83874384876088,35.6433623446656],[139.83874837880697,35.643400923419264],[139.83871668683486,35.643403088145845]]]}},{"type":"Feature","properties":{"height":2.2,"gml_id":"bldg_e234d275-34a8-4513-b082-c5335ea11296"},"geometry":{"type":"Polygon","coordinates":[[[139.83875694043948,35.64263799706755],[139.8387499822394,35.64261636431781],[139.83877041045716,35.642611946647094],[139.83877736976663,35.64263357939562],[139.83875694043948,35.64263799706755]]]}},{"type":"Feature","properties":{"height":2.9,"gml_id":"bldg_c3fa016b-d5fd-4867-8980-25fb880f6a45"},"geometry":{"type":"Polygon","coordinates":[[[139.83910789827226,35.64304026557056],[139.83910138182395,35.64302115667857],[139.83913726936007,35.64301313269439],[139.83914378581625,35.64303224158447],[139.83910789827226,35.64304026557056]]]}},{"type":"Feature","properties":{"height":3.6,"gml_id":"bldg_d5d48719-2029-48f9-a20a-8d71cb1e9ce4"},"geometry":{"type":"Polygon","coordinates":[[[139.83829966088115,35.64958285690374],[139.83828442005995,35.649567804542386],[139.83830882494152,35.64955121820764],[139.8383241761981,35.649566270561365],[139.83829966088115,35.64958285690374]]]}},{"type":"Feature","properties":{"height":12.5,"gml_id":"bldg_5eaab4eb-acc0-4249-9501-3677dc8c71b4"},"geometry":{"type":"Polygon","coordinates":[[[139.83826498432379,35.64239049991545],[139.83821892929643,35.64225619652027],[139.83837109122433,35.64222058583421],[139.83839229642567,35.64228115752523],[139.83840620963892,35.64227791198047],[139.83843194308614,35.6423513731737],[139.83826498432379,35.64239049991545]]]}},{"type":"Feature","properties":{"height":11.8,"gml_id":"bldg_e072dd0b-ba4c-4ad4-9a0f-c0be6447120c"},"geometry":{"type":"Polygon","coordinates":[[[139.8389687642035,35.643060643293154],[139.83891674390105,35.64291525351461],[139.8390382091544,35.642886313602745],[139.83909022965815,35.64303170332953],[139.8389687642035,35.643060643293154]]]}},{"type":"Feature","properties":{"height":6.9,"gml_id":"bldg_05f1c527-779b-48ac-8109-fabd43ca4b7a"},"geometry":{"type":"Polygon","coordinates":[[[139.83857868068242,35.64548617728144],[139.83849916877838,35.64543209808618],[139.8384933094778,35.64532943147362],[139.83856795868908,35.64532609315684],[139.83857868068242,35.64548617728144]]]}},{"type":"Feature","properties":{"height":10.4,"gml_id":"bldg_029dc9e7-a752-4fe7-90e8-29eef57df0ff"},"geometry":{"type":"Polygon","coordinates":[[[139.83837847344384,35.64371984683284],[139.83836885910893,35.64360383995559],[139.83917264511626,35.64355972631242],[139.8391651295721,35.64346895796377],[139.83922034214848,35.6434659807322],[139.83923736289984,35.64367275589233],[139.83837847344384,35.64371984683284]]]}},{"type":"Feature","properties":{"height":7.8,"gml_id":"bldg_d14ee725-492f-47c2-8829-97d229a25d0a"},"geometry":{"type":"Polygon","coordinates":[[[139.83847563438206,35.64350315157998],[139.83847209800876,35.6434601560246],[139.83877665063162,35.64344364743842],[139.83877952461364,35.6434866430149],[139.83847563438206,35.64350315157998]]]}},{"type":"Feature","properties":{"height":6.1,"gml_id":"bldg_3a80555d-cae5-44e5-b63a-cbde7f1c33fb"},"geometry":{"type":"Polygon","coordinates":[[[139.84049360534743,35.64657124656691],[139.84049404706687,35.64657124654065],[139.84049636883748,35.64660198335911],[139.84049559583622,35.64660207354278],[139.84042326457026,35.646605683330264],[139.8404209428355,35.64657503664811],[139.84049360534743,35.64657124656691]]]}},{"type":"Feature","properties":{"height":10.1,"gml_id":"bldg_37d3ec39-f9dd-4d7d-a7a3-646b4dc10245"},"geometry":{"type":"Polygon","coordinates":[[[139.83907721390813,35.64168991316875],[139.83925677906566,35.64192200924067],[139.8392034465448,35.64194950387209],[139.83900532869146,35.64169343194843],[139.83897650562656,35.6416561162629],[139.83887402385372,35.64152370862551],[139.83892735620455,35.64149621413804],[139.83904839081106,35.64165259750041],[139.83907721390813,35.64168991316875]]]}},{"type":"Feature","properties":{"height":8.5,"gml_id":"bldg_fac1fbf3-6210-440f-9fd5-f1f5b6fd6bf4"},"geometry":{"type":"Polygon","coordinates":[[[139.8388826622177,35.64348781009813],[139.83879211355048,35.643492771811985],[139.8387897926514,35.64346392783742],[139.83888034128623,35.643458966125316],[139.8388826622177,35.64348781009813]]]}},{"type":"Feature","properties":{"height":8.4,"gml_id":"bldg_2040a570-d0df-42de-9571-373e524841b2"},"geometry":{"type":"Polygon","coordinates":[[[139.83814994890207,35.64467198111814],[139.83812663316792,35.64441103331072],[139.83818206726292,35.644407695995774],[139.83820240162447,35.644668373499975],[139.83814994890207,35.64467198111814]]]}},{"type":"Feature","properties":{"height":12.0,"gml_id":"bldg_ce7923a4-3241-4dbc-ab34-f801be5a5e7b"},"geometry":{"type":"Polygon","coordinates":[[[139.83892116070587,35.64291254917706],[139.8389187253754,35.642826557868695],[139.83896488206108,35.642814567397615],[139.8390336817125,35.64288595326607],[139.83892116070587,35.64291254917706]]]}},{"type":"Feature","properties":{"height":5.0,"gml_id":"bldg_21936ed3-76f6-4a95-9dd3-4c69414ea332"},"geometry":{"type":"Polygon","coordinates":[[[139.83878046483508,35.64269676582635],[139.83877063506148,35.64266738136038],[139.83881358952812,35.642657734673264],[139.83882573703434,35.64266963230446],[139.83883103849038,35.6426854061708],[139.83878046483508,35.64269676582635]]]}},{"type":"Feature","properties":{"height":6.2,"gml_id":"bldg_1ca8a433-8210-4123-a8f9-e24f1fec73ec"},"geometry":{"type":"Polygon","coordinates":[[[139.83853471524904,35.64525560689845],[139.8385028016246,35.645256870200484],[139.83850125399502,35.64523145142911],[139.83847927887797,35.64523235374718],[139.8384773996315,35.64520161686391],[139.83852300626205,35.645199722015356],[139.83852366958774,35.645211439890794],[139.83853206209722,35.645211169115676],[139.83853471524904,35.64525560689845]]]}},{"type":"Feature","properties":{"height":9.3,"gml_id":"bldg_7e2099a9-893b-403f-b69c-56765ad1eced"},"geometry":{"type":"Polygon","coordinates":[[[139.8389266103991,35.645054852626366],[139.83891754718076,35.64493785427812],[139.83899826947118,35.64493370417322],[139.83900733280038,35.6450506123777],[139.8389266103991,35.645054852626366]]]}},{"type":"Feature","properties":{"height":22.2,"gml_id":"bldg_52143533-8de2-4fa1-80d5-e5287ec546ff"},"geometry":{"type":"Polygon","coordinates":[[[139.83850466528668,35.64504558729541],[139.8384898570845,35.64487621914148],[139.8384644588516,35.644877752567496],[139.83846037009047,35.64483169236237],[139.83848576831468,35.64483024907493],[139.83847593308522,35.644718118159545],[139.838873690643,35.644694844985985],[139.83890242445912,35.64502231402808],[139.83850466528668,35.64504558729541]]]}},{"type":"Feature","properties":{"height":6.7,"gml_id":"bldg_a3473b84-cde9-48e5-abaa-88905653095b"},"geometry":{"type":"Polygon","coordinates":[[[139.8384529473918,35.64445455640894],[139.83844123398342,35.64432647118419],[139.8385312314441,35.644320968932156],[139.83854305542226,35.64444905414348],[139.8384529473918,35.64445455640894]]]}},{"type":"Feature","properties":{"height":24.5,"gml_id":"bldg_8a65ecf7-98a4-4e51-9d13-6c04664e5ddb"},"geometry":{"type":"Polygon","coordinates":[[[139.8385530970685,35.644338274431945],[139.83854613526304,35.64426255903456],[139.8387418105341,35.64425056208817],[139.8387462308775,35.64429914612992],[139.83864320496153,35.64433277209147],[139.8385530970685,35.644338274431945]]]}},{"type":"Feature","properties":{"height":3.3,"gml_id":"bldg_200e2a9a-017b-4b5e-a0d5-9ec6b4fadf00"},"geometry":{"type":"Polygon","coordinates":[[[139.8388943334694,35.642999082665234],[139.8389240372955,35.642992140682985],[139.83893198948147,35.64301494516594],[139.83890228564138,35.643021797012395],[139.8388943334694,35.642999082665234]]]}},{"type":"Feature","properties":{"height":11.5,"gml_id":"bldg_0d4a2e4b-6c50-47b0-ba42-2691cc6f6e70"},"geometry":{"type":"Polygon","coordinates":[[[139.83953816030188,35.64506654057967],[139.83945313125628,35.64507114195384],[139.83940759317713,35.64451850984053],[139.83949262163986,35.64451390849813],[139.83953816030188,35.64506654057967]]]}},{"type":"Feature","properties":{"height":2.6,"gml_id":"bldg_97425435-efae-488a-ac25-dff9e04922f6"},"geometry":{"type":"Polygon","coordinates":[[[139.84006984354238,35.646065688617746],[139.8400423473558,35.64606055230296],[139.8400520611268,35.646026029018365],[139.84007955841403,35.646031255468614],[139.84006984354238,35.646065688617746]]]}},{"type":"Feature","properties":{"height":20.0,"gml_id":"bldg_1f294c8d-45f7-4a5b-b73d-339b915db29d"},"geometry":{"type":"Polygon","coordinates":[[[139.83838900758806,35.64266027709961],[139.83840767268694,35.642713457593715],[139.83833589778018,35.642730316357216],[139.8382807862613,35.642573659204004],[139.83835256104518,35.64255689061067],[139.8383800616128,35.64263494876376],[139.83838900758806,35.64266027709961]]]}},{"type":"Feature","properties":{"height":11.6,"gml_id":"bldg_e10e1dfe-6721-4754-9916-995dc5adca89"},"geometry":{"type":"Polygon","coordinates":[[[139.8381289951258,35.64513051257544],[139.83813905121977,35.645250034795914],[139.83765990539743,35.64527682386363],[139.83762498783128,35.64485993813335],[139.8381041311817,35.6448332393406],[139.8381045732131,35.644838647586816],[139.8381289951258,35.64513051257544]]]}},{"type":"Feature","properties":{"height":31.8,"gml_id":"bldg_d9fa3264-4578-4e93-8b63-a33cd0189dcb"},"geometry":{"type":"Polygon","coordinates":[[[139.83790442245382,35.64385236824027],[139.83793856673708,35.64424644824002],[139.83757625797412,35.64426737440393],[139.8375642141615,35.64412883312373],[139.83756310990128,35.64412892330025],[139.8375371439662,35.64382903594288],[139.837900555016,35.643808020617],[139.83790442245382,35.64385236824027]]]}},{"type":"Feature","properties":{"height":18.0,"gml_id":"bldg_0516acca-2371-43cb-8940-493545814abd"},"geometry":{"type":"Polygon","coordinates":[[[139.83801539892912,35.64382198755797],[139.8379971690516,35.64365721646696],[139.83818080649147,35.643644860345304],[139.83820091737022,35.64386542659619],[139.8380209234549,35.64387715164214],[139.83801749834507,35.64384461205003],[139.83801539892912,35.64382198755797]]]}},{"type":"Feature","properties":{"height":2.5,"gml_id":"bldg_ad29cf2a-cd22-4645-8f5a-6d7d6f8191e4"},"geometry":{"type":"Polygon","coordinates":[[[139.84100181090747,35.64664819288067],[139.84100015177978,35.64662016016109],[139.84102853215808,35.64661898656112],[139.84103019129566,35.64664701928033],[139.84100181090747,35.64664819288067]]]}},{"type":"Feature","properties":{"height":33.6,"gml_id":"bldg_b746389d-dca2-4ead-a10f-e88c8746e0ba"},"geometry":{"type":"Polygon","coordinates":[[[139.83813961789772,35.64549277565522],[139.8377575368914,35.64551397265941],[139.83775565848595,35.64549360160395],[139.83768343854356,35.64549757029352],[139.837665207288,35.64530170168434],[139.83812204681303,35.64527536417316],[139.83813961789772,35.64549277565522]]]}},{"type":"Feature","properties":{"height":37.7,"gml_id":"bldg_08e79085-05e6-41d1-8585-ddcace27bf4b"},"geometry":{"type":"Polygon","coordinates":[[[139.83801640440714,35.64591390391683],[139.83807426898176,35.645910566557745],[139.83809504378138,35.646149160258865],[139.83780329056978,35.64616602719112],[139.8377825166332,35.6459274334403],[139.83796372997315,35.645916970635554],[139.83801640440714,35.64591390391683]]]}},{"type":"Feature","properties":{"height":8.2,"gml_id":"bldg_e7f0e0cb-8f23-4e87-ab79-50b86ab389e6"},"geometry":{"type":"Polygon","coordinates":[[[139.83871852766478,35.64286054892053],[139.83864277740588,35.6428774981819],[139.83861196303636,35.64278844343058],[139.8388322567419,35.64273768601632],[139.83886351312216,35.642828002620384],[139.83878743165653,35.642845042125785],[139.83871852766478,35.64286054892053]]]}},{"type":"Feature","properties":{"height":3.8,"gml_id":"bldg_02336b9a-701a-4543-86a5-fcab7da79a1c"},"geometry":{"type":"Polygon","coordinates":[[[139.84070965654936,35.648320896219786],[139.84069297994628,35.64830638507404],[139.84071848800306,35.64828691377452],[139.84073505418277,35.648301515061256],[139.84070965654936,35.648320896219786]]]}},{"type":"Feature","properties":{"height":12.5,"gml_id":"bldg_756c999f-6248-413a-b410-272fdcd19346"},"geometry":{"type":"Polygon","coordinates":[[[139.83842467241828,35.64262440076825],[139.83839684032182,35.64254291740414],[139.83859902424453,35.64249720888909],[139.83869741883174,35.64259563498477],[139.8387127710236,35.64264340731397],[139.83845338814004,35.6427085882201],[139.83843328713877,35.64264981925261],[139.83842467241828,35.64262440076825]]]}},{"type":"Feature","properties":{"height":2.5,"gml_id":"bldg_af4d3733-92b3-468b-a183-6d2f3cce54c9"},"geometry":{"type":"Polygon","coordinates":[[[139.84088360679783,35.646180025108926],[139.8408673737641,35.646180837364774],[139.84086516245358,35.6461518131609],[139.8408813954815,35.64615100090534],[139.84088360679783,35.646180025108926]]]}},{"type":"Feature","properties":{"height":1.1,"gml_id":"bldg_b2bbbe95-23d6-48d8-9587-3bbf1b7876bf"},"geometry":{"type":"Polygon","coordinates":[[[139.84085168909337,35.64614126789071],[139.8408519106275,35.64614847889359],[139.84083048739853,35.64614902105522],[139.84083026586634,35.6461418100523],[139.84085168909337,35.64614126789071]]]}},{"type":"Feature","properties":{"height":8.4,"gml_id":"bldg_4d20fa13-af21-4dcb-86fb-f2829103126a"},"geometry":{"type":"Polygon","coordinates":[[[139.83797432202806,35.6419400028967],[139.83800414149934,35.642028156484656],[139.83793722565696,35.64204321206857],[139.83790740625358,35.641955058464276],[139.83797432202806,35.6419400028967]]]}},{"type":"Feature","properties":{"height":1.3,"gml_id":"bldg_f0d68fdb-bb1c-4590-8af3-53f2661c9e23"},"geometry":{"type":"Polygon","coordinates":[[[139.84085511621092,35.64618191978338],[139.84085533773705,35.6461890406485],[139.8408340249266,35.64618958280387],[139.84083369296465,35.64618237180786],[139.84085511621092,35.64618191978338]]]}},{"type":"Feature","properties":{"height":1.2,"gml_id":"bldg_92fa49a0-29e7-4445-a01d-2b58077d6ad3"},"geometry":{"type":"Polygon","coordinates":[[[139.8408564431711,35.646201209170066],[139.8408567751352,35.64620842016599],[139.84083535189026,35.64620896232849],[139.8408350199281,35.646201751332505],[139.8408564431711,35.646201209170066]]]}},{"type":"Feature","properties":{"height":1.3,"gml_id":"bldg_0b9b6841-510b-4f63-b0a1-a9578de1bca4"},"geometry":{"type":"Polygon","coordinates":[[[139.84085799109212,35.64622158019539],[139.84085821262704,35.64622879119817],[139.84083678937668,35.646229333360914],[139.84083656784367,35.6462221223581],[139.84085799109212,35.64622158019539]]]}},{"type":"Feature","properties":{"height":10.2,"gml_id":"bldg_5eeb0b9a-0140-4e5e-bd2d-4c8ba95bd2c6"},"geometry":{"type":"Polygon","coordinates":[[[139.83805648446915,35.64206520106729],[139.8381626001021,35.64204022869717],[139.83820655060336,35.6420715047334],[139.8382219030122,35.64212928242173],[139.83799907080066,35.642179317721016],[139.83798139970165,35.642122531609715],[139.83806256010723,35.64210486144771],[139.83804974872132,35.642066823811085],[139.83805648446915,35.64206520106729]]]}},{"type":"Feature","properties":{"height":7.5,"gml_id":"bldg_b460921d-34cf-466e-ae01-1325926dd11b"},"geometry":{"type":"Polygon","coordinates":[[[139.83796581840517,35.64192242635845],[139.83795576999478,35.64192459005102],[139.83794582239318,35.641759458031004],[139.8379456013861,35.64175666376843],[139.83813354120656,35.64174791306128],[139.83814050536824,35.6418731141518],[139.838081539404,35.6418752797972],[139.83808275534682,35.64189700295256],[139.83796581840517,35.64192242635845]]]}},{"type":"Feature","properties":{"height":9.8,"gml_id":"bldg_a3c73886-a736-41ed-bee6-fb7fbdbd3ea2"},"geometry":{"type":"Polygon","coordinates":[[[139.83797432202806,35.6419400028967],[139.83797211317804,35.64193342292443],[139.8381481256422,35.64189078085097],[139.83816116304433,35.642014449352295],[139.8380118724759,35.642050870902835],[139.83800414149934,35.642028156484656],[139.83797432202806,35.6419400028967]]]}},{"type":"Feature","properties":{"height":20.1,"gml_id":"bldg_9edb4d0a-4f81-41a6-acbd-72b96ddcee91"},"geometry":{"type":"Polygon","coordinates":[[[139.83881341698043,35.64336513579087],[139.8388173946062,35.6433989372663],[139.83875975280367,35.64340344676441],[139.8387505821636,35.64332457664525],[139.83880811348465,35.64332006715649],[139.8388103232349,35.643338274881806],[139.83881341698043,35.64336513579087]]]}},{"type":"Feature","properties":{"height":4.7,"gml_id":"bldg_444d09c8-b7de-44ed-adf3-0f3afa277948"},"geometry":{"type":"Polygon","coordinates":[[[139.84088928058515,35.64662494446557],[139.84088518890957,35.646563651084655],[139.84092361833433,35.646561936052706],[139.84092284430244,35.64655111957713],[139.84096315102747,35.64654940441426],[139.8409679063618,35.64662142413712],[139.84088928058515,35.64662494446557]]]}},{"type":"Feature","properties":{"height":9.2,"gml_id":"bldg_a0e746a2-f810-4d47-9c4e-b6e6a3dc30a7"},"geometry":{"type":"Polygon","coordinates":[[[139.83787726228232,35.64588488490285],[139.83787438951367,35.64585631135609],[139.83789901506032,35.64585468794631],[139.83790188783766,35.645883261492486],[139.83787726228232,35.64588488490285]]]}},{"type":"Feature","properties":{"height":6.0,"gml_id":"bldg_7503ff24-6706-46dd-806f-4208acf1c9ce"},"geometry":{"type":"Polygon","coordinates":[[[139.8388377968137,35.64301242565006],[139.83886717572028,35.64309751434502],[139.83848433762634,35.64318559591096],[139.83845495909335,35.64310050712381],[139.8388377968137,35.64301242565006]]]}},{"type":"Feature","properties":{"height":2.1,"gml_id":"bldg_da281ff1-83be-4b06-b743-fae77c69af62"},"geometry":{"type":"Polygon","coordinates":[[[139.8384031093995,35.64389354123146],[139.83842718222522,35.64389227828742],[139.838431603978,35.643948974740375],[139.83840753003108,35.64395023768533],[139.8384031093995,35.64389354123146]]]}},{"type":"Feature","properties":{"height":18.5,"gml_id":"bldg_57e28f5f-7b7e-4675-b15c-d87916b5edfe"},"geometry":{"type":"Polygon","coordinates":[[[139.83855130539138,35.643956090495934],[139.83857615125265,35.643955368315105],[139.83857736772606,35.643982679997904],[139.83855252185637,35.64398340217898],[139.83855130539138,35.643956090495934]]]}},{"type":"Feature","properties":{"height":2.3,"gml_id":"bldg_b4c45ff9-8b9c-475a-a585-5d5b34befdb7"},"geometry":{"type":"Polygon","coordinates":[[[139.83851530633183,35.64395455970844],[139.83852789487267,35.643953747926524],[139.83853120989627,35.64398827053859],[139.83851862135006,35.64398908232085],[139.83851530633183,35.64395455970844]]]}},{"type":"Feature","properties":{"height":3.5,"gml_id":"bldg_336b6621-6951-4576-ad6c-19e709457681"},"geometry":{"type":"Polygon","coordinates":[[[139.83854024911614,35.643745709481045],[139.83854201737074,35.64376788328984],[139.83842088045387,35.64377428824715],[139.83841911223257,35.64375211443661],[139.83854024911614,35.643745709481045]]]}},{"type":"Feature","properties":{"height":8.9,"gml_id":"bldg_3fb6f4aa-282c-440d-bd2c-fd47d527a152"},"geometry":{"type":"Polygon","coordinates":[[[139.83889818074127,35.64433780829457],[139.83889464427963,35.64429733661421],[139.83897459291458,35.644292826009526],[139.83897812940998,35.64433320754981],[139.83889818074127,35.64433780829457]]]}},{"type":"Feature","properties":{"height":4.9,"gml_id":"bldg_1cc86390-65f3-4138-9596-4e853f1f35ad"},"geometry":{"type":"Polygon","coordinates":[[[139.83921565288443,35.64427145183461],[139.83921322144997,35.64424350925475],[139.83925816491214,35.64424098319575],[139.8392604859355,35.64426892578016],[139.83921565288443,35.64427145183461]]]}},{"type":"Feature","properties":{"height":6.5,"gml_id":"bldg_821fcef9-e74c-491a-83ea-2358b13f4af8"},"geometry":{"type":"Polygon","coordinates":[[[139.83868629025298,35.64461535198099],[139.83868529385376,35.64457704348902],[139.83873476514614,35.64457623004111],[139.83873576156293,35.644614448394925],[139.83868629025298,35.64461535198099]]]}},{"type":"Feature","properties":{"height":10.8,"gml_id":"bldg_a505e112-bfb7-407a-b60b-3f4adc1cd04b"},"geometry":{"type":"Polygon","coordinates":[[[139.84003516831882,35.64606010201407],[139.8399274982787,35.64604045793595],[139.83997154622114,35.64587992025169],[139.84000136248272,35.645885417005225],[139.84000677186546,35.64586576668419],[139.84004818333156,35.64587333595056],[139.84004398829975,35.645888479320135],[139.84008043040353,35.64589514747503],[139.84003516831882,35.64606010201407]]]}},{"type":"Feature","properties":{"height":11.4,"gml_id":"bldg_0bf98cb9-ecde-4f64-adbe-4396cf6f0698"},"geometry":{"type":"Polygon","coordinates":[[[139.83858685280038,35.645492576703326],[139.83857148821247,35.64526209522087],[139.83872122820927,35.64525541842435],[139.83873659322592,35.645485899887916],[139.83858685280038,35.645492576703326]]]}},{"type":"Feature","properties":{"height":9.7,"gml_id":"bldg_f7a937a4-8ec7-41c2-8096-0cb39e7f7b6f"},"geometry":{"type":"Polygon","coordinates":[[[139.83849651142438,35.645322130180965],[139.83849363734262,35.64527625020375],[139.8385682865103,35.645273002024474],[139.83857127106864,35.645318972132856],[139.83849651142438,35.645322130180965]]]}},{"type":"Feature","properties":{"height":6.1,"gml_id":"bldg_94feec64-c3a9-40a1-8f98-eaa964e68729"},"geometry":{"type":"Polygon","coordinates":[[[139.83929800784802,35.645443057978056],[139.83929204129282,35.64539690776078],[139.83933179520386,35.64539348055416],[139.83933765136013,35.64543972091274],[139.83929800784802,35.645443057978056]]]}},{"type":"Feature","properties":{"height":2.5,"gml_id":"bldg_a5b48634-db82-4872-8f42-bea635aabb6d"},"geometry":{"type":"Polygon","coordinates":[[[139.8393652572971,35.6454245763965],[139.83936271480553,35.64538942281296],[139.83938590465257,35.64538833999724],[139.83938844715425,35.64542349358032],[139.8393652572971,35.6454245763965]]]}},{"type":"Feature","properties":{"height":2.1,"gml_id":"bldg_86b7b1e0-6344-4c42-8084-0218313e4de9"},"geometry":{"type":"Polygon","coordinates":[[[139.84067017260492,35.64525306203369],[139.84066851406692,35.64522989674001],[139.84069336025382,35.64522863329624],[139.84069512923529,35.645251888720544],[139.84067017260492,35.64525306203369]]]}},{"type":"Feature","properties":{"height":1.9,"gml_id":"bldg_9dd0f6db-2234-4d6b-b753-fb54f47fba8b"},"geometry":{"type":"Polygon","coordinates":[[[139.84100247029136,35.64661475175137],[139.84099539322364,35.646514699351826],[139.84102410483678,35.64651334545639],[139.84103118194017,35.64661339785429],[139.84100247029136,35.64661475175137]]]}},{"type":"Feature","properties":{"height":1.7,"gml_id":"bldg_deb85304-61bb-4df7-b0ea-ecaa06d7ae64"},"geometry":{"type":"Polygon","coordinates":[[[139.8406719434595,35.645296868858715],[139.84067172085594,35.64527775967525],[139.84070197811607,35.64527739727714],[139.84070231116326,35.64529659659151],[139.8406719434595,35.645296868858715]]]}},{"type":"Feature","properties":{"height":12.6,"gml_id":"bldg_c08b9845-bcdd-4a88-a40c-98f31cb3bb06"},"geometry":{"type":"Polygon","coordinates":[[[139.8399279925753,35.64264875517742],[139.8398427443143,35.64264163893135],[139.83988909233076,35.642271260343996],[139.83997434020247,35.64227837655775],[139.8399279925753,35.64264875517742]]]}},{"type":"Feature","properties":{"height":8.0,"gml_id":"bldg_663147d1-df1d-48f0-9d91-d9905bd624b0"},"geometry":{"type":"Polygon","coordinates":[[[139.84004182827314,35.64514826849677],[139.8400333162193,35.64503920232354],[139.84014539990298,35.64503351736002],[139.84015380168066,35.64514258353165],[139.84004182827314,35.64514826849677]]]}},{"type":"Feature","properties":{"height":21.7,"gml_id":"bldg_32b49ef9-20cd-489d-9b8f-fc6f71e87661"},"geometry":{"type":"Polygon","coordinates":[[[139.8375371439662,35.64382903594288],[139.8375249894656,35.64368292308187],[139.83788784769192,35.643661276848846],[139.837900555016,35.643808020617],[139.8375371439662,35.64382903594288]]]}},{"type":"Feature","properties":{"height":2.5,"gml_id":"bldg_6dcbef2c-8a16-46ad-9072-fb7c710d90ad"},"geometry":{"type":"Polygon","coordinates":[[[139.84055895007418,35.645026642794335],[139.84055629826005,35.644997167916976],[139.84068152258544,35.64498976904902],[139.84068417555784,35.645019334061296],[139.84055895007418,35.645026642794335]]]}},{"type":"Feature","properties":{"height":4.0,"gml_id":"bldg_7323c927-3cfa-4878-ba3c-0045276529d4"},"geometry":{"type":"Polygon","coordinates":[[[139.8404055929699,35.64532068115074],[139.84040095069355,35.64527191691577],[139.84047361194635,35.64526722546872],[139.84047825427456,35.64531607983864],[139.8404055929699,35.64532068115074]]]}},{"type":"Feature","properties":{"height":2.0,"gml_id":"bldg_f197ab6b-877d-4586-b7d0-c006033106ce"},"geometry":{"type":"Polygon","coordinates":[[[139.8384404321699,35.649079071627746],[139.83842497056287,35.6490641995676],[139.83844440604085,35.649051940021906],[139.83845898422305,35.649067443080845],[139.8384404321699,35.649079071627746]]]}},{"type":"Feature","properties":{"height":10.9,"gml_id":"bldg_d2ccfc44-31e6-4421-a016-04ec4d2af63e"},"geometry":{"type":"Polygon","coordinates":[[[139.83892859296435,35.643397309672665],[139.83895255522637,35.64339631704193],[139.8389609475446,35.64339604623688],[139.83896769129552,35.643507095628976],[139.83891766862408,35.64350917112671],[139.83891656312608,35.64349132390372],[139.83889514061204,35.64349213613454],[139.83889304008378,35.643456892371596],[139.8389269406403,35.64345553873583],[139.83892340298513,35.643397580326905],[139.8389237342553,35.64339749017378],[139.83892859296435,35.643397309672665]]]}},{"type":"Feature","properties":{"height":7.4,"gml_id":"bldg_dce14e74-b9fd-4168-82bf-29ae943be633"},"geometry":{"type":"Polygon","coordinates":[[[139.84035513255265,35.64664264377924],[139.84034894181633,35.646566477781704],[139.8404178497171,35.646562778102535],[139.84042404051056,35.64663885395887],[139.84035513255265,35.64664264377924]]]}},{"type":"Feature","properties":{"height":4.0,"gml_id":"bldg_5ecd940d-390f-4001-aadc-c07fd9a62396"},"geometry":{"type":"Polygon","coordinates":[[[139.84071918365575,35.64624646679438],[139.84071409844788,35.6461871564943],[139.84079614700343,35.64618246427773],[139.84080200526068,35.646241594251066],[139.84071918365575,35.64624646679438]]]}},{"type":"Feature","properties":{"height":3.0,"gml_id":"bldg_a074c3b8-c31a-46ad-ab77-94fffb787b7e"},"geometry":{"type":"Polygon","coordinates":[[[139.84004788926512,35.64235859509238],[139.84002216023347,35.642355892390896],[139.84003176217652,35.642296581207084],[139.840057491197,35.642299374044306],[139.84004788926512,35.64235859509238]]]}},{"type":"Feature","properties":{"height":3.7,"gml_id":"bldg_b89f5da8-f5de-483c-a7c0-d68176792322"},"geometry":{"type":"Polygon","coordinates":[[[139.8408547344876,35.64564379766384],[139.8408510847714,35.64558430699852],[139.84092032317633,35.64558150838786],[139.8409239729437,35.64564099905113],[139.8408547344876,35.64564379766384]]]}},{"type":"Feature","properties":{"height":13.7,"gml_id":"bldg_6917c3fe-3f84-4f4e-86fd-2c7d1f69076e"},"geometry":{"type":"Polygon","coordinates":[[[139.8411587638228,35.645843253058224],[139.8411579898892,35.64583369851085],[139.84120205077642,35.64583144219763],[139.84120415155883,35.64585830309899],[139.84116009066574,35.64586064955069],[139.8411593166703,35.64585046403937],[139.8411587638228,35.645843253058224]]]}},{"type":"Feature","properties":{"height":11.4,"gml_id":"bldg_829e6f2d-2b45-4e09-8a01-3b7cb4f975f3"},"geometry":{"type":"Polygon","coordinates":[[[139.83884500257648,35.64342219154568],[139.83888729526555,35.64341804326651],[139.8389206454666,35.643442378916575],[139.8389141310234,35.643451933820025],[139.8388075708566,35.64345933000554],[139.83880723857777,35.64344463756747],[139.83880690640973,35.64343156760887],[139.83880679560923,35.64342606921117],[139.83881364194283,35.64342534779787],[139.83884500257648,35.64342219154568]]]}},{"type":"Feature","properties":{"height":25.7,"gml_id":"bldg_5df78032-9621-4285-a325-30d9db4f809d"},"geometry":{"type":"Polygon","coordinates":[[[139.8383020476959,35.64710929869756],[139.83830359506416,35.6471309316804],[139.83814313980977,35.64713841962341],[139.83814181347006,35.647118859796684],[139.8381354030305,35.647027550567195],[139.83813308200627,35.646994379987525],[139.83829342654317,35.64698689206231],[139.83829574754424,35.64701862043577],[139.8383020476959,35.64710929869756]]]}},{"type":"Feature","properties":{"height":3.4,"gml_id":"bldg_eadbe082-f515-4456-b2df-86710b11698f"},"geometry":{"type":"Polygon","coordinates":[[[139.8403786364148,35.64644082408957],[139.84038184220066,35.646478681737825],[139.84036472568727,35.6464797643907],[139.84035522877764,35.64648030577095],[139.84033700796618,35.64648138848426],[139.84033148651093,35.64648174935602],[139.8402738424858,35.64648517792418],[139.84024322384613,35.646141394472075],[139.84028308860823,35.646139048598066],[139.8403102807497,35.64644434343898],[139.8403293849984,35.6464433508161],[139.84033490645888,35.646443080082136],[139.84035147084012,35.64644226787877],[139.84036107817494,35.646441726492384],[139.8403786364148,35.64644082408957]]]}},{"type":"Feature","properties":{"height":4.3,"gml_id":"bldg_fc7c234a-e35d-4ee5-b1ff-84230ce3f664"},"geometry":{"type":"Polygon","coordinates":[[[139.8396041591526,35.64600667356228],[139.83957180335483,35.646005683727644],[139.83957433899664,35.64595133055623],[139.83963695239098,35.64595322018758],[139.8396359601723,35.64597413218863],[139.83960570254595,35.64597323239101],[139.8396041591526,35.64600667356228]]]}},{"type":"Feature","properties":{"height":5.2,"gml_id":"bldg_7be4f66a-90c7-41e8-b177-466d5dac6635"},"geometry":{"type":"Polygon","coordinates":[[[139.8405011434343,35.64565797084636],[139.84049727362142,35.645604068721994],[139.84068732027322,35.64559486322145],[139.84069130064188,35.64564876533302],[139.8405011434343,35.64565797084636]]]}},{"type":"Feature","properties":{"height":5.0,"gml_id":"bldg_1cdc39fd-c72f-44b7-b2f2-4cbcffc870c1"},"geometry":{"type":"Polygon","coordinates":[[[139.8407374593842,35.64564434575631],[139.84073524599054,35.64559206601656],[139.84083187068418,35.6455893559084],[139.84083397372055,35.64564172579099],[139.8407374593842,35.64564434575631]]]}},{"type":"Feature","properties":{"height":31.1,"gml_id":"bldg_611ba597-422a-4888-a95e-ce810f0c625c"},"geometry":{"type":"Polygon","coordinates":[[[139.8393899727293,35.64222639786675],[139.839094382956,35.642434720744845],[139.83914904666074,35.64248636705694],[139.83913259428306,35.642497905483935],[139.83915920835352,35.642523052635696],[139.83900694084332,35.64263032384159],[139.8383349685699,35.64199515277765],[139.8383326438417,35.641901499728995],[139.8385411137436,35.64175447618709],[139.83877278083176,35.64174193679753],[139.83896526126205,35.6419239161169],[139.8390252182047,35.64188163868323],[139.8393899727293,35.64222639786675]]]}},{"type":"Feature","properties":{"height":8.8,"gml_id":"bldg_0dd58239-f958-47b3-90f9-7a66bab559ff"},"geometry":{"type":"Polygon","coordinates":[[[139.83945313125628,35.64507114195384],[139.83953816030188,35.64506654057967],[139.83954136575477,35.645105930600295],[139.83945644710235,35.64511062210881],[139.83945313125628,35.64507114195384]]]}},{"type":"Feature","properties":{"height":15.9,"gml_id":"bldg_f1dbaca8-4f12-4fdf-b10a-90b6cdbe1afe"},"geometry":{"type":"Polygon","coordinates":[[[139.84025736661047,35.64495211660878],[139.8402162410867,35.64441057147822],[139.840042871609,35.64441932462066],[139.83995354988286,35.64324591641551],[139.84004354611093,35.643241404547915],[139.84000264414695,35.642704546341264],[139.840509821757,35.64267891806756],[139.8406811858885,35.6449306387208],[139.84025736661047,35.64495211660878]]]}},{"type":"Feature","properties":{"height":5.1,"gml_id":"bldg_c5743048-ce94-4911-bb56-ae9b48f6f248"},"geometry":{"type":"Polygon","coordinates":[[[139.83871852766478,35.64286054892053],[139.83878743165653,35.642845042125785],[139.83879472114856,35.642866494582],[139.83872548589574,35.64288245208447],[139.83871852766478,35.64286054892053]]]}},{"type":"Feature","properties":{"height":1.9,"gml_id":"bldg_07443c2e-ba34-493b-9d9d-911a5c78992b"},"geometry":{"type":"Polygon","coordinates":[[[139.8384121624237,35.64909773131977],[139.83839670081832,35.64908285925607],[139.83841591537004,35.64906951807231],[139.83843148740974,35.64908439012893],[139.8384121624237,35.64909773131977]]]}},{"type":"Feature","properties":{"height":11.1,"gml_id":"bldg_f909ee75-4e26-404a-8766-f64c2339a760"},"geometry":{"type":"Polygon","coordinates":[[[139.83838900758806,35.64266027709961],[139.8383800616128,35.64263494876376],[139.83842467241828,35.64262440076825],[139.83843328713877,35.64264981925261],[139.83838900758806,35.64266027709961]]]}},{"type":"Feature","properties":{"height":7.5,"gml_id":"bldg_fc78c73f-3609-48a0-a4b4-c042927c027a"},"geometry":{"type":"Polygon","coordinates":[[[139.83805648446915,35.64206520106729],[139.83804974872132,35.642066823811085],[139.83806256010723,35.64210486144771],[139.83798139970165,35.642122531609715],[139.83796649268447,35.64212577714375],[139.83794771759617,35.64207268671803],[139.8380511832699,35.64205050881846],[139.83805648446915,35.64206520106729]]]}},{"type":"Feature","properties":{"height":22.7,"gml_id":"bldg_e3e2a102-d2d3-4161-9621-786a06c2ffcc"},"geometry":{"type":"Polygon","coordinates":[[[139.83896882031638,35.645432347441144],[139.8389353345328,35.6450597196581],[139.83934921599976,35.64503509209859],[139.83937850389026,35.64536084836413],[139.8391312562358,35.645375643105616],[139.83913545589013,35.6454224243802],[139.83896882031638,35.645432347441144]]]}},{"type":"Feature","properties":{"height":20.2,"gml_id":"bldg_9e72fe1d-aae2-4743-84e1-90783c52b579"},"geometry":{"type":"Polygon","coordinates":[[[139.83881341698043,35.64336513579087],[139.8388103232349,35.643338274881806],[139.83881518131258,35.64332890033466],[139.83889700851842,35.643357560387706],[139.83888066770334,35.64338865866535],[139.83881341698043,35.64336513579087]]]}},{"type":"Feature","properties":{"height":9.3,"gml_id":"bldg_3cc7e5cc-cdc2-4a30-8e8b-0483adc20589"},"geometry":{"type":"Polygon","coordinates":[[[139.83794582239318,35.641759458031004],[139.83795576999478,35.64192459005102],[139.83796581840517,35.64192242635845],[139.8379669233423,35.64193459491521],[139.83792871745874,35.64194577346261],[139.83790475558115,35.64194613492547],[139.8378522941243,35.641763247362675],[139.83794582239318,35.641759458031004]]]}},{"type":"Feature","properties":{"height":15.5,"gml_id":"bldg_01148a19-6173-4c55-ab72-fe187b81face"},"geometry":{"type":"Polygon","coordinates":[[[139.83790442245382,35.64385236824027],[139.837900555016,35.643808020617],[139.83788784769192,35.643661276848846],[139.8379102640786,35.64366019434619],[139.83792473942577,35.64382730917478],[139.83801539892912,35.64382198755797],[139.83801749834507,35.64384461205003],[139.83790442245382,35.64385236824027]]]}},{"type":"Feature","properties":{"height":8.1,"gml_id":"bldg_d242d315-62e3-4d8e-84e2-2218c9e192e2"},"geometry":{"type":"Polygon","coordinates":[[[139.8381289951258,35.64513051257544],[139.8381045732131,35.644838647586816],[139.8381598971932,35.644835580699834],[139.83818431930615,35.64512744567738],[139.8381289951258,35.64513051257544]]]}},{"type":"Feature","properties":{"height":12.5,"gml_id":"bldg_49434d2e-2896-4586-a4de-515125a76ef6"},"geometry":{"type":"Polygon","coordinates":[[[139.83813961789772,35.64549277565522],[139.83812204681303,35.64527536417316],[139.83819768980388,35.64527139508225],[139.83821492982398,35.64548907698001],[139.83813961789772,35.64549277565522]]]}},{"type":"Feature","properties":{"height":21.0,"gml_id":"bldg_29f8da94-27de-48d6-b6c8-507fef5807dd"},"geometry":{"type":"Polygon","coordinates":[[[139.83890452330553,35.6450326797695],[139.83892110154383,35.645234857917046],[139.83862913090852,35.645250735347254],[139.83861255340247,35.64504855715999],[139.83890452330553,35.6450326797695]]]}},{"type":"Feature","properties":{"height":1.5,"gml_id":"bldg_4cafb4a0-744f-4278-bc11-ef4b1c4a0a79"},"geometry":{"type":"Polygon","coordinates":[[[139.83823671471697,35.64960277990511],[139.83822589147306,35.64959115258745],[139.83825670139046,35.64957204214857],[139.8382675246418,35.64958375960113],[139.83823671471697,35.64960277990511]]]}},{"type":"Feature","properties":{"height":2.3,"gml_id":"bldg_4de5f1eb-3bae-497d-9881-3e41de07953d"},"geometry":{"type":"Polygon","coordinates":[[[139.83805892029753,35.6496769703036],[139.838048649277,35.6496659739121],[139.83809779064467,35.649635415312616],[139.83810806166804,35.649646411700004],[139.83805892029753,35.6496769703036]]]}},{"type":"Feature","properties":{"height":2.3,"gml_id":"bldg_497a7350-1b11-407d-8ccc-5f5c97184e1a"},"geometry":{"type":"Polygon","coordinates":[[[139.83818271441564,35.64963487109733],[139.83817266423534,35.64962360429444],[139.83821926573407,35.64959611042758],[139.83822931591746,35.649607377226616],[139.83818271441564,35.64963487109733]]]}},{"type":"Feature","properties":{"height":2.4,"gml_id":"bldg_4fe90ac9-de38-4cfe-b2eb-07308cc1309a"},"geometry":{"type":"Polygon","coordinates":[[[139.8384761319793,35.64954481140626],[139.83846398345514,35.64953246306519],[139.8384942410774,35.64951263148762],[139.83850638960317,35.64952497982566],[139.8384761319793,35.64954481140626]]]}},{"type":"Feature","properties":{"height":2.7,"gml_id":"bldg_98f8268d-195b-41b7-ba2f-ebb5b858f562"},"geometry":{"type":"Polygon","coordinates":[[[139.83840821159384,35.64948937962725],[139.83844973306364,35.64946323794942],[139.83848673091762,35.64950244625375],[139.83844520943384,35.64952849780651],[139.83840821159384,35.64948937962725]]]}},{"type":"Feature","properties":{"height":22.4,"gml_id":"bldg_53aa8f96-e210-47d0-99a0-556b2ea5d0f3"},"geometry":{"type":"Polygon","coordinates":[[[139.8381987496409,35.642716801311046],[139.83815114802778,35.64257303349464],[139.83822082485267,35.64255752699237],[139.83826842659252,35.64270147505714],[139.8381987496409,35.642716801311046]]]}},{"type":"Feature","properties":{"height":1.6,"gml_id":"bldg_2d75e052-355e-48d0-a338-4a7b09c3ec68"},"geometry":{"type":"Polygon","coordinates":[[[139.83826542957047,35.64963540856451],[139.83825659428032,35.64962621488499],[139.83828641029754,35.64960710447922],[139.838295245589,35.649616298156594],[139.83826542957047,35.64963540856451]]]}},{"type":"Feature","properties":{"height":14.5,"gml_id":"bldg_dc16e9bc-7b04-429a-9269-55bd32ada70f"},"geometry":{"type":"Polygon","coordinates":[[[139.8381181221389,35.64242196391891],[139.8381047584966,35.64238293479666],[139.83807836749494,35.642388975069466],[139.8380234773713,35.64222907282121],[139.83818546696864,35.642192019782115],[139.83825372109266,35.64239095106491],[139.8381181221389,35.64242196391891]]]}},{"type":"Feature","properties":{"height":28.5,"gml_id":"bldg_c18fbb32-b5c7-4617-b939-d21aac69bb24"},"geometry":{"type":"Polygon","coordinates":[[[139.83751034266524,35.64232671091027],[139.8375079118319,35.64229777677145],[139.83750360531081,35.64229804733393],[139.8375033843364,35.64229561362188],[139.83747655139888,35.6422973271654],[139.83745832043093,35.642083070315486],[139.8374854845869,35.64208171731561],[139.83747222560626,35.64192388653444],[139.8376854526693,35.64191198083306],[139.83769418175856,35.64201572909274],[139.83772211884303,35.64201419573597],[139.83772786461054,35.64208251995658],[139.8376999275024,35.64208405331466],[139.83771716483693,35.64228983721404],[139.83770545993573,35.6422905587416],[139.83770766978571,35.64231570709829],[139.83751034266524,35.64232671091027]]]}},{"type":"Feature","properties":{"height":19.6,"gml_id":"bldg_9a940544-49d6-4e1a-b13c-8524ffa2138a"},"geometry":{"type":"Polygon","coordinates":[[[139.8374978810882,35.64264156255158],[139.83748075510223,35.64244425157891],[139.83770480505552,35.64243126381792],[139.83770370011695,35.6424184642954],[139.83781279883416,35.64241242105732],[139.83781390378002,35.64242504030333],[139.83781787903442,35.6424247697421],[139.83781931550564,35.64244189586392],[139.83784471479387,35.642472631892964],[139.83784858040724,35.642486242550504],[139.83785145310173,35.64251580762931],[139.83782594518433,35.64251743106315],[139.8378262766792,35.642521397112375],[139.83783798161807,35.64252076571086],[139.83784593778188,35.64262063805417],[139.83783500584497,35.642622080667415],[139.8374978810882,35.64264156255158]]]}},{"type":"Feature","properties":{"height":21.3,"gml_id":"bldg_ebad825c-6424-44a8-9fea-d89422d9367e"},"geometry":{"type":"Polygon","coordinates":[[[139.8376208970054,35.64476619504076],[139.83758653357953,35.64437914483473],[139.83811878907517,35.64434757665674],[139.83815326548182,35.64473462670834],[139.8376208970054,35.64476619504076]]]}},{"type":"Feature","properties":{"height":24.2,"gml_id":"bldg_23f206a4-a541-4a9b-8ad5-291628daf1f2"},"geometry":{"type":"Polygon","coordinates":[[[139.83752288913405,35.64364001758765],[139.83747990685455,35.64312452127942],[139.8376989896217,35.64311234494135],[139.83772374112058,35.64340988876235],[139.83816809188255,35.643385264140456],[139.83818621481734,35.64360285593746],[139.8380553607053,35.64361016229592],[139.83805734980191,35.6436344994096],[139.8379832543189,35.64363864862916],[139.8379814862685,35.643617286051374],[139.83759521797748,35.643638662983975],[139.8375972068682,35.64366173817669],[139.83753017857242,35.64366552631614],[139.83752796870786,35.64363974699762],[139.83752288913405,35.64364001758765]]]}},{"type":"Feature","properties":{"height":34.4,"gml_id":"bldg_30df3dab-f901-4928-8a58-aff964efa99a"},"geometry":{"type":"Polygon","coordinates":[[[139.83803799102364,35.64681744343873],[139.8380366649473,35.64680184966856],[139.83788548653317,35.64681059883389],[139.8378491315521,35.64639389360478],[139.83800549935555,35.646384783732486],[139.83800494671954,35.64637640094729],[139.83859662630417,35.64634347628274],[139.83859695838507,35.64635555472083],[139.83874990273097,35.646346714444746],[139.838785599377,35.64675738020899],[139.8386311082365,35.646766310735565],[139.8386325449293,35.6467829861468],[139.83803799102364,35.64681744343873]]]}},{"type":"Feature","properties":{"height":1.8,"gml_id":"bldg_b020d6fe-7d71-4a33-bc8c-bfc88c94b32a"},"geometry":{"type":"Polygon","coordinates":[[[139.8384608616121,35.64906780355161],[139.83844827140072,35.64905500453844],[139.83846185412332,35.64904608033197],[139.8384744443297,35.64905878920606],[139.8384608616121,35.64906780355161]]]}},{"type":"Feature","properties":{"height":2.1,"gml_id":"bldg_e1c7693b-2cb1-497c-9fb1-53d0c0eaedfd"},"geometry":{"type":"Polygon","coordinates":[[[139.8383902975096,35.649111793715484],[139.8383752775086,35.64909484846423],[139.8383923940384,35.649084752327994],[139.83840741404111,35.64910169757717],[139.8383902975096,35.649111793715484]]]}},{"type":"Feature","properties":{"height":2.1,"gml_id":"bldg_06e4cf5d-77a9-4c2f-bb32-4ec0d1343eeb"},"geometry":{"type":"Polygon","coordinates":[[[139.8383637943635,35.64912549575035],[139.8383515354417,35.649112426300384],[139.83837461510117,35.649097913172554],[139.8383868740302,35.64911107275786],[139.8383637943635,35.64912549575035]]]}},{"type":"Feature","properties":{"height":21.3,"gml_id":"bldg_6a98b5ae-5e0d-44fe-b1fb-4a9510de1133"},"geometry":{"type":"Polygon","coordinates":[[[139.83801640440714,35.64591390391683],[139.83796372997315,35.645916970635554],[139.83795632658564,35.64583629766664],[139.83799851024787,35.645833591908776],[139.83800160449442,35.645872080592554],[139.83801231715958,35.64587135907518],[139.83801640440714,35.64591390391683]]]}},{"type":"Feature","properties":{"height":13.8,"gml_id":"bldg_72e89bea-b2cd-4a4b-9152-159947c8255e"},"geometry":{"type":"Polygon","coordinates":[[[139.83823584803713,35.646262547847016],[139.83823043314453,35.646199451671805],[139.83818769713469,35.64620188711989],[139.8381871445954,35.64619539722715],[139.83815556188517,35.646196750561366],[139.83815644597001,35.64620756705097],[139.83815412733793,35.64621396692106],[139.83815026259688,35.646218744374224],[139.83814584557874,35.64622135854432],[139.83813966162,35.646222800994565],[139.83813093772605,35.646223252030914],[139.83811945302222,35.646222441248426],[139.83811282705557,35.64621901627865],[139.83810929285426,35.64621126457595],[139.8380989042134,35.646071821951324],[139.83810011836675,35.64606226730598],[139.83810729557564,35.646050729394794],[139.83812220328923,35.64604703315686],[139.83813909917387,35.64605081826775],[139.8381449526696,35.646063347175826],[139.83815390422677,35.64617646964331],[139.83818537649427,35.646175026176266],[139.83816824774266,35.64597239729255],[139.83812241984955,35.64597501311706],[139.83811468439814,35.64588406447261],[139.8381601809528,35.64588144866429],[139.83815620272773,35.64583511803895],[139.83832526869514,35.64582555655303],[139.83832394260745,35.64581041347203],[139.83837595439618,35.64580752689889],[139.83837717004783,35.64582239957082],[139.83867543719484,35.645805621096564],[139.83867366896635,35.64578506977609],[139.83872700585923,35.645782002717176],[139.83872899511042,35.64580480746982],[139.83890921421585,35.64579470383778],[139.83890722485108,35.645770997710954],[139.83896000958822,35.64576802071212],[139.83896177794023,35.64578929313013],[139.8392572841361,35.64577269361937],[139.839256178824,35.645758812465644],[139.8393066445434,35.64575592556662],[139.83930774982392,35.645769265893584],[139.83947725723016,35.64575970276871],[139.83950831591423,35.64612629125549],[139.83946491740673,35.64612872719075],[139.83947033337546,35.64619326551443],[139.83899681425828,35.646219969471865],[139.8389981404861,35.64623520268214],[139.8389389505631,35.646238540546555],[139.83893773483248,35.6462241185699],[139.83876369879408,35.6462339515522],[139.83876513548051,35.6462502664125],[139.83870660810717,35.64625351399514],[139.8387051713602,35.64623611748166],[139.83823584803713,35.646262547847016]]]}},{"type":"Feature","properties":{"height":5.2,"gml_id":"bldg_6a1b4eaf-7d89-4f1d-89d6-462c3a676887"},"geometry":{"type":"Polygon","coordinates":[[[139.83920935912792,35.64277092904384],[139.83917236875936,35.64279680037963],[139.83900340768164,35.64263627310023],[139.83904028760628,35.64261040182087],[139.83920935912792,35.64277092904384]]]}},{"type":"Feature","properties":{"height":28.6,"gml_id":"bldg_e8610e28-25c7-42ea-a427-c8446ef8adb2"},"geometry":{"type":"Polygon","coordinates":[[[139.83856366150715,35.64377770736611],[139.83856056724215,35.64374183267797],[139.83922256808216,35.64370340345022],[139.83924787707204,35.64399454712165],[139.83927614608783,35.64399292325086],[139.8392800142613,35.64403682013984],[139.83925218692895,35.64403835385206],[139.83925494991604,35.644069901925405],[139.83918615454812,35.64407387134847],[139.83866417086554,35.64410418186183],[139.83859239393615,35.64410833135315],[139.83857305479782,35.643886142663625],[139.83856863439973,35.64383476434214],[139.83856366150715,35.64377770736611]]]}}]}