{"type":"FeatureCollection","crs":{"type":"name","properties":{"name":"urn:ogc:def:crs:OGC:1.3:CRS84"}},"features":[{"type":"Feature","properties":{"height":2.0,"gml_id":"bldg_4fc466c9-7db3-4563-9066-ec9ca1ead452"},"geometry":{"type":"Polygon","coordinates":[[[139.8149803380667,35.60065085628209],[139.81499689735344,35.600632110017685],[139.81502415429622,35.6006480686569],[139.81500759499198,35.6006669050634],[139.8149803380667,35.60065085628209]]]}},{"type":"Feature","properties":{"height":16.2,"gml_id":"bldg_2cafe98b-fbac-4166-96e2-9bf3fd869811"},"geometry":{"type":"Polygon","coordinates":[[[139.82001224947365,35.60754710047089],[139.8201089304122,35.60759948146446],[139.8200369504339,35.60768798934014],[139.81994037981215,35.607635608301834],[139.82001224947365,35.60754710047089]]]}},{"type":"Feature","properties":{"height":16.0,"gml_id":"bldg_8bfef558-de85-4a88-b83b-7c0176a78521"},"geometry":{"type":"Polygon","coordinates":[[[139.81707527751658,35.60795155103974],[139.817005280245,35.60804213054679],[139.8168877412406,35.607981631777065],[139.8169429442198,35.60791015964168],[139.81695773861028,35.60789096219913],[139.8169950420236,35.60791016671667],[139.81707527751658,35.60795155103974]]]}},{"type":"Feature","properties":{"height":3.4,"gml_id":"bldg_202753cc-d758-4ee6-9c5a-f00a35b2ed14"},"geometry":{"type":"Polygon","coordinates":[[[139.81978300763333,35.60356260074683],[139.81977518985886,35.60410694531948],[139.81884630506687,35.60409800367412],[139.81884999332482,35.603842732336815],[139.81883498288528,35.603842550255145],[139.81883531864872,35.60381677072951],[139.81885198464968,35.603816953010096],[139.8188557846759,35.6035537494996],[139.81978300763333,35.60356260074683]]]}},{"type":"Feature","properties":{"height":38.5,"gml_id":"bldg_54f3f9b8-8286-4a99-a878-a9f1aec61062"},"geometry":{"type":"Polygon","coordinates":[[[139.8202808698045,35.60640561848932],[139.82031574513874,35.606424461167414],[139.82029764008254,35.60644672337126],[139.8203013920475,35.60645150110718],[139.82030679864002,35.60646240842649],[139.82030856370054,35.60646817746869],[139.82030988631297,35.60647980545276],[139.82030855993162,35.6064914331505],[139.82030602053783,35.60649621020606],[139.82029884559347,35.606499814962305],[139.820286041418,35.60650414021517],[139.82027246495463,35.606506392202014],[139.8202586680929,35.60650648084414],[139.82025789546944,35.6065064807603],[139.82024431972425,35.60650431596721],[139.82023140656636,35.60650007806366],[139.82021981820117,35.60649403753685],[139.8202105477516,35.60648772684645],[139.82019907053052,35.606476999137975],[139.82019024257113,35.60646464922788],[139.8201863807683,35.606456626497604],[139.82018251993972,35.60644265463928],[139.82018197039682,35.6064284127273],[139.82019146341432,35.606423546294536],[139.82020481948476,35.60641904083518],[139.8202190581979,35.6064166987897],[139.820224797724,35.606416428999275],[139.82023925667139,35.60641724181601],[139.820253384143,35.606420217914334],[139.82025890265595,35.60642157058777],[139.8202658558492,35.60642409521449],[139.8202808698045,35.60640561848932]]]}},{"type":"Feature","properties":{"height":2.8,"gml_id":"bldg_5e60adb4-102f-4e0e-9626-08dd45f80234"},"geometry":{"type":"Polygon","coordinates":[[[139.8139625145949,35.607151203709705],[139.8139954024853,35.60716806485258],[139.81396007120685,35.607213939567956],[139.8139271833051,35.60719707841555],[139.8139625145949,35.607151203709705]]]}},{"type":"Feature","properties":{"height":5.9,"gml_id":"bldg_516cb4e5-86fe-48c9-8a8e-fa08f8f4fbe1"},"geometry":{"type":"Polygon","coordinates":[[[139.81516918386203,35.606963092744806],[139.81513596480545,35.60694569104189],[139.81517096386327,35.60690116800396],[139.81520418288872,35.60691865983562],[139.81516918386203,35.606963092744806]]]}},{"type":"Feature","properties":{"height":12.5,"gml_id":"bldg_4ea8dbb1-a24c-41df-aedb-615ed0e3f8f8"},"geometry":{"type":"Polygon","coordinates":[[[139.81675254440722,35.60791013359343],[139.81663010537503,35.608060557473365],[139.81635287036667,35.60791007793617],[139.8162263932867,35.607841374676624],[139.81633448007105,35.607708616281414],[139.81634772867145,35.607692393258446],[139.81641816703058,35.607605870412925],[139.81682187847792,35.60782496243731],[139.81675254440722,35.60791013359343]]]}},{"type":"Feature","properties":{"height":2.6,"gml_id":"bldg_8335d516-8717-44dd-b964-6c37f4926687"},"geometry":{"type":"Polygon","coordinates":[[[139.81389839695294,35.607107296037256],[139.8139188138256,35.607118115923534],[139.81387553349077,35.60717219191811],[139.81385522698588,35.60716137204244],[139.81389839695294,35.607107296037256]]]}},{"type":"Feature","properties":{"height":5.9,"gml_id":"bldg_bb347607-9fc2-4784-89be-740e598ed6cc"},"geometry":{"type":"Polygon","coordinates":[[[139.81471041130337,35.60671279880525],[139.81467752344912,35.60669593785626],[139.8147125228818,35.6066504234284],[139.8147454107456,35.60666719422967],[139.81471041130337,35.60671279880525]]]}},{"type":"Feature","properties":{"height":5.7,"gml_id":"bldg_90b5257c-13c1-44f2-9d7e-151f4f8a248b"},"geometry":{"type":"Polygon","coordinates":[[[139.81634772867145,35.607692393258446],[139.81633448007105,35.607708616281414],[139.81584093508448,35.60744029410802],[139.81592373993473,35.6073350245782],[139.81641044258876,35.607596855499786],[139.81633603003095,35.60768644248209],[139.81634772867145,35.607692393258446]]]}},{"type":"Feature","properties":{"height":1.5,"gml_id":"bldg_8af747bf-a43b-480a-b2fb-86e8797d9d22"},"geometry":{"type":"Polygon","coordinates":[[[139.82315068170578,35.60235850364863],[139.82316525308136,35.60233750263984],[139.8231916297497,35.602349673541845],[139.82317705836735,35.602370764692154],[139.82315068170578,35.60235850364863]]]}},{"type":"Feature","properties":{"height":2.5,"gml_id":"bldg_d8ea728f-ec0a-4946-a523-4750783e4d59"},"geometry":{"type":"Polygon","coordinates":[[[139.82119061750188,35.60468037606351],[139.82116622655394,35.60467163018525],[139.82117737730115,35.60465080935624],[139.82120187861622,35.60465955524337],[139.82119061750188,35.60468037606351]]]}},{"type":"Feature","properties":{"height":3.5,"gml_id":"bldg_eb6646a8-5dd1-462a-82bb-b963c3544655"},"geometry":{"type":"Polygon","coordinates":[[[139.82244933467248,35.603630564959566],[139.82239525614372,35.60360721423148],[139.82242186107334,35.6035662036956],[139.8224171154131,35.60356413008382],[139.82242627809245,35.60355006933132],[139.82243014083522,35.603551782309474],[139.8224569665188,35.60351041123204],[139.8224505653865,35.60350770650369],[139.82246028004084,35.60349265427648],[139.82246623971412,35.603495178687815],[139.8224675644421,35.60349310562526],[139.8225229672783,35.603517087408584],[139.82244933467248,35.603630564959566]]]}},{"type":"Feature","properties":{"height":3.4,"gml_id":"bldg_90df9c5f-870d-4e54-9f9b-a137bcfbcfd0"},"geometry":{"type":"Polygon","coordinates":[[[139.82227342004387,35.60351084521809],[139.82221592024447,35.6034868631266],[139.8222505842663,35.603431431235094],[139.822308194407,35.60345541332038],[139.82227342004387,35.60351084521809]]]}}]}