{"type":"FeatureCollection","crs":{"type":"name","properties":{"name":"urn:ogc:def:crs:OGC:1.3:CRS84"}},"features":[{"type":"Feature","properties":{"height":4.1,"gml_id":"bldg_8a6a2635-72ce-464c-9f62-e2d9d0f3798f"},"geometry":{"type":"Polygon","coordinates":[[[139.81953387132737,35.58251487110865],[139.81955384144126,35.58252514920073],[139.81952801570648,35.58255858768917],[139.8195079352457,35.58254830958025],[139.81953387132737,35.58251487110865]]]}},{"type":"Feature","properties":{"height":9.4,"gml_id":"bldg_3dbb050d-9a3a-45fc-92e3-9fb4c3b1abb8"},"geometry":{"type":"Polygon","coordinates":[[[139.81343642585563,35.57876388879909],[139.81338766365008,35.57873719968002],[139.81342187834437,35.57869547110996],[139.8134706405137,35.57872225035406],[139.81343642585563,35.57876388879909]]]}},{"type":"Feature","properties":{"height":3.2,"gml_id":"bldg_af7694dd-fbf7-42c6-97f2-29b2b36aaad7"},"geometry":{"type":"Polygon","coordinates":[[[139.81366279924856,35.57891734204731],[139.81369368966605,35.57893339177544],[139.81367305020578,35.5789597990544],[139.81364215978226,35.57894374932104],[139.81366279924856,35.57891734204731]]]}},{"type":"Feature","properties":{"height":3.0,"gml_id":"bldg_dc24c413-c4da-4378-9e8a-47ef44bef479"},"geometry":{"type":"Polygon","coordinates":[[[139.8188891594762,35.58304264755874],[139.81886974109642,35.58303200886902],[139.81889887793653,35.582996317454445],[139.81891840663792,35.58300704629141],[139.8188891594762,35.58304264755874]]]}},{"type":"Feature","properties":{"height":2.9,"gml_id":"bldg_b49af550-43ca-4329-87e2-f834c28e0536"},"geometry":{"type":"Polygon","coordinates":[[[139.81932831921995,35.58243011705811],[139.81940941269926,35.58247456481388],[139.81937475804085,35.58251683583848],[139.81934529957297,35.58250069760295],[139.81933293866837,35.58251574932448],[139.8193248844984,35.5825112414556],[139.81924420737175,35.58260966347101],[139.819200516146,35.58258577161104],[139.81932831921995,35.58243011705811]]]}},{"type":"Feature","properties":{"height":2.9,"gml_id":"bldg_57c06acb-66b5-4a98-bf2a-1cd6037863d6"},"geometry":{"type":"Polygon","coordinates":[[[139.8191733664425,35.58261749723338],[139.81921849201296,35.58264202024166],[139.8190446654785,35.58285508755051],[139.81899953985763,35.58283047433936],[139.8191733664425,35.58261749723338]]]}},{"type":"Feature","properties":{"height":3.0,"gml_id":"bldg_fd31a44b-374d-4907-ad99-0cb8cf5b2cb1"},"geometry":{"type":"Polygon","coordinates":[[[139.819155356152,35.582756759345436],[139.81919176556852,35.58277668426605],[139.8191816118813,35.58278921234786],[139.81918823178063,35.582792818671216],[139.81914254027086,35.58284851899105],[139.81909951093544,35.58282498772796],[139.819155356152,35.582756759345436]]]}},{"type":"Feature","properties":{"height":3.1,"gml_id":"bldg_62b574cf-a70a-4cad-bf24-33d81818d14f"},"geometry":{"type":"Polygon","coordinates":[[[139.81886785804323,35.58307221048279],[139.81884744654332,35.583061751947646],[139.818864112183,35.583040030533695],[139.8188845236796,35.583050489066046],[139.81886785804323,35.58307221048279]]]}},{"type":"Feature","properties":{"height":2.6,"gml_id":"bldg_075cd533-8c12-4abb-a308-c7650fa2598c"},"geometry":{"type":"Polygon","coordinates":[[[139.81899092798463,35.582859497962595],[139.81900295802734,35.58284417582172],[139.81903804362614,35.582862478135254],[139.81902601357132,35.58287789041826],[139.81899092798463,35.582859497962595]]]}},{"type":"Feature","properties":{"height":2.8,"gml_id":"bldg_1b90824b-6dd7-4d41-9df0-6b16d7914088"},"geometry":{"type":"Polygon","coordinates":[[[139.8189723903624,35.58286012672603],[139.81901762647834,35.58288392871245],[139.81898915170567,35.582920070928466],[139.81899886092143,35.5829252099869],[139.8189860583241,35.58294134328311],[139.81897303914022,35.58293449119491],[139.81896950736183,35.582939087845546],[139.81892747083575,35.58291708899686],[139.8189723903624,35.58286012672603]]]}},{"type":"Feature","properties":{"height":5.7,"gml_id":"bldg_406209db-2924-4a54-9790-e35a6b49a7ce"},"geometry":{"type":"Polygon","coordinates":[[[139.81965751797767,35.582139728076505],[139.8196812464736,35.58210962445117],[139.81975836820567,35.58215010542323],[139.81973463972662,35.58218020906356],[139.81965751797767,35.582139728076505]]]}},{"type":"Feature","properties":{"height":2.9,"gml_id":"bldg_d3a14bb1-f79c-461a-a339-83db31989bde"},"geometry":{"type":"Polygon","coordinates":[[[139.81897579031582,35.582975865165565],[139.81901793721232,35.58299795414896],[139.81898449582658,35.58304058575634],[139.81894234891692,35.58301849676142],[139.81897579031582,35.582975865165565]]]}},{"type":"Feature","properties":{"height":2.9,"gml_id":"bldg_83e832d8-ad79-46ac-828c-5effe0519746"},"geometry":{"type":"Polygon","coordinates":[[[139.81909023749213,35.5828514873978],[139.81911086952744,35.58286266702747],[139.8190942042145,35.58288312653505],[139.81907357219225,35.582871856763916],[139.81909023749213,35.5828514873978]]]}},{"type":"Feature","properties":{"height":2.7,"gml_id":"bldg_f515386c-a310-4257-9697-654ce4451c95"},"geometry":{"type":"Polygon","coordinates":[[[139.81899819464212,35.58294891637414],[139.8190141928199,35.58295721103202],[139.81900271457113,35.58297199240742],[139.81898671639158,35.582963697748035],[139.81899819464212,35.58294891637414]]]}},{"type":"Feature","properties":{"height":2.7,"gml_id":"bldg_f2871fea-fa0c-487f-9048-b4cd57355c8e"},"geometry":{"type":"Polygon","coordinates":[[[139.81892524927892,35.58299920504653],[139.81890649279816,35.58298946782832],[139.8189388306183,35.58294773749701],[139.81895758709325,35.58295747471025],[139.81892524927892,35.58299920504653]]]}},{"type":"Feature","properties":{"height":4.8,"gml_id":"bldg_a4c9479b-821c-4cbe-90f4-d909cca80d68"},"geometry":{"type":"Polygon","coordinates":[[[139.81963142812143,35.5824291603693],[139.81961785304566,35.582447006280766],[139.81959964824148,35.582437719925615],[139.81961322331978,35.582419874016175],[139.81963142812143,35.5824291603693]]]}}]}