{"type":"FeatureCollection","crs":{"type":"name","properties":{"name":"urn:ogc:def:crs:OGC:1.3:CRS84"}},"features":[{"type":"Feature","properties":{"height":3.6,"gml_id":"bldg_33bb72e2-f8ea-4a17-b2fe-c9f1efba97d0"},"geometry":{"type":"Polygon","coordinates":[[[139.84231395268702,35.66649440822666],[139.84230267383438,35.66638525267048],[139.84236640710463,35.66638083117361],[139.84237768604342,35.66648998672389],[139.84231395268702,35.66649440822666]]]}},{"type":"Feature","properties":{"height":3.2,"gml_id":"bldg_0da5f22a-c415-4530-8177-5ab04333ffb4"},"geometry":{"type":"Polygon","coordinates":[[[139.8423129651424,35.6665530877498],[139.84230754686044,35.66650062818508],[139.84241910786074,35.66649295814],[139.84242452621518,35.666545417699766],[139.8423129651424,35.6665530877498]]]}},{"type":"Feature","properties":{"height":1.9,"gml_id":"bldg_adaaeb67-e055-43d4-983b-437b0b722bfb"},"geometry":{"type":"Polygon","coordinates":[[[139.84050339552064,35.66097379140058],[139.84050427661984,35.66094584872721],[139.84064233891493,35.66094845441411],[139.8406415683217,35.66097648721926],[139.84050339552064,35.66097379140058]]]}},{"type":"Feature","properties":{"height":3.1,"gml_id":"bldg_e4e5ac37-8dba-49e8-82cb-df9a8036ea29"},"geometry":{"type":"Polygon","coordinates":[[[139.8420807853777,35.66656797751108],[139.84207547781202,35.66651650943942],[139.8421550064758,35.66651100615931],[139.84216031409207,35.666562473326124],[139.8420807853777,35.66656797751108]]]}},{"type":"Feature","properties":{"height":2.7,"gml_id":"bldg_88700eeb-38df-4d25-b5f0-20065a2eb871"},"geometry":{"type":"Polygon","coordinates":[[[139.84032401819445,35.66089303875839],[139.8403706243632,35.660852564311746],[139.84037946098974,35.660860135344066],[139.84040552675236,35.66085643817911],[139.8405020666118,35.66093449153542],[139.8404899193804,35.66095946034179],[139.84050129646107,35.660968022726394],[139.84047412794334,35.66099164036191],[139.84045015940478,35.66098091541988],[139.84044474778537,35.660985602888864],[139.84032401819445,35.66089303875839]]]}},{"type":"Feature","properties":{"height":3.0,"gml_id":"bldg_a257b4cc-a827-4cd8-a364-09185cc5a4fc"},"geometry":{"type":"Polygon","coordinates":[[[139.84216627884027,35.66656292357576],[139.8421609711705,35.6665110057222],[139.84224215667226,35.666505410322905],[139.84224746439426,35.666557329074315],[139.84216627884027,35.66656292357576]]]}},{"type":"Feature","properties":{"height":7.4,"gml_id":"bldg_c71c9739-ba38-4d24-aae3-9f956508e48a"},"geometry":{"type":"Polygon","coordinates":[[[139.84043744745807,35.659618397770174],[139.84039635849666,35.65959144907239],[139.84044693903948,35.659540247990876],[139.8404880279997,35.65956728680915],[139.84043744745807,35.659618397770174]]]}},{"type":"Feature","properties":{"height":3.9,"gml_id":"bldg_bab26208-c62a-42ec-98d7-63875a6c8703"},"geometry":{"type":"Polygon","coordinates":[[[139.84216019757235,35.666507399381395],[139.84215444772423,35.66645223571156],[139.84223640635759,35.66644655102342],[139.84224204580437,35.66650171469758],[139.84216019757235,35.666507399381395]]]}},{"type":"Feature","properties":{"height":2.6,"gml_id":"bldg_069af288-ea0c-44c3-ac4f-82836883f0c0"},"geometry":{"type":"Polygon","coordinates":[[[139.8411109750188,35.66093030742459],[139.84120242678566,35.66092498337179],[139.84120574388385,35.660961759249695],[139.84111418163434,35.66096717344961],[139.8411109750188,35.66093030742459]]]}},{"type":"Feature","properties":{"height":2.7,"gml_id":"bldg_76ffb40f-bd38-47df-909d-ab0f0e287efc"},"geometry":{"type":"Polygon","coordinates":[[[139.839970700864,35.66102420879329],[139.8399387809297,35.661024751373255],[139.83993811601925,35.66099789043888],[139.8399700359428,35.66099734785909],[139.839970700864,35.66102420879329]]]}},{"type":"Feature","properties":{"height":2.4,"gml_id":"bldg_f3257e08-a27e-4c28-a73f-79b0420e9b7a"},"geometry":{"type":"Polygon","coordinates":[[[139.8399684925997,35.66103304238859],[139.8399763331071,35.661015825696545],[139.84000184764201,35.66102357611018],[139.83999389668952,35.661040792809985],[139.8399684925997,35.66103304238859]]]}},{"type":"Feature","properties":{"height":3.0,"gml_id":"bldg_4a1d8a4f-9c31-4a34-a867-f42ce9b5c7a1"},"geometry":{"type":"Polygon","coordinates":[[[139.84033117351694,35.66061911051109],[139.8403626515298,35.66061901854035],[139.8403626519801,35.66062415637736],[139.84039390908853,35.66062397427383],[139.84039435808268,35.66070572895205],[139.8403316228954,35.66070600302657],[139.84033117351694,35.66061911051109]]]}},{"type":"Feature","properties":{"height":3.4,"gml_id":"bldg_4093a5b6-967e-4e5a-8de7-27d7b106f149"},"geometry":{"type":"Polygon","coordinates":[[[139.84210352169717,35.666404286332025],[139.84209600550793,35.66635759570322],[139.84217210954472,35.6663493876373],[139.84217962578742,35.666396168398805],[139.84210352169717,35.666404286332025]]]}},{"type":"Feature","properties":{"height":1.6,"gml_id":"bldg_30cdb851-1125-444d-be86-841788ec98fd"},"geometry":{"type":"Polygon","coordinates":[[[139.84035437963624,35.6607537745718],[139.840383869415,35.66075142927416],[139.84039536467407,35.66084823626402],[139.84036587486008,35.66085058156444],[139.84035437963624,35.6607537745718]]]}},{"type":"Feature","properties":{"height":2.8,"gml_id":"bldg_1b2b63cb-f8cc-486e-989c-15fe3ff6208b"},"geometry":{"type":"Polygon","coordinates":[[[139.84072054051254,35.66098369339975],[139.84071932076813,35.66093159400719],[139.84081110427275,35.66093014614316],[139.84081232407675,35.66098224553479],[139.84072054051254,35.66098369339975]]]}},{"type":"Feature","properties":{"height":12.5,"gml_id":"bldg_4c83e832-9023-4907-9ca1-ea852934562d"},"geometry":{"type":"Polygon","coordinates":[[[139.84069165492997,35.66636832592028],[139.84072655915352,35.66636589007242],[139.840727222453,35.66637192923787],[139.84074047721566,35.6663709369118],[139.84074921093858,35.666453231825045],[139.84070094143522,35.66645656987195],[139.84069165492997,35.66636832592028]]]}},{"type":"Feature","properties":{"height":2.8,"gml_id":"bldg_4a90110b-cd32-402f-92c2-a0fe7cee78f3"},"geometry":{"type":"Polygon","coordinates":[[[139.84046309406077,35.66110395232258],[139.84037097801547,35.66110675200304],[139.84036965010242,35.66107808836047],[139.84035142592816,35.66107863024882],[139.84035208997597,35.66109404372002],[139.8403043757663,35.66109548869124],[139.84029421300312,35.661079625081754],[139.84029388097306,35.66107178313974],[139.84025643858553,35.66107295708536],[139.84025334013452,35.661005083736775],[139.8402374354126,35.66100553533707],[139.84023621804522,35.66097741251112],[139.84025433174753,35.66097687064656],[139.84025422101007,35.66097353556592],[139.84030049930226,35.66097209069763],[139.84030038858637,35.6609690260295],[139.84036820451442,35.66096703906232],[139.84036975383063,35.66100147149163],[139.8404288442725,35.66099966527481],[139.84043039361538,35.66103409770314],[139.8404598836231,35.66103319458674],[139.84046309406077,35.66110395232258]]]}},{"type":"Feature","properties":{"height":5.0,"gml_id":"bldg_0e4bc7b6-e2d0-48ef-8a16-09d8d2053b02"},"geometry":{"type":"Polygon","coordinates":[[[139.8403794173822,35.664135370229175],[139.84036946689432,35.66402567354649],[139.84037532091867,35.66402531265456],[139.84036537038685,35.66391489486999],[139.84040281510872,35.66391263924153],[139.8404128750969,35.66402368797867],[139.84041652005118,35.66402341735202],[139.84042647054733,35.66413248306876],[139.8403794173822,35.664135370229175]]]}},{"type":"Feature","properties":{"height":4.8,"gml_id":"bldg_7599172f-d854-483b-997c-ca7c17f28af0"},"geometry":{"type":"Polygon","coordinates":[[[139.84006230544193,35.66415449750345],[139.84001381628778,35.66415666350169],[139.8400064067299,35.66404687651096],[139.84001281302704,35.66404651560604],[139.8400055141445,35.663939252455464],[139.84004317873612,35.663937537751316],[139.84005036713194,35.66404380939393],[139.8400547852733,35.664043628872534],[139.84006230544193,35.66415449750345]]]}},{"type":"Feature","properties":{"height":4.9,"gml_id":"bldg_7abb028e-14de-49b8-80cc-60756a49de90"},"geometry":{"type":"Polygon","coordinates":[[[139.84022596142987,35.6611543529821],[139.84022131936663,35.66111748701667],[139.8402598660952,35.66111423985631],[139.8402604186949,35.66111829601132],[139.84027698606033,35.66111694299495],[139.84027831236426,35.66112739886666],[139.84026019870595,35.661128842109655],[139.8402630723347,35.661151196040386],[139.84022596142987,35.6611543529821]]]}},{"type":"Feature","properties":{"height":3.7,"gml_id":"bldg_8a67e66e-5578-4b81-86f3-846aa49a7677"},"geometry":{"type":"Polygon","coordinates":[[[139.8419612503743,35.66535446616155],[139.84196069745568,35.665348517131385],[139.8419196082602,35.66535158474046],[139.84191651249984,35.66532355222322],[139.84196908899312,35.66531976269257],[139.84197284813715,35.66535365409324],[139.8419612503743,35.66535446616155]]]}},{"type":"Feature","properties":{"height":4.9,"gml_id":"bldg_18f223a8-0790-41a7-a10e-51da44327c42"},"geometry":{"type":"Polygon","coordinates":[[[139.8417381500431,35.66554737601706],[139.84173660121297,35.66552403053388],[139.8417300843402,35.6655243014007],[139.8417287566984,35.66550356988706],[139.84177128202927,35.66550167402898],[139.8417742689881,35.66554584115459],[139.8417381500431,35.66554737601706]]]}},{"type":"Feature","properties":{"height":11.1,"gml_id":"bldg_d0a62e66-aa34-485d-937c-14a161a19558"},"geometry":{"type":"Polygon","coordinates":[[[139.84133053391108,35.665210920786514],[139.84126097783522,35.66440617841938],[139.84209943199593,35.66435789677509],[139.84216888598817,35.66516263867135],[139.84133053391108,35.665210920786514]]]}},{"type":"Feature","properties":{"height":5.2,"gml_id":"bldg_ea504313-e2a4-4251-9003-744e41ed916f"},"geometry":{"type":"Polygon","coordinates":[[[139.84097894139697,35.66392026572407],[139.84095872841365,35.663920807830344],[139.84095673579077,35.66387393648629],[139.84097694875365,35.663873304242905],[139.84097894139697,35.66392026572407]]]}},{"type":"Feature","properties":{"height":2.4,"gml_id":"bldg_576ec371-0458-4461-9183-9815809c65f3"},"geometry":{"type":"Polygon","coordinates":[[[139.8401886226114,35.661075484814475],[139.84015515641434,35.6610766585022],[139.84015294404563,35.66103699813394],[139.84016045460703,35.66103672729594],[139.84015945917056,35.66102041246744],[139.84018154905098,35.66101959997592],[139.84018254461506,35.661037357004005],[139.84018652079146,35.661037176502816],[139.8401886226114,35.661075484814475]]]}},{"type":"Feature","properties":{"height":3.4,"gml_id":"bldg_68483885-92af-4126-b5b7-9c17a63862bf"},"geometry":{"type":"Polygon","coordinates":[[[139.84202157025047,35.66545649738407],[139.84201991188942,35.66544243606629],[139.84203791603449,35.6654409925675],[139.8420395744084,35.66545514402246],[139.84202157025047,35.66545649738407]]]}},{"type":"Feature","properties":{"height":1.7,"gml_id":"bldg_f355b4f6-534b-40e7-ac98-9159d164437a"},"geometry":{"type":"Polygon","coordinates":[[[139.84205270710999,35.665348961191434],[139.84205082780494,35.665334629477556],[139.84206960508558,35.66533291550577],[139.84207159484964,35.66534724721134],[139.84205270710999,35.665348961191434]]]}},{"type":"Feature","properties":{"height":13.2,"gml_id":"bldg_1bb5b852-90c3-463d-939b-2cf8d53c8451"},"geometry":{"type":"Polygon","coordinates":[[[139.84050896095292,35.66639168253343],[139.8405476207026,35.666388885963954],[139.84054817345867,35.666394113900346],[139.8405594400148,35.66639330198814],[139.84056861550542,35.66647694894871],[139.84051868914543,35.66648055743432],[139.84050896095292,35.66639168253343]]]}},{"type":"Feature","properties":{"height":2.7,"gml_id":"bldg_288b52c3-409d-4d7c-a3c7-1ecb7900ebc5"},"geometry":{"type":"Polygon","coordinates":[[[139.84111429652623,35.66101296328524],[139.84111230531866,35.66098087446879],[139.84117084340966,35.660978346823654],[139.84117283464056,35.66101043563915],[139.84111429652623,35.66101296328524]]]}},{"type":"Feature","properties":{"height":1.4,"gml_id":"bldg_164a2e60-6498-4733-9591-1a0c39e648b2"},"geometry":{"type":"Polygon","coordinates":[[[139.84039382127605,35.66464500644503],[139.8403922733625,35.66462742973658],[139.84042507824572,35.66462553492308],[139.84042662616642,35.66464311163109],[139.84039382127605,35.66464500644503]]]}},{"type":"Feature","properties":{"height":6.2,"gml_id":"bldg_fde3e896-05de-4e96-8b28-bea8f257225a"},"geometry":{"type":"Polygon","coordinates":[[[139.83950916191904,35.66572427043588],[139.8395044083614,35.66567307262742],[139.83947668400427,35.66567487679333],[139.83947115669812,35.66561610747957],[139.83949534646143,35.66561457390809],[139.83948694500737,35.665526059393514],[139.83946640030337,35.665527412502904],[139.83946065197233,35.66546693058753],[139.83945987867793,35.665465578565566],[139.83965748324925,35.66545312938615],[139.83966301065934,35.66551162828068],[139.83963826865062,35.665513161914774],[139.83964711245653,35.665606273404066],[139.83967008720393,35.6656048299986],[139.83967550408485,35.665662157110496],[139.83964932610718,35.665663780959854],[139.83965419022724,35.6657151590317],[139.83950916191904,35.66572427043588]]]}},{"type":"Feature","properties":{"height":4.4,"gml_id":"bldg_06f4f184-684f-4391-ba63-6a17644d6793"},"geometry":{"type":"Polygon","coordinates":[[[139.84126286727013,35.660056053967075],[139.8412337118171,35.66008580125832],[139.84114877154028,35.66003028210049],[139.84117792700462,35.66000053482954],[139.84126286727013,35.660056053967075]]]}},{"type":"Feature","properties":{"height":12.2,"gml_id":"bldg_ac8b72c7-5a6a-40a2-990d-0abde4ef7980"},"geometry":{"type":"Polygon","coordinates":[[[139.84039375518145,35.666403407205976],[139.84043241493282,35.6664005205361],[139.84043296768948,35.666405838610416],[139.8404442342484,35.666405026709],[139.84045329915486,35.66648858354732],[139.8404034832477,35.66649228211603],[139.84039375518145,35.666403407205976]]]}},{"type":"Feature","properties":{"height":13.3,"gml_id":"bldg_bdd963a1-a01d-4e92-996d-1d23db465837"},"geometry":{"type":"Polygon","coordinates":[[[139.84020962509413,35.66642676344905],[139.84024828487117,35.66642396697569],[139.84024894806518,35.66642919490709],[139.84026010417205,35.66642838302924],[139.84026927935443,35.66651203001217],[139.84021935295914,35.66651563837365],[139.84020962509413,35.66642676344905]]]}},{"type":"Feature","properties":{"height":3.6,"gml_id":"bldg_3e4c132f-6b2b-4cdd-af00-bf1aef204bb6"},"geometry":{"type":"Polygon","coordinates":[[[139.84151425766532,35.66015203358901],[139.84147196117462,35.660204316203995],[139.84138503341123,35.6601575406856],[139.84142732992484,35.66010516796325],[139.84151425766532,35.66015203358901]]]}},{"type":"Feature","properties":{"height":2.2,"gml_id":"bldg_3db364ec-b8af-4b5a-ad23-f235c81ddaa4"},"geometry":{"type":"Polygon","coordinates":[[[139.84208917505225,35.66146304293842],[139.84211689799324,35.66146213954476],[139.84211944468083,35.66151991748284],[139.84209183216052,35.66152073073155],[139.84208917505225,35.66146304293842]]]}},{"type":"Feature","properties":{"height":3.3,"gml_id":"bldg_92846f9b-d272-44a8-af8b-fc55a5fca817"},"geometry":{"type":"Polygon","coordinates":[[[139.84042434756714,35.661358592999036],[139.84041031934808,35.661346785814246],[139.84043704643577,35.66132578220752],[139.84045096421292,35.661337679533254],[139.84042434756714,35.661358592999036]]]}},{"type":"Feature","properties":{"height":1.0,"gml_id":"bldg_8267af30-6758-4001-b4bb-b75f8cd1a30a"},"geometry":{"type":"Polygon","coordinates":[[[139.84107215937965,35.66157938993555],[139.84105437734956,35.661584619050636],[139.84104001568926,35.66155244089106],[139.84105790815494,35.661547121633504],[139.84107215937965,35.66157938993555]]]}},{"type":"Feature","properties":{"height":2.0,"gml_id":"bldg_f2b5a5d6-15ec-492b-8d84-273c117df495"},"geometry":{"type":"Polygon","coordinates":[[[139.8410714179249,35.66190794107961],[139.84111140099256,35.661906045616874],[139.84111571435292,35.6619655360698],[139.8410757312557,35.66196743153395],[139.8410714179249,35.66190794107961]]]}},{"type":"Feature","properties":{"height":2.0,"gml_id":"bldg_f2c586ac-27a2-4bec-9639-53c314145675"},"geometry":{"type":"Polygon","coordinates":[[[139.84083958397022,35.66193607864463],[139.84083759273994,35.66190281804142],[139.84093026073955,35.66189902645734],[139.84093236245914,35.66193228705206],[139.84083958397022,35.66193607864463]]]}},{"type":"Feature","properties":{"height":12.8,"gml_id":"bldg_09bc872e-4853-4004-90b6-684650e3e3b1"},"geometry":{"type":"Polygon","coordinates":[[[139.84009662869192,35.666442273482076],[139.8401352884804,35.666439477045024],[139.84013584120996,35.666444704983256],[139.84014710777737,35.66644389310963],[139.84015617238632,35.666527540107246],[139.8401063564336,35.66653114841561],[139.84009662869192,35.666442273482076]]]}},{"type":"Feature","properties":{"height":2.7,"gml_id":"bldg_5f30e0df-56e9-4e5d-a4fe-3a2c9cd1960a"},"geometry":{"type":"Polygon","coordinates":[[[139.84104060104056,35.66419554153618],[139.84099454176686,35.664196535987095],[139.84099310164473,35.664152368733816],[139.84103916089305,35.66415137428345],[139.84104060104056,35.66419554153618]]]}},{"type":"Feature","properties":{"height":13.1,"gml_id":"bldg_462df9a8-cf47-435b-861c-59845f6c2c2f"},"geometry":{"type":"Polygon","coordinates":[[[139.8399118356409,35.666465088482475],[139.83995049544683,35.66646229210475],[139.83995104816447,35.66646752004382],[139.83996231473697,35.66646670818749],[139.83997137915574,35.6665503551987],[139.83992145272316,35.666553963436655],[139.8399118356409,35.666465088482475]]]}},{"type":"Feature","properties":{"height":2.3,"gml_id":"bldg_fd704c5b-d8ff-4a7d-831a-4c7ad094cbc8"},"geometry":{"type":"Polygon","coordinates":[[[139.83865925285744,35.66151173743778],[139.83863749420715,35.66151300032281],[139.83863406750953,35.661471627370865],[139.83865571570428,35.661470454628805],[139.83865925285744,35.66151173743778]]]}},{"type":"Feature","properties":{"height":1.8,"gml_id":"bldg_b954f12b-1df1-4dc3-8db0-46cf97659be3"},"geometry":{"type":"Polygon","coordinates":[[[139.8387152571324,35.66159979926389],[139.83871404096092,35.66158168168528],[139.83874640286638,35.66158023803533],[139.83874761905128,35.66159844575112],[139.8387152571324,35.66159979926389]]]}},{"type":"Feature","properties":{"height":3.0,"gml_id":"bldg_807d5cdd-0e4a-4b21-a8c4-7bf959512b6f"},"geometry":{"type":"Polygon","coordinates":[[[139.83868600867817,35.66191356911779],[139.83868435039798,35.66189085454835],[139.83875227749306,35.661887336149455],[139.83875404624945,35.66191014085047],[139.83868600867817,35.66191356911779]]]}},{"type":"Feature","properties":{"height":6.4,"gml_id":"bldg_65a69f04-146a-41c0-bf3d-d3e55589b23e"},"geometry":{"type":"Polygon","coordinates":[[[139.83926337248522,35.665395281215304],[139.83924900092015,35.66522834741737],[139.83935735734138,35.66522212256343],[139.83937161868192,35.66538914649154],[139.83926337248522,35.665395281215304]]]}},{"type":"Feature","properties":{"height":6.5,"gml_id":"bldg_196c2628-4734-4d7b-a821-d1234d7403a7"},"geometry":{"type":"Polygon","coordinates":[[[139.83975965493704,35.66269663092063],[139.83975114261273,35.66260270813969],[139.8398608208411,35.662596122209884],[139.83986933329314,35.66269004498315],[139.83975965493704,35.66269663092063]]]}},{"type":"Feature","properties":{"height":13.5,"gml_id":"bldg_3eedaa86-2ed8-495b-9b17-e92c0076446c"},"geometry":{"type":"Polygon","coordinates":[[[139.83980093769156,35.66647906578743],[139.8398395975081,35.666476269445305],[139.83984015022594,35.66648158752229],[139.83985141680154,35.66648077567633],[139.83986048109887,35.666564332558316],[139.83981055465262,35.66656794075028],[139.83980093769156,35.66647906578743]]]}},{"type":"Feature","properties":{"height":2.6,"gml_id":"bldg_bdd1d701-67df-4068-8c7f-627f0c73c9f8"},"geometry":{"type":"Polygon","coordinates":[[[139.84018099654057,35.66101653533281],[139.84015537226153,35.66101725788702],[139.84015404424306,35.66098643094197],[139.84017955806257,35.66098570839432],[139.84018099654057,35.66101653533281]]]}},{"type":"Feature","properties":{"height":2.6,"gml_id":"bldg_6689a26e-890c-4985-9b56-08814b839c33"},"geometry":{"type":"Polygon","coordinates":[[[139.83962744291958,35.662685100308416],[139.83962291038492,35.6626340827421],[139.83966366696998,35.66263164689508],[139.83966819953042,35.662682664459886],[139.83962744291958,35.662685100308416]]]}},{"type":"Feature","properties":{"height":3.1,"gml_id":"bldg_034d2485-8aa9-4347-ab7e-2e8c92aa433f"},"geometry":{"type":"Polygon","coordinates":[[[139.84204673969987,35.66125672132299],[139.84204154118686,35.66118893831199],[139.84209157475215,35.66118641083405],[139.84209666285722,35.66125419385097],[139.84204673969987,35.66125672132299]]]}},{"type":"Feature","properties":{"height":1.8,"gml_id":"bldg_fb243d40-1e01-476c-85b3-c3d515f11439"},"geometry":{"type":"Polygon","coordinates":[[[139.84205777447087,35.66116261699187],[139.84204010267558,35.6611644210205],[139.8420371183653,35.661144500852295],[139.84205479015625,35.66114269682411],[139.84205777447087,35.66116261699187]]]}},{"type":"Feature","properties":{"height":9.1,"gml_id":"bldg_56f25b3f-952f-4c4c-9d96-096e7b696405"},"geometry":{"type":"Polygon","coordinates":[[[139.84234219401574,35.6651930922797],[139.8423268186246,35.66499623329354],[139.84238458637066,35.66499325443031],[139.84239996190303,35.66519011340917],[139.84234219401574,35.6651930922797]]]}},{"type":"Feature","properties":{"height":14.1,"gml_id":"bldg_aedf9a85-1277-408b-9cdc-dad13c273321"},"geometry":{"type":"Polygon","coordinates":[[[139.83900191938068,35.665334631322416],[139.8389888746372,35.66517905474463],[139.83913953529944,35.66517066479422],[139.8391525803338,35.66532624135586],[139.83900191938068,35.665334631322416]]]}},{"type":"Feature","properties":{"height":1.2,"gml_id":"bldg_d86b41f2-9cda-4501-aac9-296b075f4aec"},"geometry":{"type":"Polygon","coordinates":[[[139.84212689121992,35.6619427518351],[139.8421363899679,35.661942390591236],[139.84213716428266,35.661952936618846],[139.84212766554333,35.66195338800023],[139.84212689121992,35.6619427518351]]]}},{"type":"Feature","properties":{"height":2.1,"gml_id":"bldg_bc010de2-fdc9-403f-beda-efe5b4f6fb0f"},"geometry":{"type":"Polygon","coordinates":[[[139.84214124975327,35.66194184941105],[139.84214975444192,35.661941488238845],[139.8421501972567,35.66195068222854],[139.8421416925572,35.66195095326332],[139.84214124975327,35.66194184941105]]]}},{"type":"Feature","properties":{"height":15.7,"gml_id":"bldg_418839eb-f18a-403c-8819-d2004cf5cae0"},"geometry":{"type":"Polygon","coordinates":[[[139.83821307775312,35.66224502468773],[139.83824888103916,35.66252273676302],[139.83730827735815,35.662603444513],[139.83727247729303,35.662325732161584],[139.83821307775312,35.66224502468773]]]}},{"type":"Feature","properties":{"height":3.4,"gml_id":"bldg_be67e41f-cba4-4dbd-90eb-6785be9b34ba"},"geometry":{"type":"Polygon","coordinates":[[[139.8391073788251,35.66189353913253],[139.8391529937802,35.66189101308754],[139.8391566419207,35.661935901372544],[139.8391110258292,35.66193833728146],[139.8391073788251,35.66189353913253]]]}},{"type":"Feature","properties":{"height":2.8,"gml_id":"bldg_f198bcd5-c769-4db1-92bd-31ff0f4d7255"},"geometry":{"type":"Polygon","coordinates":[[[139.83886458701096,35.66161051885743],[139.83886071841485,35.661569506482806],[139.8389223495327,35.66156571786418],[139.83892621815386,35.66160664009935],[139.83886458701096,35.66161051885743]]]}},{"type":"Feature","properties":{"height":6.9,"gml_id":"bldg_3b175cd5-1b90-4d4d-9d06-5e80901429a2"},"geometry":{"type":"Polygon","coordinates":[[[139.84205205429328,35.665440180307904],[139.84204906877247,35.66541061545037],[139.84203239006484,35.66541169830541],[139.842030952546,35.66539700600979],[139.84208562774162,35.6653932162767],[139.8420894978371,35.66543116384913],[139.84207723732928,35.66543197597679],[139.8420779007719,35.665438465822824],[139.84205205429328,35.665440180307904]]]}},{"type":"Feature","properties":{"height":5.8,"gml_id":"bldg_844bdca3-11f0-4633-aa0a-d8e1a83dbbe1"},"geometry":{"type":"Polygon","coordinates":[[[139.83793072511324,35.66542220041815],[139.8378717418785,35.66542517719042],[139.83786036293486,35.66538984375],[139.83785516765104,35.66532133950523],[139.83784544758234,35.66532188069437],[139.83784456328286,35.66531025300011],[139.8379219924765,35.665306374165404],[139.83793072511324,35.66542220041815]]]}},{"type":"Feature","properties":{"height":1.7,"gml_id":"bldg_874e48af-1766-4074-93b9-d5d638192ca2"},"geometry":{"type":"Polygon","coordinates":[[[139.84096063834667,35.666582205243145],[139.84095854131874,35.666599692032],[139.8409241888013,35.66659699008032],[139.84092628582812,35.66657941315466],[139.84096063834667,35.666582205243145]]]}},{"type":"Feature","properties":{"height":10.7,"gml_id":"bldg_93fb304c-d691-48b9-9254-c5418c895faa"},"geometry":{"type":"Polygon","coordinates":[[[139.8387100611105,35.661527509238766],[139.83871944935612,35.661526877856886],[139.83871734938177,35.66150578578081],[139.83875678000385,35.66150317002461],[139.83876296944356,35.661565454743204],[139.8387350255948,35.661567348886884],[139.83873414139592,35.66155851545371],[139.8387132663441,35.66155986845027],[139.8387100611105,35.661527509238766]]]}},{"type":"Feature","properties":{"height":2.3,"gml_id":"bldg_b646722d-9c30-43ad-92c0-b79aed37c3c2"},"geometry":{"type":"Polygon","coordinates":[[[139.8418232379494,35.65963462293736],[139.84180313661395,35.6596362468279],[139.84179805166602,35.65959505434478],[139.84181815299127,35.659593430455075],[139.8418232379494,35.65963462293736]]]}},{"type":"Feature","properties":{"height":2.8,"gml_id":"bldg_39f48ad1-cd05-42cb-9dc8-7b0d9c03dc20"},"geometry":{"type":"Polygon","coordinates":[[[139.83867450771186,35.66170237752643],[139.83872785519398,35.661699400611816],[139.83873205565098,35.6617488858976],[139.83867870813611,35.66175186281405],[139.83867450771186,35.66170237752643]]]}},{"type":"Feature","properties":{"height":4.3,"gml_id":"bldg_c0d0034d-9e27-4f85-970f-19e80fa18d89"},"geometry":{"type":"Polygon","coordinates":[[[139.83868023871466,35.66151588283186],[139.83870740943007,35.66151452956023],[139.83871149968627,35.66156807103967],[139.83868432895278,35.661569424312205],[139.83868023871466,35.66151588283186]]]}},{"type":"Feature","properties":{"height":12.2,"gml_id":"bldg_9e96957c-3d3a-4780-9542-298af5edebb5"},"geometry":{"type":"Polygon","coordinates":[[[139.83950601956548,35.666515136227645],[139.839544789867,35.66651233997452],[139.83954534256554,35.66651765805283],[139.83955649869188,35.66651684624016],[139.83956567314345,35.666600403138155],[139.83951574666142,35.66660401120788],[139.83950601956548,35.666515136227645]]]}},{"type":"Feature","properties":{"height":5.5,"gml_id":"bldg_10b78cae-58c5-46e8-afe0-e19a5ce15963"},"geometry":{"type":"Polygon","coordinates":[[[139.8379791451757,35.660399739418516],[139.8379821303782,35.660452920425314],[139.83796390634024,35.66045364222739],[139.83796456969503,35.66046508966368],[139.8379034915404,35.66046743557191],[139.8379009487036,35.66042335843349],[139.8378939904366,35.66042362910969],[139.83789310597408,35.660408305769025],[139.83790161052443,35.66040803503423],[139.83790127887482,35.66040271693459],[139.8379791451757,35.660399739418516]]]}},{"type":"Feature","properties":{"height":12.5,"gml_id":"bldg_9cbac6cb-2835-48da-a47d-b91e08026525"},"geometry":{"type":"Polygon","coordinates":[[[139.83956367833355,35.66651576422007],[139.83957339852833,35.66651513275494],[139.83957262476608,35.66650792180276],[139.83961128461152,35.666505215671336],[139.83962056996498,35.66659373011665],[139.83957218987257,35.66659706771682],[139.83956367833355,35.66651576422007]]]}},{"type":"Feature","properties":{"height":10.8,"gml_id":"bldg_34e4404f-ced5-4c89-8fd2-5cbbd7d1f27d"},"geometry":{"type":"Polygon","coordinates":[[[139.8413096655629,35.663067724282115],[139.84130214547378,35.6629739818259],[139.84147345627247,35.66296477634731],[139.84148097656097,35.66305851879294],[139.8413096655629,35.663067724282115]]]}},{"type":"Feature","properties":{"height":2.8,"gml_id":"bldg_6e5c21f7-c27f-483f-a440-00b02711fe9b"},"geometry":{"type":"Polygon","coordinates":[[[139.83803394472088,35.66068799699515],[139.83803250778695,35.66066933859058],[139.83808541281942,35.66066654225232],[139.83808696022027,35.66068529078942],[139.83803394472088,35.66068799699515]]]}},{"type":"Feature","properties":{"height":6.0,"gml_id":"bldg_b31b2165-c8ff-41bd-9e62-adf77def0e84"},"geometry":{"type":"Polygon","coordinates":[[[139.83789940539998,35.66047572837638],[139.83798434047608,35.66047220976378],[139.83798489327518,35.66048176431681],[139.83799936205838,35.66048113279462],[139.8380124072511,35.66069043154617],[139.83799782798098,35.6606910630742],[139.83799849132686,35.66070224009735],[139.83791477094508,35.66070566853611],[139.83791211777904,35.66066393497864],[139.83789720716513,35.66066456650709],[139.8378945540045,35.66062274281147],[139.83790847057296,35.660622201458615],[139.83789940539998,35.66047572837638]]]}},{"type":"Feature","properties":{"height":2.5,"gml_id":"bldg_6211f5ab-a32e-46e6-8b81-329a74cdc8a7"},"geometry":{"type":"Polygon","coordinates":[[[139.84180731935717,35.659501130409794],[139.84178456931494,35.65952177349788],[139.84173541631867,35.659485721933805],[139.8417581674678,35.659465078854794],[139.84180731935717,35.659501130409794]]]}},{"type":"Feature","properties":{"height":2.6,"gml_id":"bldg_236d4e1d-b6fa-4713-bde8-1f9dff2623a5"},"geometry":{"type":"Polygon","coordinates":[[[139.8377184806261,35.660305375233875],[139.83771638097159,35.66028473382353],[139.83778154548068,35.66028031469683],[139.83778364515683,35.66030104624355],[139.8377184806261,35.660305375233875]]]}},{"type":"Feature","properties":{"height":2.6,"gml_id":"bldg_57e9bd81-ebb1-4e2e-a6dc-1366207b8020"},"geometry":{"type":"Polygon","coordinates":[[[139.8381585311415,35.660681682443375],[139.83815698366436,35.66066194239479],[139.8381905601287,35.660660138295384],[139.83819210761408,35.66067987834356],[139.8381585311415,35.660681682443375]]]}},{"type":"Feature","properties":{"height":2.7,"gml_id":"bldg_5a36aa0b-823a-4d08-a4f4-982587b57e92"},"geometry":{"type":"Polygon","coordinates":[[[139.84132115135608,35.664163885012655],[139.84132203694614,35.6641835349155],[139.8412616187115,35.66418516138234],[139.84126084358144,35.66416542133434],[139.84132115135608,35.664163885012655]]]}},{"type":"Feature","properties":{"height":2.3,"gml_id":"bldg_3a6eab98-5a05-493f-9b4c-d628fe8197f0"},"geometry":{"type":"Polygon","coordinates":[[[139.84051057188788,35.66464445871856],[139.8405089128811,35.664620031573435],[139.8405323291816,35.664618948526666],[139.8405340986502,35.664643375664866],[139.84051057188788,35.66464445871856]]]}},{"type":"Feature","properties":{"height":2.6,"gml_id":"bldg_0f044478-2d0a-4639-9252-b1668fbd1b1d"},"geometry":{"type":"Polygon","coordinates":[[[139.83765088617653,35.66030898317611],[139.83764922833913,35.66028843188624],[139.8377137302167,35.66028500433246],[139.83771538807054,35.66030555562144],[139.83765088617653,35.66030898317611]]]}},{"type":"Feature","properties":{"height":2.6,"gml_id":"bldg_0c1b8808-e7df-4969-ace3-9a4bc70dfdcd"},"geometry":{"type":"Polygon","coordinates":[[[139.83809667973614,35.6606849298554],[139.83809524277694,35.66066609117656],[139.83814836870363,35.66066329480193],[139.83814980568067,35.66068222361762],[139.83809667973614,35.6606849298554]]]}},{"type":"Feature","properties":{"height":2.5,"gml_id":"bldg_92fa1401-724a-4a7c-94a1-5dce92ec1204"},"geometry":{"type":"Polygon","coordinates":[[[139.84106069011185,35.66176191906115],[139.84104908874886,35.66172000587913],[139.84107692183207,35.66171486625653],[139.84108863365964,35.661756779428806],[139.84106069011185,35.66176191906115]]]}},{"type":"Feature","properties":{"height":7.0,"gml_id":"bldg_62a8ab17-2b43-4366-ad4a-1fe0112e4466"},"geometry":{"type":"Polygon","coordinates":[[[139.8401142497195,35.66451955120618],[139.84010728606427,35.66446015102916],[139.8401598620541,35.664456091875635],[139.84016671529335,35.664515492055905],[139.8401142497195,35.66451955120618]]]}},{"type":"Feature","properties":{"height":8.3,"gml_id":"bldg_1087b8ab-94f0-4221-a0f4-8fe7c1f13836"},"geometry":{"type":"Polygon","coordinates":[[[139.8382352029009,35.666429473992864],[139.83823231958175,35.66624234885475],[139.83835514762075,35.66624108187141],[139.8383553697201,35.666260010717735],[139.838474994538,35.666258833883106],[139.83847754583806,35.66642703017406],[139.8382352029009,35.666429473992864]]]}},{"type":"Feature","properties":{"height":5.7,"gml_id":"bldg_eeed3899-f4d3-4b65-8ec8-f43f6245cd46"},"geometry":{"type":"Polygon","coordinates":[[[139.84062691535354,35.6638106804287],[139.84054164581332,35.66381771628364],[139.8405221919044,35.66366069801715],[139.84059818326128,35.6636543838355],[139.84059995177304,35.66366826489551],[139.8406092297928,35.663667543235725],[139.84062691535354,35.6638106804287]]]}},{"type":"Feature","properties":{"height":4.5,"gml_id":"bldg_ebdeccbd-5808-4d7c-959b-93cb0a0de022"},"geometry":{"type":"Polygon","coordinates":[[[139.84237966793944,35.666433830972245],[139.84237358496867,35.66636442562716],[139.84241114014046,35.66636225950417],[139.84241733360074,35.66643166483904],[139.84237966793944,35.666433830972245]]]}},{"type":"Feature","properties":{"height":2.2,"gml_id":"bldg_cc2e33db-69b6-40f3-881e-37409261bcfa"},"geometry":{"type":"Polygon","coordinates":[[[139.84102933399478,35.66188595023307],[139.84106699412357,35.66184818021919],[139.84109703870212,35.661868188805066],[139.84105948902908,35.66190595882112],[139.84102933399478,35.66188595023307]]]}},{"type":"Feature","properties":{"height":5.3,"gml_id":"bldg_0b6e9c29-3290-4f1e-9c77-f8741201caad"},"geometry":{"type":"Polygon","coordinates":[[[139.83961783848363,35.66415704536752],[139.83960811167756,35.664069522420924],[139.839614959787,35.664069071376716],[139.83961020690913,35.664026166202845],[139.83960877101563,35.66402625641513],[139.83960180751703,35.66396352111863],[139.83964090793594,35.66396063467881],[139.83964809256432,35.66402580367237],[139.8396446685151,35.66402607426421],[139.83964931089355,35.66406816820554],[139.83965196177402,35.66406798779159],[139.83966146758453,35.66415379813493],[139.83961783848363,35.66415704536752]]]}},{"type":"Feature","properties":{"height":2.2,"gml_id":"bldg_e9e0f36d-214e-4e50-ad16-fb23782970c1"},"geometry":{"type":"Polygon","coordinates":[[[139.84278451355593,35.66004242353641],[139.84278307518863,35.66002088078667],[139.84281389011372,35.66001943616471],[139.84281532848925,35.660040978914104],[139.84278451355593,35.66004242353641]]]}},{"type":"Feature","properties":{"height":2.3,"gml_id":"bldg_f28aea5e-d426-4126-ab61-a7a6f45cec12"},"geometry":{"type":"Polygon","coordinates":[[[139.84059710848567,35.6639829348834],[139.84059810421132,35.66400105244903],[139.84057612396782,35.66400186501],[139.8405751282471,35.663983747444185],[139.84059710848567,35.6639829348834]]]}},{"type":"Feature","properties":{"height":3.0,"gml_id":"bldg_1a8d3854-a3d5-4d07-ab33-3266043f6098"},"geometry":{"type":"Polygon","coordinates":[[[139.84207669227249,35.66651128138185],[139.8420700578318,35.666447013894405],[139.84209943922613,35.66644493859881],[139.8421015400816,35.66646476867479],[139.8421474899393,35.66646152037368],[139.84215213404042,35.66650604791115],[139.84207669227249,35.66651128138185]]]}},{"type":"Feature","properties":{"height":5.5,"gml_id":"bldg_198cf5c9-696b-451f-9a2c-e566f4a67f1e"},"geometry":{"type":"Polygon","coordinates":[[[139.84054054169042,35.66382231335935],[139.8406200677796,35.66381672005199],[139.84063123321465,35.66392245059667],[139.84061698477163,35.66392344297119],[139.84061919569726,35.66394381389938],[139.84055391793058,35.66394841484069],[139.84054054169042,35.66382231335935]]]}},{"type":"Feature","properties":{"height":10.3,"gml_id":"bldg_a6ed3a30-d8c4-4a02-a3d1-2849fc40cc89"},"geometry":{"type":"Polygon","coordinates":[[[139.8394141268295,35.666617356717765],[139.83940141817862,35.66653749562015],[139.8394855859993,35.66652865788385],[139.83949818427516,35.666608518978386],[139.8394141268295,35.666617356717765]]]}},{"type":"Feature","properties":{"height":8.6,"gml_id":"bldg_f5f16bc9-59ff-4c87-955e-4f26f6c7b780"},"geometry":{"type":"Polygon","coordinates":[[[139.83884914190284,35.666689583981075],[139.83883610302465,35.666618376030456],[139.83896489532611,35.66660277630559],[139.83897793430984,35.66667389410505],[139.83884914190284,35.666689583981075]]]}},{"type":"Feature","properties":{"height":7.2,"gml_id":"bldg_3c226497-cef3-410c-8d18-601ec43c0b9d"},"geometry":{"type":"Polygon","coordinates":[[[139.83900079845893,35.6666659609398],[139.8389917362289,35.66659916955125],[139.83907391602918,35.666591774394625],[139.83908297832684,35.66665856577708],[139.83900079845893,35.6666659609398]]]}},{"type":"Feature","properties":{"height":1.5,"gml_id":"bldg_fffb68b5-bcb3-4ec5-bc16-3560861e0849"},"geometry":{"type":"Polygon","coordinates":[[[139.84159768849912,35.65948942710193],[139.84159636165097,35.65947509532906],[139.8416433016,35.65947229783641],[139.84164462845644,35.65948662960877],[139.84159768849912,35.65948942710193]]]}},{"type":"Feature","properties":{"height":12.3,"gml_id":"bldg_e75e1a1d-810b-4669-a255-61756a609391"},"geometry":{"type":"Polygon","coordinates":[[[139.8409147755384,35.666339107560056],[139.84096867824695,35.666335498658086],[139.8409727689454,35.66637524899462],[139.84096338014993,35.66637588055172],[139.84096813434613,35.66642356293772],[139.84092362038024,35.66642654028613],[139.8409147755384,35.666339107560056]]]}},{"type":"Feature","properties":{"height":12.3,"gml_id":"bldg_9413730b-90de-4c3b-bce2-d0e27c484b30"},"geometry":{"type":"Polygon","coordinates":[[[139.84080387791312,35.66635281537669],[139.84083889258358,35.66635037948941],[139.84083944543434,35.666356418661145],[139.84085281176314,35.66635551645317],[139.8408614340294,35.666437721228014],[139.84081327500567,35.66644114945047],[139.84080387791312,35.66635281537669]]]}},{"type":"Feature","properties":{"height":6.2,"gml_id":"bldg_75747b86-cc6d-440d-8025-93694f8c8580"},"geometry":{"type":"Polygon","coordinates":[[[139.83914286290485,35.665363108030284],[139.8391487218041,35.66542854751467],[139.83899662478342,35.66543765864316],[139.83899330845554,35.66540007149493],[139.83897640879096,35.66540106379967],[139.83897386634888,35.66537321145587],[139.83914286290485,35.665363108030284]]]}},{"type":"Feature","properties":{"height":4.7,"gml_id":"bldg_745857e7-ac6a-4f9a-ab97-fd27cde8afc2"},"geometry":{"type":"Polygon","coordinates":[[[139.8393266086133,35.66465894545279],[139.83932119106032,35.6645883681131],[139.83935642596217,35.66458656360728],[139.83936217491035,35.66465714092881],[139.8393266086133,35.66465894545279]]]}},{"type":"Feature","properties":{"height":12.9,"gml_id":"bldg_41a79822-5e55-476b-87d4-1893ee064573"},"geometry":{"type":"Polygon","coordinates":[[[139.84069298874593,35.66645909420559],[139.84063135396764,35.66646306400255],[139.8406249413905,35.66639645284889],[139.84068646566072,35.66639248306193],[139.84069298874593,35.66645909420559]]]}},{"type":"Feature","properties":{"height":12.2,"gml_id":"bldg_412097fc-5282-4ec3-894c-ed5f3bc93f3a"},"geometry":{"type":"Polygon","coordinates":[[[139.84039089118076,35.666493003953924],[139.8403292563693,35.66649706373364],[139.84032273358315,35.66643045257068],[139.84038436835166,35.66642648293165],[139.84039089118076,35.666493003953924]]]}},{"type":"Feature","properties":{"height":12.1,"gml_id":"bldg_7bfc2a19-1608-44d5-aedc-9fd54f3d6634"},"geometry":{"type":"Polygon","coordinates":[[[139.84009486883244,35.666530698374174],[139.840033233977,35.66653475800234],[139.84002682189097,35.6664681468176],[139.84008834624586,35.66646417733625],[139.84009486883244,35.666530698374174]]]}},{"type":"Feature","properties":{"height":12.6,"gml_id":"bldg_97b26057-ea3b-4ecf-b75a-792d632390a6"},"geometry":{"type":"Polygon","coordinates":[[[139.84085899594294,35.66635218098282],[139.84086871609924,35.66635145927572],[139.84086794222205,35.66634424833167],[139.84090660194482,35.666341541784334],[139.84091588870908,35.66643005613202],[139.8408675087694,35.666433394252664],[139.84085899594294,35.66635218098282]]]}},{"type":"Feature","properties":{"height":5.6,"gml_id":"bldg_cbfcc936-b4a1-4e24-9b1d-04527b242139"},"geometry":{"type":"Polygon","coordinates":[[[139.84227248252105,35.66308496305167],[139.84218367909548,35.66308911593379],[139.84217460769335,35.66295949893884],[139.84226341097585,35.66295534606331],[139.84227248252105,35.66308496305167]]]}},{"type":"Feature","properties":{"height":18.7,"gml_id":"bldg_5113b6c1-97c7-4eb7-8c19-fbb3b6283c18"},"geometry":{"type":"Polygon","coordinates":[[[139.8378044083426,35.664242396368095],[139.83786394296555,35.664239149195204],[139.8378891441236,35.664549040747424],[139.83782971972119,35.66455219779109],[139.8378044083426,35.664242396368095]]]}},{"type":"Feature","properties":{"height":24.7,"gml_id":"bldg_b5b47290-627a-4a62-b4de-40edc2c9ef65"},"geometry":{"type":"Polygon","coordinates":[[[139.8377690390774,35.663809828097],[139.83773667626943,35.66381154189615],[139.83773380256693,35.66377674894763],[139.83762036710414,35.663782882385604],[139.8376135144714,35.66369833370572],[139.83817881330327,35.66366757541736],[139.83819328272523,35.663668025521524],[139.8387088772934,35.66363997086381],[139.8387891332574,35.664622285068376],[139.83827353240184,35.66465034006562],[139.83825906285756,35.664650791345494],[139.83777317388098,35.6646772205075],[139.8377633366981,35.66455580574876],[139.83782971972119,35.66455219779109],[139.8378891441236,35.664549040747424],[139.83786394296555,35.664239149195204],[139.8378044083426,35.664242396368095],[139.83776928401616,35.664244290553285],[139.83775977849817,35.66412729250781],[139.83779479231958,35.664125398329475],[139.8378534432239,35.664122151194434],[139.83782768975198,35.663806580974345],[139.8377690390774,35.663809828097]]]}},{"type":"Feature","properties":{"height":3.1,"gml_id":"bldg_ed9910aa-9fbe-4564-b111-fba94feeeec0"},"geometry":{"type":"Polygon","coordinates":[[[139.84112270321972,35.66569064575537],[139.8411196069809,35.66565495153884],[139.84138580469957,35.66563943039683],[139.8413889010563,35.66567512460657],[139.84112270321972,35.66569064575537]]]}},{"type":"Feature","properties":{"height":14.0,"gml_id":"bldg_e183eeb2-0998-422f-bcee-d59aa7183cde"},"geometry":{"type":"Polygon","coordinates":[[[139.83710596917118,35.663448399533166],[139.8369949641753,35.66345633505515],[139.83693772530702,35.66291875700895],[139.83705149068533,35.66290676526825],[139.83707370140195,35.663116784853365],[139.83708033146596,35.66317897949061],[139.83860667014912,35.66306525899518],[139.83867989983295,35.66305975738142],[139.83870940904634,35.66333395420074],[139.83860624649128,35.66334135003307],[139.83710596917118,35.663448399533166]]]}},{"type":"Feature","properties":{"height":19.1,"gml_id":"bldg_5637b5a0-580a-4fda-972c-899b5917edc2"},"geometry":{"type":"Polygon","coordinates":[[[139.8377690390774,35.663809828097],[139.83782768975198,35.663806580974345],[139.8378534432239,35.664122151194434],[139.83779479231958,35.664125398329475],[139.8377690390774,35.663809828097]]]}},{"type":"Feature","properties":{"height":3.6,"gml_id":"bldg_fafe013e-0772-4452-804c-2b8df91acb65"},"geometry":{"type":"Polygon","coordinates":[[[139.84231620267585,35.664886897387035],[139.84230348178082,35.66472095532847],[139.84236224341288,35.66471788626436],[139.84237496442898,35.66488382831679],[139.84231620267585,35.664886897387035]]]}},{"type":"Feature","properties":{"height":9.2,"gml_id":"bldg_dd46af49-bfb0-4f5f-ae95-e98a31514f4b"},"geometry":{"type":"Polygon","coordinates":[[[139.83710596917118,35.663448399533166],[139.83860624649128,35.66334135003307],[139.8386129881382,35.66340237279183],[139.83711259924513,35.66350969279072],[139.83710596917118,35.663448399533166]]]}},{"type":"Feature","properties":{"height":12.4,"gml_id":"bldg_22732c83-a6c0-4a81-8ae8-de6b1c5abeb8"},"geometry":{"type":"Polygon","coordinates":[[[139.84074666239758,35.6663664296609],[139.84075638256493,35.666365798100266],[139.84075560869775,35.666358587155514],[139.8407942684312,35.666355880644254],[139.84080355506472,35.666444304863006],[139.84075528557736,35.66644773306912],[139.84074666239758,35.6663664296609]]]}},{"type":"Feature","properties":{"height":13.8,"gml_id":"bldg_9f503f37-7488-4670-a742-3a7004e7a0f6"},"geometry":{"type":"Polygon","coordinates":[[[139.84056551479213,35.666389245440214],[139.8405752349637,35.666388613894206],[139.8405744611044,35.666381312810906],[139.84061312085498,35.66637860635782],[139.84062240729958,35.6664671207276],[139.8405740273253,35.66647045873034],[139.84056551479213,35.666389245440214]]]}},{"type":"Feature","properties":{"height":26.1,"gml_id":"bldg_85f5ed20-3089-4371-9b75-092d0fca3947"},"geometry":{"type":"Polygon","coordinates":[[[139.84054310498968,35.665305254249404],[139.8401178526837,35.66532826400157],[139.84011453556806,35.665287522073854],[139.84053978765084,35.665264422195825],[139.84054310498968,35.665305254249404]]]}},{"type":"Feature","properties":{"height":12.3,"gml_id":"bldg_f693ea81-81cb-4623-95ea-e8f66a4f7761"},"geometry":{"type":"Polygon","coordinates":[[[139.84045141386005,35.66640385449854],[139.84046113403429,35.66640322296174],[139.84046036019328,35.666396012015134],[139.84049901994672,35.66639321546127],[139.84050830626705,35.666481729839674],[139.84045992628725,35.66648515793395],[139.84045141386005,35.66640385449854]]]}},{"type":"Feature","properties":{"height":12.8,"gml_id":"bldg_cb0707b1-5e83-491c-8453-8e2587b4ab8d"},"geometry":{"type":"Polygon","coordinates":[[[139.84026772564846,35.66642757135396],[139.840277445827,35.666426939831986],[139.84027667199447,35.6664196387468],[139.84031533177358,35.66641693238934],[139.84032461789394,35.666505446781564],[139.84027623788413,35.66650878466464],[139.84026772564846,35.66642757135396]]]}},{"type":"Feature","properties":{"height":29.5,"gml_id":"bldg_0dbb3aa5-be98-4a8a-bdab-3b472bb9d1fa"},"geometry":{"type":"Polygon","coordinates":[[[139.83800337869653,35.66496988803189],[139.83804004969198,35.66496772330592],[139.83802114936765,35.66475409833782],[139.83873192377385,35.66471224480314],[139.8387322553993,35.66471612069778],[139.8388693292999,35.66470809224292],[139.83896141127386,35.665749716033055],[139.83822721113486,35.66579292393094],[139.83820919442306,35.6655901154759],[139.8381056974762,35.665596248966445],[139.83809266186478,35.66556596331002],[139.8380809456299,35.66543256039264],[139.83806139501795,35.66543373294829],[139.8380569738859,35.665384518090384],[139.83804007421293,35.665385510263725],[139.83800337869653,35.66496988803189]]]}},{"type":"Feature","properties":{"height":14.2,"gml_id":"bldg_4cce8224-8ab2-4703-816d-be4333639c4c"},"geometry":{"type":"Polygon","coordinates":[[[139.84015362448488,35.666440737931566],[139.84016334465827,35.6664400162814],[139.84016257084366,35.666432805332924],[139.84020123063297,35.666430099012075],[139.84021051662893,35.66651861341294],[139.8401621366064,35.666521951250154],[139.84015362448488,35.666440737931566]]]}},{"type":"Feature","properties":{"height":41.8,"gml_id":"bldg_ff6443de-6fb4-4a92-b5ae-2459f4ab5389"},"geometry":{"type":"Polygon","coordinates":[[[139.84140447170842,35.66673613099419],[139.84139539218938,35.66651736812838],[139.84147956042824,35.666515018891396],[139.84148875063426,35.666733781743424],[139.84140447170842,35.66673613099419]]]}},{"type":"Feature","properties":{"height":31.7,"gml_id":"bldg_06746851-cf70-4184-91e8-e1dd87111835"},"geometry":{"type":"Polygon","coordinates":[[[139.84054310498968,35.665305254249404],[139.84058125447058,35.66577306515926],[139.8400808897423,35.665800225597806],[139.84008310120572,35.665827987797385],[139.84005117946592,35.66582979233072],[139.84003934843045,35.66568386051547],[139.8400010203115,35.66568593580436],[139.8399912902448,35.665566414127994],[139.84002685691425,35.665564429133106],[139.84001270405548,35.66539046470015],[139.8400527993176,35.66538829917141],[139.84004815546584,35.66533205367986],[139.8401178526837,35.66532826400157],[139.84054310498968,35.665305254249404]]]}},{"type":"Feature","properties":{"height":9.8,"gml_id":"bldg_bf2fd1dd-c183-4d28-a6e1-0e88c0b03871"},"geometry":{"type":"Polygon","coordinates":[[[139.83911048257247,35.66666307133077],[139.83909302367408,35.66657104187963],[139.83938904667667,35.6665338006094],[139.83940650590668,35.666625830018155],[139.83911048257247,35.66666307133077]]]}},{"type":"Feature","properties":{"height":46.7,"gml_id":"bldg_26df8f50-377b-4af1-b94b-3f436e66e4f2"},"geometry":{"type":"Polygon","coordinates":[[[139.842473906685,35.666598324616835],[139.84245479589887,35.66658381394421],[139.84244406776614,35.666462670086446],[139.84240176291723,35.666465106989655],[139.8423996616512,35.66644230238459],[139.84244207693513,35.66643977533635],[139.84243422434548,35.666350539899],[139.84221408612277,35.6663754342591],[139.8422065714378,35.66634289520961],[139.842123398236,35.66635182491281],[139.84212129796092,35.66633731294375],[139.84210207864749,35.66633929736774],[139.84208782131074,35.6662625914721],[139.84210294994276,35.666226264996105],[139.84211189672612,35.66622419118384],[139.84210946527318,35.666211391849146],[139.84242481525874,35.66617206854361],[139.84242370872843,35.666154762244695],[139.84260198426315,35.6661394252953],[139.84262784890413,35.66629256675759],[139.8426123850585,35.66629373973646],[139.84263694078493,35.66658911811608],[139.842473906685,35.666598324616835]]]}},{"type":"Feature","properties":{"height":13.5,"gml_id":"bldg_9917fac7-7301-4232-8c1a-5e1d316006a9"},"geometry":{"type":"Polygon","coordinates":[[[139.83997059874713,35.66646328250981],[139.83998031892492,35.66646256087443],[139.83997954512654,35.666455349924796],[139.84001820493293,35.66645264366272],[139.84002749072192,35.66654106793999],[139.8399791106857,35.66654449584105],[139.83997059874713,35.66646328250981]]]}},{"type":"Feature","properties":{"height":13.0,"gml_id":"bldg_7f55e615-9c06-4c91-813f-81349d8263c8"},"geometry":{"type":"Polygon","coordinates":[[[139.83985870683458,35.66647897253344],[139.83986831656534,35.66647834105047],[139.8398675427769,35.666471130100156],[139.8399063130519,35.666468423868004],[139.83991559871933,35.66655684815368],[139.8398672186688,35.66656027600979],[139.83985870683458,35.66647897253344]]]}},{"type":"Feature","properties":{"height":10.0,"gml_id":"bldg_c4ed3d69-d5a9-4979-8034-74bdc0b09505"},"geometry":{"type":"Polygon","coordinates":[[[139.8396757942641,35.66653793216834],[139.83966850070377,35.666495207423004],[139.83976106306636,35.666484656441526],[139.83976835667505,35.66652738118132],[139.8396757942641,35.66653793216834]]]}},{"type":"Feature","properties":{"height":10.2,"gml_id":"bldg_e04e649d-a8b9-487c-8daf-8c10c71308f2"},"geometry":{"type":"Polygon","coordinates":[[[139.83860667014912,35.66306525899518],[139.83708033146596,35.66317897949061],[139.83707370140195,35.663116784853365],[139.83850692807582,35.66301244277252],[139.83850737092087,35.66302848722066],[139.8385374138877,35.663026683176994],[139.83852249408537,35.662892018460184],[139.8385155347268,35.662878678416085],[139.83850725011757,35.66286804255224],[139.83849300102952,35.66285650556892],[139.83847985678625,35.66284992609691],[139.83846350957958,35.66284569033387],[139.83844395942575,35.662844068690895],[139.83842573481422,35.66284424883648],[139.83795752957425,35.66287707866168],[139.83795134133342,35.66282651178488],[139.8385188422524,35.66278520572888],[139.83853386385394,35.662786827555394],[139.83853496838162,35.66278691764515],[139.8385523098081,35.66279358706685],[139.83856689013842,35.66280341141715],[139.83857705243074,35.66281395705779],[139.8385811397467,35.6628228804882],[139.83858268699834,35.66283694186433],[139.83860667014912,35.66306525899518]]]}},{"type":"Feature","properties":{"height":15.5,"gml_id":"bldg_cb19dc77-8208-46c8-9dd1-a8f3d4f8aead"},"geometry":{"type":"Polygon","coordinates":[[[139.84163110497977,35.66541965871824],[139.8416399514907,35.66551664597128],[139.8413493436776,35.665534332600835],[139.8413514447112,35.66555803860187],[139.84128484014695,35.66556209920209],[139.841283513263,35.66554785757768],[139.84125810853826,35.665549391588335],[139.84125711331217,35.665538034339164],[139.8410188611672,35.6655524717676],[139.8410052607053,35.66540221355737],[139.8416261287639,35.66536449495986],[139.84162712410532,35.665376483168224],[139.84163110497977,35.66541965871824]]]}},{"type":"Feature","properties":{"height":13.0,"gml_id":"bldg_f023aa27-b5ce-4d21-bcfe-10bed775a7f0"},"geometry":{"type":"Polygon","coordinates":[[[139.8397089315257,35.66653865151766],[139.83971699850716,35.66658380992911],[139.8396337143914,35.666593639292245],[139.8396257579203,35.666548571006935],[139.8397089315257,35.66653865151766]]]}},{"type":"Feature","properties":{"height":13.6,"gml_id":"bldg_3f8ce06e-c055-47f4-a533-2ddb1c622759"},"geometry":{"type":"Polygon","coordinates":[[[139.8397982906559,35.66652792040237],[139.83980635768654,35.66657307880791],[139.83972307359292,35.666582908232854],[139.8397151170655,35.66653774981596],[139.8397982906559,35.66652792040237]]]}},{"type":"Feature","properties":{"height":5.7,"gml_id":"bldg_b39a5527-fa37-4703-9486-f1ca2b466bfa"},"geometry":{"type":"Polygon","coordinates":[[[139.84077532712246,35.663402709262954],[139.84070187633853,35.663407941751835],[139.84069546456814,35.66334809087683],[139.84071523551412,35.66334664746729],[139.84071015039189,35.663300046716564],[139.84076383013613,35.6632961675059],[139.84077532712246,35.663402709262954]]]}},{"type":"Feature","properties":{"height":8.2,"gml_id":"bldg_4973ef91-d333-44a4-9451-022727e08b59"},"geometry":{"type":"Polygon","coordinates":[[[139.84080438805844,35.66352926044218],[139.84072254266667,35.66353395263937],[139.84071203842421,35.66341235786465],[139.84079388369253,35.663407665674505],[139.84080438805844,35.66352926044218]]]}},{"type":"Feature","properties":{"height":2.0,"gml_id":"bldg_7bb6f4af-5032-4a99-8d48-c8eadb1993fc"},"geometry":{"type":"Polygon","coordinates":[[[139.84324751113945,35.66449283360495],[139.84321282848376,35.66449337727995],[139.84321238411175,35.66447264570664],[139.8432469563151,35.66447219217831],[139.84324751113945,35.66449283360495]]]}},{"type":"Feature","properties":{"height":2.4,"gml_id":"bldg_cc66ac7d-b77a-4414-95e2-a0a9c73c9335"},"geometry":{"type":"Polygon","coordinates":[[[139.84060748973926,35.66396743061682],[139.84062670861147,35.66396643794249],[139.84062969423474,35.66400348425007],[139.84061047535369,35.66400447692485],[139.84060748973926,35.66396743061682]]]}},{"type":"Feature","properties":{"height":27.6,"gml_id":"bldg_200b734a-4df7-4b1d-a129-a09d452388a9"},"geometry":{"type":"Polygon","coordinates":[[[139.84205331529685,35.66383149747564],[139.84199455431218,35.6638346565268],[139.84200262833008,35.66393551974434],[139.84206039531435,35.66393245089877],[139.8420728935237,35.66408784694054],[139.84174981746153,35.66410508620518],[139.84173743044263,35.663950771771816],[139.84197192247538,35.66393822607423],[139.84196373795493,35.66383655162559],[139.84137612780893,35.66386796013492],[139.84132813144896,35.66327143370274],[139.84200542440385,35.66323524171482],[139.84205331529685,35.66383149747564]]]}},{"type":"Feature","properties":{"height":9.9,"gml_id":"bldg_738546db-77b1-4c57-a940-9b3c1b2e4b1c"},"geometry":{"type":"Polygon","coordinates":[[[139.84073205827417,35.66371422694876],[139.84083455842557,35.66370718988682],[139.8408429604587,35.6637880426513],[139.84074034975112,35.66379507972711],[139.84073205827417,35.66371422694876]]]}},{"type":"Feature","properties":{"height":25.0,"gml_id":"bldg_ec7f9a41-b7e6-46b9-9884-ee5a8b391903"},"geometry":{"type":"Polygon","coordinates":[[[139.8408757837094,35.66281077034877],[139.84085366935557,35.66255577285484],[139.841360088222,35.6625265356268],[139.8413822041779,35.66278153302878],[139.8408757837094,35.66281077034877]]]}},{"type":"Feature","properties":{"height":2.0,"gml_id":"bldg_a8a209cd-cd10-41ba-9d56-dc4102ed6393"},"geometry":{"type":"Polygon","coordinates":[[[139.84007573843564,35.66102249034605],[139.84005386935468,35.661022131018505],[139.8400546397383,35.660989140655595],[139.84007661925997,35.6609894999768],[139.84007573843564,35.66102249034605]]]}},{"type":"Feature","properties":{"height":2.0,"gml_id":"bldg_049f6188-a2ab-4948-9b6d-b52f2721ea94"},"geometry":{"type":"Polygon","coordinates":[[[139.84052985880638,35.666630725680484],[139.84052742748042,35.66661666439108],[139.84059093984854,35.66660926931299],[139.8405933711854,35.666623330601126],[139.84052985880638,35.666630725680484]]]}},{"type":"Feature","properties":{"height":2.0,"gml_id":"bldg_8f19fe07-b5c6-4601-aaa0-f1cd9b89dc78"},"geometry":{"type":"Polygon","coordinates":[[[139.8405214628667,35.6666176562587],[139.84052400487542,35.66663424138887],[139.84045938783436,35.666640825260394],[139.84045684584677,35.66662433026628],[139.8405214628667,35.6666176562587]]]}},{"type":"Feature","properties":{"height":2.1,"gml_id":"bldg_88912842-9b5b-4f38-84e1-4c31856e2396"},"geometry":{"type":"Polygon","coordinates":[[[139.84093479869458,35.66199889848988],[139.84091237717328,35.66199944072792],[139.84091215573446,35.66199376208116],[139.84091104813214,35.6619610422487],[139.8409334696427,35.66196050001092],[139.84093457730543,35.661993760668],[139.84093479869458,35.66199889848988]]]}},{"type":"Feature","properties":{"height":12.2,"gml_id":"bldg_ba119da2-3a82-47be-8367-b23618b8a95b"},"geometry":{"type":"Polygon","coordinates":[[[139.84163110497977,35.66541965871824],[139.84162712410532,35.665376483168224],[139.8416421460496,35.665376121582995],[139.84164612692277,35.66541920699508],[139.84163110497977,35.66541965871824]]]}},{"type":"Feature","properties":{"height":3.5,"gml_id":"bldg_7d40bff3-b6f2-4421-a98f-a96a2e0d6ee1"},"geometry":{"type":"Polygon","coordinates":[[[139.8391313535398,35.66200368597148],[139.8390781163343,35.66200684333437],[139.8390770108937,35.661993863591235],[139.83907192604818,35.66193662653906],[139.83910715977123,35.66193455169305],[139.83910804407373,35.66194419636018],[139.83912593706094,35.661943113851166],[139.8391304692208,35.66199386102968],[139.83913057976312,35.66199512294896],[139.8391313535398,35.66200368597148]]]}},{"type":"Feature","properties":{"height":2.9,"gml_id":"bldg_0ed241db-739c-4d60-b82e-49bde7f6c6e8"},"geometry":{"type":"Polygon","coordinates":[[[139.84106093645985,35.66202602184053],[139.840908845684,35.66203062851507],[139.84090751741866,35.66200043254585],[139.8409363450697,35.661999529354574],[139.84093612362068,35.66199376057038],[139.84093346720834,35.661934810831575],[139.84096107987446,35.66193390771101],[139.84096063732466,35.66192606577897],[139.84098129160918,35.661925523644186],[139.84098162364984,35.66193273462088],[139.84098836113532,35.66193246378037],[139.84098791853123,35.661924081023585],[139.8410267971682,35.66192290675893],[139.84102712922157,35.66193020787296],[139.84103276220532,35.66193002723801],[139.8410335368162,35.66194517028379],[139.84105717326537,35.66194444767034],[139.84105938703544,35.661993752725316],[139.84106093645985,35.66202602184053]]]}},{"type":"Feature","properties":{"height":29.4,"gml_id":"bldg_128c815e-07cb-452b-9433-c1f67f4f40b0"},"geometry":{"type":"Polygon","coordinates":[[[139.84037519847396,35.663888754437295],[139.83930623197566,35.663947852226904],[139.83927870448707,35.66361740971744],[139.83964584974288,35.663597110105904],[139.8396364522793,35.66348344727603],[139.83986299065015,35.66347090610017],[139.8398664180306,35.66351182831607],[139.84011946508244,35.66349784301756],[139.8401251039417,35.663565716198214],[139.8403473348079,35.663553354629116],[139.84037519847396,35.663888754437295]]]}},{"type":"Feature","properties":{"height":3.3,"gml_id":"bldg_27bd064b-ca6a-4ea0-b06a-fa5cbea7d087"},"geometry":{"type":"Polygon","coordinates":[[[139.8389391725589,35.66206003099019],[139.83885158513266,35.66206526300885],[139.83884517405767,35.66199387442554],[139.8388426317198,35.66196530096339],[139.83893021903748,35.66196006895115],[139.8389332035757,35.66199387036426],[139.8389391725589,35.66206003099019]]]}},{"type":"Feature","properties":{"height":5.2,"gml_id":"bldg_452c35cf-5733-499a-af7d-02f3076e23fe"},"geometry":{"type":"Polygon","coordinates":[[[139.83789681010464,35.661450835807905],[139.83775698036013,35.661457871748894],[139.83774404823095,35.66128625045988],[139.8378838776774,35.66127921453372],[139.83789681010464,35.661450835807905]]]}},{"type":"Feature","properties":{"height":7.3,"gml_id":"bldg_358cea1c-923c-41d4-b52d-a27b6dfd3e93"},"geometry":{"type":"Polygon","coordinates":[[[139.83858268699834,35.66283694186433],[139.8385811397467,35.6628228804882],[139.83857705243074,35.66281395705779],[139.83856689013842,35.66280341141715],[139.8385523098081,35.66279358706685],[139.83853496838162,35.66278691764515],[139.83853386385394,35.662786827555394],[139.83853353225192,35.662783041796416],[139.83865944722976,35.66277546474667],[139.83866464223846,35.662831980703736],[139.83858268699834,35.66283694186433]]]}},{"type":"Feature","properties":{"height":7.6,"gml_id":"bldg_72175ba4-1f12-49df-9542-6346d8e59bdc"},"geometry":{"type":"Polygon","coordinates":[[[139.83807058554686,35.66207818592242],[139.83785918263655,35.6620905428864],[139.83785067244995,35.66199391583733],[139.8378139792372,35.66157414698905],[139.83802538079337,35.66156179010348],[139.83806318034584,35.661993907678315],[139.83807058554686,35.66207818592242]]]}},{"type":"Feature","properties":{"height":10.1,"gml_id":"bldg_a8f50cd2-0bfb-4e36-8862-94aa49f2b7ea"},"geometry":{"type":"Polygon","coordinates":[[[139.8379609809313,35.66143659163729],[139.83794970615276,35.661282907665026],[139.8381693907697,35.66127208254547],[139.83818077641797,35.661425766492975],[139.8379609809313,35.66143659163729]]]}},{"type":"Feature","properties":{"height":28.3,"gml_id":"bldg_fb3f2ce5-7976-4fa6-8ac2-42d599bfe08e"},"geometry":{"type":"Polygon","coordinates":[[[139.84031500732883,35.66269029038194],[139.84032241481913,35.662772946003294],[139.84049957915227,35.662762479645515],[139.84052556154865,35.66305398263434],[139.84033514233823,35.66306526103838],[139.84034509275432,35.66317603939089],[139.83923051923813,35.66324207974568],[139.8392203491503,35.66312724512751],[139.83903600445302,35.66313816063024],[139.83901035903625,35.66284999239393],[139.83919658075635,35.66283898670112],[139.83918928492503,35.66275705210562],[139.84031500732883,35.66269029038194]]]}},{"type":"Feature","properties":{"height":8.4,"gml_id":"bldg_d1c30b3e-2e92-4e02-8505-cf2860813166"},"geometry":{"type":"Polygon","coordinates":[[[139.83878123027947,35.662102853537185],[139.8386800572688,35.66210772549502],[139.83867187629875,35.661993882232665],[139.83866701198502,35.66192673003165],[139.83876818476813,35.66192185808465],[139.83877338084972,35.66199387769011],[139.83878123027947,35.662102853537185]]]}},{"type":"Feature","properties":{"height":1.8,"gml_id":"bldg_4a911cd4-4353-4a32-986b-b502a3585243"},"geometry":{"type":"Polygon","coordinates":[[[139.84020343932514,35.66255680321748],[139.84017991314732,35.6625576157945],[139.8401765940307,35.662492446597156],[139.84020000973763,35.66249163402707],[139.84020343932514,35.66255680321748]]]}},{"type":"Feature","properties":{"height":10.2,"gml_id":"bldg_9019a634-e286-418e-9f76-4f1b3074c30f"},"geometry":{"type":"Polygon","coordinates":[[[139.83793777256798,35.66119628600098],[139.8378403560255,35.66120250917259],[139.83783261991402,35.661120304076555],[139.8379299259126,35.66111417105281],[139.83793777256798,35.66119628600098]]]}},{"type":"Feature","properties":{"height":48.0,"gml_id":"bldg_170b6220-f1d7-44a8-b9b8-b64f00f3f21c"},"geometry":{"type":"Polygon","coordinates":[[[139.84135660043165,35.66630509713054],[139.84151676275198,35.666301480856475],[139.84162070256687,35.66629913017552],[139.8416213684951,35.66632995712267],[139.84163981480557,35.666329775576855],[139.84164169170705,35.66632139266858],[139.84176562420296,35.66631840951962],[139.84177082501654,35.66640710436252],[139.8417582329374,35.666407465793775],[139.84180789580174,35.66704707730079],[139.84178945084756,35.667061680855504],[139.84166540711098,35.6670681793948],[139.84164220942966,35.66705384915184],[139.84159442784616,35.66643550987559],[139.8415533378302,35.66643614364933],[139.84155378320727,35.666470756382175],[139.84150761215759,35.66647157076185],[139.84150705637995,35.66643731858594],[139.8413812459089,35.666440211456866],[139.8413815805645,35.66647293131225],[139.84133320033067,35.66647338522308],[139.8413328658926,35.66644264839042],[139.84129299087346,35.66644301158238],[139.84129222237868,35.66649042390775],[139.84134170726787,35.66649069103917],[139.8413414888018,35.66651520842747],[139.8412927772418,35.666516383443316],[139.84129269017149,35.66675200261695],[139.84133488495476,35.66675163927098],[139.8413349972023,35.66676957660608],[139.84129346518245,35.666770210320465],[139.8412934787473,35.6669068586158],[139.84127238255522,35.66691956938154],[139.84115728536372,35.66691867554081],[139.84113905849875,35.66690515611407],[139.84114000574203,35.66642364205549],[139.8411132750934,35.66642355364803],[139.84111271437777,35.66633666122541],[139.84123730973053,35.666334399676614],[139.84124018222752,35.666340618969045],[139.84125465208658,35.666340437743266],[139.8412547592848,35.666307447445504],[139.84135660043165,35.66630509713054]]]}},{"type":"Feature","properties":{"height":3.3,"gml_id":"bldg_3f1a2a94-7881-42cb-8ac7-1d21a3fd4d5c"},"geometry":{"type":"Polygon","coordinates":[[[139.84205174726608,35.66668002040731],[139.84204599768583,35.66662674961929],[139.84242652059064,35.666599590128065],[139.84243227041148,35.666652770760734],[139.84205174726608,35.66668002040731]]]}},{"type":"Feature","properties":{"height":1.2,"gml_id":"bldg_cc344dc4-9901-4ce1-9d76-9459d4226a84"},"geometry":{"type":"Polygon","coordinates":[[[139.8431045662722,35.662542631458486],[139.84310069758155,35.662519015757006],[139.8431274265566,35.66251603904984],[139.84313140571783,35.662539744878934],[139.8431045662722,35.662542631458486]]]}},{"type":"Feature","properties":{"height":4.6,"gml_id":"bldg_21a93083-12e9-44bf-9ff2-4284d67a6257"},"geometry":{"type":"Polygon","coordinates":[[[139.84022100479433,35.66259898654657],[139.84022697528013,35.66266974411238],[139.8401871022936,35.66267199982482],[139.84018113184283,35.66260124225707],[139.84022100479433,35.66259898654657]]]}},{"type":"Feature","properties":{"height":5.1,"gml_id":"bldg_d84b2cca-18a0-4e2a-ab3c-0aa18ad81414"},"geometry":{"type":"Polygon","coordinates":[[[139.83795666011918,35.6612067412254],[139.83794826007366,35.66110515660314],[139.83817158896198,35.661092889139795],[139.8381799892891,35.66119447374669],[139.83795666011918,35.6612067412254]]]}},{"type":"Feature","properties":{"height":3.6,"gml_id":"bldg_683efddb-c914-423c-bd1f-40e830edd895"},"geometry":{"type":"Polygon","coordinates":[[[139.8421071665589,35.661354245690646],[139.8421026381201,35.661354426295446],[139.8421031912779,35.66136271890339],[139.84205139038966,35.66136515637655],[139.84204762917656,35.66131080374773],[139.84202410342206,35.66131197723506],[139.84202056347186,35.66126077940081],[139.8421003080248,35.66125707798508],[139.8421071665589,35.661354245690646]]]}}]}