{"type":"FeatureCollection","crs":{"type":"name","properties":{"name":"urn:ogc:def:crs:OGC:1.3:CRS84"}},"features":[{"type":"Feature","properties":{"height":10.5,"gml_id":"bldg_9d2e049c-747b-425c-8ab3-a808867f6f84"},"geometry":{"type":"Polygon","coordinates":[[[139.8373843115183,35.63064620140514],[139.83793160219392,35.63061923051384],[139.83795390455646,35.6306185986949],[139.83795511904353,35.63061859864832],[139.83795666511242,35.63062481810698],[139.8379567759771,35.63063275024162],[139.83795743869462,35.63063743738914],[139.83795622494938,35.63065032716137],[139.83795434869884,35.63066222544162],[139.83795147877063,35.63067403362198],[139.83794783598037,35.6306857516939],[139.83794330990935,35.63069719938568],[139.83793790165612,35.63070828655921],[139.83793171833688,35.63071937376207],[139.83792476322745,35.630729830028436],[139.83791703524935,35.63074010604792],[139.83791383363092,35.63074389196317],[139.83764068266612,35.63071857327808],[139.83762158203947,35.63071794299392],[139.83758227674,35.63071731342106],[139.83754297140806,35.630716052869765],[139.83750377643855,35.630713890922436],[139.8374645814433,35.630711188134704],[139.83742560722547,35.63070767408527],[139.83738663298374,35.63070361919555],[139.83734776910887,35.63069866291017],[139.83730912601916,35.630692985501405],[139.83727059331642,35.630686767249],[139.83723217098384,35.630679647601276],[139.8371990482676,35.630673068599],[139.83732977120567,35.63067063060891],[139.83732634844603,35.630668377273885],[139.83732270481244,35.630664952152834],[139.83731972360908,35.63066116645799],[139.83731762565634,35.63065711032002],[139.83731630053714,35.63065260346677],[139.83731585869074,35.63064827686019],[139.83731630009896,35.63064376994852],[139.8373177351787,35.63063926300398],[139.8373198327282,35.630635206727206],[139.83732281354995,35.63063133069704],[139.83732645684583,35.630627995472494],[139.83733076261586,35.63062520105349],[139.83733551004426,35.63062294744732],[139.83734069914004,35.630621414929806],[139.8373461090875,35.63062060350825],[139.83735162947434,35.630620423048356],[139.83735714989277,35.630620873553795],[139.8373624495361,35.63062213530787],[139.83736741799208,35.6306241181763],[139.83737194484382,35.63062664188701],[139.83737580928005,35.63062979658535],[139.83737912169963,35.63063340199184],[139.8373816612866,35.63063745811388],[139.83738342802735,35.63064169453777],[139.8373843115183,35.63064620140514]]]}},{"type":"Feature","properties":{"height":12.6,"gml_id":"bldg_7d64fbee-af18-4c08-8184-a3cd4d39f48d"},"geometry":{"type":"Polygon","coordinates":[[[139.83962512730042,35.63174867241251],[139.83961419671374,35.63174804201742],[139.83960326608502,35.63174687079379],[139.83959255620528,35.63174479817847],[139.83958206708886,35.63174200444732],[139.83957190915953,35.63173866987055],[139.83956197199402,35.63173461417812],[139.83955258683483,35.631730017628826],[139.83954364325865,35.63172469995263],[139.8395353620985,35.6317188414141],[139.8395275225494,35.6317126223006],[139.83952034540238,35.63170568204914],[139.8395139411016,35.63169847134383],[139.83950819921668,35.63169071977668],[139.83950323017777,35.63168269775586],[139.83949903398465,35.63167440528152],[139.83949572105337,35.63166593248599],[139.83949318096055,35.631657099099115],[139.8394915241429,35.63164826566703],[139.83949075058635,35.631639251913924],[139.83949086031134,35.631630328253564],[139.8394917428944,35.631621314415774],[139.83949361917465,35.63161248080301],[139.8394962683332,35.631603827426524],[139.83949726182976,35.631601393651664],[139.83949980077216,35.63159526414266],[139.839504216512,35.63158706136518],[139.83950929472027,35.6315790388294],[139.83951525623596,35.63157146693771],[139.8395218802406,35.63156434570133],[139.83952916672706,35.63155758498221],[139.8395370053001,35.63155136506179],[139.83954550636886,35.63154568593425],[139.83955455952423,35.631540547605184],[139.83956405436413,35.631536040218066],[139.83957399088868,35.63153216377281],[139.83958425868184,35.63152882813713],[139.83959485777194,35.63152639386263],[139.83960556730577,35.63152441027108],[139.83961649772792,35.631523328046356],[139.83962742819216,35.63152278664819],[139.8396384691362,35.631523146622534],[139.83964939970662,35.631523957291314],[139.83966021993913,35.631525669344164],[139.83967081940358,35.631528012373145],[139.83968119810731,35.63153107651627],[139.8396912456343,35.63153477164147],[139.83970085158268,35.63153918789259],[139.83971001594549,35.63154423513183],[139.8397186282993,35.63154973308925],[139.83972679906057,35.63155577189705],[139.83973419700888,35.631562441710855],[139.8397410429339,35.63156938196734],[139.83974711603867,35.63157686309214],[139.8397525267252,35.631584794941574],[139.83975705416034,35.631592997251616],[139.839760808746,35.631601379878596],[139.83976379048198,35.631609942822536],[139.83976588896593,35.63161877622735],[139.8397671041904,35.63162778995513],[139.83976743614062,35.63163680373007],[139.83976688481627,35.63164581755217],[139.83976545020266,35.63165465114556],[139.8397632427233,35.63166348478017],[139.8397601519469,35.631672048048095],[139.83975617788042,35.631680431087155],[139.83975143091857,35.63168845361556],[139.83974591107562,35.631696295909045],[139.83973961832982,35.63170368755376],[139.8397326630904,35.63171062854368],[139.83972504535737,35.63171711887875],[139.83971687553293,35.63172306841501],[139.83970804320774,35.63172847715822],[139.83969876920065,35.63173334509657],[139.83968905350469,35.63173758209203],[139.83967900652235,35.63174109800077],[139.8396686282609,35.63174398296058],[139.83965791872066,35.63174623697142],[139.83964709872075,35.63174786002166],[139.8396361682472,35.63174867183536],[139.83962512730042,35.63174867241251]]]}},{"type":"Feature","properties":{"height":9.1,"gml_id":"bldg_638d8fa8-f819-4206-958e-04bbc428f480"},"geometry":{"type":"Polygon","coordinates":[[[139.83855228643324,35.63017212101504],[139.83854621400835,35.63017176072616],[139.83854036233961,35.630170499047956],[139.83853484185792,35.63016869652746],[139.83852965255173,35.63016617288884],[139.83852490484003,35.63016310840328],[139.83852081953742,35.63015950306131],[139.83851739665562,35.630155537138904],[139.83851474659014,35.63015103035548],[139.83851297977145,35.63014634325808],[139.83851198579214,35.63014147585159],[139.83851187506514,35.630136518269126],[139.83851264760196,35.63013165078667],[139.83851430340238,35.630126873404166],[139.8385167320765,35.63012245654017],[139.8385199336184,35.630118310056694],[139.83852390803966,35.6301146142296],[139.83852854493296,35.63011136906355],[139.8385336234898,35.630108664705936],[139.8385391437219,35.63010668143264],[139.83854488481495,35.63010541925311],[139.83855084676318,35.630104788029406],[139.83855691917134,35.63010496804214],[139.8385628812134,35.63010577902503],[139.8385686224823,35.630107220982865],[139.8385740325827,35.630109474196374],[139.83857900108399,35.63011217811863],[139.83858341759665,35.63011560316832],[139.83858717169582,35.630119478936486],[139.8385901529624,35.63012362515209],[139.83859247182133,35.63012831222425],[139.83859379701525,35.630132999339764],[139.8385943493763,35.63013795690283],[139.83859401847346,35.63014282436655],[139.8385928043065,35.630147601730854],[139.8385908172826,35.63015228899092],[139.83858794697665,35.63015661573771],[139.8385843037899,35.630160491828356],[139.83857999813551,35.63016400739595],[139.8385751404031,35.630166892021784],[139.83856984101175,35.63016932597686],[139.8385642103453,35.63017094870455],[139.83855824841572,35.63017194048073],[139.83855228643324,35.63017212101504]]]}},{"type":"Feature","properties":{"height":3.0,"gml_id":"bldg_04079d00-5676-4f2a-8574-46fe2ac62cb4"},"geometry":{"type":"Polygon","coordinates":[[[139.83940566800405,35.62782795307469],[139.83939992167382,35.62775755559848],[139.8394397773462,35.627755390273265],[139.8394455237112,35.6278257877476],[139.83940566800405,35.62782795307469]]]}},{"type":"Feature","properties":{"height":2.6,"gml_id":"bldg_69459576-30cb-4c0d-9a86-d5fe2a50bcd4"},"geometry":{"type":"Polygon","coordinates":[[[139.83894237621536,35.62572785028529],[139.8389413845874,35.625756243806194],[139.83891356344012,35.625755704269935],[139.83891444467045,35.62572722061636],[139.83894237621536,35.62572785028529]]]}},{"type":"Feature","properties":{"height":2.6,"gml_id":"bldg_b523edf2-7c2c-453f-b295-f67ad7f43f69"},"geometry":{"type":"Polygon","coordinates":[[[139.83851075967098,35.62996092958955],[139.8384919905546,35.629962102188095],[139.8384892283825,35.62993100471291],[139.8385079974975,35.629929922252714],[139.83851075967098,35.62996092958955]]]}},{"type":"Feature","properties":{"height":2.6,"gml_id":"bldg_a52568f3-1566-4091-b1cd-439e505caba1"},"geometry":{"type":"Polygon","coordinates":[[[139.83850766602683,35.62992604633501],[139.83848900733128,35.62992730906631],[139.83848558259282,35.62989422858425],[139.83850435168765,35.62989296584873],[139.83850766602683,35.62992604633501]]]}},{"type":"Feature","properties":{"height":10.1,"gml_id":"bldg_33653c26-5000-4f36-81e9-098b17404ce5"},"geometry":{"type":"Polygon","coordinates":[[[139.8379667125871,35.63063094710101],[139.8381741700353,35.6306466229452],[139.83816081772346,35.630763892941786],[139.83795335997485,35.630748217074945],[139.8379667125871,35.63063094710101]]]}},{"type":"Feature","properties":{"height":3.7,"gml_id":"bldg_4f2aefae-c23c-4f70-a8da-ead4a8b47c47"},"geometry":{"type":"Polygon","coordinates":[[[139.83957447756546,35.63069117681884],[139.83955438327203,35.630690727168485],[139.83954323141438,35.63068234491536],[139.8395387036693,35.63066918500928],[139.83954289828043,35.630657647136665],[139.8395566986057,35.63064899318216],[139.83956807047113,35.630647009559446],[139.83957977395957,35.63065016378114],[139.83958838632796,35.6306571940937],[139.83959335571248,35.63067035397498],[139.83958916116413,35.630682612952846],[139.83957447756546,35.63069117681884]]]}},{"type":"Feature","properties":{"height":8.0,"gml_id":"bldg_21abf1c4-fd09-4cec-8032-6a2bb2944dd7"},"geometry":{"type":"Polygon","coordinates":[[[139.83775005078655,35.629877582274624],[139.83775270312677,35.62992436377481],[139.8374741469113,35.62993491981183],[139.83747149473302,35.62988813830558],[139.83775005078655,35.629877582274624]]]}},{"type":"Feature","properties":{"height":13.7,"gml_id":"bldg_3187b733-5399-4231-b034-a34b6e1a6106"},"geometry":{"type":"Polygon","coordinates":[[[139.83777333777476,35.62971722599795],[139.837748606749,35.62971848883826],[139.83775026426716,35.62974426823271],[139.83763654561457,35.629749139797994],[139.83763057868805,35.629656388054556],[139.83768269047704,35.629654132735524],[139.83768180648727,35.629640521936],[139.83759270859613,35.62964449118919],[139.8376079441037,35.62963322430636],[139.83762527730718,35.62962150485432],[139.83764327296896,35.62961023696724],[139.83766171028577,35.62959960002727],[139.83768069966433,35.62958959403023],[139.83770013069352,35.629580128841944],[139.83771989297202,35.62957129460414],[139.83774473388897,35.62956146865967],[139.83774351819014,35.629539114490605],[139.83782864139124,35.62953631706765],[139.83784652700427,35.62953226019081],[139.83786849765795,35.629528293295564],[139.83789068914788,35.629524777077734],[139.83791310150008,35.62952216222699],[139.8379355138818,35.62952008819987],[139.83795814712187,35.62951882540169],[139.8379806699966,35.62951828370719],[139.83800330331934,35.62951846310788],[139.8380258262832,35.62951945375022],[139.83804338097,35.629520624858614],[139.83804834927938,35.629520985216104],[139.83807076191786,35.62952332792375],[139.8380930641993,35.6295264818732],[139.83811514569652,35.629530086517086],[139.83813711684323,35.6295345925409],[139.83815886721746,35.62953972953526],[139.83818028642412,35.629545677780634],[139.83820137444192,35.62955207672535],[139.83822224169958,35.62955928691697],[139.83824266737923,35.62956721822659],[139.8382627618711,35.62957560023613],[139.8382824147912,35.62958479350202],[139.8383016261177,35.62959443747271],[139.8384617149756,35.62958541696844],[139.83846624117513,35.62957811560111],[139.83847154024798,35.629571264890444],[139.83847750179336,35.62956495497898],[139.83848412579968,35.629559005590764],[139.8384915226791,35.62955350685883],[139.83849936122968,35.62954872921118],[139.83850775184635,35.629544492367046],[139.83851658412277,35.62954079633109],[139.83852585807657,35.62953791151706],[139.83853524247698,35.629535657663254],[139.8385449581488,35.629534215036024],[139.83855478426767,35.6295334033689],[139.83856472084568,35.629533402937824],[139.83857454705839,35.62953403347644],[139.83858426291795,35.629535475260674],[139.83859375800037,35.629537457881526],[139.8386030323296,35.62954034189086],[139.83861197548163,35.62954385687969],[139.83862036663785,35.62954791271984],[139.83862842662313,35.62955268967761],[139.83863582420636,35.62955800749175],[139.83864255938755,35.62956386616238],[139.83864874257318,35.62957026568473],[139.83865404253183,35.62957702579759],[139.83865868007035,35.62958405635335],[139.83866243438757,35.6295915376378],[139.83866541587187,35.62959919923224],[139.83866751412253,35.629607131279585],[139.83866872912733,35.629615153503956],[139.83866895047345,35.629623175772316],[139.83866839897973,35.629631288212856],[139.8386668538208,35.629639310559405],[139.83866453579753,35.629647062526274],[139.83866122410257,35.62965463426113],[139.83865713954884,35.62966202575412],[139.83865228211823,35.62966896659131],[139.83864665182256,35.629675637048514],[139.83864024864386,35.62968176671176],[139.83863329340122,35.62968744570919],[139.83862567568212,35.62969258390755],[139.83861750588727,35.629697091163955],[139.83860878402865,35.62970114775422],[139.83859984129668,35.62970430297394],[139.838590456902,35.62970691738453],[139.83858085164036,35.629708720562434],[139.83857102552966,35.62970998292142],[139.83858727468947,35.630006175528514],[139.83859069995265,35.630046557181046],[139.838531963425,35.63004755124746],[139.8385273263256,35.63004755144747],[139.83852279958668,35.63004683053895],[139.83851849360974,35.6300452983792],[139.8385147396395,35.6300433155058],[139.83851142725143,35.63004061150972],[139.83850899808564,35.63003736664787],[139.8385073417524,35.63003385133896],[139.83850645825743,35.63003015572092],[139.83850667882191,35.63002627977956],[139.8385076722477,35.63002258408091],[139.83850954894748,35.63001915875815],[139.83851230892708,35.6300160939492],[139.83851562097675,35.63001356994415],[139.8385195955036,35.630011586738185],[139.83852401170523,35.63001032461666],[139.83852853835458,35.6300096934559],[139.8385100808938,35.62970755183087],[139.8384165666969,35.62971143174507],[139.83841524043066,35.62968952827779],[139.83838046241942,35.62969079167123],[139.83840046670286,35.63001853243002],[139.83825748987627,35.630024307187824],[139.8382446697576,35.62981347504041],[139.83823175223264,35.629814647359744],[139.83821872425662,35.629815098578526],[139.83820569624217,35.62981491883024],[139.83819266817324,35.62981383770101],[139.83817986088565,35.62981221573375],[139.8381671639565,35.62980978251912],[139.83815468780386,35.62980671832863],[139.83814243242796,35.62980302316235],[139.8381306186319,35.62979851673567],[139.83811913603063,35.62979355960489],[139.83810809501495,35.62978788135187],[139.83809760599192,35.62978148197237],[139.8380875585762,35.62977472202272],[139.83807817356535,35.629767331080444],[139.83806945096475,35.62975939928364],[139.8380613907797,35.62975101677044],[139.83805399302062,35.629742363816874],[139.83804736807832,35.629733170004855],[139.83804151596846,35.62972370574841],[139.83803643668554,35.62971388090966],[139.83803213022938,35.629703695488715],[139.83777333777476,35.62971722599795]]]}},{"type":"Feature","properties":{"height":5.5,"gml_id":"bldg_6e0a89b9-221b-49ed-b250-9eeb7523f433"},"geometry":{"type":"Polygon","coordinates":[[[139.83757492820482,35.629551108892784],[139.83756521243754,35.62955110923448],[139.83755549663232,35.62955038847172],[139.83754589119116,35.6295488564627],[139.83753650653497,35.62954678361744],[139.83752734264976,35.62954389952216],[139.83751862035805,35.629540384445136],[139.83751022925824,35.62953632852824],[139.83750239014924,35.62953146135004],[139.8374951030546,35.629526233600416],[139.83748847836202,35.62952028472383],[139.83748251609015,35.62951397527224],[139.8374772162343,35.629507215107765],[139.83747279962108,35.629500274636776],[139.83746904542357,35.62949288345309],[139.83746628486546,35.62948513168336],[139.83746429714762,35.629477289749104],[139.83746319267618,35.629469357646556],[139.83746297146024,35.6294615156517],[139.8374636334809,35.62945340321266],[139.83746528917203,35.62944556115339],[139.83746771771158,35.62943780920555],[139.8374710295194,35.62943041777915],[139.83747511417985,35.629423206602006],[139.83747997169735,35.62941626581198],[139.8374856020764,35.629409685546975],[139.83749200533092,35.62940373622074],[139.83749896062972,35.62939805728893],[139.83750657840233,35.62939309943748],[139.8375147482286,35.62938859225618],[139.83752324931496,35.62938489630443],[139.83753230245514,35.62938165102263],[139.8375415764448,35.62937912683615],[139.8375510712842,35.629377323744905],[139.83756078697826,35.62937633188679],[139.83757050270535,35.62937597099363],[139.83758021847052,35.62937633120335],[139.83758993427878,35.629377502653945],[139.83759942930365,35.629379214939334],[139.83760870356448,35.629381828611415],[139.8376176466361,35.62938498312232],[139.8376262585235,35.629388768610085],[139.83763431841922,35.62939327522062],[139.83764193672474,35.62939841281214],[139.83764889261312,35.62940391097874],[139.83765518609408,35.62940994999644],[139.83766081716757,35.62941652986539],[139.83766567541267,35.62942338017573],[139.83766976084388,35.629430771341454],[139.83767307343174,35.629438162534875],[139.83767539238303,35.62944591431583],[139.83767693849546,35.62945375626257],[139.83767760136735,35.629461778517054],[139.83767738098382,35.62946971066542],[139.83767627735438,35.62947773298357],[139.83767418005286,35.62948548492364],[139.83767130989662,35.62949305661557],[139.8376676668855,35.62950044805932],[139.837663140608,35.62950756912081],[139.83765784146067,35.629514239520084],[139.83765187985466,35.629520549391025],[139.83764514537376,35.6295263184616],[139.83763785883562,35.6295316368617],[139.83763002024025,35.629536504591286],[139.83762162956847,35.62954056109835],[139.8376129076477,35.62954407678888],[139.83760374406685,35.6295469615287],[139.8375943596294,35.62954903503403],[139.83758475434038,35.62955038744277],[139.83757492820482,35.629551108892784]]]}},{"type":"Feature","properties":{"height":7.2,"gml_id":"bldg_def6aa71-e365-4b06-a682-2516096e8031"},"geometry":{"type":"Polygon","coordinates":[[[139.8375581053178,35.62876979361339],[139.83763295947966,35.62875708151137],[139.83765106977702,35.62882810958349],[139.83757621555182,35.62884082169662],[139.8375581053178,35.62876979361339]]]}},{"type":"Feature","properties":{"height":5.5,"gml_id":"bldg_0d3ce611-bfc4-4412-a54f-6d49ee9faa8b"},"geometry":{"type":"Polygon","coordinates":[[[139.8392017031027,35.628674088376535],[139.83915092101512,35.62873376217603],[139.83908577922747,35.628696808736244],[139.8391365613401,35.6286371349638],[139.8392017031027,35.628674088376535]]]}},{"type":"Feature","properties":{"height":8.0,"gml_id":"bldg_76c4adf7-867f-4407-bf3b-81ca8824458d"},"geometry":{"type":"Polygon","coordinates":[[[139.83777333777476,35.62971722599795],[139.83803213022938,35.629703695488715],[139.83797571697227,35.629782297972675],[139.83783815055858,35.629789694507586],[139.83777333777476,35.62971722599795]]]}}]}