{"type":"FeatureCollection","crs":{"type":"name","properties":{"name":"urn:ogc:def:crs:OGC:1.3:CRS84"}},"features":[{"type":"Feature","properties":{"height":2.0,"gml_id":"bldg_c0daf07a-d2e0-4a47-b11c-9fbf96ee4d5c"},"geometry":{"type":"Polygon","coordinates":[[[139.81696814491775,35.58713730957127],[139.81700854260012,35.58708683743744],[139.81706382104423,35.58711632023167],[139.81702342338173,35.587166792383826],[139.81696814491775,35.58713730957127]]]}},{"type":"Feature","properties":{"height":1.8,"gml_id":"bldg_96fd1dfa-4edb-47dd-b5e5-cc292a280cde"},"geometry":{"type":"Polygon","coordinates":[[[139.8233312684175,35.589755179056965],[139.82337650979085,35.58977825827269],[139.82334759291476,35.58981611407287],[139.82330235152838,35.58979303484642],[139.8233312684175,35.589755179056965]]]}},{"type":"Feature","properties":{"height":2.7,"gml_id":"bldg_089fc1e3-e1ae-4fd8-b042-9cd2a7bec6cb"},"geometry":{"type":"Polygon","coordinates":[[[139.8186769046722,35.58340506945474],[139.81865494852377,35.58339343889732],[139.81868728647274,35.58335261002283],[139.8187092426311,35.58336415043579],[139.8186769046722,35.58340506945474]]]}},{"type":"Feature","properties":{"height":2.9,"gml_id":"bldg_cb8c2ac4-6ae9-4450-abe0-72b6bd90d148"},"geometry":{"type":"Polygon","coordinates":[[[139.81797683800374,35.5842461561093],[139.81796050862684,35.58423795141189],[139.8179825830597,35.58420865916836],[139.8179989124329,35.584216863862814],[139.81797683800374,35.5842461561093]]]}},{"type":"Feature","properties":{"height":2.8,"gml_id":"bldg_0191114f-14c3-48b8-a14f-6f63c7e69a26"},"geometry":{"type":"Polygon","coordinates":[[[139.81800089959037,35.58421181635196],[139.81798666672265,35.58420379220198],[139.81799847619453,35.58418991235492],[139.81801259871682,35.58419793648949],[139.81800089959037,35.58421181635196]]]}},{"type":"Feature","properties":{"height":2.3,"gml_id":"bldg_c65acc6e-adf7-48ce-b1fe-5c8531bb5b92"},"geometry":{"type":"Polygon","coordinates":[[[139.818026051063,35.58424859611233],[139.81803531905203,35.584253464775294],[139.81802549603094,35.58426599279857],[139.81801633838532,35.584261124148874],[139.818026051063,35.58424859611233]]]}},{"type":"Feature","properties":{"height":2.3,"gml_id":"bldg_cc705d1f-a84c-45fa-8af7-8bbcbecd1b3a"},"geometry":{"type":"Polygon","coordinates":[[[139.8180387436825,35.58423264318492],[139.8180482324103,35.584237241459014],[139.81803807815487,35.584250851105004],[139.81802869978745,35.58424616270548],[139.8180387436825,35.58423264318492]]]}},{"type":"Feature","properties":{"height":2.2,"gml_id":"bldg_70b1eed4-b359-47af-821a-57b28555a2eb"},"geometry":{"type":"Polygon","coordinates":[[[139.81804433869968,35.584403817162716],[139.81803617117134,35.58441454262384],[139.8179929203582,35.584392453161826],[139.81800108789008,35.58438172770359],[139.81804433869968,35.584403817162716]]]}},{"type":"Feature","properties":{"height":10.2,"gml_id":"bldg_f5e9b4ae-6d87-4e8c-a9a8-cfc47fd51a9c"},"geometry":{"type":"Polygon","coordinates":[[[139.81785563396303,35.584485638958],[139.8178873108458,35.584443998973065],[139.81785652773314,35.58442840104085],[139.81789328171635,35.58438009144683],[139.8179771353409,35.58442264759413],[139.81797117525932,35.58443039875714],[139.81800626140088,35.58444825067314],[139.81798231064084,35.58447970600808],[139.81795020349978,35.58446338682217],[139.8179343098854,35.5844842969555],[139.8179390542524,35.58448664116598],[139.81791642790074,35.58451647416139],[139.81785563396303,35.584485638958]]]}},{"type":"Feature","properties":{"height":2.6,"gml_id":"bldg_54ea35cb-b1e9-4096-a459-15e27e35708b"},"geometry":{"type":"Polygon","coordinates":[[[139.81778842260013,35.58454530208318],[139.8178069586537,35.58455485916721],[139.81778643051356,35.58458144741742],[139.81776789335285,35.58457189033011],[139.81778842260013,35.58454530208318]]]}},{"type":"Feature","properties":{"height":1.7,"gml_id":"bldg_5b596aa4-22d4-473e-8ffb-f10429aafd80"},"geometry":{"type":"Polygon","coordinates":[[[139.81780839798824,35.58452971067439],[139.8178168967142,35.5845183543011],[139.81784955559056,35.5845345834546],[139.81784105685017,35.58454602996879],[139.81780839798824,35.58452971067439]]]}},{"type":"Feature","properties":{"height":2.2,"gml_id":"bldg_8980e0c5-55e4-4603-8fc3-01d7dddba39d"},"geometry":{"type":"Polygon","coordinates":[[[139.81787095717831,35.584561988345925],[139.81785639321035,35.58455405427719],[139.81788486881095,35.58451926441831],[139.8178993224308,35.584527198469516],[139.81787095717831,35.584561988345925]]]}},{"type":"Feature","properties":{"height":2.1,"gml_id":"bldg_7bc8363b-35a3-4c8b-800c-0675146b407c"},"geometry":{"type":"Polygon","coordinates":[[[139.817924138,35.5845896677161],[139.81791078769223,35.58458236477953],[139.81793749738563,35.5845495577323],[139.8179509580522,35.584556770541404],[139.817924138,35.5845896677161]]]}},{"type":"Feature","properties":{"height":3.0,"gml_id":"bldg_89bf1de4-d9a0-460a-a02f-beaf34204930"},"geometry":{"type":"Polygon","coordinates":[[[139.8178493211234,35.584606153497695],[139.8178579303004,35.584594256304065],[139.817887168945,35.584608321680854],[139.81787855975352,35.58462030901517],[139.8178493211234,35.584606153497695]]]}},{"type":"Feature","properties":{"height":2.4,"gml_id":"bldg_286588ec-a845-42cf-b44b-5b107a691e3d"},"geometry":{"type":"Polygon","coordinates":[[[139.81742728042116,35.58502335024978],[139.81740841323327,35.58501397334159],[139.81742794955164,35.58498765544272],[139.81744681675346,35.584996942209266],[139.81742728042116,35.58502335024978]]]}},{"type":"Feature","properties":{"height":3.6,"gml_id":"bldg_428e7240-d462-4eaf-814f-220225a97e53"},"geometry":{"type":"Polygon","coordinates":[[[139.8175097134752,35.584997311037206],[139.81751975744504,35.58498433239337],[139.81753972789676,35.58499470095363],[139.81752968392885,35.5850076795991],[139.8175097134752,35.584997311037206]]]}},{"type":"Feature","properties":{"height":1.5,"gml_id":"bldg_fbdaec02-dffb-4f79-b790-07fe4f3a309a"},"geometry":{"type":"Polygon","coordinates":[[[139.81752978667612,35.58504634908245],[139.8175207362335,35.58505716453034],[139.81748840856687,35.58503931283743],[139.81749745901186,35.58502849739193],[139.81752978667612,35.58504634908245]]]}},{"type":"Feature","properties":{"height":1.1,"gml_id":"bldg_08ee18c3-f43f-435c-92c4-8d818b803b99"},"geometry":{"type":"Polygon","coordinates":[[[139.81745474529342,35.58507960037236],[139.81746379571186,35.585068965206695],[139.8174941372747,35.585086275813396],[139.81748497651293,35.5850969109668],[139.81745474529342,35.58507960037236]]]}},{"type":"Feature","properties":{"height":1.9,"gml_id":"bldg_5d71f508-8ba2-4cb1-862c-e10daaea75e2"},"geometry":{"type":"Polygon","coordinates":[[[139.8173669974857,35.58519667885177],[139.81735177146902,35.58518829394209],[139.8173811304371,35.58515269307544],[139.8173963564501,35.585161077981475],[139.8173669974857,35.58519667885177]]]}},{"type":"Feature","properties":{"height":1.8,"gml_id":"bldg_e1b86932-6acd-4bd5-81bb-41e453611e9a"},"geometry":{"type":"Polygon","coordinates":[[[139.81733046472382,35.58523885888183],[139.81731777638188,35.58523182638412],[139.81733974038463,35.58520550882305],[139.81735231839673,35.585212451165226],[139.81733046472382,35.58523885888183]]]}},{"type":"Feature","properties":{"height":1.2,"gml_id":"bldg_1148bbea-1509-4475-8f47-4f3bb4699346"},"geometry":{"type":"Polygon","coordinates":[[[139.8172929426419,35.585261839242655],[139.81730320374197,35.58526706864775],[139.81728355713113,35.58529257526288],[139.81727340637474,35.58528734587085],[139.8172929426419,35.585261839242655]]]}},{"type":"Feature","properties":{"height":2.3,"gml_id":"bldg_67b1e20a-adf2-4e0d-b2bf-1ae9c0b288d2"},"geometry":{"type":"Polygon","coordinates":[[[139.81723589493382,35.58525696415182],[139.81725785134952,35.585268775241445],[139.8172393086855,35.585291758115225],[139.81721735226625,35.58527994702228],[139.81723589493382,35.58525696415182]]]}},{"type":"Feature","properties":{"height":5.6,"gml_id":"bldg_8f14b7a9-d85e-4141-84ba-68969a5e8330"},"geometry":{"type":"Polygon","coordinates":[[[139.81392305056642,35.59002994521399],[139.8138387523373,35.589985313026865],[139.81387495886,35.589939708771425],[139.8139592570397,35.589984431072104],[139.81392305056642,35.59002994521399]]]}},{"type":"Feature","properties":{"height":5.4,"gml_id":"bldg_ae516db1-6fe2-4900-9d31-3b39f3a0a771"},"geometry":{"type":"Polygon","coordinates":[[[139.81726936162593,35.58509688242388],[139.817321218431,35.585124652019786],[139.81723865947222,35.585227489191894],[139.81721504804992,35.585214866629784],[139.81722034593645,35.58520837735736],[139.81719199018974,35.58519314013636],[139.81726936162593,35.58509688242388]]]}},{"type":"Feature","properties":{"height":10.8,"gml_id":"bldg_3c7019f2-bbdb-49fe-a9f4-885e0de1f4b5"},"geometry":{"type":"Polygon","coordinates":[[[139.81762064015888,35.58484526168657],[139.81766918693933,35.584871137791204],[139.8175686379452,35.58499677792663],[139.81752020148423,35.58497081165786],[139.81762064015888,35.58484526168657]]]}},{"type":"Feature","properties":{"height":11.0,"gml_id":"bldg_7fcdbed9-55e7-43c1-9f68-d167c920db5d"},"geometry":{"type":"Polygon","coordinates":[[[139.8178155565799,35.584601281669464],[139.8178664203421,35.584628059380286],[139.81776852053457,35.58475216767083],[139.81771765670896,35.58472548005785],[139.8178155565799,35.584601281669464]]]}},{"type":"Feature","properties":{"height":3.1,"gml_id":"bldg_9f361fcf-a44e-491e-8642-c45e86a39ffc"},"geometry":{"type":"Polygon","coordinates":[[[139.81809389858574,35.58432341977698],[139.8181261160445,35.584339738938894],[139.81809300440506,35.584383722410415],[139.81807248231172,35.58437335387096],[139.81806111396367,35.58438849572162],[139.817994913657,35.58435522615956],[139.8180105865242,35.58433440612837],[139.81797969308522,35.5843188082133],[139.8180065135225,35.584283297004376],[139.81803354528,35.58429691137256],[139.8180712925369,35.58424679907652],[139.81808861492252,35.58425554471632],[139.81810152845816,35.58423832986937],[139.8181425726058,35.584258976796725],[139.81809389858574,35.58432341977698]]]}},{"type":"Feature","properties":{"height":3.0,"gml_id":"bldg_c60b6f79-cf78-4cf0-bacf-93573f70b2c5"},"geometry":{"type":"Polygon","coordinates":[[[139.82467143641804,35.59026023898114],[139.82462939462266,35.59023716048437],[139.82466393945614,35.59019524854958],[139.8247058708871,35.59021832702655],[139.82467143641804,35.59026023898114]]]}},{"type":"Feature","properties":{"height":3.2,"gml_id":"bldg_3f5a91c0-ed54-4231-9928-1d8c10f0ff1b"},"geometry":{"type":"Polygon","coordinates":[[[139.82472617449702,35.59022986621225],[139.82476700237203,35.59025357555884],[139.82473256815112,35.59029332420555],[139.82469174026608,35.59026961484745],[139.82472617449702,35.59022986621225]]]}},{"type":"Feature","properties":{"height":1.7,"gml_id":"bldg_d48f87b7-3b83-43bc-bf76-5d1fa7991add"},"geometry":{"type":"Polygon","coordinates":[[[139.81430758145768,35.58929312384526],[139.81427402503272,35.589333951311076],[139.81425879855558,35.58932556601631],[139.81424720834357,35.58933962579676],[139.81420914212885,35.589318797755574],[139.81422128425027,35.58930410709635],[139.81420705079455,35.58929635292236],[139.81424016568366,35.58925615637491],[139.81430758145768,35.58929312384526]]]}},{"type":"Feature","properties":{"height":6.0,"gml_id":"bldg_b20f4378-cb89-4692-af66-1bb9782f527e"},"geometry":{"type":"Polygon","coordinates":[[[139.81400492129205,35.590073945982745],[139.81404465937527,35.590026900026515],[139.81412862605987,35.590074236172974],[139.81408899835466,35.59012128217414],[139.81400492129205,35.590073945982745]]]}},{"type":"Feature","properties":{"height":2.6,"gml_id":"bldg_29f4c5ac-a157-4936-a5bb-846913258f1e"},"geometry":{"type":"Polygon","coordinates":[[[139.81342030416,35.59129405621354],[139.81344391694915,35.59130595839843],[139.81342415715054,35.591332005170976],[139.81340065471056,35.591320103000534],[139.81342030416,35.59129405621354]]]}},{"type":"Feature","properties":{"height":2.7,"gml_id":"bldg_4045807b-4f17-46d9-8bbf-00f3cfb61126"},"geometry":{"type":"Polygon","coordinates":[[[139.81314225947796,35.59154585700135],[139.8131177642825,35.59153215183931],[139.8131414975459,35.59150385232046],[139.8131659927368,35.59151755747775],[139.81314225947796,35.59154585700135]]]}},{"type":"Feature","properties":{"height":2.6,"gml_id":"bldg_a5226968-a720-4361-b9d5-0ac640c43c00"},"geometry":{"type":"Polygon","coordinates":[[[139.81291161651995,35.59155609393381],[139.8128956102742,35.59157529072659],[139.81286471545994,35.59155806902533],[139.81288072170958,35.59153887223659],[139.81291161651995,35.59155609393381]]]}},{"type":"Feature","properties":{"height":2.4,"gml_id":"bldg_f4b5ff6a-8c1b-461d-a435-8f5e4549e5f9"},"geometry":{"type":"Polygon","coordinates":[[[139.8125581513995,35.59155783629482],[139.81257503345893,35.59156613194801],[139.8125618966916,35.59158397711275],[139.81254501465307,35.59157559131923],[139.8125581513995,35.59155783629482]]]}},{"type":"Feature","properties":{"height":2.7,"gml_id":"bldg_e613c664-637f-49af-88a6-58731494b1d6"},"geometry":{"type":"Polygon","coordinates":[[[139.81263553443816,35.59146185207809],[139.81265892649844,35.591473574101485],[139.81258805481988,35.59156784682201],[139.81256477307352,35.591556214942585],[139.81263553443816,35.59146185207809]]]}},{"type":"Feature","properties":{"height":2.1,"gml_id":"bldg_28998e52-c368-499c-97fc-3b0f4f34e3da"},"geometry":{"type":"Polygon","coordinates":[[[139.81765906459756,35.58472024441231],[139.81764869323436,35.584714834745434],[139.8176605030504,35.58469987326917],[139.81767076406746,35.5847052838221],[139.81765906459756,35.58472024441231]]]}},{"type":"Feature","properties":{"height":2.1,"gml_id":"bldg_9ecac058-e5c5-4096-834a-9113d4c185b7"},"geometry":{"type":"Polygon","coordinates":[[[139.8190846681518,35.58750642547189],[139.8191125928584,35.58746974236464],[139.81916136257504,35.587494626359074],[139.81913343789793,35.5875312193389],[139.8190846681518,35.58750642547189]]]}}]}