{"type":"FeatureCollection","crs":{"type":"name","properties":{"name":"urn:ogc:def:crs:OGC:1.3:CRS84"}},"features":[{"type":"Feature","properties":{"height":12.3,"gml_id":"bldg_d103d71b-d0d2-4b72-af22-e5b3c734afe6"},"geometry":{"type":"Polygon","coordinates":[[[139.83344616659062,35.62803434176045],[139.83342242983724,35.62820046607666],[139.8333333333333,35.62819208327761],[139.8328349673618,35.62814457953198],[139.83285870531395,35.627978455329966],[139.8333333333333,35.628023705531525],[139.83344616659062,35.62803434176045]]]}},{"type":"Feature","properties":{"height":21.0,"gml_id":"bldg_6e08a856-e656-4350-9dbb-98ddb5e5b034"},"geometry":{"type":"Polygon","coordinates":[[[139.83351980362914,35.62688427106193],[139.83349661937336,35.627045618109904],[139.83333686622865,35.62703029476124],[139.8333333333333,35.627030024347306],[139.8329370972234,35.62699198546133],[139.83296017218143,35.62683144976123],[139.83297872040666,35.62670228206352],[139.832994398027,35.62659303485073],[139.8333333333333,35.626625485008276],[139.83333686621089,35.62662575542222],[139.83355391743513,35.626646486960745],[139.833538571768,35.62675366107083],[139.83351980362914,35.62688427106193]]]}},{"type":"Feature","properties":{"height":27.1,"gml_id":"bldg_733ee3d9-edf7-4fae-a63c-2a8f527e34b0"},"geometry":{"type":"Polygon","coordinates":[[[139.83360867172883,35.62509385956984],[139.8335103065903,35.62579531382325],[139.83333686617362,35.62577908911056],[139.8333333333333,35.62577881869658],[139.83307554646765,35.625754571294806],[139.83317380495328,35.62505311739146],[139.8333333333333,35.625068170547316],[139.8333368661424,35.625068440961336],[139.83360867172883,35.62509385956984]]]}},{"type":"Feature","properties":{"height":6.2,"gml_id":"bldg_064298f9-6719-41c5-8d2d-855741333347"},"geometry":{"type":"Polygon","coordinates":[[[139.83664693120562,35.63147981957009],[139.8366769631786,35.631496584395066],[139.8366566537949,35.631639002882935],[139.83666460335178,35.631641075835674],[139.8366752027966,35.63164468105918],[139.83668348371037,35.63164981869098],[139.8366881211735,35.631656308492644],[139.83669032976357,35.63166595318923],[139.83668955739918,35.63167794155493],[139.83668392695384,35.631688307573164],[139.8366758673239,35.63169443717602],[139.8366627287817,35.631698674022374],[139.83665113582825,35.63169948558354],[139.83663998442682,35.63169822395918],[139.8366313723456,35.63169461867823],[139.83662198727393,35.631687948728285],[139.83661679767897,35.631679295628935],[139.83661591414602,35.63167298599819],[139.8366166866319,35.63166370177072],[139.8366214338612,35.63165459771067],[139.83662518755702,35.63164918933258],[139.83664693120562,35.63147981957009]]]}},{"type":"Feature","properties":{"height":3.6,"gml_id":"bldg_bc6fb30b-1420-4608-8352-26a8002aebd3"},"geometry":{"type":"Polygon","coordinates":[[[139.83363518929517,35.630811041292425],[139.833614101326,35.63080905830876],[139.83361973200252,35.63076966801595],[139.8336408199618,35.630771741136584],[139.83363518929517,35.630811041292425]]]}},{"type":"Feature","properties":{"height":2.3,"gml_id":"bldg_6883c869-b119-4479-9ead-1a36f1335649"},"geometry":{"type":"Polygon","coordinates":[[[139.83668002647147,35.63082091035746],[139.8366823442352,35.63080153063614],[139.83670541961757,35.63080333275123],[139.83670321226754,35.63082271246989],[139.83668002647147,35.63082091035746]]]}},{"type":"Feature","properties":{"height":20.1,"gml_id":"bldg_dd126859-18ca-4ecc-b953-9300370051a8"},"geometry":{"type":"Polygon","coordinates":[[[139.83418612977877,35.631156537363026],[139.83418414257292,35.63117068903271],[139.8341547738316,35.631167354133005],[139.8341564298406,35.63115554605235],[139.83416647627135,35.631082624394246],[139.83416912588052,35.631063785547425],[139.83417906189217,35.63099203568109],[139.8341797242905,35.63098707808994],[139.8341884458848,35.63092407161039],[139.83418966028515,35.63091550849769],[139.83419838186288,35.63085241187871],[139.83419959626303,35.63084402904171],[139.83422918569738,35.63084673296347],[139.83422764010868,35.630858090355204],[139.83421969134696,35.630915328004605],[139.83421792494886,35.630927586777084],[139.83420942417646,35.630988970774276],[139.8342086513794,35.63099464946989],[139.83419860498822,35.63106666975323],[139.83419584499185,35.63108686067049],[139.83418612977877,35.631156537363026]]]}},{"type":"Feature","properties":{"height":19.6,"gml_id":"bldg_0e27bae9-cabe-486f-ba63-bd5ea5626fbb"},"geometry":{"type":"Polygon","coordinates":[[[139.83454495880275,35.63121602532461],[139.83454341324344,35.63122684189211],[139.83451271956568,35.6312237775068],[139.83451437552452,35.63121205955927],[139.83452453209537,35.63114247297447],[139.83452530487955,35.63113733510458],[139.83453513022613,35.63106910059034],[139.83453557182384,35.63106666686168],[139.83453711737974,35.63105576015606],[139.83454385158984,35.63100870808606],[139.83452971928932,35.631007446296145],[139.83453082325417,35.63099942400884],[139.8345339143697,35.63097797205058],[139.83453579112634,35.630965532095196],[139.83455191077476,35.63096706427815],[139.83455897616483,35.630918119306585],[139.83455996973925,35.63091153922702],[139.83457078859303,35.630836183800035],[139.83458116584868,35.63076434375534],[139.83458238020896,35.63075605105228],[139.83461395697688,35.63075920554865],[139.83461263222608,35.630768399632586],[139.83460214460408,35.63084114106048],[139.83459187776276,35.63091280082904],[139.83459055300406,35.63092181463662],[139.83458315643716,35.63097265251012],[139.8346067838708,35.630974905711085],[139.83463637337002,35.63097778980865],[139.83463063278083,35.63101790125229],[139.83458956076893,35.63101384548044],[139.83457432437942,35.631012403431384],[139.83456648620967,35.63106648627332],[139.83456582383732,35.63107162414241],[139.83455588812163,35.63114076003959],[139.83455544652963,35.63114355432003],[139.83454495880275,35.63121602532461]]]}},{"type":"Feature","properties":{"height":5.3,"gml_id":"bldg_d6764b54-c492-4e70-81a4-177a1f748c86"},"geometry":{"type":"Polygon","coordinates":[[[139.83444040190244,35.63122855550352],[139.834439298134,35.63125172096237],[139.83441401451128,35.631250909950445],[139.83441611166435,35.63120539027548],[139.83440584364843,35.63120502981561],[139.83440628513276,35.631193762570014],[139.8344419471608,35.63119493404024],[139.83444119770226,35.63121063156822],[139.8344399600401,35.63121206026584],[139.83443786234614,35.63121728828521],[139.83443786242177,35.63122278669911],[139.83443996026125,35.6312281048179],[139.83444040190244,35.63122855550352]]]}},{"type":"Feature","properties":{"height":11.4,"gml_id":"bldg_1bcc5a7c-1a55-46e0-83b6-4de77f2c473c"},"geometry":{"type":"Polygon","coordinates":[[[139.83747258896548,35.62969731621861],[139.83746574371156,35.62969650521201],[139.83745922964533,35.62969506322798],[139.837452936351,35.62969280999447],[139.83744708465125,35.62968992577983],[139.8374417849574,35.62968650071835],[139.83743692686286,35.62968253481387],[139.83743284159215,35.62967811819311],[139.83742952914983,35.629673340994124],[139.83742698953577,35.62966820321694],[139.83742533315646,35.629662704857886],[139.8374244496235,35.62965720647254],[139.83742455974996,35.62965170805346],[139.83742544271783,35.62964611947015],[139.8374273193585,35.62964080126696],[139.83742996885408,35.62963566331338],[139.83743339121818,35.62963097602319],[139.83743758644619,35.62962664925842],[139.83744244412682,35.629622592884765],[139.83744796428317,35.62961925759195],[139.83745381569568,35.629616643391195],[139.8374601087617,35.62961457000277],[139.83746673307948,35.62961312756837],[139.8374734678454,35.62961249637141],[139.8374803130503,35.62961249613597],[139.83748704789065,35.62961330714556],[139.83749356195077,35.629614749128095],[139.8374998552401,35.62961700235954],[139.83750570692712,35.62961970629571],[139.83751111702583,35.629623131350584],[139.83751586471385,35.62962709725594],[139.83751994999122,35.62963160401188],[139.83752326244192,35.629636471346394],[139.83752591246773,35.62964160911771],[139.83752756884405,35.62964692719951],[139.83752834197736,35.62965242558793],[139.8375283422693,35.629658014141214],[139.83752734889717,35.629663512591144],[139.8375255826692,35.62966883079204],[139.83752293317866,35.62967396874772],[139.83751940041603,35.629678746182186],[139.8375152051944,35.62968316308774],[139.8375103475044,35.62968703918836],[139.8375049377526,35.629690374480184],[139.83749897593447,35.62969307882516],[139.83749268286795,35.629695242353534],[139.83748605854385,35.62969668478936],[139.83747932377096,35.62969731598702],[139.83747258896548,35.62969731621861]]]}},{"type":"Feature","properties":{"height":7.7,"gml_id":"bldg_187c6c07-692d-4404-aeed-aed64926d2fe"},"geometry":{"type":"Polygon","coordinates":[[[139.83451978730778,35.63133086130081],[139.834453983529,35.63132527337917],[139.8344602761397,35.631275697457966],[139.8345260798783,35.63128128537621],[139.83451978730778,35.63133086130081]]]}},{"type":"Feature","properties":{"height":5.3,"gml_id":"bldg_7d10d047-84e8-47b1-8af9-9909cba3f6f3"},"geometry":{"type":"Polygon","coordinates":[[[139.83642299872065,35.63088644750492],[139.83644430744934,35.630884644197764],[139.8364520384727,35.63094756027828],[139.83643061931562,35.63094927345168],[139.83642299872065,35.63088644750492]]]}},{"type":"Feature","properties":{"height":3.2,"gml_id":"bldg_e657b0a2-e6f7-4a6c-81e2-16dcd732a96c"},"geometry":{"type":"Polygon","coordinates":[[[139.83362468670435,35.627003883976144],[139.8336219267033,35.62702407489392],[139.83358604572706,35.62702083000666],[139.833588805737,35.6270006390897],[139.83362468670435,35.627003883976144]]]}},{"type":"Feature","properties":{"height":2.0,"gml_id":"bldg_ff5f2981-b8cd-4ad6-92b7-80374471b637"},"geometry":{"type":"Polygon","coordinates":[[[139.83364810634578,35.63063085551627],[139.8336739418128,35.630633469446316],[139.83366632387614,35.63068430726659],[139.8336404883933,35.63068178347288],[139.83364810634578,35.63063085551627]]]}},{"type":"Feature","properties":{"height":8.4,"gml_id":"bldg_bbb09977-04c7-4108-903c-6c23a35c8261"},"geometry":{"type":"Polygon","coordinates":[[[139.8341304789167,35.630662942397365],[139.834161614003,35.63066654770498],[139.8341361112194,35.630812571340805],[139.83410508648583,35.63080896602599],[139.8341304789167,35.630662942397365]]]}},{"type":"Feature","properties":{"height":32.8,"gml_id":"bldg_f70e3957-254a-4677-b514-caddd9be6cbb"},"geometry":{"type":"Polygon","coordinates":[[[139.83404932889874,35.63064545614636],[139.8339080066202,35.63063139538448],[139.83391827405296,35.63056207925738],[139.83405959621047,35.630576049869426],[139.83404932889874,35.63064545614636]]]}},{"type":"Feature","properties":{"height":28.3,"gml_id":"bldg_7fa4c6f8-4c4f-474c-ac68-7605243a0783"},"geometry":{"type":"Polygon","coordinates":[[[139.83493016637684,35.63078831632678],[139.83482914275191,35.63077921369161],[139.8348431626597,35.63067681681642],[139.83494407574753,35.63068582930354],[139.83493016637684,35.63078831632678]]]}},{"type":"Feature","properties":{"height":9.6,"gml_id":"bldg_88ea956a-da67-4a88-a2ec-fef026f5127a"},"geometry":{"type":"Polygon","coordinates":[[[139.8346570152236,35.63070368011197],[139.83459319927815,35.63069710072659],[139.83462377911775,35.63049906734355],[139.83468759490984,35.63050573685091],[139.8346570152236,35.63070368011197]]]}},{"type":"Feature","properties":{"height":27.6,"gml_id":"bldg_d465cada-2b5a-4e6e-8612-f2ef85f093b8"},"geometry":{"type":"Polygon","coordinates":[[[139.83518013714078,35.63108035967091],[139.8351608139398,35.63100545534103],[139.83527431335648,35.63098616404742],[139.83529352624578,35.63106088808526],[139.83518013714078,35.63108035967091]]]}},{"type":"Feature","properties":{"height":12.8,"gml_id":"bldg_1838f2f8-0126-4243-8686-da7bf3ed7541"},"geometry":{"type":"Polygon","coordinates":[[[139.83523721506734,35.630941456222764],[139.83522793785139,35.63081796739379],[139.83530831491296,35.630813909895636],[139.83531748184367,35.630937398720306],[139.83523721506734,35.630941456222764]]]}},{"type":"Feature","properties":{"height":15.5,"gml_id":"bldg_be4d136e-e9e6-4ee7-ae20-7147a5d66730"},"geometry":{"type":"Polygon","coordinates":[[[139.83429432233615,35.630494473387],[139.8342889127804,35.63053007791776],[139.83421957660892,35.63052304768821],[139.83422509660164,35.63048735302174],[139.83429432233615,35.630494473387]]]}},{"type":"Feature","properties":{"height":16.4,"gml_id":"bldg_b0ad3ab5-a744-43c6-938c-bb24c4d98008"},"geometry":{"type":"Polygon","coordinates":[[[139.83432402123185,35.6304306554818],[139.83431474771035,35.630489695911294],[139.83422399244532,35.630480232132335],[139.83423326603247,35.630421191709715],[139.83432402123185,35.6304306554818]]]}},{"type":"Feature","properties":{"height":19.0,"gml_id":"bldg_04d18887-9aba-4e0b-9db1-4b817384a980"},"geometry":{"type":"Polygon","coordinates":[[[139.8347169786144,35.631390169955885],[139.83461120665524,35.63138007567609],[139.83469808805927,35.63076533400484],[139.8348056257513,35.63077551832579],[139.83477615051873,35.63098355704361],[139.83484173323322,35.63098968561998],[139.83483268095088,35.63105440477103],[139.83476544205186,35.6310480057957],[139.8347169786144,35.631390169955885]]]}},{"type":"Feature","properties":{"height":13.4,"gml_id":"bldg_74f217e7-0538-4c73-bb65-7b0061fe8e5d"},"geometry":{"type":"Polygon","coordinates":[[[139.83615176578482,35.62888665353075],[139.8361495566499,35.62885744888071],[139.83594431332213,35.62887232626855],[139.83593691214887,35.62874883741102],[139.83598648413027,35.62874829550168],[139.83602578842024,35.628747934077786],[139.83607293145224,35.62874649080743],[139.83613078365278,35.62874081078583],[139.83619128547667,35.62873242653451],[139.8362262837426,35.62872629631718],[139.83625410578628,35.628723681644715],[139.83626459884778,35.62884852247762],[139.83618234699495,35.62885501438458],[139.83618356256554,35.62888629223081],[139.83615176578482,35.62888665353075]]]}},{"type":"Feature","properties":{"height":3.2,"gml_id":"bldg_d32e32b0-953e-4266-ab04-47dbbeb96837"},"geometry":{"type":"Polygon","coordinates":[[[139.83353073560625,35.62773932003316],[139.83350744036608,35.6277367962055],[139.83351340209947,35.62770110155445],[139.83353658692553,35.627703625381166],[139.83353073560625,35.62773932003316]]]}},{"type":"Feature","properties":{"height":2.8,"gml_id":"bldg_b76c1c75-ab1f-4fc4-a438-8bc2c09e23d6"},"geometry":{"type":"Polygon","coordinates":[[[139.83352565714947,35.62779160007256],[139.8335060052281,35.627789526928694],[139.8335093173038,35.6277689754634],[139.83352885881624,35.62777104860693],[139.83352565714947,35.62779160007256]]]}},{"type":"Feature","properties":{"height":10.0,"gml_id":"bldg_dc3ee20f-5c53-4526-b10b-eb1a1aeaf607"},"geometry":{"type":"Polygon","coordinates":[[[139.83419706209236,35.63132915142624],[139.8341093973357,35.6313191467125],[139.83412562649795,35.63122360039865],[139.83421340156005,35.63123351496203],[139.83419706209236,35.63132915142624]]]}},{"type":"Feature","properties":{"height":9.5,"gml_id":"bldg_6cf56d01-a719-4906-b60c-53b050a6adb3"},"geometry":{"type":"Polygon","coordinates":[[[139.83451227447904,35.63098869777736],[139.83444978323493,35.63098319995857],[139.8344587253552,35.63091460490524],[139.8345212165452,35.630920012581505],[139.83451227447904,35.63098869777736]]]}},{"type":"Feature","properties":{"height":6.2,"gml_id":"bldg_7fcb8e99-13f0-40ae-9af4-672bbc0a4f5e"},"geometry":{"type":"Polygon","coordinates":[[[139.83411756921524,35.63148527086513],[139.83407550330742,35.63148112478688],[139.8340842250919,35.6314239772855],[139.83412629097114,35.631428213498666],[139.83411756921524,35.63148527086513]]]}},{"type":"Feature","properties":{"height":28.0,"gml_id":"bldg_11c3381c-2450-4fff-ad76-26cefbd6d2b5"},"geometry":{"type":"Polygon","coordinates":[[[139.83406125937222,35.63135303887516],[139.83394842136858,35.63134222295239],[139.83400682426057,35.630934348487514],[139.83411966169888,35.63094516435632],[139.83406125937222,35.63135303887516]]]}},{"type":"Feature","properties":{"height":10.3,"gml_id":"bldg_ca66d4fd-40cc-4b5e-900b-7307dadaa7b2"},"geometry":{"type":"Polygon","coordinates":[[[139.8337189881663,35.63061598254979],[139.83369370474296,35.63061336862775],[139.83369701688056,35.630591374959884],[139.8336558347261,35.63058731886974],[139.83368564397065,35.630386581584915],[139.83380389057365,35.63039820897604],[139.83377364000563,35.6306020109814],[139.83372185867998,35.63059696343475],[139.8337189881663,35.63061598254979]]]}},{"type":"Feature","properties":{"height":6.8,"gml_id":"bldg_22f05ba6-1385-4374-ab91-a84c437cef62"},"geometry":{"type":"Polygon","coordinates":[[[139.83369558234997,35.63076245677657],[139.83362525235424,35.63075470510467],[139.83363596169582,35.63068989589903],[139.8337064020443,35.63069773770234],[139.83369558234997,35.63076245677657]]]}},{"type":"Feature","properties":{"height":10.8,"gml_id":"bldg_64c2c532-45ab-4452-9ebf-e020ce6bca1e"},"geometry":{"type":"Polygon","coordinates":[[[139.83213657125998,35.626611507673815],[139.8321228797776,35.62671660844659],[139.83196224430466,35.62670272547344],[139.83197582559256,35.62659762471745],[139.83213657125998,35.626611507673815]]]}},{"type":"Feature","properties":{"height":12.0,"gml_id":"bldg_386c1b72-5a53-459d-8a5e-f73c6ca9bb9f"},"geometry":{"type":"Polygon","coordinates":[[[139.82870317501312,35.62647008825475],[139.82879340728067,35.62587464000383],[139.82902061211104,35.62589763354469],[139.8289303815022,35.62649308196363],[139.82870317501312,35.62647008825475]]]}},{"type":"Feature","properties":{"height":11.3,"gml_id":"bldg_55807993-647e-4769-a0cf-22b985090c24"},"geometry":{"type":"Polygon","coordinates":[[[139.82900677948956,35.62649984508178],[139.82909700953954,35.62590439660624],[139.82932421454558,35.62592729943644],[139.82923398615443,35.62652274807997],[139.82900677948956,35.62649984508178]]]}},{"type":"Feature","properties":{"height":23.2,"gml_id":"bldg_f7bd5e1f-a317-48cc-8698-0a4a2ef7cbd5"},"geometry":{"type":"Polygon","coordinates":[[[139.83400185517343,35.63084889775001],[139.8339353893601,35.63084114623779],[139.8339457672887,35.63078291707679],[139.8340122330556,35.6307907587213],[139.83400185517343,35.63084889775001]]]}},{"type":"Feature","properties":{"height":6.5,"gml_id":"bldg_489f6497-d82c-4763-980c-9ff6271193a8"},"geometry":{"type":"Polygon","coordinates":[[[139.83489650548972,35.63148679562085],[139.83484085919588,35.63148129791638],[139.8348477037101,35.631436228865816],[139.83490334997848,35.631441996980946],[139.83489650548972,35.63148679562085]]]}},{"type":"Feature","properties":{"height":7.6,"gml_id":"bldg_9b8e457b-9806-4212-af6c-b5dc7020b1a2"},"geometry":{"type":"Polygon","coordinates":[[[139.83498592655806,35.6309858979349],[139.83486977667818,35.63097427167844],[139.83489351141992,35.63081652998206],[139.8350096610732,35.63082806607804],[139.83498592655806,35.6309858979349]]]}},{"type":"Feature","properties":{"height":6.7,"gml_id":"bldg_e71f0f20-cc4c-4949-ad25-3886c957a97d"},"geometry":{"type":"Polygon","coordinates":[[[139.8328027314703,35.62780764361883],[139.83278241627056,35.627932214220515],[139.8322464044927,35.62787938971906],[139.83226484364536,35.62775463891407],[139.8328027314703,35.62780764361883]]]}},{"type":"Feature","properties":{"height":8.1,"gml_id":"bldg_d15d9196-7745-40dc-9855-5429896a31d9"},"geometry":{"type":"Polygon","coordinates":[[[139.83476710700626,35.63154232219443],[139.83470428409393,35.63153727520176],[139.83471742091066,35.63142847857114],[139.83478024373701,35.63143343541911],[139.83476710700626,35.63154232219443]]]}},{"type":"Feature","properties":{"height":5.3,"gml_id":"bldg_116c0032-dda0-4377-aa09-5965d1135642"},"geometry":{"type":"Polygon","coordinates":[[[139.8348456996124,35.63054773925146],[139.83473761021756,35.63053962814502],[139.83474357132405,35.63048752834399],[139.83485166065103,35.63049572958306],[139.8348456996124,35.63054773925146]]]}},{"type":"Feature","properties":{"height":6.4,"gml_id":"bldg_06ff54b2-f5af-4058-b4a7-eb5fb5e437e1"},"geometry":{"type":"Polygon","coordinates":[[[139.83473286644465,35.63075550857038],[139.83469985437742,35.630752894949104],[139.83470548438027,35.63070548232848],[139.83473849642974,35.63070818608615],[139.83473286644465,35.63075550857038]]]}},{"type":"Feature","properties":{"height":29.3,"gml_id":"bldg_5327b016-92a9-43f8-88cb-7c2fd116bb82"},"geometry":{"type":"Polygon","coordinates":[[[139.8350154117355,35.63127848526169],[139.83501077317337,35.631211873394136],[139.83510484131412,35.63120745528884],[139.83510561443583,35.631219263346715],[139.83516192283395,35.6312166485051],[139.83516468396311,35.63125657956738],[139.83510694022277,35.6312591944314],[139.8351079342326,35.631274157313534],[139.8350154117355,35.63127848526169]]]}},{"type":"Feature","properties":{"height":9.6,"gml_id":"bldg_c7b9291f-2c58-431b-8afb-3a220bf28cc3"},"geometry":{"type":"Polygon","coordinates":[[[139.83504081203256,35.631573235935235],[139.83498174297944,35.63156755806852],[139.83498825618702,35.631522128463445],[139.8350474356202,35.63152798660128],[139.83504081203256,35.631573235935235]]]}},{"type":"Feature","properties":{"height":17.7,"gml_id":"bldg_dc05979f-6cec-4297-bc3b-4b8fc4654a54"},"geometry":{"type":"Polygon","coordinates":[[[139.83292682989935,35.62696269057821],[139.8328997812054,35.626960166619995],[139.83291126354456,35.62687660873705],[139.83293831221076,35.626879132692736],[139.83292682989935,35.62696269057821]]]}},{"type":"Feature","properties":{"height":11.3,"gml_id":"bldg_33bb3888-500c-4d7b-9042-2b24d860ddff"},"geometry":{"type":"Polygon","coordinates":[[[139.83319566260056,35.625989290878366],[139.83319466897524,35.62599587095206],[139.83321376844225,35.62599767373275],[139.83318815494903,35.62618074400285],[139.83312842758244,35.62617515535955],[139.83312522587073,35.62619805040821],[139.83307035617463,35.626192912434455],[139.83307134981462,35.626185701395954],[139.833002679909,35.62617930142844],[139.83303138515188,35.62597396711668],[139.83319566260056,35.625989290878366]]]}},{"type":"Feature","properties":{"height":2.7,"gml_id":"bldg_76de0738-718e-4459-a031-57b0788a11fe"},"geometry":{"type":"Polygon","coordinates":[[[139.8313295255776,35.62677581852934],[139.83132411457674,35.626826656270815],[139.83127167338864,35.62682295972686],[139.83127708442245,35.6267721219877],[139.8313295255776,35.62677581852934]]]}},{"type":"Feature","properties":{"height":2.6,"gml_id":"bldg_3f3998b4-6ce5-41ec-a963-64d4f84e4bfd"},"geometry":{"type":"Polygon","coordinates":[[[139.8331274241326,35.63001025598973],[139.83312521593382,35.630032339783945],[139.83304362510083,35.630026751062395],[139.8330458333216,35.630004757407626],[139.8331274241326,35.63001025598973]]]}},{"type":"Feature","properties":{"height":2.6,"gml_id":"bldg_e8065b51-a91e-40a5-bb56-e565e11bdd8b"},"geometry":{"type":"Polygon","coordinates":[[[139.8330111691515,35.62909499490904],[139.8329885359631,35.6290939131908],[139.832992179573,35.629042624698926],[139.83296822153068,35.62904154297312],[139.8329720859759,35.628987279929156],[139.83301867716082,35.62898944337106],[139.8330111691515,35.62909499490904]]]}},{"type":"Feature","properties":{"height":2.8,"gml_id":"bldg_3d0d3ecc-6555-4913-a0e3-1597892d69f6"},"geometry":{"type":"Polygon","coordinates":[[[139.83098169725756,35.62882582041837],[139.8310085257139,35.62882816452627],[139.83100201036075,35.62887746986914],[139.8309752922936,35.62887512576197],[139.83098169725756,35.62882582041837]]]}},{"type":"Feature","properties":{"height":2.7,"gml_id":"bldg_a0939086-a883-427c-8c7d-eaeb70200fb3"},"geometry":{"type":"Polygon","coordinates":[[[139.83103634784933,35.628829517129496],[139.83106394915694,35.62883150068791],[139.83105831703574,35.628882428533856],[139.83103060530786,35.62888035483409],[139.83103634784933,35.628829517129496]]]}},{"type":"Feature","properties":{"height":1.0,"gml_id":"bldg_6249b95b-b6d7-4e37-8384-8b3506bec607"},"geometry":{"type":"Polygon","coordinates":[[[139.8309572660818,35.62989278298229],[139.8309813347157,35.62989530731728],[139.83097537165676,35.62993226376127],[139.83095141342164,35.629929649289345],[139.8309572660818,35.62989278298229]]]}},{"type":"Feature","properties":{"height":3.1,"gml_id":"bldg_b1d8fb24-307c-4a7c-857e-d102799b97cf"},"geometry":{"type":"Polygon","coordinates":[[[139.83145575308433,35.6299024365437],[139.83144736070744,35.62996418090994],[139.83138718901554,35.62995877167581],[139.8313955814403,35.629896937175744],[139.83145575308433,35.6299024365437]]]}},{"type":"Feature","properties":{"height":3.2,"gml_id":"bldg_c798eae6-1c23-482f-8a92-32acba8a1389"},"geometry":{"type":"Polygon","coordinates":[[[139.83161507038238,35.62989784188579],[139.83156538735616,35.62989378495904],[139.83156792716312,35.62987341381889],[139.83159133338273,35.62987530705664],[139.83160016747112,35.629804098200616],[139.83162633383543,35.62980626188513],[139.83161507038238,35.62989784188579]]]}},{"type":"Feature","properties":{"height":2.8,"gml_id":"bldg_09850909-15e8-4849-ba7a-5825a180c63c"},"geometry":{"type":"Polygon","coordinates":[[[139.8315997223352,35.62996661692353],[139.8315765369186,35.62996400258706],[139.83158316221767,35.62992371101887],[139.83160634762478,35.62992623521613],[139.8315997223352,35.62996661692353]]]}},{"type":"Feature","properties":{"height":2.8,"gml_id":"bldg_9f4ee8d7-01db-4c1e-8ec0-c78eb086ef83"},"geometry":{"type":"Polygon","coordinates":[[[139.83075907660742,35.63017536138605],[139.8307790602551,35.63017770539807],[139.83077320760728,35.63021096617678],[139.83075322395152,35.6302086221638],[139.83075907660742,35.63017536138605]]]}},{"type":"Feature","properties":{"height":2.4,"gml_id":"bldg_64defd63-04d7-4199-9b3a-641bd6f991a8"},"geometry":{"type":"Polygon","coordinates":[[[139.83027745115487,35.630931787749255],[139.83030450110763,35.63093422215669],[139.83029787470528,35.63098451895869],[139.83027082473237,35.63098217468773],[139.83027745115487,35.630931787749255]]]}},{"type":"Feature","properties":{"height":3.3,"gml_id":"bldg_87d4d3a8-336f-407b-9838-4302531a713b"},"geometry":{"type":"Polygon","coordinates":[[[139.82944558563713,35.629664424243686],[139.82945188102684,35.62961863436471],[139.82945938863674,35.62961935571002],[139.82946104529992,35.629607637828855],[139.82949725848056,35.62961097409184],[139.82949140486443,35.62965424012454],[139.82950078938572,35.62965505166506],[139.82949891179362,35.62966929340242],[139.82944558563713,35.629664424243686]]]}},{"type":"Feature","properties":{"height":3.2,"gml_id":"bldg_22f8de56-a983-407a-89d3-be0572dd019f"},"geometry":{"type":"Polygon","coordinates":[[[139.82954738508033,35.62956779959593],[139.82954120036842,35.62960908258592],[139.82945464206549,35.62960051672425],[139.8294607164148,35.629559233735115],[139.82954738508033,35.62956779959593]]]}},{"type":"Feature","properties":{"height":12.5,"gml_id":"bldg_36be96a0-08c1-4d84-9c9e-5c79e51aaeff"},"geometry":{"type":"Polygon","coordinates":[[[139.83028988020376,35.629261351577476],[139.8302733147452,35.62938078395678],[139.83004322907382,35.629359415196106],[139.8300599052762,35.629239982851026],[139.83028988020376,35.629261351577476]]]}},{"type":"Feature","properties":{"height":3.2,"gml_id":"bldg_b2bf1be7-1530-4d9b-84a4-39f35a69f886"},"geometry":{"type":"Polygon","coordinates":[[[139.82987916545093,35.6293602218454],[139.82988280991242,35.62933561428647],[139.83001032849754,35.62934814704796],[139.83000679448077,35.629372754613755],[139.82987916545093,35.6293602218454]]]}},{"type":"Feature","properties":{"height":2.5,"gml_id":"bldg_9b6f5e20-2783-498a-b2c2-7b5f77b9592f"},"geometry":{"type":"Polygon","coordinates":[[[139.82935485095757,35.629269887433765],[139.82935220013962,35.629291520457066],[139.8292510685923,35.62928304410418],[139.82925371943264,35.62926150122101],[139.82935485095757,35.629269887433765]]]}},{"type":"Feature","properties":{"height":2.8,"gml_id":"bldg_4403baf3-12fa-4115-b5ec-2d1b6c0614aa"},"geometry":{"type":"Polygon","coordinates":[[[139.8294108337901,35.62915000577861],[139.8294364467487,35.62915216992098],[139.82942529136616,35.62924230752291],[139.82943014920923,35.62924275837021],[139.8294245163126,35.629287737030744],[139.82939404435712,35.629285212175276],[139.8294108337901,35.62915000577861]]]}},{"type":"Feature","properties":{"height":3.1,"gml_id":"bldg_5b301956-f5ce-403e-8462-54a84537f238"},"geometry":{"type":"Polygon","coordinates":[[[139.82950102738926,35.62929486038793],[139.82949837666578,35.62931532162088],[139.82942793785782,35.62930918997663],[139.82943058859902,35.62928872874521],[139.82950102738926,35.62929486038793]]]}},{"type":"Feature","properties":{"height":3.0,"gml_id":"bldg_91a3de15-15ff-4477-af03-2514e2fc3a3c"},"geometry":{"type":"Polygon","coordinates":[[[139.82955335989064,35.62929459162741],[139.82955015692482,35.629319830156156],[139.82950157841753,35.62931586255054],[139.82950467099235,35.629290624019575],[139.82955335989064,35.62929459162741]]]}},{"type":"Feature","properties":{"height":2.4,"gml_id":"bldg_c3bebcd9-7220-4518-b9be-279018c57a71"},"geometry":{"type":"Polygon","coordinates":[[[139.82965151033773,35.629307033705786],[139.82964841797804,35.62932857658405],[139.82958405148426,35.62932244521667],[139.8295871438568,35.629300992478],[139.82965151033773,35.629307033705786]]]}},{"type":"Feature","properties":{"height":3.1,"gml_id":"bldg_31ac4622-789b-4b61-955f-7ea32f34e859"},"geometry":{"type":"Polygon","coordinates":[[[139.8296518432587,35.62926989687566],[139.8296745867715,35.629272872121284],[139.8296685130187,35.629303969533524],[139.8296457694973,35.62930099428677],[139.8296518432587,35.62926989687566]]]}},{"type":"Feature","properties":{"height":2.9,"gml_id":"bldg_dc81c7c4-ba85-40ab-9988-b7d1abbae8e1"},"geometry":{"type":"Polygon","coordinates":[[[139.82967293675344,35.62913964816158],[139.8297180925639,35.62914397614741],[139.8297123496531,35.62918399723086],[139.82968795004635,35.62918165290797],[139.82968430552395,35.629206440737555],[139.8296636596977,35.62920445707523],[139.82967293675344,35.62913964816158]]]}},{"type":"Feature","properties":{"height":5.9,"gml_id":"bldg_67318754-c98e-47a3-a410-b807520f4638"},"geometry":{"type":"Polygon","coordinates":[[[139.8303915732717,35.629013024012174],[139.83039024796713,35.629024922191306],[139.83039808675042,35.62902555334831],[139.8303955465284,35.629049890537146],[139.83038660368516,35.629049259352975],[139.83038649322978,35.629050611419764],[139.83027343803536,35.6290426764603],[139.83027741407614,35.629004998891475],[139.8303915732717,35.629013024012174]]]}},{"type":"Feature","properties":{"height":3.3,"gml_id":"bldg_9aa2554b-6ca4-4b9b-93be-8022ad22095e"},"geometry":{"type":"Polygon","coordinates":[[[139.83044004047412,35.62903808354045],[139.830437942024,35.629058634946176],[139.83040923659613,35.62905665121763],[139.8304112246445,35.62903618994766],[139.83044004047412,35.62903808354045]]]}},{"type":"Feature","properties":{"height":3.1,"gml_id":"bldg_a8f730b6-80e6-4dd0-ab72-084d1bf0c8e3"},"geometry":{"type":"Polygon","coordinates":[[[139.8306093595444,35.62706091088474],[139.8306126723283,35.62704044963461],[139.83063718170538,35.62704306418748],[139.83063972147622,35.627028101337],[139.83066202279682,35.62703053555944],[139.83066025596807,35.62704198304572],[139.83068664218928,35.62704486804414],[139.83068266688986,35.62706884466351],[139.8306093595444,35.62706091088474]]]}},{"type":"Feature","properties":{"height":3.1,"gml_id":"bldg_eb43aa1c-7193-4b2b-a7d3-121cab2b8f2b"},"geometry":{"type":"Polygon","coordinates":[[[139.8303622789429,35.62702403860455],[139.83033511990598,35.62702151406782],[139.83033732856728,35.62700537942148],[139.83034351111218,35.62700592040306],[139.83034638236325,35.626985098597125],[139.8303673588479,35.626986992013286],[139.8303622789429,35.62702403860455]]]}},{"type":"Feature","properties":{"height":9.3,"gml_id":"bldg_5f21ea71-5471-4190-8ae3-524866b2db35"},"geometry":{"type":"Polygon","coordinates":[[[139.82847155574729,35.62457087108299],[139.8286688386907,35.62459052897371],[139.82853255086735,35.62550533444057],[139.82851256842633,35.62550335060623],[139.8285071566056,35.625539585872964],[139.8283513818533,35.625524075792924],[139.82835657286893,35.62548901231824],[139.82833515523077,35.625486938257154],[139.82847155574729,35.62457087108299]]]}},{"type":"Feature","properties":{"height":9.9,"gml_id":"bldg_a52e8fa8-1d74-46d0-aa7f-f3cf9d56bae0"},"geometry":{"type":"Polygon","coordinates":[[[139.8287040559326,35.62459467668155],[139.82890200137945,35.624614514491924],[139.82876394966937,35.625530852498414],[139.82874186961436,35.62552859820848],[139.82873701012718,35.62556086743364],[139.82858167689827,35.62554526753026],[139.82858686777743,35.625510835011895],[139.8285663333346,35.62550876102671],[139.8287040559326,35.62459467668155]]]}},{"type":"Feature","properties":{"height":4.9,"gml_id":"bldg_2d2a904d-a056-4a7b-9c7f-84f36b0e95c8"},"geometry":{"type":"Polygon","coordinates":[[[139.8281227983522,35.62636748750192],[139.828211118415,35.62637515301984],[139.82819830541075,35.62647466483171],[139.82810987373352,35.62646699929967],[139.8281227983522,35.62636748750192]]]}},{"type":"Feature","properties":{"height":8.4,"gml_id":"bldg_70e31afd-c8be-4aee-b39d-97815e792874"},"geometry":{"type":"Polygon","coordinates":[[[139.83263314102481,35.62893445758739],[139.83259515901543,35.62920460084259],[139.83233791340396,35.629180442017486],[139.8323760066729,35.62891029884321],[139.83263314102481,35.62893445758739]]]}},{"type":"Feature","properties":{"height":3.5,"gml_id":"bldg_d9f86b30-6060-417e-8cb3-f90cbf0a5062"},"geometry":{"type":"Polygon","coordinates":[[[139.83230755563437,35.6288780288873],[139.8322944162193,35.62896753577641],[139.83215508449578,35.62895392366128],[139.83216811365713,35.62886450692407],[139.83230755563437,35.6288780288873]]]}},{"type":"Feature","properties":{"height":10.1,"gml_id":"bldg_a65bc50f-a946-4eb3-991e-bb927ee0d1c0"},"geometry":{"type":"Polygon","coordinates":[[[139.82906018245507,35.63332004503309],[139.82888650584624,35.63330408433864],[139.82889247046117,35.633260908503615],[139.82886674470092,35.633258563967054],[139.82887933670244,35.633166894185855],[139.82899305989818,35.633177354333704],[139.8289914030589,35.63318970316677],[139.82907708192818,35.63319754822201],[139.82906018245507,35.63332004503309]]]}},{"type":"Feature","properties":{"height":10.2,"gml_id":"bldg_6c81c688-b901-4efe-8388-2c508697f750"},"geometry":{"type":"Polygon","coordinates":[[[139.8309818946524,35.62585505250889],[139.83088518334495,35.62584558609106],[139.83096789049256,35.625284208168445],[139.83106471153434,35.625293674522844],[139.8309818946524,35.62585505250889]]]}},{"type":"Feature","properties":{"height":6.5,"gml_id":"bldg_16045978-6ebd-4aa4-94cb-789161795821"},"geometry":{"type":"Polygon","coordinates":[[[139.8286497891184,35.633205374364834],[139.82845049753652,35.63318688818161],[139.82846750828486,35.63306502242322],[139.8286666891516,35.633083598712275],[139.8286497891184,35.633205374364834]]]}},{"type":"Feature","properties":{"height":5.2,"gml_id":"bldg_6b69356c-9365-4a17-8bf2-c84b0efb79a3"},"geometry":{"type":"Polygon","coordinates":[[[139.82993497309448,35.63333656812335],[139.82980104426835,35.633325026619346],[139.8298181638574,35.633192884955186],[139.8299493321864,35.63320424608707],[139.8299466814366,35.633224977730286],[139.82997141352547,35.63322705159481],[139.82996655383945,35.63326472910238],[139.82994458202026,35.633262835590344],[139.82993497309448,35.63333656812335]]]}},{"type":"Feature","properties":{"height":9.8,"gml_id":"bldg_cc0eceec-34de-4cd5-b675-dcb551f6606c"},"geometry":{"type":"Polygon","coordinates":[[[139.82908874999603,35.62760412857991],[139.8289719434295,35.627592676883516],[139.82905113164009,35.62705410522578],[139.82916793743453,35.62706555684636],[139.82908874999603,35.62760412857991]]]}},{"type":"Feature","properties":{"height":7.6,"gml_id":"bldg_046479ce-fa9e-4efd-b548-d86e324af724"},"geometry":{"type":"Polygon","coordinates":[[[139.82803145556812,35.62696077184077],[139.8279426922416,35.626951934378056],[139.82795506295938,35.62686837700725],[139.82804382620085,35.626877124322945],[139.82803145556812,35.62696077184077]]]}},{"type":"Feature","properties":{"height":9.1,"gml_id":"bldg_52913973-febc-4064-8fd9-21620b3cb241"},"geometry":{"type":"Polygon","coordinates":[[[139.82873827353967,35.62663396048789],[139.82856792346382,35.62661908109981],[139.82857653877107,35.626552920146516],[139.82874699911056,35.62656779952677],[139.82873827353967,35.62663396048789]]]}},{"type":"Feature","properties":{"height":9.8,"gml_id":"bldg_466f8a9f-e110-40d5-9e90-fd80a41f6301"},"geometry":{"type":"Polygon","coordinates":[[[139.83040516014535,35.625794016436394],[139.8302382340055,35.62577850852513],[139.83035716780563,35.6249246340491],[139.83037859108646,35.624770678823666],[139.83054540475567,35.62478627667845],[139.83053005532227,35.62489651513129],[139.83040516014535,35.625794016436394]]]}},{"type":"Feature","properties":{"height":9.5,"gml_id":"bldg_de4c4a40-4f13-4a7a-9397-f0632d152f44"},"geometry":{"type":"Polygon","coordinates":[[[139.8301717764248,35.62567746208427],[139.83009990556354,35.62567078996359],[139.8298974307265,35.62565203565189],[139.8300285155879,35.62470982655903],[139.83009994398768,35.624716408573434],[139.83030285810918,35.624735252696716],[139.83027823220002,35.62491264371563],[139.8301717764248,35.62567746208427]]]}},{"type":"Feature","properties":{"height":10.8,"gml_id":"bldg_a9bd28b6-1f35-44ce-8deb-ae1d2a9b707f"},"geometry":{"type":"Polygon","coordinates":[[[139.83074001006958,35.625706139544945],[139.83047979543417,35.62568080488018],[139.83047714581676,35.62568053440335],[139.8305917689304,35.62489705737961],[139.83085463065822,35.624922572136306],[139.83074001006958,35.625706139544945]]]}},{"type":"Feature","properties":{"height":9.7,"gml_id":"bldg_53fd0199-a2ef-4a0c-9c0a-e5755fc41c93"},"geometry":{"type":"Polygon","coordinates":[[[139.8305350741429,35.62660652353042],[139.83037101674424,35.62659119614777],[139.83046852687636,35.6258950626731],[139.830632693276,35.625910299789126],[139.8305350741429,35.62660652353042]]]}},{"type":"Feature","properties":{"height":9.5,"gml_id":"bldg_c4b944f8-1435-426d-a28c-6d1b2522f2bf"},"geometry":{"type":"Polygon","coordinates":[[[139.830294066608,35.62658272125888],[139.83012824286652,35.62656739350101],[139.83022542389435,35.62587062924553],[139.8303912462124,35.625886047009374],[139.830294066608,35.62658272125888]]]}},{"type":"Feature","properties":{"height":8.9,"gml_id":"bldg_c0a7f470-9408-4064-823e-c7f5aabb83b6"},"geometry":{"type":"Polygon","coordinates":[[[139.83004875249645,35.62658406689053],[139.82977109166208,35.626558820359776],[139.82987247306974,35.62581473405506],[139.83009989893677,35.62583538197872],[139.8301500209621,35.62583998035221],[139.83009988391925,35.626208373067556],[139.83004875249645,35.62658406689053]]]}},{"type":"Feature","properties":{"height":10.3,"gml_id":"bldg_6318d301-ccea-4f2b-91a1-14ac4ea676b9"},"geometry":{"type":"Polygon","coordinates":[[[139.8306806532399,35.62786791789396],[139.83056053394526,35.62785628738934],[139.83061839922055,35.627456436599424],[139.83063838687917,35.627318976612735],[139.83075850538137,35.627330607040754],[139.8307162113873,35.627621932110294],[139.8306806532399,35.62786791789396]]]}},{"type":"Feature","properties":{"height":9.9,"gml_id":"bldg_0c709002-39ad-4aed-b04a-af9373156a05"},"geometry":{"type":"Polygon","coordinates":[[[139.8304371026502,35.627842222959785],[139.83019366251122,35.62781932181352],[139.83021839977343,35.62764526600609],[139.83027505214693,35.62724586602569],[139.83030552334267,35.62724875121112],[139.83030751113495,35.627234599596214],[139.83052047832282,35.62725470552921],[139.83048006059218,35.62753972090413],[139.8304371026502,35.627842222959785]]]}},{"type":"Feature","properties":{"height":9.2,"gml_id":"bldg_25424ae3-8083-4a15-ae52-942bebefc407"},"geometry":{"type":"Polygon","coordinates":[[[139.83012234081446,35.62783608559869],[139.8300998184675,35.62783392168469],[139.82985052708588,35.62780984789404],[139.82988078678318,35.62760081877624],[139.82993987004463,35.62719267563483],[139.83021168171345,35.627218913140496],[139.8301549189183,35.62761128232696],[139.83012234081446,35.62783608559869]]]}},{"type":"Feature","properties":{"height":9.0,"gml_id":"bldg_6fe15506-6f34-42a7-8ffa-044b317d2748"},"geometry":{"type":"Polygon","coordinates":[[[139.82978019991978,35.62780497838924],[139.82966659464637,35.62779424856499],[139.82950639911897,35.62777910040137],[139.82959408878767,35.627158773513194],[139.82986788750176,35.62718465130436],[139.82980184583957,35.627652014864616],[139.82978019991978,35.62780497838924]]]}},{"type":"Feature","properties":{"height":8.6,"gml_id":"bldg_4f37d706-cbb6-484c-aaa4-78e69c80887e"},"geometry":{"type":"Polygon","coordinates":[[[139.8305797197696,35.62857054116771],[139.8304597098501,35.62855873029044],[139.83053922020508,35.628021419680266],[139.83065922933326,35.62803323047936],[139.8305797197696,35.62857054116771]]]}},{"type":"Feature","properties":{"height":10.0,"gml_id":"bldg_0121784e-534e-46fb-86c7-2b6b1af4da76"},"geometry":{"type":"Polygon","coordinates":[[[139.8303285485315,35.628560890401815],[139.83009979004802,35.62853970205532],[139.83006975998634,35.62853690696839],[139.83009979890426,35.628319765396995],[139.83013524905388,35.62806305338079],[139.830394146496,35.62808703667803],[139.8303285485315,35.628560890401815]]]}},{"type":"Feature","properties":{"height":9.3,"gml_id":"bldg_a871fa5c-8b44-43d7-9b8a-b42ccf52f1fc"},"geometry":{"type":"Polygon","coordinates":[[[139.8299590120341,35.628814979558285],[139.82968421406696,35.6287894625027],[139.8297459504126,35.628347878428485],[139.82979045756605,35.62803005323364],[139.83006525296463,35.62805566018794],[139.8299590120341,35.628814979558285]]]}},{"type":"Feature","properties":{"height":9.0,"gml_id":"bldg_ac107d3a-6718-4067-984f-c07cd8de5ead"},"geometry":{"type":"Polygon","coordinates":[[[139.82961377555992,35.62878648579552],[139.82933952985377,35.628760427142836],[139.82944831592565,35.627999936600425],[139.82972255906185,35.62802617528457],[139.82961377555992,35.62878648579552]]]}},{"type":"Feature","properties":{"height":11.0,"gml_id":"bldg_a02b3aef-fdf1-4384-9785-7e80597b6a27"},"geometry":{"type":"Polygon","coordinates":[[[139.8294430276494,35.62777017471117],[139.82913544361426,35.6277414103689],[139.82922170061306,35.627126041287745],[139.82952917192324,35.627154715271125],[139.8294430276494,35.62777017471117]]]}},{"type":"Feature","properties":{"height":9.4,"gml_id":"bldg_0df41bae-57f4-4fbf-ac98-d74d22105308"},"geometry":{"type":"Polygon","coordinates":[[[139.8282988338398,35.62547909473718],[139.82817904971793,35.62546665062544],[139.82826287801987,35.62492699783757],[139.8283826613554,35.62493935172898],[139.8282988338398,35.62547909473718]]]}},{"type":"Feature","properties":{"height":9.9,"gml_id":"bldg_0fbeb603-25cf-40a7-a448-beafadb2eaa2"},"geometry":{"type":"Polygon","coordinates":[[[139.82865961663316,35.62939641616559],[139.82835346215396,35.62936404437138],[139.82840714025423,35.629026750319674],[139.82871329346395,35.62905921211716],[139.82865961663316,35.62939641616559]]]}},{"type":"Feature","properties":{"height":7.8,"gml_id":"bldg_77080c45-42ef-4340-a832-a6ee5264b2fc"},"geometry":{"type":"Polygon","coordinates":[[[139.8283268543579,35.62936251092324],[139.82782914656627,35.6293143555404],[139.82785863887696,35.629110825363796],[139.82835645583071,35.629158980630876],[139.8283268543579,35.62936251092324]]]}},{"type":"Feature","properties":{"height":5.5,"gml_id":"bldg_6ec83553-f2c3-48e5-a4aa-30dc91754560"},"geometry":{"type":"Polygon","coordinates":[[[139.83045714091463,35.62938565593568],[139.83029970235444,35.62936690337822],[139.8303199109601,35.62925305963985],[139.830477349305,35.629271722033295],[139.83045714091463,35.62938565593568]]]}},{"type":"Feature","properties":{"height":6.7,"gml_id":"bldg_70ccaf8e-341f-464b-9c17-499e15ab505c"},"geometry":{"type":"Polygon","coordinates":[[[139.8308127451445,35.633355158095185],[139.83074495254596,35.63334983852147],[139.8307538983875,35.633272139842134],[139.83082169092106,35.63327745941088],[139.8308127451445,35.633355158095185]]]}},{"type":"Feature","properties":{"height":10.9,"gml_id":"bldg_e3e62111-f8f2-43a1-8d36-2c3cfd389e49"},"geometry":{"type":"Polygon","coordinates":[[[139.82932958568827,35.633342949315036],[139.8291287477557,35.63332617682302],[139.82914211312567,35.63321963428839],[139.82934295079002,35.633236496896316],[139.82932958568827,35.633342949315036]]]}},{"type":"Feature","properties":{"height":8.8,"gml_id":"bldg_a122afd3-dda6-4ba6-87f3-7b1cdef5d5f5"},"geometry":{"type":"Polygon","coordinates":[[[139.8264856007592,35.6333590460447],[139.8263697799131,35.63334741161609],[139.8263893339808,35.633217884579835],[139.82650526504673,35.63322960913401],[139.8264856007592,35.6333590460447]]]}},{"type":"Feature","properties":{"height":6.0,"gml_id":"bldg_18904da9-de72-4438-93c1-2bbdf63f2adf"},"geometry":{"type":"Polygon","coordinates":[[[139.82561184906805,35.632876935696224],[139.8255395304981,35.63287026083394],[139.82555201578288,35.63277904207745],[139.82562433428035,35.63278562679441],[139.82561184906805,35.632876935696224]]]}},{"type":"Feature","properties":{"height":4.5,"gml_id":"bldg_fca14c6b-8763-40a5-beaa-5e8fc96c3286"},"geometry":{"type":"Polygon","coordinates":[[[139.82596438159885,35.632984312023986],[139.82587682632217,35.63297592381109],[139.82590080084626,35.632810612369944],[139.82598824553426,35.6328190005589],[139.82596438159885,35.632984312023986]]]}},{"type":"Feature","properties":{"height":6.5,"gml_id":"bldg_a51f2a17-e33f-49d8-9ece-6b4d7de63f69"},"geometry":{"type":"Polygon","coordinates":[[[139.8250747883155,35.633086470707426],[139.82496504053802,35.63307627755041],[139.82497575852145,35.63299857941996],[139.825153629271,35.63301499672768],[139.82515141943932,35.63303077071111],[139.82510195100338,35.633071780087995],[139.82507710869555,35.633069524940346],[139.8250747883155,35.633086470707426]]]}},{"type":"Feature","properties":{"height":7.1,"gml_id":"bldg_be00f73e-a76a-44d1-9ec2-83a2c43bd684"},"geometry":{"type":"Polygon","coordinates":[[[139.8251588193228,35.633007876185395],[139.8249805068964,35.632991909544245],[139.82499277207867,35.632900059866984],[139.82515496443384,35.6329145831904],[139.82515330702802,35.63292675169534],[139.8251694269093,35.63292810485746],[139.8251588193228,35.633007876185395]]]}},{"type":"Feature","properties":{"height":10.8,"gml_id":"bldg_060dd574-2c99-40da-93c6-3ed3ca26338b"},"geometry":{"type":"Polygon","coordinates":[[[139.83205525645502,35.63029562613272],[139.83177426996428,35.630268761715776],[139.8317850913579,35.6301927755653],[139.83206618799375,35.6302196399585],[139.83205525645502,35.63029562613272]]]}},{"type":"Feature","properties":{"height":6.7,"gml_id":"bldg_d4c3fa04-be20-41a9-898c-b43060699d9b"},"geometry":{"type":"Polygon","coordinates":[[[139.83051909013824,35.62906224238777],[139.83046984928816,35.62905872584677],[139.83047327301318,35.629026546674375],[139.8305225138468,35.629029973076],[139.83051909013824,35.62906224238777]]]}},{"type":"Feature","properties":{"height":5.3,"gml_id":"bldg_7e7eedb3-6081-4cea-9ad5-99becf7ab8b0"},"geometry":{"type":"Polygon","coordinates":[[[139.83072661543997,35.626817991576445],[139.83063862584282,35.62681077860056],[139.83064613418404,35.62674912437656],[139.83073412481835,35.626756337347054],[139.83072661543997,35.626817991576445]]]}},{"type":"Feature","properties":{"height":9.7,"gml_id":"bldg_94f73796-2647-404d-a27e-d2aa204179c7"},"geometry":{"type":"Polygon","coordinates":[[[139.82707291455733,35.63292226971517],[139.82733856187008,35.63294571908338],[139.8273245316917,35.633052171251606],[139.82705877362662,35.63302863170919],[139.8270236631749,35.63302457366954],[139.82703934983581,35.63291911313944],[139.82707291455733,35.63292226971517]]]}},{"type":"Feature","properties":{"height":11.0,"gml_id":"bldg_a7ffc255-0d6c-405f-8444-423638a7a49f"},"geometry":{"type":"Polygon","coordinates":[[[139.82920206655598,35.63321981663516],[139.82915083588702,35.633214767144786],[139.8291556957136,35.63318168670291],[139.82914134230188,35.633180243997835],[139.82914819024012,35.633133642939605],[139.82921377426715,35.63314004499144],[139.82920206655598,35.63321981663516]]]}},{"type":"Feature","properties":{"height":14.6,"gml_id":"bldg_42c8d3cf-434a-4993-b313-16ffd8d0cc80"},"geometry":{"type":"Polygon","coordinates":[[[139.8303948894373,35.628903867015175],[139.8303437718323,35.62889935885912],[139.83034498662545,35.62889043523044],[139.8303449866389,35.62889007467858],[139.83029320661913,35.62888538620871],[139.83029917021395,35.628840497650806],[139.8302837134996,35.628839144289614],[139.83028901450317,35.62879849310105],[139.83030447120643,35.62879993569816],[139.83030999304842,35.628758201956934],[139.8303639810944,35.62876289047415],[139.83036552719255,35.628751442990065],[139.83041189729082,35.62875550033211],[139.83041046160454,35.62876694781946],[139.83046776180745,35.62877208706032],[139.83046201913893,35.62881652494248],[139.8304733908604,35.628817606868594],[139.83046831082416,35.628856456212425],[139.83045473099068,35.628855284095124],[139.83044898835112,35.62889855018246],[139.83039621466665,35.62889395187104],[139.8303948894373,35.628903867015175]]]}},{"type":"Feature","properties":{"height":11.1,"gml_id":"bldg_fd5e7b81-1f1d-4c62-a5c8-27048c69f406"},"geometry":{"type":"Polygon","coordinates":[[[139.82854243072822,35.626447727744655],[139.8282952416898,35.62642473246998],[139.82833721324118,35.62612358313619],[139.8285845117665,35.626146578330186],[139.82854243072822,35.626447727744655]]]}},{"type":"Feature","properties":{"height":20.4,"gml_id":"bldg_5820b2a3-d8a1-4f41-ab60-c049ce2f3afe"},"geometry":{"type":"Polygon","coordinates":[[[139.82547225562485,35.633234593875834],[139.8252821275804,35.63321781566896],[139.82530058016889,35.6330791848047],[139.82549070676717,35.633096143258555],[139.82547225562485,35.633234593875834]]]}},{"type":"Feature","properties":{"height":18.2,"gml_id":"bldg_659a2ca5-d666-45a4-9833-2f7edcce94d7"},"geometry":{"type":"Polygon","coordinates":[[[139.8268681893234,35.63320898757834],[139.826523045787,35.63317669919141],[139.82653265732304,35.633108916030594],[139.82667453478632,35.63312226436633],[139.8266760814646,35.633111177489575],[139.8267317283582,35.633116318412455],[139.82673007120943,35.633128216525],[139.8268775796912,35.63314192548172],[139.8268681893234,35.63320898757834]]]}},{"type":"Feature","properties":{"height":9.3,"gml_id":"bldg_c874664b-0a24-41de-95d5-206274d5682e"},"geometry":{"type":"Polygon","coordinates":[[[139.82758819925107,35.632975747170434],[139.82753296742374,35.633339090414076],[139.82729105733287,35.633314561014146],[139.82730541792918,35.63322018735003],[139.82703005385633,35.63319232064446],[139.82705391504615,35.63303485097151],[139.82733159721053,35.63306289801455],[139.82734849844036,35.63295148840349],[139.82758819925107,35.632975747170434]]]}},{"type":"Feature","properties":{"height":4.0,"gml_id":"bldg_910f8020-90e0-4083-b7db-73f926ac9afd"},"geometry":{"type":"Polygon","coordinates":[[[139.82873105636347,35.633128580002996],[139.82866812222545,35.633122718618424],[139.8286739764703,35.633080624443494],[139.8287369105757,35.63308648582504],[139.82873105636347,35.633128580002996]]]}},{"type":"Feature","properties":{"height":3.5,"gml_id":"bldg_aa44fc9e-99df-401a-9294-2fbbc441d05a"},"geometry":{"type":"Polygon","coordinates":[[[139.8312562463679,35.62995633576461],[139.8311469437163,35.62994596796602],[139.8311542319719,35.62989458946514],[139.83126353455452,35.62990495725722],[139.8312562463679,35.62995633576461]]]}},{"type":"Feature","properties":{"height":2.3,"gml_id":"bldg_a873892e-e487-4986-9abe-5fe6a6287211"},"geometry":{"type":"Polygon","coordinates":[[[139.831968736145,35.62799205937174],[139.8319508506789,35.627990256408204],[139.83196167152747,35.62791841656024],[139.83197944657513,35.627920129382986],[139.831968736145,35.62799205937174]]]}},{"type":"Feature","properties":{"height":5.6,"gml_id":"bldg_58cf1c37-ec55-4b6e-9f95-9cc96ceec151"},"geometry":{"type":"Polygon","coordinates":[[[139.82566605291612,35.632960316722574],[139.8255330087611,35.6329473283227],[139.82553996927234,35.63289982609608],[139.82567301334979,35.632912814488385],[139.82566605291612,35.632960316722574]]]}},{"type":"Feature","properties":{"height":7.5,"gml_id":"bldg_2a49cf1d-436f-4663-80c2-52e5ee93aa81"},"geometry":{"type":"Polygon","coordinates":[[[139.83175873719188,35.628500435003794],[139.83162592030584,35.628484839325154],[139.8316286807633,35.628469155356754],[139.8316506539548,35.628344855397856],[139.83187466479043,35.62837126874537],[139.83186472711165,35.62843932279594],[139.83175873719188,35.628500435003794]]]}},{"type":"Feature","properties":{"height":8.2,"gml_id":"bldg_70493c12-70de-4789-9890-abb0fa9d612e"},"geometry":{"type":"Polygon","coordinates":[[[139.8301073585705,35.6270217785983],[139.83009985119403,35.62702114743106],[139.829972888252,35.62700987670703],[139.82998194417183,35.62694092139186],[139.83009985400676,35.62695129048387],[139.83011641437983,35.62695273313516],[139.8301073585705,35.6270217785983]]]}},{"type":"Feature","properties":{"height":11.9,"gml_id":"bldg_ff381db0-cbc8-4721-95c2-251dbf1cfb1f"},"geometry":{"type":"Polygon","coordinates":[[[139.83183706278345,35.62590040558549],[139.83219597733722,35.62593484222925],[139.83216914708967,35.62612034599937],[139.8318102317252,35.62608554872467],[139.83183706278345,35.62590040558549]]]}},{"type":"Feature","properties":{"height":6.5,"gml_id":"bldg_56d31b35-bef2-4f18-b953-bef5d27da63c"},"geometry":{"type":"Polygon","coordinates":[[[139.8308731467286,35.62593923924125],[139.83079143192404,35.62649872416048],[139.83076824754363,35.626495839252954],[139.83084985207185,35.62593743600307],[139.8308731467286,35.62593923924125]]]}},{"type":"Feature","properties":{"height":7.9,"gml_id":"bldg_91e35381-9b92-4a07-80f6-d928dd574719"},"geometry":{"type":"Polygon","coordinates":[[[139.82904580182583,35.625556912745914],[139.82917954399358,35.624655717461096],[139.82924964750183,35.624661849243836],[139.82911601650673,35.625563134747495],[139.82904580182583,35.625556912745914]]]}},{"type":"Feature","properties":{"height":11.6,"gml_id":"bldg_0d7758c0-60f4-4b4f-9fcd-7a4baf550fc6"},"geometry":{"type":"Polygon","coordinates":[[[139.8277184575984,35.63335919995447],[139.8277175738699,35.633365419428415],[139.82754224133308,35.633348375064045],[139.8275781427127,35.633103021413135],[139.82758344242427,35.633103472355714],[139.82774894788722,35.6331196148266],[139.82775347472136,35.633120065725876],[139.8277261901114,35.63330628936661],[139.8277184575984,35.63335919995447]]]}},{"type":"Feature","properties":{"height":10.6,"gml_id":"bldg_42d13fca-eb81-4af4-b946-7ada430ec082"},"geometry":{"type":"Polygon","coordinates":[[[139.82960606373828,35.63318674920198],[139.82958507851922,35.63333763939941],[139.82955460503865,35.63333475403453],[139.82957559031004,35.63318395398025],[139.82960606373828,35.63318674920198]]]}},{"type":"Feature","properties":{"height":3.5,"gml_id":"bldg_c5e83f61-7c25-4c93-908f-2f1b25ca9769"},"geometry":{"type":"Polygon","coordinates":[[[139.8333785993044,35.62835892866489],[139.83336634440352,35.62843861063906],[139.8333368662905,35.628435636090366],[139.8333333333333,35.628435275538514],[139.83331246680535,35.62843311222532],[139.83332472175886,35.62835343025654],[139.8333333333333,35.62835433163661],[139.83333686628694,35.62835469218846],[139.8333785993044,35.62835892866489]]]}},{"type":"Feature","properties":{"height":9.4,"gml_id":"bldg_0f7ccd17-a116-45d8-b303-7a96e0045a6a"},"geometry":{"type":"Polygon","coordinates":[[[139.83337053948543,35.627780423110266],[139.83336457768357,35.62781846134133],[139.8333368662632,35.627815667067836],[139.8333333333333,35.62781530651594],[139.83280946641608,35.62776185355215],[139.83281509726487,35.627723815346755],[139.8333333333333,35.62777699787258],[139.83333686626153,35.62777735842448],[139.83337053948543,35.627780423110266]]]}},{"type":"Feature","properties":{"height":7.5,"gml_id":"bldg_6739a440-8745-4647-b98e-8fea4dd7d3b1"},"geometry":{"type":"Polygon","coordinates":[[[139.8277184575984,35.63335919995447],[139.8277261901114,35.63330628936661],[139.82780171114956,35.63331359402814],[139.82779773445438,35.63334081549166],[139.82774771831222,35.6333359457363],[139.82774396252765,35.63336163486387],[139.8277184575984,35.63335919995447]]]}},{"type":"Feature","properties":{"height":24.1,"gml_id":"bldg_483d2170-f788-4132-9eab-8998886cc0c5"},"geometry":{"type":"Polygon","coordinates":[[[139.8328790164498,35.62855335542769],[139.83279786867942,35.62855939433853],[139.83276828011967,35.62855903365149],[139.8327208059643,35.628555067348664],[139.83268437231865,35.62855137150101],[139.83265732312074,35.62854605321185],[139.83261956468306,35.628535416713234],[139.8325985878093,35.62852604223788],[139.83277799587665,35.62854316941341],[139.83279036182978,35.62845645673897],[139.8328886221765,35.62846574135312],[139.8328790164498,35.62855335542769]]]}},{"type":"Feature","properties":{"height":19.1,"gml_id":"bldg_47541048-9d03-4b76-87a4-069de0ebd241"},"geometry":{"type":"Polygon","coordinates":[[[139.83110404855384,35.62803125649611],[139.83109698133956,35.628079209770725],[139.83107103637124,35.62807668542287],[139.83107810360082,35.62802873214975],[139.83110404855384,35.62803125649611]]]}},{"type":"Feature","properties":{"height":6.6,"gml_id":"bldg_0a57ef5b-974a-40ea-8e49-a0a3ae56593b"},"geometry":{"type":"Polygon","coordinates":[[[139.8296645277409,35.624704047190676],[139.8295579549421,35.6254913094065],[139.8295081643666,35.62548680093497],[139.8296147376475,35.624699538762634],[139.8296645277409,35.624704047190676]]]}},{"type":"Feature","properties":{"height":8.3,"gml_id":"bldg_b70b6caa-372e-43ce-9206-8a889a18d805"},"geometry":{"type":"Polygon","coordinates":[[[139.82937226493272,35.625405221635795],[139.82947971960724,35.624681056223274],[139.8295398871907,35.6246870072428],[139.82943243305073,35.62541117270833],[139.82937226493272,35.625405221635795]]]}},{"type":"Feature","properties":{"height":7.6,"gml_id":"bldg_2cd7f253-8f3c-41d0-a526-7d20dd5e6507"},"geometry":{"type":"Polygon","coordinates":[[[139.82950792835723,35.62580606978206],[139.82941118292806,35.62650003920215],[139.8293669118254,35.626495981542575],[139.82946365763226,35.62580201215759],[139.82950792835723,35.62580606978206]]]}},{"type":"Feature","properties":{"height":10.4,"gml_id":"bldg_5ea3836c-fab1-415c-9755-bdd8f188a3b0"},"geometry":{"type":"Polygon","coordinates":[[[139.83341867526073,35.62742843424557],[139.83340796620735,35.627524070659184],[139.8333368662501,35.6275174906091],[139.8333333333333,35.62751722019518],[139.8323791156997,35.627423202493425],[139.8323931380518,35.62732882812744],[139.83239324846468,35.62732801688638],[139.8333333333333,35.627420682408676],[139.83333686624587,35.62742095282258],[139.83341867526073,35.62742843424557]]]}},{"type":"Feature","properties":{"height":8.7,"gml_id":"bldg_64add21f-ff9b-4876-874a-065b5662212c"},"geometry":{"type":"Polygon","coordinates":[[[139.82830068281066,35.6276851322867],[139.82857746381333,35.6277109229949],[139.8285743711896,35.627733096817195],[139.8282974797076,35.62770730609735],[139.82830068281066,35.6276851322867]]]}},{"type":"Feature","properties":{"height":7.0,"gml_id":"bldg_1cc60714-4dc1-4a9a-91a0-bbfb89bc5f1b"},"geometry":{"type":"Polygon","coordinates":[[[139.82990645537757,35.628900969696595],[139.82935431982605,35.62884813187626],[139.82935708092268,35.62882875230416],[139.82990921634274,35.628881590112016],[139.82990645537757,35.628900969696595]]]}},{"type":"Feature","properties":{"height":9.8,"gml_id":"bldg_5f8dc498-a4a7-4495-a365-cade27fd1edb"},"geometry":{"type":"Polygon","coordinates":[[[139.82560232145033,35.63321206781748],[139.8254967690258,35.63320232610377],[139.82553764468892,35.63296111972252],[139.82563966356685,35.63297167241632],[139.82560232145033,35.63321206781748]]]}},{"type":"Feature","properties":{"height":15.9,"gml_id":"bldg_1265e251-d0ae-4a98-a720-9065f5e172a3"},"geometry":{"type":"Polygon","coordinates":[[[139.8327933656331,35.62505518946163],[139.83274202688676,35.62541141468668],[139.8326520503452,35.625402670823505],[139.83270338948438,35.6250465357743],[139.8327933656331,35.62505518946163]]]}},{"type":"Feature","properties":{"height":4.9,"gml_id":"bldg_3ff0cd85-12f1-4f8e-94f2-4022aea4f303"},"geometry":{"type":"Polygon","coordinates":[[[139.8374236608723,35.629344968610276],[139.83711285664515,35.629113865025346],[139.83717468126238,35.62905833808345],[139.83748559586792,35.62928962178313],[139.8374236608723,35.629344968610276]]]}},{"type":"Feature","properties":{"height":10.0,"gml_id":"bldg_894eb6ce-1b91-4fe8-b4b9-088fa3a10a5d"},"geometry":{"type":"Polygon","coordinates":[[[139.8323791156997,35.627423202493425],[139.83235029799508,35.62761808059286],[139.8323205994122,35.62761519593129],[139.83228593266836,35.62761177039136],[139.83228449742157,35.627611590102916],[139.8323264544836,35.62732242779119],[139.8323931380518,35.62732882812744],[139.8323791156997,35.627423202493425]]]}},{"type":"Feature","properties":{"height":10.0,"gml_id":"bldg_e7bba699-5c94-43bf-813a-5f66e0bc86ba"},"geometry":{"type":"Polygon","coordinates":[[[139.83160794145905,35.62768594615207],[139.83165729948757,35.62732692723985],[139.83175456469942,35.62733576207689],[139.83172916819,35.62752234738041],[139.8316543146516,35.62751558601131],[139.83163079501875,35.62768801965089],[139.83160794145905,35.62768594615207]]]}},{"type":"Feature","properties":{"height":15.6,"gml_id":"bldg_785920d9-1486-408f-9e30-1f3ff71aebc9"},"geometry":{"type":"Polygon","coordinates":[[[139.8315075710133,35.62827166127734],[139.83155991073005,35.62791417483086],[139.8316063908036,35.627918502129255],[139.83158110437455,35.62809571303516],[139.83164690529168,35.62810202363284],[139.8316211772101,35.62828229922678],[139.8315075710133,35.62827166127734]]]}},{"type":"Feature","properties":{"height":22.2,"gml_id":"bldg_3aec4baf-58c4-40d0-8b49-a9fd7df51dcb"},"geometry":{"type":"Polygon","coordinates":[[[139.83272601787814,35.625530306654404],[139.8327078007436,35.625656499785556],[139.83265414585765,35.625651181352055],[139.83267302548003,35.62552507837056],[139.83272601787814,35.625530306654404]]]}},{"type":"Feature","properties":{"height":19.4,"gml_id":"bldg_40fc31d0-a70e-4286-bf8e-4765251c981f"},"geometry":{"type":"Polygon","coordinates":[[[139.83263382482866,35.62648117203471],[139.832590875541,35.62678637905175],[139.8325757503879,35.626785387439604],[139.83250233270124,35.62677844632959],[139.83254616554328,35.626472788659456],[139.83263382482866,35.62648117203471]]]}},{"type":"Feature","properties":{"height":4.2,"gml_id":"bldg_da2ea10d-6ce9-42a3-b11f-76ec68a2c85d"},"geometry":{"type":"Polygon","coordinates":[[[139.83135634446322,35.62713952579002],[139.83135479880383,35.62714015673061],[139.83132388554344,35.62715547967796],[139.83131726093788,35.62717206495815],[139.83128645853913,35.627168639194984],[139.83129275239253,35.62713429672601],[139.83135634446322,35.62713952579002]]]}},{"type":"Feature","properties":{"height":4.8,"gml_id":"bldg_d790e513-f142-456b-85d8-cded6c75255e"},"geometry":{"type":"Polygon","coordinates":[[[139.8319110087548,35.62719821344921],[139.83189168809724,35.62720353136117],[139.83187634193857,35.627209660560084],[139.8318662961661,35.6272196657554],[139.83185900822474,35.62723183429547],[139.83167264787,35.627215156342025],[139.83167518752222,35.62719685836438],[139.8315654469498,35.62718694162471],[139.8315492182687,35.62716044081532],[139.8319110087548,35.62719821344921]]]}},{"type":"Feature","properties":{"height":7.6,"gml_id":"bldg_b0e0d744-7c95-4cd5-adac-a78efc898fbb"},"geometry":{"type":"Polygon","coordinates":[[[139.82606861614266,35.632913560098075],[139.8260956666109,35.63291626586353],[139.8260366704477,35.63331953928858],[139.82600961983735,35.633316923647946],[139.82606861614266,35.632913560098075]]]}},{"type":"Feature","properties":{"height":7.4,"gml_id":"bldg_75e21ec3-a358-46cc-9fa3-a8796112e43d"},"geometry":{"type":"Polygon","coordinates":[[[139.82908927922972,35.628035258575736],[139.82899716672338,35.628688395068245],[139.8289420747597,35.628683615760266],[139.82903705825086,35.6280299385839],[139.82908927922972,35.628035258575736]]]}},{"type":"Feature","properties":{"height":8.5,"gml_id":"bldg_f54f5c20-3ee7-44db-8b3d-9cc888a74b92"},"geometry":{"type":"Polygon","coordinates":[[[139.82859413491107,35.62770912089217],[139.8288695914638,35.62773094480567],[139.8288606472583,35.62775762531751],[139.82859071084596,35.627735260773186],[139.82859413491107,35.62770912089217]]]}},{"type":"Feature","properties":{"height":16.7,"gml_id":"bldg_40274dd2-c5bb-4694-a2f2-c231bccad1c5"},"geometry":{"type":"Polygon","coordinates":[[[139.83341525315768,35.627826754012055],[139.83341260347942,35.62784658437026],[139.83336170718619,35.62784198735584],[139.83336457768357,35.62781846134133],[139.83337053948543,35.627780423110266],[139.83337837813926,35.62772507838478],[139.8333333333333,35.62772048135594],[139.83282326750927,35.627668200244344],[139.83281509726487,35.627723815346755],[139.83280946641608,35.62776185355215],[139.8328027314703,35.62780764361883],[139.83226484364536,35.62775463891407],[139.83228593266836,35.62761177039136],[139.8323205994122,35.62761519593129],[139.83235029799508,35.62761808059286],[139.8323791156997,35.627423202493425],[139.8333333333333,35.62751722019518],[139.8333368662501,35.6275174906091],[139.83340796620735,35.627524070659184],[139.83341867526073,35.62742843424557],[139.83342022089587,35.62741527409792],[139.83352642909574,35.627424828601455],[139.83347166964919,35.627831801687584],[139.83341525315768,35.627826754012055]]]}},{"type":"Feature","properties":{"height":7.1,"gml_id":"bldg_7904ac99-d7ca-4a06-834b-4afd8cede562"},"geometry":{"type":"Polygon","coordinates":[[[139.8300738405425,35.62864606416344],[139.83002149359905,35.62900679488721],[139.82999676282003,35.629004450617686],[139.83004910987307,35.62864371990453],[139.8300738405425,35.62864606416344]]]}},{"type":"Feature","properties":{"height":13.0,"gml_id":"bldg_c7241247-8be8-4b53-8a7c-7ca407aada04"},"geometry":{"type":"Polygon","coordinates":[[[139.83337837813926,35.62772507838478],[139.83337053948543,35.627780423110266],[139.83333686626153,35.62777735842448],[139.8333333333333,35.62777699787258],[139.83281509726487,35.627723815346755],[139.83282326750927,35.627668200244344],[139.8333333333333,35.62772048135594],[139.83337837813926,35.62772507838478]]]}},{"type":"Feature","properties":{"height":9.6,"gml_id":"bldg_745995a3-ceca-402e-922a-70041e51cd4f"},"geometry":{"type":"Polygon","coordinates":[[[139.82915222783515,35.62556674153035],[139.82930016439997,35.62558134893247],[139.8292942007428,35.62562118973628],[139.8291463745067,35.62560658233077],[139.82915222783515,35.62556674153035]]]}},{"type":"Feature","properties":{"height":9.8,"gml_id":"bldg_f58ff58a-6396-411c-ae7d-b3498299d160"},"geometry":{"type":"Polygon","coordinates":[[[139.82885293241816,35.62553788660586],[139.8289999856726,35.6255524042058],[139.82899346963472,35.62559648146185],[139.82884641630577,35.625581873716065],[139.82885293241816,35.62553788660586]]]}},{"type":"Feature","properties":{"height":8.3,"gml_id":"bldg_ba797092-5aa6-49a3-b2b2-16039401bcb5"},"geometry":{"type":"Polygon","coordinates":[[[139.82990645537757,35.628900969696595],[139.82989265055863,35.62899723665193],[139.82934051435433,35.628944398769114],[139.82935431982605,35.62884813187626],[139.82990645537757,35.628900969696595]]]}},{"type":"Feature","properties":{"height":9.7,"gml_id":"bldg_216b4423-9201-42bb-951a-d1bbe07012ba"},"geometry":{"type":"Polygon","coordinates":[[[139.8300738405425,35.62864606416344],[139.83019318811498,35.628657604993734],[139.8301408417001,35.62901833576872],[139.83002149359905,35.62900679488721],[139.8300738405425,35.62864606416344]]]}},{"type":"Feature","properties":{"height":16.1,"gml_id":"bldg_00959589-9a0e-46f6-8fde-7450dddbfceb"},"geometry":{"type":"Polygon","coordinates":[[[139.83292560914978,35.628207045492076],[139.8328886221765,35.62846574135312],[139.83279036182978,35.62845645673897],[139.8328349673618,35.62814457953198],[139.8333333333333,35.62819208327761],[139.83342242983724,35.62820046607666],[139.83341492237918,35.62825364748895],[139.83333686628217,35.62824625620237],[139.8333333333333,35.62824598578847],[139.83292560914978,35.628207045492076]]]}},{"type":"Feature","properties":{"height":17.1,"gml_id":"bldg_4e1cf6ff-d6e8-4f2f-b026-4f3c3425c2d5"},"geometry":{"type":"Polygon","coordinates":[[[139.83274213312708,35.625976580046824],[139.83274180190722,35.62597865321947],[139.83269774925134,35.62628737567699],[139.8326969763969,35.62629251353932],[139.83260898610501,35.626284130207765],[139.8326129608196,35.6262569085534],[139.83251580722552,35.62624771385654],[139.8325530151987,35.62598721525571],[139.8326540325334,35.625996770496855],[139.83265800722683,35.62596855732158],[139.83274213312708,35.625976580046824]]]}},{"type":"Feature","properties":{"height":36.5,"gml_id":"bldg_f0d20cb7-bc2f-422d-ad2c-7a2f66f26c43"},"geometry":{"type":"Polygon","coordinates":[[[139.83279036182978,35.62845645673897],[139.83277799587665,35.62854316941341],[139.8325985878093,35.62852604223788],[139.83219395389332,35.62848755017576],[139.8322746673819,35.62792283647845],[139.83285870531395,35.627978455329966],[139.8328349673618,35.62814457953198],[139.83279036182978,35.62845645673897]]]}},{"type":"Feature","properties":{"height":11.2,"gml_id":"bldg_809f1a29-7e2e-4e56-bf03-ca13706b387d"},"geometry":{"type":"Polygon","coordinates":[[[139.83368142556836,35.62510061973346],[139.83358372346476,35.62580207404411],[139.8335103065903,35.62579531382325],[139.83360867172883,35.62509385956984],[139.83368142556836,35.62510061973346]]]}},{"type":"Feature","properties":{"height":7.7,"gml_id":"bldg_75a9db71-8be7-4290-bac2-29edab5fa90e"},"geometry":{"type":"Polygon","coordinates":[[[139.82774894788722,35.6331196148266],[139.82758344242427,35.633103472355714],[139.82760354710283,35.63296592286958],[139.82776905228627,35.632982065313186],[139.82774894788722,35.6331196148266]]]}},{"type":"Feature","properties":{"height":4.3,"gml_id":"bldg_03ade70d-7dbe-4d2e-bdde-41d528f44189"},"geometry":{"type":"Polygon","coordinates":[[[139.82868610958812,35.63329010539983],[139.82860285974482,35.63328171933464],[139.82860749885614,35.633250712078336],[139.82869074866778,35.633259098140364],[139.82868610958812,35.63329010539983]]]}},{"type":"Feature","properties":{"height":6.5,"gml_id":"bldg_fb4cab25-3000-4012-a7f1-fb92684c9a93"},"geometry":{"type":"Polygon","coordinates":[[[139.82860285974482,35.63328171933464],[139.8285966742929,35.63332246142316],[139.828564875973,35.63331858423891],[139.82857084054274,35.63327910407388],[139.82860285974482,35.63328171933464]]]}},{"type":"Feature","properties":{"height":25.8,"gml_id":"bldg_dd7f0fb1-ca75-496e-8c85-e5bc7b2899b1"},"geometry":{"type":"Polygon","coordinates":[[[139.83448102519625,35.63072991205786],[139.83441268252244,35.630723963585496],[139.8344269236914,35.63061597820342],[139.83446976201313,35.63061967346253],[139.83446490459073,35.63065699061615],[139.8344902984557,35.630659243823494],[139.83448102519625,35.63072991205786]]]}},{"type":"Feature","properties":{"height":19.6,"gml_id":"bldg_16c20e29-d3b8-4634-9378-56ece8a5b607"},"geometry":{"type":"Polygon","coordinates":[[[139.83457012487335,35.630753707592284],[139.83451326462352,35.63074839002416],[139.83452264831678,35.63068123716612],[139.83459121178404,35.63068754612562],[139.8345837048788,35.630741448692255],[139.83457200160527,35.63074036715786],[139.83457012487335,35.630753707592284]]]}},{"type":"Feature","properties":{"height":21.4,"gml_id":"bldg_9261d03f-b9f4-4dc2-aea2-afabb3ac0893"},"geometry":{"type":"Polygon","coordinates":[[[139.83349562434373,35.62635155550487],[139.83348944189,35.626382923539055],[139.8333333333333,35.62636886211131],[139.83305224974734,35.62634353300374],[139.83305534112233,35.62630946084449],[139.8333333333333,35.62633605187713],[139.83349562434373,35.62635155550487]]]}},{"type":"Feature","properties":{"height":2.5,"gml_id":"bldg_e04c3934-0079-4a1d-bde0-1ebddfa0307d"},"geometry":{"type":"Polygon","coordinates":[[[139.82806866555953,35.62689641494252],[139.82809483085768,35.62689893994703],[139.8280854423374,35.62696446986239],[139.82805927701818,35.62696194485588],[139.82806866555953,35.62689641494252]]]}},{"type":"Feature","properties":{"height":2.9,"gml_id":"bldg_61801ba7-6b6f-482a-9e3e-bbea0e6f8373"},"geometry":{"type":"Polygon","coordinates":[[[139.82964510404253,35.629366704840145],[139.8296477547055,35.62934678443192],[139.82970560730823,35.629351833913745],[139.8297029566554,35.62937184446118],[139.82964510404253,35.629366704840145]]]}},{"type":"Feature","properties":{"height":2.8,"gml_id":"bldg_e6f12a68-b3ea-4df0-82bc-73d0e1e5e145"},"geometry":{"type":"Polygon","coordinates":[[[139.8297090293544,35.62936391250349],[139.8297110172798,35.629350301731186],[139.8297662201408,35.62935535110418],[139.82976423222067,35.629369052015356],[139.8297090293544,35.62936391250349]]]}},{"type":"Feature","properties":{"height":9.5,"gml_id":"bldg_d15f6fca-d7f4-455b-afee-5ed8a8ece41c"},"geometry":{"type":"Polygon","coordinates":[[[139.8304314887971,35.633488643744435],[139.83021541355865,35.63346871786998],[139.83023142775994,35.63335262066802],[139.8301064422051,35.63334116987145],[139.83012378185848,35.63321551809911],[139.83046484181637,35.633246894693315],[139.8304314887971,35.633488643744435]]]}},{"type":"Feature","properties":{"height":6.9,"gml_id":"bldg_225fd202-c0d6-43e5-97ab-1453af5c649e"},"geometry":{"type":"Polygon","coordinates":[[[139.82552220040682,35.63282464992985],[139.82551026672365,35.632920105200036],[139.82540747485507,35.63291153537968],[139.82541078979312,35.632885125190825],[139.82538870777438,35.63288323084048],[139.82539732665032,35.63281427590871],[139.82552220040682,35.63282464992985]]]}},{"type":"Feature","properties":{"height":27.5,"gml_id":"bldg_371fa053-4a9f-4575-aa9a-9065457c4835"},"geometry":{"type":"Polygon","coordinates":[[[139.83359266861243,35.62662052713903],[139.83358968781852,35.626642881369875],[139.83333686621063,35.62662007672811],[139.8333333333333,35.626619806314146],[139.83300477586252,35.6265901504634],[139.83303833909534,35.626342271038396],[139.83305224974734,35.62634353300374],[139.8333333333333,35.62636886211131],[139.83348944189,35.626382923539055],[139.83362324926765,35.626394911646095],[139.83361828130361,35.62643177810204],[139.8336112157464,35.626484058161125],[139.83362181436368,35.62648495951625],[139.833612872023,35.626553915110016],[139.83360183178738,35.62655301375511],[139.83359266861243,35.62662052713903]]]}},{"type":"Feature","properties":{"height":8.0,"gml_id":"bldg_3b8707a2-9b40-493a-bc50-4103ec00e0bd"},"geometry":{"type":"Polygon","coordinates":[[[139.83030211182717,35.62695769554036],[139.83032110630916,35.62681942432795],[139.83049421716774,35.62683529281966],[139.83047522298006,35.626973564059035],[139.83030211182717,35.62695769554036]]]}},{"type":"Feature","properties":{"height":19.5,"gml_id":"bldg_d65b902b-8934-4427-82db-a0943ecc5d3c"},"geometry":{"type":"Polygon","coordinates":[[[139.83297872040666,35.62670228206352],[139.83296017218143,35.62683144976123],[139.83291082219813,35.62682631173232],[139.83293113694103,35.626697324324034],[139.83297872040666,35.62670228206352]]]}},{"type":"Feature","properties":{"height":5.8,"gml_id":"bldg_16982475-5cf6-4340-87c7-705efa2be03d"},"geometry":{"type":"Polygon","coordinates":[[[139.8336553739423,35.62581171864141],[139.83359476360724,35.62580613023129],[139.83360193952066,35.625755021961226],[139.83366243941643,35.62576061036809],[139.8336553739423,35.62581171864141]]]}},{"type":"Feature","properties":{"height":7.5,"gml_id":"bldg_7758fc81-0157-4b8f-92ac-2212944e1459"},"geometry":{"type":"Polygon","coordinates":[[[139.8260366704477,35.63331953928858],[139.8260956666109,35.63291626586353],[139.82606861614266,35.632913560098075],[139.82598823759326,35.63290580336397],[139.82599906463713,35.63283180080111],[139.8262463830566,35.632855882426135],[139.8262290380031,35.63297486344223],[139.8262451578963,35.632976396736204],[139.82626161909843,35.63286354504369],[139.82643253389438,35.632880230468636],[139.82636348600994,35.63335245897457],[139.8261943367935,35.63333595383336],[139.8261993082812,35.6333026031044],[139.82618285709663,35.63330097964678],[139.82617810651385,35.633333338871296],[139.8260366704477,35.63331953928858]]]}},{"type":"Feature","properties":{"height":8.1,"gml_id":"bldg_ddf9ad07-035b-4923-9dd5-ab431a1c6108"},"geometry":{"type":"Polygon","coordinates":[[[139.82868610958812,35.63329010539983],[139.82868003459467,35.633330757358934],[139.8285966742929,35.63332246142316],[139.82860285974482,35.63328171933464],[139.82868610958812,35.63329010539983]]]}},{"type":"Feature","properties":{"height":6.3,"gml_id":"bldg_9a3405a9-c5b8-4472-bb3c-4600ba99afb0"},"geometry":{"type":"Polygon","coordinates":[[[139.8371682728591,35.6289563922479],[139.83706725786163,35.6290887179551],[139.83689954764003,35.629003272245065],[139.837000673216,35.6288710368112],[139.8371682728591,35.6289563922479]]]}},{"type":"Feature","properties":{"height":4.5,"gml_id":"bldg_4f606a2a-36ec-4c80-bbbd-a5f4e435655a"},"geometry":{"type":"Polygon","coordinates":[[[139.8341010005319,35.630719909767514],[139.8340665531919,35.63071693543005],[139.83407240440536,35.63067204669972],[139.8341067413183,35.63067502103623],[139.8341010005319,35.630719909767514]]]}},{"type":"Feature","properties":{"height":17.3,"gml_id":"bldg_0d58a3a9-e48b-4710-bfbd-3730fd7ffc69"},"geometry":{"type":"Polygon","coordinates":[[[139.8342846094298,35.63074559777058],[139.8342156043067,35.63073946891576],[139.8342271961939,35.63065311668294],[139.83429620124474,35.63065933566914],[139.8342846094298,35.63074559777058]]]}},{"type":"Feature","properties":{"height":12.6,"gml_id":"bldg_a7a9c238-a2c6-4639-b1af-36f06ff4b544"},"geometry":{"type":"Polygon","coordinates":[[[139.83430360029425,35.63080130286587],[139.8342913458009,35.63086944724567],[139.83430856951458,35.63087152028005],[139.83429940624046,35.63092235815083],[139.8342515993666,35.63091658969674],[139.83426385390925,35.630849166425016],[139.83423702467243,35.63084592166348],[139.8342462983773,35.63079436269242],[139.83430360029425,35.63080130286587]]]}},{"type":"Feature","properties":{"height":23.9,"gml_id":"bldg_630e2588-cfc2-45ac-97e1-3b962abcfaec"},"geometry":{"type":"Polygon","coordinates":[[[139.83432148409207,35.63061237359675],[139.83428836168167,35.630609128897945],[139.8342847185114,35.630633646447],[139.83421714878162,35.63062697675398],[139.8342214543747,35.63059840299465],[139.8342053348056,35.63059678062946],[139.8342158227819,35.630526472957605],[139.83432313928287,35.63053710840099],[139.83431993772572,35.63055901194743],[139.83432932240268,35.630559913249634],[139.83432148409207,35.63061237359675]]]}},{"type":"Feature","properties":{"height":3.1,"gml_id":"bldg_ec6fe942-7227-4c17-bdbb-b79f37e077bf"},"geometry":{"type":"Polygon","coordinates":[[[139.83418502768475,35.63134438482231],[139.83418005976847,35.63139035520206],[139.83412882996709,35.631386659896094],[139.83413379791247,35.63134068951843],[139.83418502768475,35.63134438482231]]]}},{"type":"Feature","properties":{"height":8.1,"gml_id":"bldg_2196719f-9ca3-4090-b7e6-f14e0fd976a3"},"geometry":{"type":"Polygon","coordinates":[[[139.83467059675655,35.63078444355638],[139.83463360997038,35.630780838443684],[139.83463736342256,35.63075469840055],[139.83459419378968,35.630750552514876],[139.8346005967622,35.63070638485689],[139.83465679454125,35.63071179252907],[139.83465381387245,35.63073297497779],[139.8346776620537,35.63073522816252],[139.83467059675655,35.63078444355638]]]}},{"type":"Feature","properties":{"height":7.1,"gml_id":"bldg_37f16af6-c099-4714-889d-65199cf6719e"},"geometry":{"type":"Polygon","coordinates":[[[139.83470857477084,35.63064508987263],[139.83474070354777,35.63064869501925],[139.83473187183444,35.630701696231526],[139.8346997430367,35.63069809108259],[139.83470857477084,35.63064508987263]]]}},{"type":"Feature","properties":{"height":10.6,"gml_id":"bldg_6834a8a4-f8b0-483b-a74a-73443feffd72"},"geometry":{"type":"Polygon","coordinates":[[[139.83494496508868,35.63098860262795],[139.83494198453982,35.63101248922089],[139.83490157497795,35.63100906451214],[139.83490080223845,35.63101519390186],[139.83487861010158,35.631013301291915],[139.8348823634118,35.63098337544884],[139.83494496508868,35.63098860262795]]]}},{"type":"Feature","properties":{"height":10.6,"gml_id":"bldg_7c7534c0-e104-4059-8009-5a0fa0aa135c"},"geometry":{"type":"Polygon","coordinates":[[[139.83495148020472,35.631039169922765],[139.83494540856466,35.63108036304066],[139.8348758510469,35.63107351346831],[139.83488192272387,35.631032410491805],[139.83495148020472,35.631039169922765]]]}},{"type":"Feature","properties":{"height":5.9,"gml_id":"bldg_c13d10ef-3797-4c79-bf7b-c8d31bcae8d6"},"geometry":{"type":"Polygon","coordinates":[[[139.8345970756261,35.63146381396212],[139.834642674638,35.63146768940611],[139.8346369341121,35.63151365981214],[139.83459122466522,35.631509784367154],[139.8345970756261,35.63146381396212]]]}},{"type":"Feature","properties":{"height":9.8,"gml_id":"bldg_6ad36ab7-d57a-411e-988c-dbdf0fc85efd"},"geometry":{"type":"Polygon","coordinates":[[[139.82899716672338,35.628688395068245],[139.82908927922972,35.628035258575736],[139.8290993297812,35.627964049924195],[139.82937500794557,35.62799010917413],[139.8292675460067,35.628751591213934],[139.82899186525822,35.628725621859196],[139.82899716672338,35.628688395068245]]]}},{"type":"Feature","properties":{"height":7.7,"gml_id":"bldg_1c7c8353-4865-4e20-853d-b8ce75ded80a"},"geometry":{"type":"Polygon","coordinates":[[[139.8353475163028,35.63107242485038],[139.8353159394875,35.63107350702943],[139.8353107477266,35.63096957807455],[139.83534232450114,35.630968495896866],[139.8353475163028,35.63107242485038]]]}},{"type":"Feature","properties":{"height":9.0,"gml_id":"bldg_63c01226-a402-480e-ab83-3107b34e19be"},"geometry":{"type":"Polygon","coordinates":[[[139.82941118292806,35.62650003920215],[139.82950792835723,35.62580606978206],[139.82951091021332,35.62578461702931],[139.82979110748335,35.62581067547959],[139.82968751732543,35.62655377013149],[139.82940731749198,35.62652780158133],[139.82941118292806,35.62650003920215]]]}},{"type":"Feature","properties":{"height":10.8,"gml_id":"bldg_9507e60b-0466-4731-b6f1-0757a75ab83d"},"geometry":{"type":"Polygon","coordinates":[[[139.8289999856726,35.6255524042058],[139.82885293241816,35.62553788660586],[139.82881605871572,35.625534189570175],[139.82894914078926,35.62463732113859],[139.82894980342357,35.624632994537194],[139.8289930798663,35.62463732272952],[139.82917954399358,35.624655717461096],[139.82904580182583,35.625556912745914],[139.8289999856726,35.6255524042058]]]}},{"type":"Feature","properties":{"height":9.2,"gml_id":"bldg_9802fb46-5850-4d50-b8a0-690f7345d51e"},"geometry":{"type":"Polygon","coordinates":[[[139.82857746381333,35.6277109229949],[139.82830068281066,35.6276851322867],[139.82840130492292,35.62696583527732],[139.82867819387653,35.62699171589952],[139.82857746381333,35.6277109229949]]]}},{"type":"Feature","properties":{"height":31.2,"gml_id":"bldg_821eea61-2f6f-4001-b66a-24e68e0468ad"},"geometry":{"type":"Polygon","coordinates":[[[139.8317751469092,35.62490428953879],[139.83177603023023,35.62489807002628],[139.83238212581622,35.624956125225815],[139.83224091067996,35.625939079131626],[139.83219597733722,35.62593484222925],[139.83183706278345,35.62590040558549],[139.83175437227007,35.625892472384976],[139.83163480777782,35.62588102323099],[139.8316481683125,35.625787370022294],[139.8317751469092,35.62490428953879]]]}},{"type":"Feature","properties":{"height":43.3,"gml_id":"bldg_e96e2430-61af-4cdb-bf1d-a6144b1c8b3c"},"geometry":{"type":"Polygon","coordinates":[[[139.8315075710133,35.62827166127734],[139.83149697049987,35.6283444024634],[139.83142940292583,35.62833782134227],[139.83142840914172,35.628343770432984],[139.83142620082762,35.6283529644716],[139.83142299887402,35.628361978218464],[139.8314190240902,35.628370811677],[139.83141427647814,35.62837937470916],[139.83140864563924,35.62838739689916],[139.8314023523744,35.628395238802305],[139.83139528628513,35.628402630002824],[139.8313876681811,35.62840957050411],[139.8313792772525,35.62841606030252],[139.83137033431132,35.62842200926348],[139.83136094976908,35.628427146974786],[139.83135101321005,35.62843192412434],[139.83134074545293,35.62843598016382],[139.83133003609086,35.62843940522926],[139.83131910593613,35.62844210918625],[139.83130784458183,35.62844418217085],[139.8312965832452,35.62844553405061],[139.83128510111672,35.628446164821774],[139.83127361900426,35.62844616462601],[139.83126224731765,35.62844535318928],[139.8312508756523,35.6284437305097],[139.8312397248137,35.628441476867074],[139.83122890520704,35.62843859226337],[139.83121830642997,35.62843498655877],[139.83120803888286,35.62843084003123],[139.83119821297564,35.628425972406845],[139.83118893910844,35.62842056396364],[139.83118010688145,35.6284144344238],[139.83117193709714,35.62840785420531],[139.8311644297531,35.6284009134463],[139.8311575848566,35.628393341732945],[139.83115140240028,35.62838540947929],[139.83114599278633,35.628377206825405],[139.83114146641944,35.62836873377343],[139.83113771289953,35.628359810045474],[139.83113473221897,35.62835070605554],[139.83113263477978,35.62834151194369],[139.83113142057928,35.628332317847914],[139.8311310896245,35.62832285335435],[139.83113164190536,35.62831347901488],[139.8311320835935,35.62831095515961],[139.83106407445098,35.628304644239414],[139.83109698133956,35.628079209770725],[139.83110404855384,35.62803125649611],[139.83114059922357,35.6277812144029],[139.8315731612271,35.627823225800064],[139.83155991073005,35.62791417483086],[139.8315075710133,35.62827166127734]]]}},{"type":"Feature","properties":{"height":26.5,"gml_id":"bldg_cc408e52-e71d-46be-8f60-8f02ff0cac70"},"geometry":{"type":"Polygon","coordinates":[[[139.8327933656331,35.62505518946163],[139.832804074946,35.6249812763278],[139.8330277455964,35.62500291022911],[139.8330178093091,35.62507159537909],[139.83312666396654,35.625082051625924],[139.8330649487686,35.62550957614193],[139.83273242152598,35.62547757594555],[139.83274202688676,35.62541141468668],[139.8327933656331,35.62505518946163]]]}},{"type":"Feature","properties":{"height":10.7,"gml_id":"bldg_be4b5cef-1bfb-4a3e-9833-0357244726a4"},"geometry":{"type":"Polygon","coordinates":[[[139.82930016439997,35.62558134893247],[139.82915222783515,35.62556674153035],[139.82911601650673,35.625563134747495],[139.82924964750183,35.624661849243836],[139.82925019967462,35.62465842401736],[139.82947971960724,35.624681056223274],[139.82937226493272,35.625405221635795],[139.82934553898707,35.62558576720578],[139.82930016439997,35.62558134893247]]]}},{"type":"Feature","properties":{"height":8.7,"gml_id":"bldg_85568c1e-b360-4b3a-9308-19535167da47"},"geometry":{"type":"Polygon","coordinates":[[[139.83530919523062,35.63069411655894],[139.83521369238764,35.630698084156855],[139.83520474599112,35.63055449455468],[139.83521037678602,35.630554314191194],[139.83520883049118,35.63052925586707],[139.83528744075986,35.63052600965164],[139.83528887663186,35.630549445493585],[139.83530002781058,35.63054899462233],[139.83530919523062,35.63069411655894]]]}},{"type":"Feature","properties":{"height":4.5,"gml_id":"bldg_11f6a52a-2697-44c5-91b8-edd007f8a434"},"geometry":{"type":"Polygon","coordinates":[[[139.83543693812254,35.63072521198558],[139.83556445924773,35.63071853948374],[139.83558014275263,35.63091729334785],[139.8355705372434,35.63091783435423],[139.8355731879962,35.630951996583214],[139.83545527201832,35.63095821823554],[139.83543693812254,35.63072521198558]]]}},{"type":"Feature","properties":{"height":33.2,"gml_id":"bldg_d29ee9fb-f651-46bc-884b-15a85a37e10c"},"geometry":{"type":"Polygon","coordinates":[[[139.83272601787814,35.625530306654404],[139.8330556749124,35.62556203644754],[139.8330284051553,35.6257515064922],[139.83269874735402,35.625719776625424],[139.8327078007436,35.625656499785556],[139.83272601787814,35.625530306654404]]]}},{"type":"Feature","properties":{"height":33.7,"gml_id":"bldg_e387dd7e-bf83-406c-8635-f6e3efed6018"},"geometry":{"type":"Polygon","coordinates":[[[139.83274213312708,35.625976580046824],[139.8329902052688,35.626000377443795],[139.83294504950203,35.626316130752],[139.8326969763969,35.62629251353932],[139.83269774925134,35.62628737567699],[139.83274180190722,35.62597865321947],[139.83274213312708,35.625976580046824]]]}},{"type":"Feature","properties":{"height":34.1,"gml_id":"bldg_0b6417dc-5b14-4be6-89fe-61471dfeaf4a"},"geometry":{"type":"Polygon","coordinates":[[[139.83263382482866,35.62648117203471],[139.83265590660218,35.62632370106568],[139.83294008124653,35.62634993248825],[139.83285396394965,35.62696999148806],[139.83249990219593,35.62693717932805],[139.83251646383874,35.62681774659395],[139.83257056110918,35.626822704538554],[139.8325757503879,35.626785387439604],[139.832590875541,35.62678637905175],[139.83263382482866,35.62648117203471]]]}},{"type":"Feature","properties":{"height":9.4,"gml_id":"bldg_3b7e3996-ad3c-4c80-a6ff-95386c019bc2"},"geometry":{"type":"Polygon","coordinates":[[[139.828564875973,35.63331858423891],[139.82843315569974,35.63330550895719],[139.8284499450791,35.63319346822616],[139.82858166516058,35.63320672376555],[139.82857084054274,35.63327910407388],[139.828564875973,35.63331858423891]]]}},{"type":"Feature","properties":{"height":10.5,"gml_id":"bldg_c58e5b52-169a-45e6-b095-b8ac61cef9d4"},"geometry":{"type":"Polygon","coordinates":[[[139.8319110087548,35.62719821344921],[139.83193198536662,35.62719812355703],[139.83195616354013,35.62720569542728],[139.83197460067385,35.627217774127715],[139.83198508863347,35.6272385059839],[139.83198597153446,35.62725788566218],[139.8319780221976,35.6272756427575],[139.83196422156922,35.62728817178235],[139.8319425823094,35.627300069749424],[139.83192237843582,35.62730349475819],[139.83189610248374,35.62730088044582],[139.83188760147587,35.627298086066354],[139.83187093080653,35.62728510599431],[139.83186077394961,35.62727149503378],[139.83185713097168,35.62725346739072],[139.8318571312136,35.627240307243824],[139.8318583457837,35.627233006081276],[139.83185900822474,35.62723183429547],[139.8318662961661,35.6272196657554],[139.83187634193857,35.627209660560084],[139.83189168809724,35.62720353136117],[139.8319110087548,35.62719821344921]]]}},{"type":"Feature","properties":{"height":44.9,"gml_id":"bldg_6e8ef368-d396-4327-b731-eb4fd50784d2"},"geometry":{"type":"Polygon","coordinates":[[[139.83160794145905,35.62768594615207],[139.83159259288877,35.62779807758482],[139.83112304575954,35.62775309103087],[139.83120829332532,35.62715989445619],[139.83128645853913,35.627168639194984],[139.83131726093788,35.62717206495815],[139.83132388554344,35.62715547967796],[139.83135479880383,35.62714015673061],[139.83135634446322,35.62713952579002],[139.8313863744252,35.62712672668388],[139.83142247639344,35.627120417602306],[139.8314565909086,35.627122311036445],[139.83149092611166,35.62712943246799],[139.8315208450696,35.62714214237902],[139.8315492182687,35.62716044081532],[139.8315654469498,35.62718694162471],[139.83167518752222,35.62719685836438],[139.83167264787,35.627215156342025],[139.83165729948757,35.62732692723985],[139.83160794145905,35.62768594615207]]]}},{"type":"Feature","properties":{"height":9.8,"gml_id":"bldg_7cf52473-7c70-41c3-bc41-9815c973e093"},"geometry":{"type":"Polygon","coordinates":[[[139.8308731467286,35.62593923924125],[139.8309687541351,35.62594861550894],[139.8308871503921,35.62650801035641],[139.83079143192404,35.62649872416048],[139.8308731467286,35.62593923924125]]]}},{"type":"Feature","properties":{"height":12.0,"gml_id":"bldg_2d8d3935-8343-40a7-b511-e59beeac5041"},"geometry":{"type":"Polygon","coordinates":[[[139.83134874197498,35.62651928609495],[139.8312382295835,35.62650819724935],[139.83130072755586,35.62610158577172],[139.8322098842878,35.626194710243496],[139.83214739084613,35.626601322186566],[139.83194027632445,35.626580317815154],[139.83134874197498,35.62651928609495]]]}},{"type":"Feature","properties":{"height":9.4,"gml_id":"bldg_b0ad70f7-e564-42cb-b543-b35a3399a73e"},"geometry":{"type":"Polygon","coordinates":[[[139.8296645277409,35.624704047190676],[139.82966773040425,35.62468061140015],[139.82994118954366,35.62470531723041],[139.82981396778982,35.625645543305495],[139.82954039508712,35.62562083718667],[139.8295579549421,35.6254913094065],[139.8296645277409,35.624704047190676]]]}},{"type":"Feature","properties":{"height":8.9,"gml_id":"bldg_e9c827c7-c220-4774-a308-4af6dba64d36"},"geometry":{"type":"Polygon","coordinates":[[[139.8288695914638,35.62773094480567],[139.82859413491107,35.62770912089217],[139.82869718311764,35.62699279828771],[139.82897186417586,35.62701912883985],[139.8288695914638,35.62773094480567]]]}},{"type":"Feature","properties":{"height":7.0,"gml_id":"bldg_d8f9bc54-6231-4591-96b3-5dec6266dba3"},"geometry":{"type":"Polygon","coordinates":[[[139.83358648651176,35.62675843829366],[139.83356683522797,35.62688922856983],[139.83351980362914,35.62688427106193],[139.833538571768,35.62675366107083],[139.83358648651176,35.62675843829366]]]}},{"type":"Feature","properties":{"height":10.1,"gml_id":"bldg_a1aeb91b-5b16-43e1-b0ca-b6519f201f8b"},"geometry":{"type":"Polygon","coordinates":[[[139.83134874197498,35.62651928609495],[139.83194027632445,35.626580317815154],[139.83192680571435,35.62666721069252],[139.83133527073508,35.62660617890702],[139.83134874197498,35.62651928609495]]]}},{"type":"Feature","properties":{"height":15.9,"gml_id":"bldg_5a7d3dc3-d679-4bf5-8da0-efc91142dfa8"},"geometry":{"type":"Polygon","coordinates":[[[139.8317751469092,35.62490428953879],[139.8316481683125,35.625787370022294],[139.83154483292842,35.625778084317076],[139.83159982114333,35.62538950012727],[139.8314559693143,35.625375977268455],[139.83151802442148,35.62493754687107],[139.83166419387263,35.624951340102974],[139.83167225425984,35.624894372981025],[139.8317751469092,35.62490428953879]]]}},{"type":"Feature","properties":{"height":13.2,"gml_id":"bldg_595e6cf3-0b01-448d-9888-5257d521179c"},"geometry":{"type":"Polygon","coordinates":[[[139.82960606373828,35.63318674920198],[139.82979972572895,35.633204692481094],[139.829778739765,35.63335558271178],[139.82958507851922,35.63333763939941],[139.82960606373828,35.63318674920198]]]}}]}