{"type":"FeatureCollection","crs":{"type":"name","properties":{"name":"urn:ogc:def:crs:OGC:1.3:CRS84"}},"features":[{"type":"Feature","properties":{"height":3.6,"gml_id":"bldg_2b6201a1-f4b8-4457-8faf-6446ca912166"},"geometry":{"type":"Polygon","coordinates":[[[139.83905986438032,35.622929869976],[139.8390228814425,35.62293230545571],[139.8390174681068,35.62287768204834],[139.8390544510196,35.62287524657029],[139.83905986438032,35.622929869976]]]}},{"type":"Feature","properties":{"height":8.0,"gml_id":"bldg_96dd9c82-3c7e-4faf-bdb7-d0838242e1e2"},"geometry":{"type":"Polygon","coordinates":[[[139.83762746999082,35.6210735359684],[139.83760814877698,35.62103360548365],[139.83767129347171,35.62101332215738],[139.8376905043173,35.62105325263612],[139.83762746999082,35.6210735359684]]]}},{"type":"Feature","properties":{"height":8.7,"gml_id":"bldg_148d7c2f-f403-41eb-abfd-d12f7b396fce"},"geometry":{"type":"Polygon","coordinates":[[[139.83752855745232,35.62109643452671],[139.83751365232152,35.62106128119165],[139.83756962164097,35.62104550507177],[139.83758452679334,35.6210806584],[139.83752855745232,35.62109643452671]]]}},{"type":"Feature","properties":{"height":3.1,"gml_id":"bldg_713be6cb-9cb5-4190-be75-a141028227ef"},"geometry":{"type":"Polygon","coordinates":[[[139.8386249782515,35.62078379247451],[139.83858191563246,35.620649037913005],[139.8386216569899,35.62064056319462],[139.83866471967107,35.620775317742115],[139.8386249782515,35.62078379247451]]]}}]}