{"type":"FeatureCollection","crs":{"type":"name","properties":{"name":"urn:ogc:def:crs:OGC:1.3:CRS84"}},"features":[{"type":"Feature","properties":{"height":5.7,"gml_id":"bldg_ae450e6d-47f7-47a5-816f-8cb9032deb51"},"geometry":{"type":"Polygon","coordinates":[[[139.83834796126882,35.65730205866309],[139.83846580519733,35.65729439200751],[139.83847088900387,35.657346761702335],[139.83845575814462,35.657347753859824],[139.83845675277436,35.65735757880949],[139.83835403961612,35.657364253313354],[139.83834796126882,35.65730205866309]]]}},{"type":"Feature","properties":{"height":3.3,"gml_id":"bldg_537f9524-a91d-4e93-9484-9c6406a96933"},"geometry":{"type":"Polygon","coordinates":[[[139.83841599302403,35.6572683443704],[139.83841720897126,35.657285019764366],[139.83835248863568,35.65728826743057],[139.83835116226288,35.65727168217809],[139.83841599302403,35.6572683443704]]]}},{"type":"Feature","properties":{"height":10.9,"gml_id":"bldg_a8f220b2-474a-415a-8862-0757f5f89df8"},"geometry":{"type":"Polygon","coordinates":[[[139.83854215593732,35.6578104261346],[139.83904987074843,35.657777232492286],[139.83906578654128,35.65794056094628],[139.8387919933423,35.65795842089884],[139.83881619777694,35.6582051262191],[139.83846431869907,35.658228126794775],[139.83844133096986,35.65799286881957],[139.83871291545952,35.657975099900554],[139.83871158919425,35.65796139905496],[139.83854658426583,35.6579722228146],[139.83854138991302,35.65791967285812],[139.83855276575042,35.65791895126537],[139.83854215593732,35.6578104261346]]]}},{"type":"Feature","properties":{"height":5.7,"gml_id":"bldg_957db4cc-299f-4ef4-833b-779437fd7aef"},"geometry":{"type":"Polygon","coordinates":[[[139.84062703858316,35.65665150966438],[139.84062239422263,35.65660067236634],[139.84072565845725,35.65659426630591],[139.84072853283413,35.65662509317224],[139.84074023979935,35.65662437135239],[139.8407420087549,35.65664447191759],[139.84062703858316,35.65665150966438]]]}},{"type":"Feature","properties":{"height":2.3,"gml_id":"bldg_a7db2515-bd41-4e63-838e-b86b205e8310"},"geometry":{"type":"Polygon","coordinates":[[[139.83914828886324,35.65641047218761],[139.83914629819097,35.656373335610866],[139.83920516433807,35.656371169453855],[139.83920726548092,35.656408306024225],[139.83914828886324,35.65641047218761]]]}},{"type":"Feature","properties":{"height":31.5,"gml_id":"bldg_66ac12c6-fb37-47e4-b91c-a2b7b6d7cb45"},"geometry":{"type":"Polygon","coordinates":[[[139.84107311303046,35.65543750915817],[139.84097482016284,35.65544346451449],[139.84097227736882,35.65541588257946],[139.84085300065098,35.65542310109149],[139.84085631733564,35.65545960660004],[139.84053261332073,35.65547918623784],[139.84053128669703,35.65546449389338],[139.84036286338963,35.65547468938702],[139.84034539677774,35.65528296779275],[139.84050653056408,35.655273223445484],[139.84050465123184,35.655252852466084],[139.840727632002,35.65523940848389],[139.84072995356505,35.65526419617373],[139.84098485182108,35.65524876672426],[139.8409825301196,35.65522334807628],[139.841053322884,35.65521910709326],[139.84107311303046,35.65543750915817]]]}},{"type":"Feature","properties":{"height":8.1,"gml_id":"bldg_7875eb17-31df-439d-ac5d-d4309178a9cb"},"geometry":{"type":"Polygon","coordinates":[[[139.8403369958316,35.655198599513646],[139.84040425454464,35.65519517035576],[139.84040668695687,35.6552257268502],[139.84033931777654,35.65522915601583],[139.8403369958316,35.655198599513646]]]}},{"type":"Feature","properties":{"height":8.7,"gml_id":"bldg_c91c373e-e691-4f47-bd2c-28701f115634"},"geometry":{"type":"Polygon","coordinates":[[[139.84032991989596,35.655110715790386],[139.84036746989364,35.65510900098916],[139.84037211418294,35.655174440596596],[139.8403345641626,35.655176245536815],[139.84032991989596,35.655110715790386]]]}},{"type":"Feature","properties":{"height":6.2,"gml_id":"bldg_4df6a259-20dd-48d1-a3ad-0a8290e4dc61"},"geometry":{"type":"Polygon","coordinates":[[[139.84049227078586,35.65512999569019],[139.8405262865759,35.655127379673765],[139.8405296036057,35.65515721501261],[139.84049569713233,35.65515974088591],[139.84049227078586,35.65512999569019]]]}},{"type":"Feature","properties":{"height":2.6,"gml_id":"bldg_12d941b4-aab2-4716-8be6-eb3cf43cdec5"},"geometry":{"type":"Polygon","coordinates":[[[139.84118521995364,35.65552160025321],[139.84118101869802,35.65547608105485],[139.84120973347066,35.65547427642896],[139.8412139347425,35.655519795626304],[139.84118521995364,35.65552160025321]]]}},{"type":"Feature","properties":{"height":2.9,"gml_id":"bldg_8a44715b-61de-4eed-a0c5-a8df4f7e8e9b"},"geometry":{"type":"Polygon","coordinates":[[[139.83970986441696,35.65604385431559],[139.8397074312497,35.65600076869027],[139.83977402807767,35.65599824129543],[139.83977635084497,35.65604141796425],[139.83970986441696,35.65604385431559]]]}},{"type":"Feature","properties":{"height":20.7,"gml_id":"bldg_cdb8a849-1173-49b6-a38c-ce369baa1f13"},"geometry":{"type":"Polygon","coordinates":[[[139.84004030464078,35.655984976539266],[139.840029359238,35.65584643571478],[139.84015691990157,35.65583975837524],[139.84016775508093,35.655978299194544],[139.84004030464078,35.655984976539266]]]}},{"type":"Feature","properties":{"height":3.7,"gml_id":"bldg_6e2b8fb5-c518-47dd-9318-629e2a1b86e8"},"geometry":{"type":"Polygon","coordinates":[[[139.8404745090672,35.656588422519036],[139.84047207699683,35.656562463048076],[139.8405060934433,35.656560387863216],[139.84050841507295,35.65658625720251],[139.8404745090672,35.656588422519036]]]}},{"type":"Feature","properties":{"height":3.7,"gml_id":"bldg_8e537823-4671-49bd-8d4c-e5a65cef82e8"},"geometry":{"type":"Polygon","coordinates":[[[139.84051051426025,35.65659473000734],[139.84050653520163,35.65656020756179],[139.8405783230413,35.6565546147363],[139.8405823021305,35.65658913717951],[139.84051051426025,35.65659473000734]]]}},{"type":"Feature","properties":{"height":3.5,"gml_id":"bldg_8ecab5fb-66b9-4095-934f-04e36c2583a0"},"geometry":{"type":"Polygon","coordinates":[[[139.84042205713712,35.65668802761234],[139.84041774569022,35.6566411563394],[139.84046512578087,35.656638179003764],[139.84046954770713,35.65668514040604],[139.84042205713712,35.65668802761234]]]}},{"type":"Feature","properties":{"height":3.4,"gml_id":"bldg_9f5a3bb2-d7bc-47d7-b93c-89233d780a47"},"geometry":{"type":"Polygon","coordinates":[[[139.84067736056537,35.655016321063584],[139.84067415488386,35.65498486324494],[139.8407485919381,35.65497972084295],[139.8407517976486,35.655011178659635],[139.84067736056537,35.655016321063584]]]}},{"type":"Feature","properties":{"height":2.5,"gml_id":"bldg_7979a7f9-46b4-4b10-b883-8253ffff0825"},"geometry":{"type":"Polygon","coordinates":[[[139.83916044288196,35.65648267178136],[139.83915513786522,35.65643129363191],[139.8392096966487,35.65642759534241],[139.83921500169356,35.65647888335192],[139.83916044288196,35.65648267178136]]]}},{"type":"Feature","properties":{"height":4.2,"gml_id":"bldg_f5098cda-9571-4875-b894-4b5021894fde"},"geometry":{"type":"Polygon","coordinates":[[[139.83828613537872,35.65767622214589],[139.8382673462094,35.657456828150075],[139.83833703665712,35.65745285922299],[139.8383558260161,35.657672253208055],[139.83828613537872,35.65767622214589]]]}},{"type":"Feature","properties":{"height":1.7,"gml_id":"bldg_ac33b5b1-5fbc-4dd2-8c13-cb5d98bec2d1"},"geometry":{"type":"Polygon","coordinates":[[[139.84015609445893,35.65522429910609],[139.84014107446265,35.65522529146935],[139.8401356581002,35.6551696768927],[139.84015067808613,35.65516868453011],[139.84015609445893,35.65522429910609]]]}},{"type":"Feature","properties":{"height":1.5,"gml_id":"bldg_5eb73687-b5d3-4525-bf43-25650fd1e7f7"},"geometry":{"type":"Polygon","coordinates":[[[139.84166944205737,35.655941158075926],[139.84166899871283,35.65592601499618],[139.84169042456554,35.65592565296107],[139.84169097835687,35.65594079603307],[139.84166944205737,35.655941158075926]]]}},{"type":"Feature","properties":{"height":1.7,"gml_id":"bldg_45e6a62d-c257-4214-b2ac-662d6c9fd4ea"},"geometry":{"type":"Polygon","coordinates":[[[139.84166976824312,35.6558916725316],[139.8416678889194,35.655874366249606],[139.84169781865532,35.6558722008731],[139.84169969797603,35.65588941701708],[139.84166976824312,35.6558916725316]]]}},{"type":"Feature","properties":{"height":6.5,"gml_id":"bldg_fd7c4572-c421-4ba7-82a8-d8411ee4b206"},"geometry":{"type":"Polygon","coordinates":[[[139.84021695083143,35.65397165366271],[139.84006786514922,35.65407144440465],[139.839949574,35.65395364112964],[139.84009865961806,35.653853940669784],[139.84021695083143,35.65397165366271]]]}},{"type":"Feature","properties":{"height":3.2,"gml_id":"bldg_0aa9db6c-7674-410b-a746-f66fa8de4173"},"geometry":{"type":"Polygon","coordinates":[[[139.83821123314317,35.651891195346764],[139.83804092864062,35.651714442242636],[139.83805782484436,35.65170344479069],[139.83822879196177,35.651879837293826],[139.83821123314317,35.651891195346764]]]}},{"type":"Feature","properties":{"height":14.2,"gml_id":"bldg_ff86f518-b791-4978-b6dc-77839a400175"},"geometry":{"type":"Polygon","coordinates":[[[139.8382277541256,35.65659096849913],[139.83820732208326,35.656591510153085],[139.83820522080728,35.65654463871064],[139.83822565283216,35.6565440069195],[139.8382277541256,35.65659096849913]]]}},{"type":"Feature","properties":{"height":2.3,"gml_id":"bldg_8fd031ea-38b0-4a45-83aa-1a57480424cc"},"geometry":{"type":"Polygon","coordinates":[[[139.8417691064528,35.655319111788685],[139.84176855161797,35.65529414372023],[139.8417926279062,35.65529378148124],[139.8417932931904,35.65531874954183],[139.8417691064528,35.655319111788685]]]}},{"type":"Feature","properties":{"height":3.4,"gml_id":"bldg_615c899f-b4a6-4505-a17a-d1864b596d61"},"geometry":{"type":"Polygon","coordinates":[[[139.83841707702493,35.65694574205212],[139.8384179612979,35.656957099345746],[139.83840194695256,35.65695800139626],[139.83840459958964,35.656989279013295],[139.83842348548458,35.65698828670354],[139.83842470126896,35.65700243824694],[139.83831304255813,35.65700875254387],[139.83830817947936,35.65695178581539],[139.83841707702493,35.65694574205212]]]}},{"type":"Feature","properties":{"height":2.2,"gml_id":"bldg_75df8b87-0109-4126-a029-43330b3978df"},"geometry":{"type":"Polygon","coordinates":[[[139.8391690684716,35.65663383203992],[139.8391665264704,35.656609134473825],[139.83923279235023,35.65660471450593],[139.839235223928,35.65662941207606],[139.8391690684716,35.65663383203992]]]}},{"type":"Feature","properties":{"height":2.3,"gml_id":"bldg_be6925ca-6c55-4feb-9378-30c42474ae12"},"geometry":{"type":"Polygon","coordinates":[[[139.83916751800857,35.656590566090046],[139.83916088910868,35.65654396529621],[139.83922582948625,35.65653783278271],[139.83923245952116,35.656584343435405],[139.83916751800857,35.656590566090046]]]}},{"type":"Feature","properties":{"height":2.2,"gml_id":"bldg_a913e118-c6ac-4c0e-b6dc-406c1d63df0a"},"geometry":{"type":"Polygon","coordinates":[[[139.83915901007524,35.65652341402496],[139.83915635740155,35.656495471511626],[139.83921831592417,35.65649150244758],[139.83922096861932,35.65651944495956],[139.83915901007524,35.65652341402496]]]}},{"type":"Feature","properties":{"height":3.2,"gml_id":"bldg_663b3165-efbc-41a1-816b-de02e22e8915"},"geometry":{"type":"Polygon","coordinates":[[[139.83813525538991,35.65194176560623],[139.83796428830456,35.651764651871126],[139.83798273060023,35.65175284313174],[139.83815358726392,35.65192995684542],[139.83813525538991,35.65194176560623]]]}},{"type":"Feature","properties":{"height":3.1,"gml_id":"bldg_d9d9b201-ed42-4ad2-8c29-7be5a8a20f73"},"geometry":{"type":"Polygon","coordinates":[[[139.83810941405548,35.6519582618186],[139.83793866785572,35.65178096776361],[139.83795556409268,35.65177006046375],[139.83812653117567,35.6519472643487],[139.83810941405548,35.6519582618186]]]}},{"type":"Feature","properties":{"height":2.0,"gml_id":"bldg_fd049850-3d5f-4482-93aa-13d0b8b358be"},"geometry":{"type":"Polygon","coordinates":[[[139.84259189169006,35.6581299908488],[139.84258713963123,35.6581049329809],[139.84262126687221,35.658100693889864],[139.84262590849568,35.65812575176497],[139.84259189169006,35.6581299908488]]]}},{"type":"Feature","properties":{"height":3.1,"gml_id":"bldg_64e44afe-fc5a-4df6-9e1a-feb058a3ce4c"},"geometry":{"type":"Polygon","coordinates":[[[139.83808600233624,35.651974848067134],[139.83791304744275,35.65179809488918],[139.8379301645609,35.651787187584546],[139.83810113166714,35.651965112606014],[139.83808600233624,35.651974848067134]]]}},{"type":"Feature","properties":{"height":3.2,"gml_id":"bldg_de71c63b-4e7e-42b9-98ab-6e0ac3791e54"},"geometry":{"type":"Polygon","coordinates":[[[139.83816175925028,35.65192382715977],[139.83799079211326,35.65174617263601],[139.8380047066532,35.651737248472216],[139.83817578423924,35.651914902972045],[139.83816175925028,35.65192382715977]]]}},{"type":"Feature","properties":{"height":26.2,"gml_id":"bldg_21499eed-f2bb-4376-9db6-226fe5b195d7"},"geometry":{"type":"Polygon","coordinates":[[[139.8403067966506,35.6571806360369],[139.83934416721158,35.657240539258225],[139.83930603345496,35.65683239834845],[139.84026865802477,35.656772495428406],[139.8403067966506,35.6571806360369]]]}},{"type":"Feature","properties":{"height":25.2,"gml_id":"bldg_c8d44a85-c27c-4747-98d6-575761b54fea"},"geometry":{"type":"Polygon","coordinates":[[[139.8389987457355,35.65637135961621],[139.8390235035104,35.65663167570426],[139.8382425590854,35.656681015310774],[139.8382179142729,35.65642069905962],[139.8389987457355,35.65637135961621]]]}},{"type":"Feature","properties":{"height":27.1,"gml_id":"bldg_d7f56fb9-e4e5-4873-aaca-c5b5cafa4398"},"geometry":{"type":"Polygon","coordinates":[[[139.83993172178225,35.65577135651287],[139.8398991138832,35.65543712819594],[139.84014208507796,35.65542134062994],[139.84017469398287,35.65575556888187],[139.83993172178225,35.65577135651287]]]}},{"type":"Feature","properties":{"height":33.3,"gml_id":"bldg_28a09c90-bb28-4b13-b403-c03f5b22ac8b"},"geometry":{"type":"Polygon","coordinates":[[[139.839275315239,35.6566327451941],[139.83923530202213,35.65618972107833],[139.8402452989161,35.65612900477007],[139.84024673606575,35.65614513931069],[139.8402256415544,35.65614640244557],[139.84025272591114,35.656445657580996],[139.84027415183107,35.65644439442231],[139.84027547847856,35.656459717730094],[139.8402537212241,35.65646098090806],[139.8402638917266,35.656573291714814],[139.839275315239,35.6566327451941]]]}},{"type":"Feature","properties":{"height":18.8,"gml_id":"bldg_416ad5b4-6874-4cdb-8e23-908c36fd9d17"},"geometry":{"type":"Polygon","coordinates":[[[139.83848765971456,35.65192714874546],[139.83862448572307,35.65184043041877],[139.83878109657974,35.652002941570004],[139.8387842991277,35.652000958397416],[139.83903026121448,35.652256577302715],[139.8388682562852,35.65236024311597],[139.8386216317302,35.652103992949996],[139.83864504344203,35.652088398111516],[139.83848765971456,35.65192714874546]]]}},{"type":"Feature","properties":{"height":3.2,"gml_id":"bldg_5871b5f6-7c07-452f-b797-05507c69c008"},"geometry":{"type":"Polygon","coordinates":[[[139.83803332569497,35.65200811091661],[139.83786125430697,35.65183072666742],[139.83787671495944,35.65182117149704],[139.83796297140316,35.65190923267027],[139.83804668812604,35.651999817733255],[139.83803332569497,35.65200811091661]]]}},{"type":"Feature","properties":{"height":3.6,"gml_id":"bldg_71cd2e1f-de74-4128-b94b-7b37904c99b0"},"geometry":{"type":"Polygon","coordinates":[[[139.83849187173348,35.65216673436067],[139.83845299504966,35.65212500230189],[139.8385000395446,35.65209579570414],[139.8385389162388,35.65213752774794],[139.83849187173348,35.65216673436067]]]}},{"type":"Feature","properties":{"height":3.9,"gml_id":"bldg_fb1344fd-a057-4ae1-a150-dfe8dccaafb9"},"geometry":{"type":"Polygon","coordinates":[[[139.83963016788832,35.652373546058435],[139.83960167261483,35.652343982406855],[139.83965600526477,35.652309096309295],[139.8396845005459,35.652338659948164],[139.83963016788832,35.652373546058435]]]}},{"type":"Feature","properties":{"height":3.0,"gml_id":"bldg_03aeb9fa-d4dd-48f9-85b4-307079bccab2"},"geometry":{"type":"Polygon","coordinates":[[[139.8396532566044,35.652465034528255],[139.83960974061748,35.65242122992317],[139.8396365756414,35.65240356154917],[139.83967998120258,35.65244745628813],[139.8396532566044,35.652465034528255]]]}},{"type":"Feature","properties":{"height":2.9,"gml_id":"bldg_e70c5730-0f5e-4fba-b109-b8e91aa91734"},"geometry":{"type":"Polygon","coordinates":[[[139.83974767583638,35.652399589628345],[139.83971067580802,35.65235758746437],[139.83974203868775,35.65233928786355],[139.8397789282862,35.65238129002393],[139.83974767583638,35.652399589628345]]]}},{"type":"Feature","properties":{"height":2.4,"gml_id":"bldg_939f10a5-674b-4564-ab60-f4974a576719"},"geometry":{"type":"Polygon","coordinates":[[[139.83845717753113,35.65190353398901],[139.8384376288169,35.651882622890575],[139.83848345840747,35.65185404731298],[139.83850300712083,35.65187486826647],[139.83845717753113,35.65190353398901]]]}},{"type":"Feature","properties":{"height":7.1,"gml_id":"bldg_2797cc72-e0f9-4140-adf9-a1388f6ced73"},"geometry":{"type":"Polygon","coordinates":[[[139.83985147614356,35.652260501713485],[139.83989045862887,35.65223580189026],[139.83996975976095,35.65231917484248],[139.83993077725955,35.65234387469105],[139.83985147614356,35.652260501713485]]]}},{"type":"Feature","properties":{"height":2.4,"gml_id":"bldg_b2691f6d-d41d-4009-927a-47fe79515b9e"},"geometry":{"type":"Polygon","coordinates":[[[139.83798504689227,35.651703087073074],[139.83797532788,35.65169335258447],[139.83799399100005,35.651681003008925],[139.83800371000783,35.65169064735843],[139.83798504689227,35.651703087073074]]]}},{"type":"Feature","properties":{"height":2.4,"gml_id":"bldg_8c837983-6f9c-4fe0-ac73-54fcabfb3ecb"},"geometry":{"type":"Polygon","coordinates":[[[139.83854088682008,35.65187108085441],[139.83852962129066,35.651856569183614],[139.83854419850036,35.65184899699343],[139.83855546403132,35.65186350866286],[139.83854088682008,35.65187108085441]]]}},{"type":"Feature","properties":{"height":2.3,"gml_id":"bldg_2cf08dee-cefe-46a7-9048-3ca1892214dd"},"geometry":{"type":"Polygon","coordinates":[[[139.84030846932507,35.65228382175685],[139.84031785727672,35.65229238428641],[139.84030328042016,35.65230302136964],[139.84029389247664,35.652294548976585],[139.84030846932507,35.65228382175685]]]}},{"type":"Feature","properties":{"height":2.6,"gml_id":"bldg_bb8a60df-f90f-4bdc-a0f5-70c8b312b9fa"},"geometry":{"type":"Polygon","coordinates":[[[139.8403639067066,35.65225695752356],[139.8403815780741,35.65227218974803],[139.84033784768653,35.65230590376796],[139.84032028675767,35.65229067153076],[139.8403639067066,35.65225695752356]]]}},{"type":"Feature","properties":{"height":2.5,"gml_id":"bldg_43fa618c-19d6-4e14-a87b-d27792219013"},"geometry":{"type":"Polygon","coordinates":[[[139.84029201664563,35.65231311743401],[139.84030968801184,35.65232834966887],[139.8402666201437,35.65236152279857],[139.84024905921618,35.652346290551115],[139.84029201664563,35.65231311743401]]]}},{"type":"Feature","properties":{"height":5.7,"gml_id":"bldg_75384929-bfb9-489c-8be4-6bff3787974f"},"geometry":{"type":"Polygon","coordinates":[[[139.83967012549988,35.65210908019261],[139.8397685203923,35.65204796166906],[139.83977592033472,35.65205589338406],[139.83977183435323,35.65205841745592],[139.8397890640832,35.65207698488339],[139.83978276946823,35.6520809512759],[139.83980530066202,35.65210519708699],[139.8397517411479,35.652138460734754],[139.83977603948688,35.65216441907165],[139.8397416951134,35.65218578351958],[139.83967012549988,35.65210908019261]]]}},{"type":"Feature","properties":{"height":3.3,"gml_id":"bldg_6abe63c3-214b-4a0c-9d25-d747ee5aad5c"},"geometry":{"type":"Polygon","coordinates":[[[139.8382195194943,35.651949694327875],[139.83821057336388,35.651937976799616],[139.83822835320476,35.65192887217843],[139.83823729933673,35.65194058970541],[139.8382195194943,35.651949694327875]]]}},{"type":"Feature","properties":{"height":5.8,"gml_id":"bldg_86d7a959-4b27-4b5c-af8c-e54954767220"},"geometry":{"type":"Polygon","coordinates":[[[139.8413600784643,35.65580687412304],[139.84135908329083,35.655794976030904],[139.84133368163845,35.65579632978445],[139.84132936916782,35.6557440502834],[139.84135653787436,35.65574260627547],[139.8413549897959,35.65572376762748],[139.84137652595712,35.655722594402754],[139.84137685778154,35.65572755194668],[139.84143417710894,35.65572448342759],[139.84143351374425,35.6557174527421],[139.8414541663631,35.65571627956294],[139.84145471925973,35.655723039843046],[139.8414833236996,35.65572150557212],[139.84148962688337,35.65579983468915],[139.8413600784643,35.65580687412304]]]}},{"type":"Feature","properties":{"height":22.0,"gml_id":"bldg_c2dbc8d5-19b8-4634-8d7c-b6fc7898c2e3"},"geometry":{"type":"Polygon","coordinates":[[[139.84131611118144,35.655694926189796],[139.84119926385728,35.65570259557125],[139.84119174620517,35.65562534816779],[139.84120577228242,35.65562435573851],[139.84120190296423,35.655585236287266],[139.84127048716445,35.65558072490842],[139.8412744670296,35.65562056545073],[139.84131013966365,35.65561821951654],[139.841311355793,35.65563092883291],[139.8413408436964,35.65562894384944],[139.84134526584555,35.65567356165068],[139.84131423174136,35.65567563687527],[139.84131611118144,35.655694926189796]]]}},{"type":"Feature","properties":{"height":2.5,"gml_id":"bldg_a25651c2-6679-4abb-8f2e-c7e32f55f0bd"},"geometry":{"type":"Polygon","coordinates":[[[139.84120343505148,35.655441466765495],[139.84117748128926,35.65544273038469],[139.84117460586603,35.6554025292158],[139.8412005596153,35.655401265597206],[139.84120343505148,35.655441466765495]]]}},{"type":"Feature","properties":{"height":2.3,"gml_id":"bldg_05aed83a-0ed5-4496-9c7e-92a8bc397b06"},"geometry":{"type":"Polygon","coordinates":[[[139.83793225992991,35.65173598933361],[139.83792243042123,35.65172517319348],[139.83793921624795,35.65171489686343],[139.83794915619458,35.65172571299795],[139.83793225992991,35.65173598933361]]]}},{"type":"Feature","properties":{"height":3.2,"gml_id":"bldg_63ad7254-f8fb-4fd1-9bd8-6c9e061310b1"},"geometry":{"type":"Polygon","coordinates":[[[139.83806712194635,35.65204921234814],[139.83805751330897,35.65203929758713],[139.838073967856,35.652028750838944],[139.83808346605676,35.652038665603015],[139.83806712194635,35.65204921234814]]]}},{"type":"Feature","properties":{"height":2.2,"gml_id":"bldg_9a7fd390-06b8-4087-97a9-1f8025e1ddeb"},"geometry":{"type":"Polygon","coordinates":[[[139.83795876374174,35.65171760024306],[139.83795081172175,35.65170786568463],[139.8379669350134,35.651699211853334],[139.83797599136727,35.65170831540478],[139.83795876374174,35.65171760024306]]]}},{"type":"Feature","properties":{"height":2.3,"gml_id":"bldg_6e7a3c1e-d039-4954-9847-238e38093e53"},"geometry":{"type":"Polygon","coordinates":[[[139.83790818567866,35.651753657224994],[139.83789824581612,35.65174428328914],[139.83791359592826,35.65173328591607],[139.83792364622818,35.651742659846484],[139.83790818567866,35.651753657224994]]]}},{"type":"Feature","properties":{"height":3.1,"gml_id":"bldg_771439a7-7847-4eb5-8170-5e8188f8c547"},"geometry":{"type":"Polygon","coordinates":[[[139.83809561379437,35.65203235548983],[139.83808556336865,35.65202180978517],[139.83810047184448,35.65201225460816],[139.83811052227097,35.65202280031159],[139.83809561379437,35.65203235548983]]]}},{"type":"Feature","properties":{"height":2.6,"gml_id":"bldg_c40cdf9a-c08a-4029-9f40-9f708d617ada"},"geometry":{"type":"Polygon","coordinates":[[[139.8413258400644,35.65579479796652],[139.8413012115094,35.655796151661924],[139.84129767331171,35.655755499854365],[139.84132230184528,35.65575405602212],[139.8413258400644,35.65579479796652]]]}},{"type":"Feature","properties":{"height":3.3,"gml_id":"bldg_13965ba0-8854-4514-be12-fac77e8c0b2a"},"geometry":{"type":"Polygon","coordinates":[[[139.83817269600425,35.651981334523654],[139.83816187246492,35.65196997761774],[139.8381756765928,35.651961143576585],[139.83818650013833,35.65197259061891],[139.83817269600425,35.651981334523654]]]}},{"type":"Feature","properties":{"height":3.3,"gml_id":"bldg_2240a4c8-b99e-40fd-8147-67a32bb59db3"},"geometry":{"type":"Polygon","coordinates":[[[139.8381975434522,35.65196573971415],[139.83818760352415,35.65195627566489],[139.8382025119155,35.6519457289613],[139.83820615655293,35.65194915404353],[139.83821145796338,35.65195609442583],[139.8381975434522,35.65196573971415]]]}},{"type":"Feature","properties":{"height":2.1,"gml_id":"bldg_540432da-4070-4ffb-96d0-909f6324c0b5"},"geometry":{"type":"Polygon","coordinates":[[[139.83783253892307,35.65179972040085],[139.83782381391654,35.65179115765216],[139.83784048927188,35.65177979968859],[139.83784921427895,35.65178836243609],[139.83783253892307,35.65179972040085]]]}},{"type":"Feature","properties":{"height":3.1,"gml_id":"bldg_1c244fa5-c628-4650-9756-07f378596de7"},"geometry":{"type":"Polygon","coordinates":[[[139.8381210134061,35.652015859298196],[139.83811107345403,35.652005944554595],[139.83812520886798,35.65199647954277],[139.83813514882064,35.65200639428524],[139.8381210134061,35.652015859298196]]]}},{"type":"Feature","properties":{"height":3.3,"gml_id":"bldg_e37a9ee7-e559-4e9a-82f1-31ec5a782bbf"},"geometry":{"type":"Polygon","coordinates":[[[139.83824469817986,35.6519331981189],[139.83823740874922,35.65192382410321],[139.83825143377948,35.651915711145286],[139.83825916494334,35.651924814729206],[139.83824469817986,35.6519331981189]]]}},{"type":"Feature","properties":{"height":2.3,"gml_id":"bldg_0dcecc36-1624-4a5e-ac66-87a8371f2df7"},"geometry":{"type":"Polygon","coordinates":[[[139.8378824547031,35.65176853090774],[139.8378749445272,35.651760418804926],[139.83789051559634,35.65175077349089],[139.8378981362048,35.65175879545092],[139.8378824547031,35.65176853090774]]]}},{"type":"Feature","properties":{"height":11.3,"gml_id":"bldg_410e0701-ea03-47d6-92b0-f47128daf343"},"geometry":{"type":"Polygon","coordinates":[[[139.8384984965721,35.65729078510817],[139.83847330344685,35.65710735628537],[139.83848534278528,35.65712141722789],[139.8384993700458,35.65713421615829],[139.83851527476108,35.65714539253048],[139.8385328360362,35.657154856215705],[139.83855161208115,35.6571624269573],[139.8385714924505,35.6571681047595],[139.83859203534757,35.65717161922845],[139.8386130198878,35.65717306051103],[139.83863400428586,35.6571723384889],[139.8386547676511,35.657169453171825],[139.83867486820412,35.65716440457955],[139.83869408507272,35.657157463134794],[139.83871197647193,35.657148538720215],[139.83872843197474,35.657137901753956],[139.83874312024747,35.657125552251486],[139.83875582043174,35.6571119409111],[139.83876631163932,35.6570970677434],[139.83877448344487,35.65708120316656],[139.8387764711124,35.65707633564929],[139.83882782741765,35.657071916577486],[139.83883622201392,35.65708399462525],[139.83884793006698,35.65709787527164],[139.83886162603577,35.657110493899985],[139.83887719945741,35.65712158010208],[139.83889431898618,35.6571309536174],[139.83891276373274,35.65713861445556],[139.83893231278222,35.65714420207605],[139.83893739739383,35.657203872893454],[139.83892922474027,35.657207298500126],[139.83891133333955,35.6572160426718],[139.83889487783873,35.657226589525365],[139.8388801895584,35.65723875877106],[139.83886748937516,35.65725237012427],[139.83885699815363,35.657267063025316],[139.83884882633927,35.65728283746972],[139.83884363646465,35.65729771040172],[139.83879890666273,35.657301678491834],[139.83879724973545,35.65729789279027],[139.83878786091896,35.65728284024637],[139.83877615283703,35.65726877931949],[139.8387623464101,35.65725616068676],[139.83874677297212,35.657244984332515],[139.83872965343016,35.657235520658844],[139.83871109823434,35.65722785979769],[139.83869154917383,35.657222182003835],[139.83867133758102,35.65721848726215],[139.8386506843554,35.657216955837555],[139.83862992082297,35.65721749757778],[139.83860948876605,35.65722020260095],[139.83858949862173,35.657224980764845],[139.83857050260525,35.657231741908134],[139.83855272159866,35.65724039588416],[139.83853637647854,35.65725076240882],[139.8385216881277,35.65726275133566],[139.8385089878682,35.65727618237593],[139.8384984965721,35.65729078510817]]]}},{"type":"Feature","properties":{"height":3.2,"gml_id":"bldg_39d2493a-d4fa-412a-9238-db74bd1f0335"},"geometry":{"type":"Polygon","coordinates":[[[139.83814552937358,35.65199710969593],[139.83813801909025,35.651988006096005],[139.8381529276348,35.65197980297677],[139.83816043792447,35.6519889967134],[139.83814552937358,35.65199710969593]]]}},{"type":"Feature","properties":{"height":2.5,"gml_id":"bldg_f8469ab3-3d3c-4aba-b329-d0c1758902af"},"geometry":{"type":"Polygon","coordinates":[[[139.8378579384949,35.651782863713564],[139.83785087009352,35.65177520228081],[139.83786633076713,35.65176618793744],[139.83787317830533,35.651774029652856],[139.8378579384949,35.651782863713564]]]}},{"type":"Feature","properties":{"height":3.6,"gml_id":"bldg_b47c5d46-8d4c-4d1f-adc1-c4fb7cf0b86c"},"geometry":{"type":"Polygon","coordinates":[[[139.83811560373812,35.65204542465277],[139.83810853524608,35.65203704213449],[139.83811714907156,35.65203217436114],[139.83812432800144,35.65204055687452],[139.83811560373812,35.65204542465277]]]}},{"type":"Feature","properties":{"height":22.7,"gml_id":"bldg_4cac72f7-41f9-4808-bb66-83f2750ffbbb"},"geometry":{"type":"Polygon","coordinates":[[[139.8410754873099,35.65600735869351],[139.84109315805185,35.65600618576795],[139.8411151360466,35.656004832286435],[139.8411233087644,35.65600429093271],[139.84114177167027,35.65619898686585],[139.84113315716036,35.65619952824943],[139.84111117912124,35.65620097187176],[139.84109350832796,35.65620205466239],[139.84108246408627,35.65620277647397],[139.84107650019286,35.6562031374078],[139.8410749524235,35.65618691274681],[139.84044410501684,35.6562268825846],[139.8404271914328,35.65604841121495],[139.84106444308614,35.65600799036592],[139.8410754873099,35.65600735869351]]]}},{"type":"Feature","properties":{"height":26.3,"gml_id":"bldg_e94621b6-c948-4a9d-ba45-6eba63c986e4"},"geometry":{"type":"Polygon","coordinates":[[[139.8410863336984,35.65624523101465],[139.8410973779372,35.65624441906514],[139.8411150487223,35.656243155998844],[139.84113702676407,35.65624162223826],[139.8411432115376,35.65624117114957],[139.84116653620518,35.65645786031914],[139.84115714858095,35.65645858202981],[139.84113506003663,35.656460115801174],[139.84111738920407,35.65646137887036],[139.84110645537908,35.65646219081455],[139.84109132472807,35.65646327344083],[139.8410897770901,35.65644849098161],[139.84075889069962,35.65647221801447],[139.84075999609414,35.656482583765026],[139.8406078059485,35.65649358983546],[139.84060603737313,35.65647727504502],[139.8404661063576,35.65648728868237],[139.84044676279004,35.65630737526621],[139.841082028008,35.656261726464756],[139.8410803698106,35.65624568208622],[139.8410863336984,35.65624523101465]]]}},{"type":"Feature","properties":{"height":29.4,"gml_id":"bldg_93e2c8f2-4bfb-4472-9b89-7ac8e409678e"},"geometry":{"type":"Polygon","coordinates":[[[139.8410890441375,35.655721441470796],[139.84106695577748,35.65572279495469],[139.8410461927262,35.65572414834968],[139.84104420283856,35.655704137937576],[139.84039690340205,35.655745460646784],[139.84037866365708,35.6555549108997],[139.84096853199105,35.65551728758228],[139.8409808033167,35.65564573283729],[139.8410908032151,35.655638695071964],[139.8410987630122,35.65572080988157],[139.8410890441375,35.655721441470796]]]}},{"type":"Feature","properties":{"height":27.1,"gml_id":"bldg_c77612ce-e5d6-4e9d-bdf9-a8549b1e5350"},"geometry":{"type":"Polygon","coordinates":[[[139.84108962021173,35.655968238082515],[139.8410719494781,35.655969411007575],[139.84106101571106,35.65597013281014],[139.8410594695206,35.65597022304689],[139.84105659523098,35.65594137921147],[139.84063801971024,35.65596907755831],[139.84064078335004,35.65599729044739],[139.84056490957965,35.65600234273066],[139.84056214596635,35.655974129839855],[139.84042000691096,35.65598351259403],[139.84040331523067,35.655815407020604],[139.8410440990067,35.65577291290637],[139.84104210906645,35.655752361669016],[139.8410694986312,35.65575055716143],[139.8410915869901,35.655749113539514],[139.84110031189445,35.65574857215175],[139.84112186929687,35.65596607269977],[139.84111170863022,35.655966794456944],[139.84108962021173,35.655968238082515]]]}},{"type":"Feature","properties":{"height":2.6,"gml_id":"bldg_d2d10f1e-63c5-47b0-945b-501126eacf8f"},"geometry":{"type":"Polygon","coordinates":[[[139.83801221321312,35.651683165605434],[139.83800238372115,35.651672710022254],[139.8380170712946,35.65166360555172],[139.83802690078738,35.65167406113371],[139.83801221321312,35.651683165605434]]]}},{"type":"Feature","properties":{"height":8.2,"gml_id":"bldg_1ba1c597-0333-4bad-9b77-82d6eb18ca1c"},"geometry":{"type":"Polygon","coordinates":[[[139.84012934442086,35.65234377351254],[139.8399892974725,35.65220136389849],[139.8400148071709,35.652184687026626],[139.839932966078,35.65210149451663],[139.83991198408972,35.65211528672035],[139.8398693516874,35.65207193284635],[139.83998950108855,35.65199332626083],[139.84003136038461,35.65203586889728],[139.83999668492675,35.65205849536346],[139.84007720067785,35.652140335840684],[139.84010856319875,35.6521197827033],[139.84025059828127,35.65226435536923],[139.84012934442086,35.65234377351254]]]}},{"type":"Feature","properties":{"height":8.4,"gml_id":"bldg_e46996e9-7bda-451b-88a8-ae20aef99c7e"},"geometry":{"type":"Polygon","coordinates":[[[139.8383952138018,35.651769411825036],[139.83843309213285,35.65174480265549],[139.83847009093856,35.651782568748],[139.83843221260676,35.65180726806664],[139.8383952138018,35.651769411825036]]]}},{"type":"Feature","properties":{"height":3.1,"gml_id":"bldg_49cbc8ed-4760-43a0-aaca-ee449fbff38a"},"geometry":{"type":"Polygon","coordinates":[[[139.83805872537025,35.65199260625186],[139.8378848869559,35.65181504183006],[139.83790355012843,35.651802872544046],[139.83807738855768,35.651980436939276],[139.83805872537025,35.65199260625186]]]}},{"type":"Feature","properties":{"height":3.2,"gml_id":"bldg_f64405dd-b212-4d26-b58e-05bad1c45e59"},"geometry":{"type":"Polygon","coordinates":[[[139.83818517110794,35.651910035162636],[139.8380143144012,35.6517326510803],[139.83803286711384,35.65172075219125],[139.83820383427343,35.65189813624316],[139.83818517110794,35.651910035162636]]]}}]}