{"type":"FeatureCollection","crs":{"type":"name","properties":{"name":"urn:ogc:def:crs:OGC:1.3:CRS84"}},"features":[{"type":"Feature","properties":{"height":15.9,"gml_id":"bldg_6649aa6c-4590-48ea-92b4-f410b1de79f4"},"geometry":{"type":"Polygon","coordinates":[[[139.78660792432834,35.60634020892671],[139.78539667297366,35.60782250795827],[139.785270001344,35.607754493241906],[139.78648401557447,35.60626841073303],[139.78660792432834,35.60634020892671]]]}},{"type":"Feature","properties":{"height":26.5,"gml_id":"bldg_a1a9ff34-944f-4cc0-92c9-3dbe5eb9402e"},"geometry":{"type":"Polygon","coordinates":[[[139.78592209199888,35.608151720519764],[139.7859133659395,35.60816235340189],[139.785435257542,35.60790175484335],[139.78536375665783,35.607862876805754],[139.78539667297366,35.60782250795827],[139.78660792432834,35.60634020892671],[139.78664017662462,35.60630074085434],[139.7871896696179,35.60660021165975],[139.7861259946681,35.60790202742448],[139.7859682628961,35.60809522198202],[139.78592209199888,35.608151720519764]]]}},{"type":"Feature","properties":{"height":19.1,"gml_id":"bldg_a4f83e02-dc97-4f29-a8bf-fe94425c74e1"},"geometry":{"type":"Polygon","coordinates":[[[139.78622555441444,35.60790206638662],[139.78603148515748,35.6081355386225],[139.7859682628961,35.60809522198202],[139.7861259946681,35.60790202742448],[139.78714416299948,35.606656170105026],[139.7872201831522,35.60670532458858],[139.78622555441444,35.60790206638662]]]}},{"type":"Feature","properties":{"height":8.6,"gml_id":"bldg_0e8aeb9a-09fe-4711-bafd-01a179dbd57a"},"geometry":{"type":"Polygon","coordinates":[[[139.7845370123127,35.60790139445231],[139.7844709580215,35.60798204143881],[139.78439780254112,35.60794208049854],[139.78443116110037,35.60790135154202],[139.78464246821866,35.60764301067836],[139.78471573392517,35.60768297151648],[139.7845370123127,35.60790139445231]]]}},{"type":"Feature","properties":{"height":10.0,"gml_id":"bldg_f17d099e-bd18-4e2b-bd55-adb99a30e531"},"geometry":{"type":"Polygon","coordinates":[[[139.78444041248633,35.60811606465608],[139.78426232298244,35.60801954431702],[139.78434395271807,35.60791907335891],[139.78452215247444,35.60801559362354],[139.78444041248633,35.60811606465608]]]}},{"type":"Feature","properties":{"height":3.4,"gml_id":"bldg_077a0a2a-067d-4725-95c5-6424ff3567eb"},"geometry":{"type":"Polygon","coordinates":[[[139.787326613228,35.60511298200767],[139.78731756533952,35.60510829136064],[139.78730707217835,35.60512180810054],[139.7872973622079,35.60511684678418],[139.78730774494565,35.60510342014125],[139.78730079352323,35.60509981195342],[139.787322994971,35.605070976171305],[139.78734870424583,35.60508423631703],[139.787326613228,35.60511298200767]]]}},{"type":"Feature","properties":{"height":2.3,"gml_id":"bldg_455ee9c7-3493-432a-9c10-b551521e9133"},"geometry":{"type":"Polygon","coordinates":[[[139.78707752985898,35.60602292301307],[139.7870595448524,35.606012550203474],[139.7870726881346,35.60599732187685],[139.78709078346165,35.606007784865135],[139.78707752985898,35.60602292301307]]]}},{"type":"Feature","properties":{"height":2.5,"gml_id":"bldg_38b767ae-3430-4d4c-bd36-506e45b3f9d8"},"geometry":{"type":"Polygon","coordinates":[[[139.7871910239387,35.60635602753863],[139.78716608623182,35.6063439394554],[139.7871729348364,35.606334567696194],[139.78716190044096,35.60632924530934],[139.78717537679452,35.60631068198295],[139.78721134888963,35.606328092447676],[139.7871910239387,35.60635602753863]]]}},{"type":"Feature","properties":{"height":3.7,"gml_id":"bldg_93316673-a001-4a3d-b7cf-f63d63f52f5c"},"geometry":{"type":"Polygon","coordinates":[[[139.78669365296193,35.60430383740212],[139.78668106148237,35.60431951659704],[139.78667620664328,35.60431690070599],[139.78666836449324,35.604326812885375],[139.78665545497705,35.60431995737279],[139.78666440157804,35.60430878368538],[139.78665513323233,35.604303822487665],[139.7866667306365,35.60428940484705],[139.78669365296193,35.60430383740212]]]}},{"type":"Feature","properties":{"height":2.0,"gml_id":"bldg_1577a1f0-3e70-461a-b240-60ddfbd9f1ef"},"geometry":{"type":"Polygon","coordinates":[[[139.78658532612795,35.606291074790434],[139.7865668987356,35.60628223408721],[139.7865856773323,35.60625655195882],[139.78660399434645,35.60626539261639],[139.78658532612795,35.606291074790434]]]}},{"type":"Feature","properties":{"height":3.2,"gml_id":"bldg_4e606220-dd7d-41e3-8a7a-caa4913563f2"},"geometry":{"type":"Polygon","coordinates":[[[139.78665024603984,35.604356912068795],[139.786628950622,35.60434599707981],[139.78664640266177,35.60432310870748],[139.7866678084477,35.60433402373617],[139.78665024603984,35.604356912068795]]]}},{"type":"Feature","properties":{"height":6.3,"gml_id":"bldg_62213003-2695-40d5-8b60-e618e2cfd35d"},"geometry":{"type":"Polygon","coordinates":[[[139.78701602431292,35.60626158560521],[139.78698413635007,35.606243816099735],[139.7870069996426,35.606216422848824],[139.78703844625792,35.60623392176386],[139.78701602431292,35.60626158560521]]]}},{"type":"Feature","properties":{"height":5.8,"gml_id":"bldg_8b1368ea-cd72-4ebe-9824-a7410ea0e12d"},"geometry":{"type":"Polygon","coordinates":[[[139.7871283175793,35.6061877153098],[139.78715107100223,35.60615933046785],[139.78718483450334,35.60617854286045],[139.7871610880804,35.606206296360135],[139.7871283175793,35.6061877153098]]]}},{"type":"Feature","properties":{"height":12.3,"gml_id":"bldg_bd80e2ef-a10a-4496-99f5-1da727e3b340"},"geometry":{"type":"Polygon","coordinates":[[[139.78719473662687,35.6060412660213],[139.78713879379399,35.60601194964104],[139.7872489173155,35.60587146619227],[139.78738419522787,35.60594227641855],[139.78727396152303,35.60608266980892],[139.78723070783002,35.60606002855517],[139.78719473662687,35.6060412660213]]]}},{"type":"Feature","properties":{"height":8.1,"gml_id":"bldg_4fd02967-8cce-4aea-b54a-ebaf45c010b7"},"geometry":{"type":"Polygon","coordinates":[[[139.78701602431292,35.60626158560521],[139.78703844625792,35.60623392176386],[139.78719473662687,35.6060412660213],[139.78723070783002,35.60606002855517],[139.78715107100223,35.60615933046785],[139.7871283175793,35.6061877153098],[139.78700217960142,35.606344687792834],[139.78696455327903,35.606324933033484],[139.78701602431292,35.60626158560521]]]}}]}