{"type":"FeatureCollection","crs":{"type":"name","properties":{"name":"urn:ogc:def:crs:OGC:1.3:CRS84"}},"features":[{"type":"Feature","properties":{"height":6.7,"gml_id":"bldg_e3bfc591-0565-4052-b5f8-429eac543894"},"geometry":{"type":"Polygon","coordinates":[[[139.83267574792131,35.61663070283848],[139.83260311249836,35.61659401619228],[139.83263214504586,35.61655552737358],[139.83263358007784,35.61655778083574],[139.83265212542855,35.61654975864639],[139.8326724369985,35.616541015358685],[139.83268976793306,35.61654975885334],[139.83272387787255,35.61656697541789],[139.83267574792131,35.61663070283848]]]}},{"type":"Feature","properties":{"height":35.6,"gml_id":"bldg_e1a20f68-0260-468a-8d79-6c95baa54610"},"geometry":{"type":"Polygon","coordinates":[[[139.83297722008717,35.61648179587808],[139.83297909668622,35.6164829676796],[139.83299112898806,35.616493063187626],[139.83300051196187,35.61650478117389],[139.83300393398105,35.61651082043958],[139.8330072456181,35.61651541749444],[139.83300934298015,35.61652037509853],[139.83301033645594,35.61652560311409],[139.83301000526893,35.61653092126424],[139.83300857019736,35.61653596899697],[139.83300647279862,35.61653993507003],[139.83300294034646,35.6165443518299],[139.83299841439936,35.61654813761984],[139.83299311573518,35.61655111216403],[139.83298726513124,35.616553275463055],[139.83298450541358,35.61655399656032],[139.83297125877883,35.61655507817907],[139.83295205117253,35.61655354577121],[139.83293350591327,35.616549038803456],[139.83292202552448,35.61654453185716],[139.83290612961798,35.616535608124686],[139.8328925518873,35.61652434080663],[139.83288394163804,35.616514155163486],[139.8328799676775,35.61650946796461],[139.83287720799416,35.61650423994129],[139.83287566258682,35.616498651369895],[139.83287544184216,35.61649297266538],[139.83287654575895,35.61648738410401],[139.83287886394785,35.61648197582355],[139.8328807405678,35.61647918154783],[139.83288504574412,35.616474584518066],[139.83289012363477,35.616470798734376],[139.8328961950167,35.61646782419748],[139.8329027079467,35.61646584118154],[139.83290955203603,35.616464939824255],[139.83291661689654,35.61646512012521],[139.83291816233404,35.61646530040685],[139.83293527254045,35.61646629198429],[139.83294101273432,35.61646755393728],[139.83295194118105,35.61646989756437],[139.83296739553847,35.616476027006776],[139.83297722008717,35.61648179587808]]]}},{"type":"Feature","properties":{"height":29.4,"gml_id":"bldg_5810f9b5-b950-4699-89ad-f9076f024faa"},"geometry":{"type":"Polygon","coordinates":[[[139.83297722008717,35.61648179587808],[139.83296739553847,35.616476027006776],[139.83295194118105,35.61646989756437],[139.83294101273432,35.61646755393728],[139.83295083749724,35.616427712904574],[139.83298969401275,35.61647548624351],[139.83297722008717,35.61648179587808]]]}},{"type":"Feature","properties":{"height":5.3,"gml_id":"bldg_4cca5ae4-7315-4f3f-8a2a-669f3da7582c"},"geometry":{"type":"Polygon","coordinates":[[[139.83534111818054,35.613629988083744],[139.83533162377185,35.613576265876084],[139.83533272761676,35.61357626585778],[139.8353485125515,35.61357437269266],[139.83534630455006,35.613561933658296],[139.8354123142609,35.613554090514235],[139.8354186071109,35.61359014568453],[139.83539156298448,35.61359321084823],[139.8353929981888,35.61360123312327],[139.8353750055639,35.61360330660803],[139.8353788695892,35.61362557067713],[139.83534111818054,35.613629988083744]]]}},{"type":"Feature","properties":{"height":2.8,"gml_id":"bldg_3f3b6606-f9bf-4a93-9490-094d3f467c9c"},"geometry":{"type":"Polygon","coordinates":[[[139.83563110976138,35.61402614026424],[139.83561013532886,35.61398161239597],[139.8356375105751,35.61397304874739],[139.83565837463286,35.614017486474886],[139.83563110976138,35.61402614026424]]]}},{"type":"Feature","properties":{"height":21.3,"gml_id":"bldg_7249697f-78b6-416b-ac5a-4606573c9281"},"geometry":{"type":"Polygon","coordinates":[[[139.83465320833463,35.614041568575],[139.8345921648535,35.614009389894086],[139.83464382400925,35.61394412929262],[139.83470475707801,35.61397639808717],[139.83465320833463,35.614041568575]]]}},{"type":"Feature","properties":{"height":5.3,"gml_id":"bldg_bd3c1fc4-447a-4040-a7c3-13d5efa2b5cc"},"geometry":{"type":"Polygon","coordinates":[[[139.83577515234316,35.61369758371685],[139.83576079992486,35.61361772156493],[139.83584391917668,35.61360771452187],[139.83584502321642,35.613613934034454],[139.83586180160162,35.613611860505],[139.83587516046072,35.613685503130434],[139.83577515234316,35.61369758371685]]]}},{"type":"Feature","properties":{"height":6.2,"gml_id":"bldg_cf88f246-ee29-47f7-be47-0585c56b0208"},"geometry":{"type":"Polygon","coordinates":[[[139.8359688777186,35.61370677373121],[139.83594790091198,35.61359247895511],[139.8360107094446,35.61358481582911],[139.8360315759539,35.61369911059686],[139.8359688777186,35.61370677373121]]]}},{"type":"Feature","properties":{"height":3.3,"gml_id":"bldg_069b2660-8f32-457f-9103-a08d7a494548"},"geometry":{"type":"Polygon","coordinates":[[[139.83310747810583,35.61662096950083],[139.83314136733492,35.61666026979369],[139.83309975071467,35.6166842464684],[139.83306586149553,35.61664503630214],[139.83310747810583,35.61662096950083]]]}}]}