{"type":"FeatureCollection","crs":{"type":"name","properties":{"name":"urn:ogc:def:crs:OGC:1.3:CRS84"}},"features":[{"type":"Feature","properties":{"height":6.0,"gml_id":"bldg_ad8f7db6-3ae1-4bc3-a59c-d89d5d9f2d71"},"geometry":{"type":"Polygon","coordinates":[[[139.80188043893253,35.600445067486575],[139.8017395304292,35.60037012562543],[139.8018146164713,35.6002759506674],[139.8019555248797,35.60035089244185],[139.80188043893253,35.600445067486575]]]}},{"type":"Feature","properties":{"height":7.3,"gml_id":"bldg_d0610625-051e-43c6-979d-6c45576f63e6"},"geometry":{"type":"Polygon","coordinates":[[[139.80139983293043,35.601733739653],[139.80134443921008,35.60170578206678],[139.80137491684442,35.60166549830114],[139.80143031054763,35.60169345587351],[139.80139983293043,35.601733739653]]]}},{"type":"Feature","properties":{"height":6.4,"gml_id":"bldg_6c9e850e-10bb-4ab5-8918-3cbcd7d95d4f"},"geometry":{"type":"Polygon","coordinates":[[[139.80219058239447,35.602118837426886],[139.8021529545221,35.60209854656486],[139.80214555628615,35.602107648625314],[139.80203267277582,35.60204677596156],[139.80203962933388,35.602038214623455],[139.80200542226126,35.60201972737069],[139.80206527086597,35.601945649176486],[139.80224998918393,35.60204538999653],[139.80219058239447,35.602118837426886]]]}},{"type":"Feature","properties":{"height":2.8,"gml_id":"bldg_48fb1f1d-6086-431b-8577-586c219b9799"},"geometry":{"type":"Polygon","coordinates":[[[139.80216789560777,35.60483848569497],[139.80212673448017,35.604818374196434],[139.80215467349987,35.60478025291698],[139.80219583461496,35.60480036440609],[139.80216789560777,35.60483848569497]]]}},{"type":"Feature","properties":{"height":6.3,"gml_id":"bldg_4a968d34-c363-419b-882e-d795eddd28de"},"geometry":{"type":"Polygon","coordinates":[[[139.8020642607019,35.60227267090294],[139.80189024589274,35.60217798034351],[139.8019399356244,35.60211714990218],[139.8021138400267,35.60221175022384],[139.8020642607019,35.60227267090294]]]}},{"type":"Feature","properties":{"height":5.8,"gml_id":"bldg_c6d75f62-3996-4d27-a7cc-91488eebe109"},"geometry":{"type":"Polygon","coordinates":[[[139.80203576305024,35.60488135729231],[139.80188778413253,35.60480298856494],[139.802011241098,35.60464753210523],[139.80211772840065,35.604703896190635],[139.80208736109338,35.60474228724739],[139.80212874221695,35.60476420158308],[139.80203576305024,35.60488135729231]]]}},{"type":"Feature","properties":{"height":6.5,"gml_id":"bldg_57979bb9-8282-400b-836b-5c6241a7d8da"},"geometry":{"type":"Polygon","coordinates":[[[139.8034817770504,35.603927069108714],[139.80340905701317,35.6038878408956],[139.80337791799897,35.6039263222297],[139.80323192634407,35.6038475950812],[139.80340838059777,35.60362950424309],[139.8035499580612,35.60370588649283],[139.80356044807314,35.603692999302126],[139.80370213613082,35.603769471538016],[139.8035796785937,35.60392096391374],[139.80351501400378,35.603886064393414],[139.8034817770504,35.603927069108714]]]}},{"type":"Feature","properties":{"height":4.1,"gml_id":"bldg_8b3c8809-3ad1-4ab7-8d50-129d44b72731"},"geometry":{"type":"Polygon","coordinates":[[[139.8031849022695,35.60150948448721],[139.8030972878539,35.60146241030505],[139.8031814273338,35.60135796100859],[139.80326904171864,35.601404944992005],[139.8031849022695,35.60150948448721]]]}},{"type":"Feature","properties":{"height":3.4,"gml_id":"bldg_8f817bbb-5dac-478a-8eff-12f9d604de9e"},"geometry":{"type":"Polygon","coordinates":[[[139.80315332154925,35.60155075995777],[139.8030878861361,35.601516761385696],[139.80310997036054,35.601488463476734],[139.80317540579387,35.60152237189861],[139.80315332154925,35.60155075995777]]]}},{"type":"Feature","properties":{"height":13.9,"gml_id":"bldg_5edd9c88-d82e-42e7-b8c5-2cf0bac55f26"},"geometry":{"type":"Polygon","coordinates":[[[139.8038512277073,35.603221287593804],[139.80380267446625,35.60319495440624],[139.80385589697676,35.60312934671808],[139.80390456059914,35.603155588871715],[139.8038512277073,35.603221287593804]]]}},{"type":"Feature","properties":{"height":4.6,"gml_id":"bldg_75ecca03-5d2b-4014-9a7c-ae0ef2fb01d0"},"geometry":{"type":"Polygon","coordinates":[[[139.80209970591187,35.602229503818975],[139.80212177506974,35.602241407800776],[139.80208710220387,35.60228520605994],[139.80206492267016,35.602273302043244],[139.80209970591187,35.602229503818975]]]}},{"type":"Feature","properties":{"height":15.6,"gml_id":"bldg_4a8c44ed-e0b1-4803-a3f4-4a13eff1802c"},"geometry":{"type":"Polygon","coordinates":[[[139.8037234434869,35.6034542629898],[139.80367246305934,35.60342504562867],[139.80373286156714,35.60335493284611],[139.80378373160175,35.60338415015496],[139.8037234434869,35.6034542629898]]]}},{"type":"Feature","properties":{"height":6.1,"gml_id":"bldg_eca7c1cb-8890-4f8b-be8e-c34fb68a515f"},"geometry":{"type":"Polygon","coordinates":[[[139.80476910055202,35.60281579502974],[139.8047116088847,35.60278504420955],[139.80474506573393,35.60274331809232],[139.80480255735222,35.602774159035135],[139.80476910055202,35.60281579502974]]]}},{"type":"Feature","properties":{"height":9.2,"gml_id":"bldg_b1dcec4e-6d33-4802-8426-29351e3e4e55"},"geometry":{"type":"Polygon","coordinates":[[[139.8051196739658,35.60238961331903],[139.80488573642796,35.60226246323121],[139.80503303219044,35.60208186062867],[139.80526696943605,35.60220901043425],[139.8051196739658,35.60238961331903]]]}},{"type":"Feature","properties":{"height":2.1,"gml_id":"bldg_b9a979f3-0e1c-417f-9498-d31faaad8e28"},"geometry":{"type":"Polygon","coordinates":[[[139.80541110679602,35.60190392554578],[139.80538539586854,35.60188976786184],[139.80540350393267,35.60186777829785],[139.8054292148563,35.60188193597798],[139.80541110679602,35.60190392554578]]]}},{"type":"Feature","properties":{"height":2.5,"gml_id":"bldg_b460f18c-1ae2-4da2-afcd-6b7b8f59742b"},"geometry":{"type":"Polygon","coordinates":[[[139.80532741343873,35.60200170625452],[139.8053021443147,35.60198655713367],[139.80532190788858,35.601964748244114],[139.80534706664088,35.60197989733523],[139.80532741343873,35.60200170625452]]]}},{"type":"Feature","properties":{"height":2.8,"gml_id":"bldg_92a6d87c-502a-4a11-b963-080c2475a0d6"},"geometry":{"type":"Polygon","coordinates":[[[139.8009583040884,35.60680480442608],[139.80090134027827,35.60683011796905],[139.8008863383483,35.606807579356975],[139.80094330214715,35.606782265820996],[139.8009583040884,35.60680480442608]]]}},{"type":"Feature","properties":{"height":3.0,"gml_id":"bldg_7d0b8c08-34a6-41ee-a76c-d99a70692539"},"geometry":{"type":"Polygon","coordinates":[[[139.80564253797172,35.603539088739616],[139.80559616190672,35.603598118689604],[139.8053990756078,35.603494774622455],[139.80544545172654,35.603435834885666],[139.80564253797172,35.603539088739616]]]}},{"type":"Feature","properties":{"height":6.6,"gml_id":"bldg_5fa7c9f5-5285-4afb-bab3-d00f2bf6a06a"},"geometry":{"type":"Polygon","coordinates":[[[139.80819285156943,35.603257154195546],[139.80820940432613,35.60326608134423],[139.80817992419583,35.60330204039577],[139.80816337146325,35.603293023104726],[139.80819285156943,35.603257154195546]]]}},{"type":"Feature","properties":{"height":2.3,"gml_id":"bldg_120e0db4-03e2-4399-9020-906601934238"},"geometry":{"type":"Polygon","coordinates":[[[139.8059252881834,35.60230164391824],[139.80593742622267,35.60230912816239],[139.80592351456437,35.602324268243976],[139.80591126615508,35.60231678397333],[139.8059252881834,35.60230164391824]]]}},{"type":"Feature","properties":{"height":1.0,"gml_id":"bldg_42d879b5-e555-4176-8f22-fa15a5fc112c"},"geometry":{"type":"Polygon","coordinates":[[[139.80612867785828,35.60236190243088],[139.80612116955695,35.602371365263714],[139.80608894755738,35.60235432183288],[139.80609645586094,35.602344859002045],[139.80612867785828,35.60236190243088]]]}},{"type":"Feature","properties":{"height":4.7,"gml_id":"bldg_4e0ef50a-5279-4ff7-b3cb-57829828e0a9"},"geometry":{"type":"Polygon","coordinates":[[[139.80703659793278,35.602625938952734],[139.80702147053307,35.60264666747322],[139.80699763450838,35.60263512455665],[139.80701276191206,35.60261439603911],[139.80703659793278,35.602625938952734]]]}},{"type":"Feature","properties":{"height":2.3,"gml_id":"bldg_765a13eb-9d73-49c2-8478-b31ba72a89b4"},"geometry":{"type":"Polygon","coordinates":[[[139.805512461469,35.601798667371085],[139.80553839309522,35.601812915217394],[139.80551708305686,35.601838780012734],[139.8054911514573,35.60182444202354],[139.805512461469,35.601798667371085]]]}},{"type":"Feature","properties":{"height":2.3,"gml_id":"bldg_da31f642-2b6c-4c75-a5e2-9cbe9567a555"},"geometry":{"type":"Polygon","coordinates":[[[139.80410042779678,35.60114086380867],[139.80411456134382,35.601122929698604],[139.8041356375176,35.60113393168924],[139.80412150394056,35.601151955940125],[139.80410042779678,35.60114086380867]]]}},{"type":"Feature","properties":{"height":10.1,"gml_id":"bldg_abf36b76-c839-4f4d-99fe-a16c0cfc5502"},"geometry":{"type":"Polygon","coordinates":[[[139.80728317176295,35.60362139031886],[139.8067235818835,35.603317772242164],[139.80681942227307,35.60319989240628],[139.80737912203597,35.603503600205784],[139.80728317176295,35.60362139031886]]]}},{"type":"Feature","properties":{"height":2.4,"gml_id":"bldg_81b14929-7508-4f99-be57-177bf427d9e0"},"geometry":{"type":"Polygon","coordinates":[[[139.80550056577215,35.603322814140476],[139.80551469929728,35.603305150287746],[139.80560375179792,35.603352673721396],[139.80558961828396,35.60337033758443],[139.80550056577215,35.603322814140476]]]}},{"type":"Feature","properties":{"height":5.8,"gml_id":"bldg_8f7a9ba7-3185-40da-ab68-7abd02a599a5"},"geometry":{"type":"Polygon","coordinates":[[[139.80784718266898,35.60287462455761],[139.80787984692918,35.60289103664189],[139.8078477158263,35.6029335751543],[139.8078151619539,35.60291707294644],[139.80784718266898,35.60287462455761]]]}},{"type":"Feature","properties":{"height":5.7,"gml_id":"bldg_2b5b4dc6-858e-4a0d-b297-68bef36a0afe"},"geometry":{"type":"Polygon","coordinates":[[[139.8101141209973,35.60421859470592],[139.81007891818527,35.60419875748408],[139.81011491164384,35.60415612899148],[139.8101501144461,35.60417596620293],[139.8101141209973,35.60421859470592]]]}},{"type":"Feature","properties":{"height":6.4,"gml_id":"bldg_dfaf92dc-804c-496b-b3a1-d38a7ed7d600"},"geometry":{"type":"Polygon","coordinates":[[[139.81099340822664,35.60199279430918],[139.8110213407332,35.6019594482874],[139.81111778792837,35.60201336885039],[139.81108996583666,35.60204662477623],[139.81099340822664,35.60199279430918]]]}},{"type":"Feature","properties":{"height":12.7,"gml_id":"bldg_75db4e8f-ac3a-406b-9c7d-1f206d876a17"},"geometry":{"type":"Polygon","coordinates":[[[139.8066507901514,35.60315893237524],[139.80626953110985,35.60295125873029],[139.80646485537474,35.602712165381035],[139.80684611375793,35.60291992855437],[139.8066507901514,35.60315893237524]]]}},{"type":"Feature","properties":{"height":7.8,"gml_id":"bldg_249db3e5-fc8e-4034-a02d-c2ccdfe2ee9b"},"geometry":{"type":"Polygon","coordinates":[[[139.80754569827565,35.60376368508822],[139.80739032307923,35.60367946252727],[139.80748737743562,35.603560230353295],[139.80764264213258,35.603644452767185],[139.80754569827565,35.60376368508822]]]}},{"type":"Feature","properties":{"height":5.9,"gml_id":"bldg_e86f1137-000b-41d5-91fe-b65180d20d57"},"geometry":{"type":"Polygon","coordinates":[[[139.81241294753517,35.60546716112426],[139.81237597735355,35.605448405930346],[139.81240865907364,35.60540532549378],[139.8124456292431,35.6054240806778],[139.81241294753517,35.60546716112426]]]}},{"type":"Feature","properties":{"height":11.6,"gml_id":"bldg_7b3fc66c-0b2d-4915-9938-4f59faf09a9a"},"geometry":{"type":"Polygon","coordinates":[[[139.80049991916306,35.60112308075403],[139.80049186411284,35.60111875191693],[139.80047354714694,35.60110892184046],[139.80051904160322,35.60105232733419],[139.8005454136088,35.60106648623793],[139.80049991916306,35.60112308075403]]]}},{"type":"Feature","properties":{"height":4.9,"gml_id":"bldg_a97b0316-e339-42f3-ae18-d00cc43ba37c"},"geometry":{"type":"Polygon","coordinates":[[[139.80029430830035,35.60245698228792],[139.80029374556136,35.60248348281122],[139.80021604602726,35.602482469961615],[139.80021739630521,35.6024197340345],[139.80029509577867,35.60242074688323],[139.80029430830035,35.60245698228792]]]}},{"type":"Feature","properties":{"height":14.2,"gml_id":"bldg_04b421cd-dbf7-45e0-ab08-62c9eed6d62b"},"geometry":{"type":"Polygon","coordinates":[[[139.80227877999573,35.60179959008978],[139.80242609134947,35.601878499033866],[139.80240952814705,35.601899136471125],[139.80242608001598,35.60190797427743],[139.80238842636493,35.601954746427396],[139.80222467343495,35.60186699963499],[139.80227877999573,35.60179959008978]]]}},{"type":"Feature","properties":{"height":2.8,"gml_id":"bldg_34a207e5-2d93-44a9-83ac-cb138621b501"},"geometry":{"type":"Polygon","coordinates":[[[139.80008627937747,35.601081593831154],[139.80002559072736,35.601049307532776],[139.8000655644943,35.6009990213579],[139.80012625312253,35.60103130763641],[139.80008627937747,35.601081593831154]]]}},{"type":"Feature","properties":{"height":8.6,"gml_id":"bldg_a5aca06d-4ee5-498a-b9b5-760c9d51af7d"},"geometry":{"type":"Polygon","coordinates":[[[139.80080697954568,35.60680521436681],[139.80080024323024,35.60681368554802],[139.80075235074204,35.6067881634713],[139.80073888789855,35.60678094876695],[139.80073348587885,35.606765263242366],[139.80076904467282,35.606720834677326],[139.80079079056637,35.606715882945615],[139.80085225620823,35.606748709868626],[139.80080697954568,35.60680521436681]]]}},{"type":"Feature","properties":{"height":15.7,"gml_id":"bldg_5cf8f36a-8c11-4407-bd0d-f1820a3bfa6e"},"geometry":{"type":"Polygon","coordinates":[[[139.8021732366652,35.60244955059506],[139.80212821541318,35.60242538186496],[139.8021718323027,35.60237103971984],[139.80221696394145,35.602395118324004],[139.8021732366652,35.60244955059506]]]}},{"type":"Feature","properties":{"height":15.6,"gml_id":"bldg_80bd3c7a-cdc5-4634-bc6d-dda1b15179b8"},"geometry":{"type":"Polygon","coordinates":[[[139.80570878829494,35.60249449057822],[139.8054681188489,35.60236202191616],[139.80549936640676,35.60232417102519],[139.80551823592268,35.6023345412937],[139.8055318169885,35.6023181392456],[139.8055454996302,35.602327156237685],[139.80559673328497,35.6022621782807],[139.80581136102558,35.60237859611506],[139.80574632618612,35.602458533971394],[139.8057406983776,35.602455558117036],[139.80570878829494,35.60249449057822]]]}},{"type":"Feature","properties":{"height":15.7,"gml_id":"bldg_5eac69ee-3163-4981-8037-1028c7e4fc3a"},"geometry":{"type":"Polygon","coordinates":[[[139.80556358530023,35.60268960675233],[139.8053466396458,35.60257228656072],[139.8053883771907,35.60252073710492],[139.8053663071583,35.602509735105144],[139.8053886124386,35.60247900309873],[139.80537636374208,35.60247242015747],[139.80540849496583,35.602432766728555],[139.80565490348337,35.60256595793331],[139.80562144733557,35.602607233612844],[139.80562795816775,35.602610029399],[139.80556358530023,35.60268960675233]]]}},{"type":"Feature","properties":{"height":8.4,"gml_id":"bldg_249a3b4f-240b-40f6-999f-6d7e5fe243a4"},"geometry":{"type":"Polygon","coordinates":[[[139.804965905229,35.60308463408717],[139.80494647124732,35.60310968797246],[139.80492892561844,35.60310057986471],[139.80486878490095,35.603069558081415],[139.8049098613645,35.60301638614924],[139.80491836042603,35.603014765663225],[139.80497706656593,35.60304506597768],[139.80498235787235,35.60306336530802],[139.804965905229,35.60308463408717]]]}},{"type":"Feature","properties":{"height":8.6,"gml_id":"bldg_029e4ee5-376c-48bd-9ebd-a46c361a0ca0"},"geometry":{"type":"Polygon","coordinates":[[[139.8030289957512,35.601394518954436],[139.80292295403729,35.601337164234465],[139.80298456781568,35.60126137339123],[139.80309049907208,35.60131881816835],[139.8030289957512,35.601394518954436]]]}},{"type":"Feature","properties":{"height":17.3,"gml_id":"bldg_c9ab3e8b-f1fe-4671-a0dc-653161e0ba4e"},"geometry":{"type":"Polygon","coordinates":[[[139.80308880479097,35.60376841778354],[139.80278964997098,35.60360789608324],[139.80302617499086,35.60331410479543],[139.80332521882,35.60347462588864],[139.80308880479097,35.60376841778354]]]}},{"type":"Feature","properties":{"height":17.4,"gml_id":"bldg_54b67881-fc57-4c6d-9b5a-39c7c6ee5eb4"},"geometry":{"type":"Polygon","coordinates":[[[139.80338771702466,35.603398294256664],[139.80308668743575,35.6032357897745],[139.80332475551978,35.60294181799254],[139.8036257844566,35.603104412026],[139.80338771702466,35.603398294256664]]]}},{"type":"Feature","properties":{"height":3.1,"gml_id":"bldg_659ed642-5dc2-45db-8424-96ead5ee8ccf"},"geometry":{"type":"Polygon","coordinates":[[[139.80029006759057,35.60122812474638],[139.80026402634573,35.601214777123296],[139.8002875472583,35.60118404638839],[139.80031358853412,35.601197303868084],[139.80029006759057,35.60122812474638]]]}},{"type":"Feature","properties":{"height":17.6,"gml_id":"bldg_767456dd-8664-4249-b919-4631f071a469"},"geometry":{"type":"Polygon","coordinates":[[[139.8036840859668,35.603033667778654],[139.80338206331143,35.60287251585566],[139.80361792215118,35.602577731681926],[139.803919833836,35.60273879285612],[139.8036840859668,35.603033667778654]]]}},{"type":"Feature","properties":{"height":12.4,"gml_id":"bldg_480d4ea7-b549-4b0f-9db9-cd821ad632b3"},"geometry":{"type":"Polygon","coordinates":[[[139.80256574811588,35.60263713923378],[139.80239636653604,35.60254479419074],[139.8024650485174,35.60246080285227],[139.80263442999927,35.60255314780001],[139.80256574811588,35.60263713923378]]]}},{"type":"Feature","properties":{"height":17.3,"gml_id":"bldg_5d5468d5-e153-4872-a300-00258d66ab5d"},"geometry":{"type":"Polygon","coordinates":[[[139.80131975843105,35.60603475935687],[139.80101353645367,35.60587008506678],[139.80124985352012,35.60557719870663],[139.80155596449296,35.605741872374786],[139.80131975843105,35.60603475935687]]]}},{"type":"Feature","properties":{"height":17.2,"gml_id":"bldg_a539f9c0-473d-454b-87de-9223ea52d590"},"geometry":{"type":"Polygon","coordinates":[[[139.80191761238854,35.60529686420544],[139.8016149236072,35.60513300358969],[139.80185090434884,35.6048422792451],[139.8021535925173,35.6050061392757],[139.80191761238854,35.60529686420544]]]}},{"type":"Feature","properties":{"height":6.8,"gml_id":"bldg_e583eaae-19f4-48bb-83e3-e1f7a13c3d19"},"geometry":{"type":"Polygon","coordinates":[[[139.80228254606288,35.601764527234245],[139.80218522159365,35.60171204158648],[139.80221934182953,35.60166950508937],[139.8023169975133,35.6017216302417],[139.80228254606288,35.601764527234245]]]}},{"type":"Feature","properties":{"height":9.4,"gml_id":"bldg_79e64d05-3806-4f02-b9a8-3a2946118748"},"geometry":{"type":"Polygon","coordinates":[[[139.80074428110635,35.60110196456383],[139.80070025397868,35.60107869694779],[139.8007463007522,35.601020480014064],[139.80069002554526,35.60099071911793],[139.80064486212606,35.60104785460947],[139.80059940057643,35.60102386546023],[139.80066576542436,35.60093987449671],[139.80065517248963,35.60093419290668],[139.80068001786827,35.60090274134576],[139.80073805855469,35.60093331396994],[139.80071608427141,35.60096098050777],[139.80070571199144,35.6009554792587],[139.80069157775023,35.600973322830704],[139.8007695906839,35.60101444703803],[139.80078471876726,35.600995251649685],[139.80077048446648,35.600987676180296],[139.80078980861313,35.60096325389879],[139.8008470769968,35.60099337556973],[139.80082421932283,35.60102221368783],[139.80081230221464,35.60101590078579],[139.80074428110635,35.60110196456383]]]}},{"type":"Feature","properties":{"height":6.2,"gml_id":"bldg_7088af06-c130-48c2-929a-1a9d0839beeb"},"geometry":{"type":"Polygon","coordinates":[[[139.80008658678136,35.600071503145706],[139.80004355381342,35.60004796514504],[139.80008021374687,35.600003356760304],[139.8001232467389,35.6000268046097],[139.80008658678136,35.600071503145706]]]}},{"type":"Feature","properties":{"height":8.6,"gml_id":"bldg_a686bb0e-41e7-467b-9dfd-6495763962fb"},"geometry":{"type":"Polygon","coordinates":[[[139.80185882152088,35.60153573626243],[139.80176050450717,35.60148270918032],[139.80179661241024,35.60143782972426],[139.80189503983135,35.60149067652937],[139.80185882152088,35.60153573626243]]]}},{"type":"Feature","properties":{"height":17.2,"gml_id":"bldg_59440cc8-c68a-4907-a4f8-5dc0627e2ee3"},"geometry":{"type":"Polygon","coordinates":[[[139.80471229014657,35.60335147377169],[139.80438400115588,35.60317634668216],[139.80456696637566,35.60294779963713],[139.8048951443983,35.60312310648527],[139.80471229014657,35.60335147377169]]]}},{"type":"Feature","properties":{"height":11.4,"gml_id":"bldg_892f4e8a-41ba-445d-9354-b34d15a33221"},"geometry":{"type":"Polygon","coordinates":[[[139.80069456540528,35.601226071656974],[139.8006680827338,35.601212453586506],[139.80070761507636,35.601161265696504],[139.80073409773766,35.6011748837584],[139.80069456540528,35.601226071656974]]]}},{"type":"Feature","properties":{"height":17.0,"gml_id":"bldg_b0310658-afe9-4b19-929f-9dd85f973c67"},"geometry":{"type":"Polygon","coordinates":[[[139.80035872787016,35.60227582182699],[139.7994055777755,35.60176167842751],[139.79988824430444,35.60116834229297],[139.80042550361637,35.60146089909295],[139.80046646950547,35.60141340734906],[139.80057372239946,35.60147373912505],[139.80100889929503,35.60093374747473],[139.80132205269922,35.601105724957115],[139.80035872787016,35.60227582182699]]]}},{"type":"Feature","properties":{"height":10.2,"gml_id":"bldg_ed3862c7-794e-4c4d-be42-e5ab2adfb798"},"geometry":{"type":"Polygon","coordinates":[[[139.8014020962164,35.60381557569816],[139.80133290791238,35.603779502009395],[139.80136117727102,35.60374336403854],[139.80150771389057,35.60355564466144],[139.80160956513697,35.60360867286256],[139.80146137227072,35.60379846510566],[139.80142870916845,35.60378151045459],[139.8014020962164,35.60381557569816]]]}},{"type":"Feature","properties":{"height":4.3,"gml_id":"bldg_4898f640-c233-4a75-ad0a-1357dec964d2"},"geometry":{"type":"Polygon","coordinates":[[[139.80138354110667,35.60162638053453],[139.80131645139957,35.60159102848702],[139.80133191074444,35.60157138242794],[139.80139911080997,35.601606734496215],[139.80138354110667,35.60162638053453]]]}},{"type":"Feature","properties":{"height":14.3,"gml_id":"bldg_b4915b50-6a75-40bf-b933-a57e0b3d9c00"},"geometry":{"type":"Polygon","coordinates":[[[139.80049186411284,35.60111875191693],[139.80049991916306,35.60112308075403],[139.80068187511873,35.601221200746885],[139.80056339103635,35.60136773358715],[139.80037337983538,35.60126528457276],[139.80049186411284,35.60111875191693]]]}},{"type":"Feature","properties":{"height":25.8,"gml_id":"bldg_75781a71-27ff-4d5d-bbe8-2a564f5dce53"},"geometry":{"type":"Polygon","coordinates":[[[139.80227877999573,35.60179959008978],[139.80222467343495,35.60186699963499],[139.8021435138433,35.60196703224546],[139.80158627153526,35.60166618513406],[139.80174262870364,35.601473059689596],[139.80176050450717,35.60148270918032],[139.80185882152088,35.60153573626243],[139.80218522159365,35.60171204158648],[139.80228254606288,35.601764527234245],[139.80229987025916,35.601773906087296],[139.80227877999573,35.60179959008978]]]}},{"type":"Feature","properties":{"height":18.3,"gml_id":"bldg_a707f313-9f9b-4ff8-8ee6-f07619adf2be"},"geometry":{"type":"Polygon","coordinates":[[[139.80273213524714,35.602768513185076],[139.8027314727205,35.602769324262034],[139.80257709675095,35.60268789002566],[139.80257974689547,35.60268455558281],[139.8026811149561,35.60255649480292],[139.8028354907789,35.60263792890776],[139.80273213524714,35.602768513185076]]]}},{"type":"Feature","properties":{"height":2.3,"gml_id":"bldg_dca47aee-1d45-4d43-aa74-d2f9e65e1ad0"},"geometry":{"type":"Polygon","coordinates":[[[139.80085671514112,35.606640004285424],[139.80088275314608,35.60666597112951],[139.80085691844334,35.606683180584255],[139.80083088044114,35.60665721373466],[139.80085671514112,35.606640004285424]]]}},{"type":"Feature","properties":{"height":17.2,"gml_id":"bldg_e757b227-857d-4024-acf7-cee885b66c8e"},"geometry":{"type":"Polygon","coordinates":[[[139.80231800595138,35.60254053754575],[139.80231546623963,35.60254369173465],[139.80216318821002,35.602462077228445],[139.80216694258056,35.602457391004755],[139.8021732366652,35.60244955059506],[139.80221696394145,35.602395118324004],[139.80226709566355,35.60233266537356],[139.80241948392282,35.602414279778436],[139.80231800595138,35.60254053754575]]]}},{"type":"Feature","properties":{"height":3.7,"gml_id":"bldg_9642ebf8-287a-4b8f-952a-bec1c9239b25"},"geometry":{"type":"Polygon","coordinates":[[[139.80029430830035,35.60245698228792],[139.80029509577867,35.60242074688323],[139.80029520640716,35.602420115945044],[139.80031584532708,35.6024203920166],[139.8003148368235,35.60245734846774],[139.80029430830035,35.60245698228792]]]}},{"type":"Feature","properties":{"height":21.3,"gml_id":"bldg_810eeddd-89fc-4e36-b87c-0cacf60ee419"},"geometry":{"type":"Polygon","coordinates":[[[139.80590016688302,35.60282290833402],[139.80561954849233,35.602672673624134],[139.80572057984554,35.60254677352938],[139.80600119795517,35.602697098145384],[139.80590016688302,35.60282290833402]]]}},{"type":"Feature","properties":{"height":20.7,"gml_id":"bldg_542edde5-9dc1-4ce8-8f9c-b0166b65730c"},"geometry":{"type":"Polygon","coordinates":[[[139.80614745412083,35.60297457708592],[139.8059181476763,35.60285067503932],[139.8061556520849,35.602557689037106],[139.80638495806028,35.60268159063761],[139.80614745412083,35.60297457708592]]]}},{"type":"Feature","properties":{"height":17.4,"gml_id":"bldg_57783cc5-1e43-4f4b-8808-ffc5badcdb39"},"geometry":{"type":"Polygon","coordinates":[[[139.80424451779677,35.60310843891606],[139.80411088569286,35.6030366564577],[139.80425222285533,35.602861010997906],[139.8043858548261,35.602932703163226],[139.80424451779677,35.60310843891606]]]}},{"type":"Feature","properties":{"height":17.3,"gml_id":"bldg_6351e877-6773-42ef-8719-b3f68a1a9bf5"},"geometry":{"type":"Polygon","coordinates":[[[139.80378693741307,35.60367061059919],[139.80365484967513,35.60359963926545],[139.8037959679511,35.60342435485716],[139.80392816592936,35.60349523592682],[139.80378693741307,35.60367061059919]]]}},{"type":"Feature","properties":{"height":17.3,"gml_id":"bldg_9f2fb903-19b7-4da7-b70d-36d18a4ca8b9"},"geometry":{"type":"Polygon","coordinates":[[[139.8039972885069,35.6034115142507],[139.8037996536329,35.60330609424959],[139.80397588523982,35.60308574904688],[139.80417351980358,35.60319116876269],[139.8039972885069,35.6034115142507]]]}},{"type":"Feature","properties":{"height":15.8,"gml_id":"bldg_daf8d4d5-ce27-49d6-89be-81891507b4a6"},"geometry":{"type":"Polygon","coordinates":[[[139.80257974689547,35.60268455558281],[139.80257709675095,35.60268789002566],[139.8027314727205,35.602769324262034],[139.80273213524714,35.602768513185076],[139.8028740412849,35.60284588784467],[139.8021057218934,35.603789710105985],[139.80046784794283,35.60290087100633],[139.8004195905279,35.60269435086604],[139.801092845833,35.60186607117947],[139.80130514806805,35.60198294711492],[139.8013013936695,35.60198763331213],[139.80133438679897,35.6020053993355],[139.80130335789048,35.60204388017475],[139.80135003381616,35.60206904117561],[139.80138150436565,35.60203010974977],[139.80143149065182,35.60205707436412],[139.80143414075147,35.602053920222836],[139.80176186482868,35.60223428325545],[139.80175987723254,35.60223671647052],[139.8018084293669,35.60226268902991],[139.80177828389162,35.60230026883731],[139.80182628429583,35.60232606096804],[139.80185510462474,35.60229028356989],[139.8018879876672,35.60230795927378],[139.80189030654446,35.60230507545125],[139.80216694258056,35.602457391004755],[139.80216318821002,35.602462077228445],[139.80231546623963,35.60254369173465],[139.80231800595138,35.60254053754575],[139.80257974689547,35.60268455558281]]]}},{"type":"Feature","properties":{"height":8.4,"gml_id":"bldg_f78f4e7b-d075-4d61-be53-47d9d0eabf05"},"geometry":{"type":"Polygon","coordinates":[[[139.80492892561844,35.60310057986471],[139.80494647124732,35.60310968797246],[139.804965905229,35.60308463408717],[139.80513385725823,35.603173640057776],[139.8050492763282,35.60327980321105],[139.80486444072105,35.60318177930172],[139.80492892561844,35.60310057986471]]]}},{"type":"Feature","properties":{"height":8.5,"gml_id":"bldg_d361e817-5957-424a-8a44-1a2d1a663021"},"geometry":{"type":"Polygon","coordinates":[[[139.80075235074204,35.6067881634713],[139.80080024323024,35.60681368554802],[139.80080697954568,35.60680521436681],[139.80089206006468,35.60685165852326],[139.8007672742826,35.60700404871698],[139.80063474282292,35.6069316317789],[139.80075235074204,35.6067881634713]]]}},{"type":"Feature","properties":{"height":4.2,"gml_id":"bldg_9ff4200a-15dd-4fc5-9ee9-87f37fccf1f0"},"geometry":{"type":"Polygon","coordinates":[[[139.80584325344077,35.60239104248838],[139.80579756856287,35.602367866499236],[139.8058196523455,35.6023387568522],[139.8058651165367,35.60236175250604],[139.80584325344077,35.60239104248838]]]}},{"type":"Feature","properties":{"height":3.6,"gml_id":"bldg_01129c4d-9bd1-4bdd-8ef4-16d16bb5aca8"},"geometry":{"type":"Polygon","coordinates":[[[139.80614662191596,35.60217189480949],[139.80612333836788,35.60215927018339],[139.80614045269763,35.60213809153052],[139.8061637362727,35.60215062601501],[139.80614662191596,35.60217189480949]]]}},{"type":"Feature","properties":{"height":3.0,"gml_id":"bldg_7daca575-5399-4108-9d8b-21111427881e"},"geometry":{"type":"Polygon","coordinates":[[[139.80192364796892,35.60086728696003],[139.80190974475482,35.600859531434544],[139.80193812238352,35.60082546652155],[139.80195202559446,35.60083322204382],[139.80192364796892,35.60086728696003]]]}},{"type":"Feature","properties":{"height":11.4,"gml_id":"bldg_64139fea-3e01-4973-9fa1-eb34d221c15e"},"geometry":{"type":"Polygon","coordinates":[[[139.80074954535695,35.600912044418024],[139.80069669087095,35.600884087217],[139.80075002544515,35.6008167682766],[139.80080287990546,35.60084472545454],[139.80074954535695,35.600912044418024]]]}},{"type":"Feature","properties":{"height":10.5,"gml_id":"bldg_21d32bef-6c2b-4a3a-90c9-f89001b1fbe4"},"geometry":{"type":"Polygon","coordinates":[[[139.80294453970762,35.600584063493386],[139.8028668570408,35.60054330132796],[139.80291025198304,35.60048814759659],[139.8029879346186,35.6005289097344],[139.80294453970762,35.600584063493386]]]}},{"type":"Feature","properties":{"height":3.0,"gml_id":"bldg_b0c7bbab-d74f-4504-9950-8c8fdcb0d1b5"},"geometry":{"type":"Polygon","coordinates":[[[139.80028638602883,35.602397849351625],[139.80022744995875,35.60239530930125],[139.80022911622416,35.60236925977281],[139.8002880522752,35.60237179982237],[139.80028638602883,35.602397849351625]]]}},{"type":"Feature","properties":{"height":3.1,"gml_id":"bldg_de68a513-b9cd-4ad3-a2c5-8778a71b37e1"},"geometry":{"type":"Polygon","coordinates":[[[139.80221308829923,35.602142910184284],[139.80218991553716,35.60213082565708],[139.8022234841748,35.6020881087425],[139.80224665689474,35.60210028340168],[139.80221308829923,35.602142910184284]]]}},{"type":"Feature","properties":{"height":13.3,"gml_id":"bldg_560825db-5456-4784-ac73-6115f6e826dc"},"geometry":{"type":"Polygon","coordinates":[[[139.80315730923698,35.60092429922609],[139.80301926844822,35.60084881875451],[139.80292547586993,35.6007975965225],[139.80303523118135,35.60066340810953],[139.8031244995485,35.60071219538682],[139.80318732706303,35.60063541321386],[139.8033300021073,35.60071341852426],[139.80315730923698,35.60092429922609]]]}},{"type":"Feature","properties":{"height":12.7,"gml_id":"bldg_f97d55aa-4f42-4cb8-8c8d-2ccbb5934f99"},"geometry":{"type":"Polygon","coordinates":[[[139.80309367344432,35.604615719346405],[139.8028495799528,35.60448450657837],[139.8029524948909,35.60435689669194],[139.8029121070299,35.60433516316504],[139.8029700793551,35.6042633375349],[139.80301013611455,35.60428498082095],[139.80320668915743,35.604041205924375],[139.80345100256287,35.60417259830976],[139.80309367344432,35.604615719346405]]]}},{"type":"Feature","properties":{"height":17.1,"gml_id":"bldg_f953c2a5-912c-44ae-9ca0-9e715e1f2647"},"geometry":{"type":"Polygon","coordinates":[[[139.80161758414903,35.60566301758608],[139.80131522521896,35.60550041825054],[139.8015494419781,35.60521014473749],[139.8018516899177,35.60537274346405],[139.80161758414903,35.60566301758608]]]}},{"type":"Feature","properties":{"height":14.1,"gml_id":"bldg_83055828-054a-453d-81dc-278436ae4c66"},"geometry":{"type":"Polygon","coordinates":[[[139.80344627500787,35.60115476493974],[139.80329741964354,35.60107369352736],[139.80335295981328,35.60100556274086],[139.8032323530249,35.600939911933956],[139.80339113336692,35.60074552299382],[139.80365982268526,35.600891793912844],[139.80350203641086,35.60108510178784],[139.80350280884832,35.60108546253258],[139.80344627500787,35.60115476493974]]]}},{"type":"Feature","properties":{"height":19.8,"gml_id":"bldg_076a0ec8-d922-402e-91b7-02fec7f17cc2"},"geometry":{"type":"Polygon","coordinates":[[[139.8034344789603,35.60171253828188],[139.80318520808527,35.601576908067386],[139.803302914316,35.60143253578057],[139.80355229531025,35.60156816578199],[139.8034344789603,35.60171253828188]]]}},{"type":"Feature","properties":{"height":2.8,"gml_id":"bldg_40d94f84-94f5-4f7a-a5b7-02c7e8344fe1"},"geometry":{"type":"Polygon","coordinates":[[[139.80178138050795,35.60115956856694],[139.8017604149112,35.60114883660882],[139.80178382490064,35.60111801541394],[139.80180490085985,35.60112874739692],[139.80178138050795,35.60115956856694]]]}},{"type":"Feature","properties":{"height":3.3,"gml_id":"bldg_1a6e677c-afb1-447e-bac9-22b0c7397235"},"geometry":{"type":"Polygon","coordinates":[[[139.80203550307,35.60073039585526],[139.80201994520917,35.600720476591306],[139.80205229594583,35.60068641268292],[139.80206785380406,35.60069633194274],[139.80203550307,35.60073039585526]]]}},{"type":"Feature","properties":{"height":3.0,"gml_id":"bldg_c92d8342-1c33-4f43-8ace-f9e3c9bfb9bb"},"geometry":{"type":"Polygon","coordinates":[[[139.80024402018216,35.60128679219534],[139.80021334493628,35.60126992789228],[139.8002489011389,35.60122658109937],[139.80027957637574,35.60124344539349],[139.80024402018216,35.60128679219534]]]}},{"type":"Feature","properties":{"height":15.5,"gml_id":"bldg_a97f7fd5-cd33-4dba-a144-5d26499269e5"},"geometry":{"type":"Polygon","coordinates":[[[139.80405272017734,35.603038084552544],[139.80400218081454,35.60301039978807],[139.804059929879,35.60294019605337],[139.80411046921762,35.60296788079394],[139.80405272017734,35.603038084552544]]]}},{"type":"Feature","properties":{"height":3.3,"gml_id":"bldg_6d9c84c9-1134-445e-879e-9bd8e5fd5899"},"geometry":{"type":"Polygon","coordinates":[[[139.8004550218916,35.60079884075385],[139.80041066417144,35.60077494197201],[139.80043396342762,35.60074601391338],[139.8004783211756,35.600769822548386],[139.8004550218916,35.60079884075385]]]}},{"type":"Feature","properties":{"height":5.6,"gml_id":"bldg_259f21d2-6853-4989-ad54-207e0d052936"},"geometry":{"type":"Polygon","coordinates":[[[139.8042210912261,35.60318604237841],[139.80417617918476,35.603162234995914],[139.80420455725502,35.60312654707204],[139.80424946928485,35.6031503544441],[139.8042210912261,35.60318604237841]]]}},{"type":"Feature","properties":{"height":5.9,"gml_id":"bldg_620818b9-8e7f-4541-86ef-cfdae2e5cb14"},"geometry":{"type":"Polygon","coordinates":[[[139.8006725283614,35.60032143685758],[139.80059573032486,35.60027995235934],[139.80067998199794,35.60017595551177],[139.80075677997868,35.600217439957],[139.8006725283614,35.60032143685758]]]}},{"type":"Feature","properties":{"height":19.2,"gml_id":"bldg_5cd36e74-fa99-4856-bd0e-d0dfe4a75c45"},"geometry":{"type":"Polygon","coordinates":[[[139.8015794535791,35.60076506996941],[139.80127976201445,35.60060229084317],[139.80128925814608,35.60059075565497],[139.8010697866929,35.60047162428653],[139.80112245739895,35.60040700915053],[139.801138015702,35.60041539617831],[139.8011797546796,35.60036420871596],[139.80138752966218,35.60047702709899],[139.8013974675159,35.60046477091197],[139.80169329685953,35.60062529527551],[139.8015794535791,35.60076506996941]]]}},{"type":"Feature","properties":{"height":11.4,"gml_id":"bldg_0e6c7364-011f-4f47-8c2e-19dcf68080ba"},"geometry":{"type":"Polygon","coordinates":[[[139.80086143281525,35.600973368718044],[139.80080648225942,35.60094297726432],[139.80085981557914,35.60087863284229],[139.80091476614754,35.60090893413366],[139.80086143281525,35.600973368718044]]]}},{"type":"Feature","properties":{"height":40.2,"gml_id":"bldg_9b978fa7-71e6-4dba-bf3c-0f6b56f8fa72"},"geometry":{"type":"Polygon","coordinates":[[[139.8029802317628,35.60251447590027],[139.8026086953632,35.602313012649454],[139.8025890404405,35.60233716471772],[139.8025486537614,35.60231525078556],[139.802564554386,35.602295694821784],[139.80238193183274,35.60219667613304],[139.80285121833083,35.60161954963905],[139.80292934288815,35.60166193440969],[139.8029096882211,35.601686086533014],[139.80342599663697,35.60196609541051],[139.8029802317628,35.60251447590027]]]}},{"type":"Feature","properties":{"height":9.4,"gml_id":"bldg_9787e4f6-c7bc-411f-9782-e7a6a355fbc4"},"geometry":{"type":"Polygon","coordinates":[[[139.80441265433387,35.60298931648343],[139.80437966073632,35.60297290338063],[139.8044057194541,35.60293811623449],[139.80443860377653,35.60295452930405],[139.80441265433387,35.60298931648343]]]}},{"type":"Feature","properties":{"height":6.0,"gml_id":"bldg_765d6f72-2ff0-4efd-8a04-6f2dbc801801"},"geometry":{"type":"Polygon","coordinates":[[[139.80445693269075,35.60293362159949],[139.80442493097522,35.60291820026849],[139.80443829236842,35.60289972511046],[139.80447029407915,35.60291514643794],[139.80445693269075,35.60293362159949]]]}},{"type":"Feature","properties":{"height":6.1,"gml_id":"bldg_bd59e854-1b2c-4831-bff9-eb268ee8e63b"},"geometry":{"type":"Polygon","coordinates":[[[139.80435804912804,35.60291187452111],[139.80431953715072,35.602892215093945],[139.8043245061666,35.60288563619034],[139.80428191124545,35.60286399272435],[139.80429913703597,35.60284155242551],[139.80434349750846,35.60286418783214],[139.80434879775993,35.602857248453766],[139.804385433766,35.60287600603753],[139.80435804912804,35.60291187452111]]]}},{"type":"Feature","properties":{"height":5.4,"gml_id":"bldg_94117765-3e10-4e9b-895b-4c402309ae9f"},"geometry":{"type":"Polygon","coordinates":[[[139.80577274219493,35.60234839093771],[139.805751886062,35.60233783997768],[139.8057717614838,35.60231161426141],[139.80579261761252,35.602322165218055],[139.80577274219493,35.60234839093771]]]}},{"type":"Feature","properties":{"height":2.7,"gml_id":"bldg_d3cbfe19-3f42-4141-a42f-be27f2162464"},"geometry":{"type":"Polygon","coordinates":[[[139.8002476971018,35.60254296149409],[139.8002180075695,35.60254340403099],[139.80021714292351,35.60249896558272],[139.80024683243943,35.60249852304601],[139.8002476971018,35.60254296149409]]]}},{"type":"Feature","properties":{"height":1.5,"gml_id":"bldg_7e2e3cc9-011a-4837-9cb7-c8bd845653bc"},"geometry":{"type":"Polygon","coordinates":[[[139.80007060600846,35.602418071116645],[139.80004786985228,35.602418335253994],[139.80004743778215,35.60239562026792],[139.8000701739319,35.60239535613066],[139.80007060600846,35.602418071116645]]]}},{"type":"Feature","properties":{"height":2.5,"gml_id":"bldg_a141a577-1d7c-4eb4-859e-a94ff01a52ad"},"geometry":{"type":"Polygon","coordinates":[[[139.80498768395034,35.602357132534934],[139.80500093424348,35.602340099500424],[139.80502046600833,35.602350199587434],[139.8050072157177,35.60236723262408],[139.80498768395034,35.602357132534934]]]}},{"type":"Feature","properties":{"height":5.7,"gml_id":"bldg_c8e386e2-abc4-4785-a8ee-7aea1c61ebca"},"geometry":{"type":"Polygon","coordinates":[[[139.80840231070292,35.60333363503089],[139.80843609675304,35.60329262906729],[139.80852040540208,35.60333897756734],[139.8084867297459,35.60337998357705],[139.80840231070292,35.60333363503089]]]}},{"type":"Feature","properties":{"height":2.9,"gml_id":"bldg_f0400cd7-9746-4dfe-b8e5-c1f79383fb6d"},"geometry":{"type":"Polygon","coordinates":[[[139.8008904487564,35.60674186964677],[139.8009349404174,35.60671583164957],[139.8009436560139,35.606725839343355],[139.80095491688505,35.60671935241231],[139.80096881775313,35.6067352204866],[139.80095512801168,35.60674323911735],[139.8009667120957,35.60675640242044],[139.80092475966873,35.60678090876111],[139.8008904487564,35.60674186964677]]]}},{"type":"Feature","properties":{"height":6.9,"gml_id":"bldg_d2677821-a6a2-4002-90e8-83062e2a2466"},"geometry":{"type":"Polygon","coordinates":[[[139.80022218251045,35.60125009987777],[139.800135011398,35.60120347435411],[139.80011999367406,35.601222218998714],[139.80006460138588,35.601192728470004],[139.8000791773864,35.60117461467898],[139.80005677775912,35.60116262009153],[139.80012336368793,35.60107944073528],[139.80013671515428,35.60108665548429],[139.80018165777574,35.60103060178348],[139.8002234777526,35.60105296759895],[139.80020934346155,35.60107063083732],[139.80030092827863,35.60111942083922],[139.80026967826066,35.60115844218761],[139.80028777455212,35.6011680919577],[139.80022218251045,35.60125009987777]]]}},{"type":"Feature","properties":{"height":3.1,"gml_id":"bldg_fc9cf525-38b4-4ff6-8fb8-f65b3219932c"},"geometry":{"type":"Polygon","coordinates":[[[139.80518707509069,35.603433431218235],[139.8052489815658,35.60346607574265],[139.8052101138975,35.603515282214744],[139.80519003013032,35.603504731339704],[139.80519356353724,35.603500315385936],[139.80515163040633,35.60347831183061],[139.80518707509069,35.603433431218235]]]}},{"type":"Feature","properties":{"height":3.4,"gml_id":"bldg_c574b869-c536-455d-af94-2bfbb6266199"},"geometry":{"type":"Polygon","coordinates":[[[139.80029895383782,35.60082124253149],[139.800239809953,35.60079012856205],[139.80029678884162,35.600718213764345],[139.80035582232873,35.60074932767596],[139.80029895383782,35.60082124253149]]]}},{"type":"Feature","properties":{"height":3.0,"gml_id":"bldg_35208af7-a96b-4ed0-b4f2-84d6098bad5f"},"geometry":{"type":"Polygon","coordinates":[[[139.80518707509069,35.603433431218235],[139.80515163040633,35.60347831183061],[139.80512878792896,35.60346622794825],[139.80513452976123,35.60345892808597],[139.80510716289015,35.60344458968205],[139.80513675538666,35.603407008919426],[139.80518707509069,35.603433431218235]]]}},{"type":"Feature","properties":{"height":7.4,"gml_id":"bldg_9276c2bf-2894-446d-9d57-230e2c18940e"},"geometry":{"type":"Polygon","coordinates":[[[139.80044968674608,35.60143016850848],[139.8003421023823,35.60137109846822],[139.80035391764432,35.60135667956207],[139.80034001438622,35.60134919427126],[139.8003523817426,35.601334144547735],[139.80040004993526,35.60136011743628],[139.80040811083828,35.601350204417535],[139.80044948949987,35.60137275030962],[139.80044275363937,35.60138113134035],[139.80049406321496,35.60140908822953],[139.80048346275268,35.601421704712926],[139.8004662494702,35.60141169465992],[139.80044968674608,35.60143016850848]]]}},{"type":"Feature","properties":{"height":9.7,"gml_id":"bldg_1fa32447-16c0-48c6-a021-decf298bc380"},"geometry":{"type":"Polygon","coordinates":[[[139.80032422360256,35.60110040802419],[139.8002042808313,35.60103601630762],[139.8003893505797,35.60080612402845],[139.80043801170024,35.60083227745236],[139.80042498171863,35.600848588942384],[139.80049615285287,35.60088673689234],[139.80032422360256,35.60110040802419]]]}},{"type":"Feature","properties":{"height":6.5,"gml_id":"bldg_b52212f0-8ec3-42d2-945a-21ca58bc91fa"},"geometry":{"type":"Polygon","coordinates":[[[139.80264939449347,35.60064906862273],[139.80229154981384,35.60045581041276],[139.80232997566128,35.600408317372775],[139.80235712016616,35.60042292677227],[139.80239190210028,35.60038002983353],[139.8027226020915,35.600558588298775],[139.80264939449347,35.60064906862273]]]}},{"type":"Feature","properties":{"height":5.6,"gml_id":"bldg_44a7b14e-a38c-46a6-a10d-fab7a069cdef"},"geometry":{"type":"Polygon","coordinates":[[[139.8111395323099,35.60200697303275],[139.81109230225906,35.60197911156931],[139.81115401750677,35.60190944598374],[139.81120113714476,35.601937397541406],[139.8111395323099,35.60200697303275]]]}},{"type":"Feature","properties":{"height":4.8,"gml_id":"bldg_3902add8-6cd4-4ff7-8737-84d64d9992e2"},"geometry":{"type":"Polygon","coordinates":[[[139.80591469300606,35.60230092040116],[139.8058685672065,35.60227621198609],[139.8058933003461,35.6022454804383],[139.8059394261049,35.60227027898238],[139.80591469300606,35.60230092040116]]]}},{"type":"Feature","properties":{"height":2.8,"gml_id":"bldg_bb31d2e1-9cfd-49e2-b01c-a98e9cd41598"},"geometry":{"type":"Polygon","coordinates":[[[139.80776874944095,35.60379086425382],[139.8076647989786,35.60373117057455],[139.80770366395572,35.60368601953705],[139.8078076143886,35.60374571318322],[139.80776874944095,35.60379086425382]]]}},{"type":"Feature","properties":{"height":2.6,"gml_id":"bldg_e1ece4ac-7c4a-44c4-b66e-f661a32f5841"},"geometry":{"type":"Polygon","coordinates":[[[139.80685022667396,35.60316618743687],[139.8068236319495,35.60315257069849],[139.80684295504594,35.60312733620944],[139.80686966013548,35.603140952967834],[139.80685022667396,35.60316618743687]]]}},{"type":"Feature","properties":{"height":3.1,"gml_id":"bldg_99313736-9dc7-4047-b7dd-1a7ad0ed1a65"},"geometry":{"type":"Polygon","coordinates":[[[139.805436395498,35.60186264802935],[139.80537471242275,35.60182567700285],[139.80539911325448,35.601798551011925],[139.8054607963201,35.601835522026114],[139.805436395498,35.60186264802935]]]}},{"type":"Feature","properties":{"height":2.8,"gml_id":"bldg_7e4c8856-41fe-4075-b9fc-52650001a4f3"},"geometry":{"type":"Polygon","coordinates":[[[139.80575170704884,35.60221624328429],[139.80569609120823,35.60218693557386],[139.8057294371144,35.6021446683234],[139.8057850529688,35.60217388588028],[139.80575170704884,35.60221624328429]]]}}]}