{"type":"FeatureCollection","crs":{"type":"name","properties":{"name":"urn:ogc:def:crs:OGC:1.3:CRS84"}},"features":[{"type":"Feature","properties":{"height":4.4,"gml_id":"bldg_59cdd639-4c50-4cc0-ab84-1b752880840b"},"geometry":{"type":"Polygon","coordinates":[[[139.8122438767976,35.61127456034614],[139.81229543183665,35.6112479785804],[139.81233096257122,35.61129404541418],[139.812279407538,35.611320537056706],[139.8122438767976,35.61127456034614]]]}},{"type":"Feature","properties":{"height":2.8,"gml_id":"bldg_511b7f20-4719-4cf8-b00e-7818ec2177ea"},"geometry":{"type":"Polygon","coordinates":[[[139.80993846004668,35.61200659800475],[139.80995193143792,35.61199028560193],[139.80999762235524,35.61201562329876],[139.80998415099526,35.6120318455684],[139.80993846004668,35.61200659800475]]]}},{"type":"Feature","properties":{"height":2.4,"gml_id":"bldg_85f860a1-1461-40ce-9b6b-8bae099147c8"},"geometry":{"type":"Polygon","coordinates":[[[139.81000977639576,35.61197434234772],[139.81002842817773,35.61198408088424],[139.8100106500351,35.61200679227563],[139.80999199825004,35.611997053736395],[139.81000977639576,35.61197434234772]]]}},{"type":"Feature","properties":{"height":2.1,"gml_id":"bldg_85e688c6-6da5-4292-9112-567b3d5e4dfb"},"geometry":{"type":"Polygon","coordinates":[[[139.81136619699814,35.611816855380425],[139.81134842343857,35.6118243336113],[139.81133065969937,35.61179593682903],[139.81134854361167,35.61178854875911],[139.81136619699814,35.611816855380425]]]}},{"type":"Feature","properties":{"height":6.5,"gml_id":"bldg_5baabeb0-9b8c-4731-9546-1a109ffefb06"},"geometry":{"type":"Polygon","coordinates":[[[139.80971122115747,35.611876213805324],[139.80977029736,35.6118020416162],[139.8098750336832,35.611857677334456],[139.80987934016457,35.61185226987952],[139.80994677319416,35.61188815799802],[139.80994268755848,35.61189329508355],[139.8099893720147,35.61191809214744],[139.8099300750856,35.61199253481434],[139.80971122115747,35.611876213805324]]]}},{"type":"Feature","properties":{"height":2.6,"gml_id":"bldg_872b93ff-2c55-44db-9c3e-77117f32514a"},"geometry":{"type":"Polygon","coordinates":[[[139.81007531878853,35.61205962577123],[139.81005886622376,35.61207891217303],[139.80998723981565,35.61203833611861],[139.8100036923893,35.61201904972646],[139.81007531878853,35.61205962577123]]]}},{"type":"Feature","properties":{"height":6.5,"gml_id":"bldg_2bc34fbd-46b6-4749-b76a-f1d2303ce6fa"},"geometry":{"type":"Polygon","coordinates":[[[139.81007322270383,35.612436853796645],[139.8100419891723,35.612420172194064],[139.81010923666224,35.6123360862212],[139.81014047017507,35.612352767806584],[139.81007322270383,35.612436853796645]]]}},{"type":"Feature","properties":{"height":3.4,"gml_id":"bldg_327322d3-3bc4-4d52-9899-73ade868526a"},"geometry":{"type":"Polygon","coordinates":[[[139.80971542021157,35.60960752532716],[139.80969112775534,35.60963834784635],[139.80964576897145,35.60961454243919],[139.80967017181686,35.6095837199507],[139.80971542021157,35.60960752532716]]]}},{"type":"Feature","properties":{"height":2.4,"gml_id":"bldg_e7809b80-f6c5-4b78-9e03-33981ced187b"},"geometry":{"type":"Polygon","coordinates":[[[139.80973826567993,35.609617715425486],[139.80972215288213,35.60960905899691],[139.8097347407241,35.609593287268204],[139.8097509638727,35.609602033854976],[139.80973826567993,35.609617715425486]]]}},{"type":"Feature","properties":{"height":5.6,"gml_id":"bldg_e351d8c9-362b-4c9b-82dd-4dbe8f4e623b"},"geometry":{"type":"Polygon","coordinates":[[[139.81090202487636,35.612267821509455],[139.81086262355157,35.61224888514292],[139.81085643970204,35.61225753725822],[139.81083480760108,35.61224716732634],[139.81090271920505,35.61215307569001],[139.81088815067542,35.61214604219623],[139.81089875152458,35.612131261502874],[139.8109156377833,35.61213937708521],[139.81091961311253,35.612133789255275],[139.81097258961395,35.612159308213286],[139.81094454162482,35.61219815257628],[139.81095039112364,35.61220094794771],[139.81090202487636,35.612267821509455]]]}},{"type":"Feature","properties":{"height":2.6,"gml_id":"bldg_cc9f8bae-5291-476c-aa94-34da61decec1"},"geometry":{"type":"Polygon","coordinates":[[[139.80950615904683,35.60992080469467],[139.80951764350627,35.609903951112294],[139.80955593999644,35.60992144549572],[139.80954434518975,35.609938208921676],[139.80950615904683,35.60992080469467]]]}},{"type":"Feature","properties":{"height":3.7,"gml_id":"bldg_bf158d8d-4924-4568-824b-4c496a10c2c9"},"geometry":{"type":"Polygon","coordinates":[[[139.81064210466616,35.61254882379001],[139.81061076816837,35.61250924721011],[139.81068837785836,35.61246833907248],[139.81071971545686,35.612508005770856],[139.81064210466616,35.61254882379001]]]}},{"type":"Feature","properties":{"height":12.5,"gml_id":"bldg_abccddae-e72d-496e-9756-0a1a137748e0"},"geometry":{"type":"Polygon","coordinates":[[[139.80956468967508,35.60982103321079],[139.80955541437126,35.609832659215265],[139.80952307835307,35.60981534628584],[139.80953235363285,35.60980381042207],[139.80956468967508,35.60982103321079]]]}},{"type":"Feature","properties":{"height":1.1,"gml_id":"bldg_49ed7acf-1141-40cd-99a5-343cbf5f2631"},"geometry":{"type":"Polygon","coordinates":[[[139.81106835793648,35.61191874704239],[139.81105996546572,35.611931094427504],[139.81104197533904,35.61192324907559],[139.81105047819392,35.61191090171211],[139.81106835793648,35.61191874704239]]]}},{"type":"Feature","properties":{"height":7.1,"gml_id":"bldg_c758fe26-bb58-4161-aaa9-a892dd564bb2"},"geometry":{"type":"Polygon","coordinates":[[[139.80944960795168,35.60967327386],[139.8094256593567,35.609660920170086],[139.80944829572658,35.60963181000314],[139.8094722442896,35.609644253826836],[139.80944960795168,35.60967327386]]]}},{"type":"Feature","properties":{"height":3.4,"gml_id":"bldg_612f056b-db2e-49b7-bc6a-351b0322ae7a"},"geometry":{"type":"Polygon","coordinates":[[[139.81223101797337,35.61190273138751],[139.8122146869301,35.61188172632092],[139.81226370327246,35.6118563159234],[139.81228003432338,35.61187732098344],[139.81223101797337,35.61190273138751]]]}},{"type":"Feature","properties":{"height":5.5,"gml_id":"bldg_7c136f5d-a26c-4046-9a0d-05cd15f9faec"},"geometry":{"type":"Polygon","coordinates":[[[139.81217250259704,35.61195139576452],[139.81213134502542,35.61189451131257],[139.81217594511955,35.611872885978975],[139.8122172130939,35.611929770435225],[139.81217250259704,35.61195139576452]]]}},{"type":"Feature","properties":{"height":2.6,"gml_id":"bldg_49febe80-475c-42a2-832c-233f8890adcc"},"geometry":{"type":"Polygon","coordinates":[[[139.80470185751787,35.608780681769694],[139.80471864188988,35.608761215891136],[139.804771171052,35.60879133453437],[139.80475449706435,35.60881080044632],[139.80470185751787,35.608780681769694]]]}},{"type":"Feature","properties":{"height":6.2,"gml_id":"bldg_e850b89d-c91f-4a85-92b8-ead13e74037d"},"geometry":{"type":"Polygon","coordinates":[[[139.8047740309789,35.608819187936234],[139.80480206163182,35.6088342476667],[139.80476263926536,35.60888327354205],[139.8047346085707,35.60886830394079],[139.8047740309789,35.608819187936234]]]}},{"type":"Feature","properties":{"height":6.2,"gml_id":"bldg_2f1030ae-48db-495b-aec6-ffec26f92754"},"geometry":{"type":"Polygon","coordinates":[[[139.80473052342936,35.60887154794869],[139.804753367062,35.60888453327893],[139.80470588453528,35.608940588007854],[139.80468293051626,35.6089276026425],[139.80473052342936,35.60887154794869]]]}},{"type":"Feature","properties":{"height":5.1,"gml_id":"bldg_8b0ae6c5-1633-4c65-87a8-3f8fc4c2c8e6"},"geometry":{"type":"Polygon","coordinates":[[[139.8047677035498,35.608920141292664],[139.80475269479163,35.608912656257864],[139.80476903859588,35.60889057625856],[139.8047841577295,35.60889806131749],[139.8047677035498,35.608920141292664]]]}},{"type":"Feature","properties":{"height":3.8,"gml_id":"bldg_b9bcb441-9fc2-41ee-a781-83c59e724279"},"geometry":{"type":"Polygon","coordinates":[[[139.8101813968187,35.61205775329711],[139.8101449762209,35.61203836657689],[139.81017357559486,35.61200249706625],[139.81020999618332,35.61202188377793],[139.8101813968187,35.61205775329711]]]}},{"type":"Feature","properties":{"height":3.3,"gml_id":"bldg_317c8dc0-a3ed-4a57-8d38-04968b392c5e"},"geometry":{"type":"Polygon","coordinates":[[[139.81014540372965,35.61208695115858],[139.8101168190543,35.61207180243385],[139.8101331616117,35.61205116392966],[139.8101617462828,35.612066312650576],[139.81014540372965,35.61208695115858]]]}},{"type":"Feature","properties":{"height":2.8,"gml_id":"bldg_3d5b04fc-f16b-4269-b379-7bf9b8482d87"},"geometry":{"type":"Polygon","coordinates":[[[139.8106894875716,35.61205577667107],[139.81067524290506,35.612074703019104],[139.81061652779124,35.61204521676667],[139.81063088284873,35.61202629044629],[139.8106894875716,35.61205577667107]]]}},{"type":"Feature","properties":{"height":2.8,"gml_id":"bldg_17a515df-8e64-469d-9920-40249bafe190"},"geometry":{"type":"Polygon","coordinates":[[[139.804443146045,35.60935489088431],[139.80445838494228,35.60933641619421],[139.80451665339592,35.60936842922412],[139.80450141450595,35.60938690392152],[139.804443146045,35.60935489088431]]]}},{"type":"Feature","properties":{"height":3.4,"gml_id":"bldg_2af49af2-b5da-44f2-a576-8aa326cd70f4"},"geometry":{"type":"Polygon","coordinates":[[[139.80445154305326,35.6093319977799],[139.80444304013838,35.60934245177943],[139.8044284729111,35.60933478653413],[139.8044191969855,35.60934623186738],[139.80430288056837,35.609283377535206],[139.80432054904915,35.609261478193794],[139.80445154305326,35.6093319977799]]]}},{"type":"Feature","properties":{"height":6.2,"gml_id":"bldg_158e3171-1462-40f0-bc9b-25650e972bf5"},"geometry":{"type":"Polygon","coordinates":[[[139.8049542541893,35.60888710462889],[139.80490169141018,35.608951631235165],[139.8047683803007,35.60887939895774],[139.80482094317153,35.60881478227059],[139.8049542541893,35.60888710462889]]]}},{"type":"Feature","properties":{"height":5.3,"gml_id":"bldg_20fd95c2-13fa-4eb1-827d-45d966b70a9f"},"geometry":{"type":"Polygon","coordinates":[[[139.80566990290225,35.609331292121084],[139.80561439332536,35.60929973097449],[139.80564409712727,35.60926503457417],[139.80569949631334,35.60929659568195],[139.80566990290225,35.609331292121084]]]}},{"type":"Feature","properties":{"height":8.7,"gml_id":"bldg_362dc329-032d-4c64-a406-95676f33a119"},"geometry":{"type":"Polygon","coordinates":[[[139.8101300449625,35.61175875494316],[139.8100772633551,35.6118244555315],[139.80988280054956,35.61172021805786],[139.80991427080193,35.61168110418951],[139.8099032343488,35.61167515292125],[139.80992454577012,35.6116486564255],[139.8101300449625,35.61175875494316]]]}},{"type":"Feature","properties":{"height":2.6,"gml_id":"bldg_7a534da2-82c6-4f5f-9e73-5227f5f28234"},"geometry":{"type":"Polygon","coordinates":[[[139.8121170612657,35.61206288699244],[139.81207798098262,35.612081448577975],[139.81204079595784,35.61202916184618],[139.81207987622403,35.61201060027254],[139.8121170612657,35.61206288699244]]]}},{"type":"Feature","properties":{"height":2.7,"gml_id":"bldg_78e29151-ab72-4d48-ba7e-6624d48d6034"},"geometry":{"type":"Polygon","coordinates":[[[139.812013778947,35.61192865295431],[139.81205416508968,35.61198057970777],[139.81203639110393,35.611989770666],[139.81202756355506,35.611978321551604],[139.81200460088084,35.611990215734174],[139.81197304230082,35.6119497380833],[139.812013778947,35.61192865295431]]]}},{"type":"Feature","properties":{"height":3.0,"gml_id":"bldg_b2a9a86b-bf0d-4673-b60c-1b1d8d3a9be4"},"geometry":{"type":"Polygon","coordinates":[[[139.8101012697806,35.61202114175832],[139.8100854793416,35.61204105925908],[139.81001550761604,35.61200417920741],[139.8100312980651,35.611984261715705],[139.8101012697806,35.61202114175832]]]}}]}