{"type":"FeatureCollection","crs":{"type":"name","properties":{"name":"urn:ogc:def:crs:OGC:1.3:CRS84"}},"features":[{"type":"Feature","properties":{"height":3.1,"gml_id":"bldg_eb8a3556-a103-4377-8fc2-d3e49a450cc7"},"geometry":{"type":"Polygon","coordinates":[[[139.79531591634026,35.60028894861193],[139.7953404115484,35.600301846126634],[139.79530418967528,35.600347805280585],[139.7952796944589,35.60033490775862],[139.79531591634026,35.60028894861193]]]}},{"type":"Feature","properties":{"height":10.5,"gml_id":"bldg_035a71a3-4e66-4aed-976c-f369eec66fe4"},"geometry":{"type":"Polygon","coordinates":[[[139.80020484924958,35.60260253117703],[139.7997207708717,35.6025980704882],[139.79972316099574,35.60242500550673],[139.8001481910529,35.602428909109726],[139.80014784710636,35.602460006749055],[139.8002068944078,35.60246056382503],[139.80020484924958,35.60260253117703]]]}},{"type":"Feature","properties":{"height":12.2,"gml_id":"bldg_8b7a9925-7536-4949-9607-ff86fb38ecbd"},"geometry":{"type":"Polygon","coordinates":[[[139.79653053148218,35.600938682591234],[139.7964934728895,35.600882244641525],[139.79654888823617,35.60085801434428],[139.7965858353447,35.600914542381574],[139.79653053148218,35.600938682591234]]]}},{"type":"Feature","properties":{"height":3.1,"gml_id":"bldg_6b704b12-fa88-4b38-a284-05b04ef18e00"},"geometry":{"type":"Polygon","coordinates":[[[139.79534297135677,35.60025659746161],[139.79536625295708,35.600268593204625],[139.79534847313926,35.60029157289139],[139.79532519153494,35.60027957714498],[139.79534297135677,35.60025659746161]]]}},{"type":"Feature","properties":{"height":4.1,"gml_id":"bldg_92b42bcb-00c0-433d-b368-35b5c5cb0622"},"geometry":{"type":"Polygon","coordinates":[[[139.79068589995882,35.60723345927902],[139.79064474249319,35.60720955806037],[139.7906782068113,35.60717099072457],[139.7907193642671,35.607194891931925],[139.79068589995882,35.60723345927902]]]}},{"type":"Feature","properties":{"height":3.1,"gml_id":"bldg_912c5ff5-d178-4792-9071-e1c68027d39e"},"geometry":{"type":"Polygon","coordinates":[[[139.7990727255502,35.60456668966081],[139.79903651561762,35.60458515771774],[139.79902151335943,35.60456559343007],[139.7990577233251,35.604547035239264],[139.7990727255502,35.60456668966081]]]}},{"type":"Feature","properties":{"height":5.0,"gml_id":"bldg_e2187c32-f7b3-4205-a092-882992185743"},"geometry":{"type":"Polygon","coordinates":[[[139.79967329323063,35.60712318133542],[139.79963003574534,35.607099913565854],[139.79969397644382,35.60702051959876],[139.7996842655917,35.60701528886663],[139.79969862187093,35.606997445493015],[139.79970877414814,35.607002856623744],[139.7997400266,35.606964105874944],[139.79972766734562,35.606957432195266],[139.79975395146138,35.60692471932249],[139.79976697174826,35.60693166359852],[139.7998001015398,35.60689047962269],[139.79984302791087,35.6069135669634],[139.79982326046792,35.60693816922177],[139.79983252989348,35.60694321954345],[139.7998171797489,35.60696232459288],[139.79980724818265,35.60695700367094],[139.79967329323063,35.60712318133542]]]}},{"type":"Feature","properties":{"height":20.2,"gml_id":"bldg_dbf71470-5fec-48cf-9890-cd43a57314b5"},"geometry":{"type":"Polygon","coordinates":[[[139.79629312084538,35.601199560461815],[139.7961699806716,35.6011348031956],[139.79615806391263,35.60112848983365],[139.79635010478583,35.6008850851574],[139.79652256694004,35.60097581717151],[139.79633041600434,35.601219222085234],[139.79629312084538,35.601199560461815]]]}},{"type":"Feature","properties":{"height":27.1,"gml_id":"bldg_a04a73a6-f798-48c0-afd0-7f91527a272e"},"geometry":{"type":"Polygon","coordinates":[[[139.7999297263337,35.600941565633455],[139.7998218119049,35.60088249503271],[139.79990735194423,35.60086908817005],[139.79989875842588,35.60083276001772],[139.80003584316356,35.600811164760266],[139.7999297263337,35.600941565633455]]]}},{"type":"Feature","properties":{"height":4.5,"gml_id":"bldg_e12ad605-0830-480f-9359-51ff0facaf97"},"geometry":{"type":"Polygon","coordinates":[[[139.79943767156254,35.6036491846206],[139.79938092846356,35.60367873402273],[139.79937133141522,35.60366638236571],[139.79938259175586,35.60366043640813],[139.7993353786148,35.60359994027032],[139.79938064060607,35.60357633678561],[139.79943767156254,35.6036491846206]]]}},{"type":"Feature","properties":{"height":18.3,"gml_id":"bldg_febef71a-b369-4d26-aadf-7ef00bcbf5e4"},"geometry":{"type":"Polygon","coordinates":[[[139.7974034231811,35.60019972109132],[139.797517293363,35.60026177020072],[139.79745666917952,35.60033602620213],[139.79752982432143,35.60037579898832],[139.7975027697828,35.60040896187484],[139.79754138866622,35.60042997559543],[139.79750019941218,35.60048062112959],[139.7975086962656,35.600483688360946],[139.7974893720418,35.600506307350244],[139.79747215920784,35.6004965672835],[139.79723617293814,35.600792781702594],[139.7971264944964,35.600734429266105],[139.7971380872348,35.60072505835653],[139.79702951299046,35.60066589491733],[139.79702001619822,35.600677519907755],[139.79695855704924,35.60064406003191],[139.79696827470212,35.60063216469776],[139.79678742844646,35.60053367887285],[139.79688659270468,35.600412202357056],[139.796804169411,35.60036728848354],[139.79708321933882,35.60002538768475],[139.79723063209576,35.60010565510715],[139.7974034231811,35.60019972109132]]]}},{"type":"Feature","properties":{"height":8.3,"gml_id":"bldg_d277fe8a-10a6-4e47-9703-6f9a456fe2d6"},"geometry":{"type":"Polygon","coordinates":[[[139.79936558142435,35.6068255484894],[139.7993093219377,35.60675026714205],[139.79951554581734,35.606647657674195],[139.79957169505045,35.60672293889569],[139.79936558142435,35.6068255484894]]]}},{"type":"Feature","properties":{"height":9.7,"gml_id":"bldg_ec99c2fc-d082-4fb2-a72f-cfec9df6ec43"},"geometry":{"type":"Polygon","coordinates":[[[139.79754169034194,35.60247900119257],[139.79751003297372,35.60243725772609],[139.79764846696656,35.60236735143141],[139.79778965699285,35.60255370914462],[139.79765122280153,35.602623615599185],[139.7975979455867,35.60255338203251],[139.79754169034194,35.60247900119257]]]}},{"type":"Feature","properties":{"height":2.9,"gml_id":"bldg_9855acb2-56bc-4cf0-864f-7f0c6c882a81"},"geometry":{"type":"Polygon","coordinates":[[[139.7993408209574,35.60404107883493],[139.7993641139651,35.60403008852623],[139.79939577162932,35.60407489619851],[139.79937247861295,35.60408588651325],[139.7993408209574,35.60404107883493]]]}},{"type":"Feature","properties":{"height":20.0,"gml_id":"bldg_fab41fa1-1717-4269-9940-da026a5a1ed7"},"geometry":{"type":"Polygon","coordinates":[[[139.78840360555554,35.60614664379145],[139.788156333014,35.60601107347637],[139.78823243269386,35.605918529945335],[139.78847981545354,35.606054100147354],[139.78840360555554,35.60614664379145]]]}},{"type":"Feature","properties":{"height":6.6,"gml_id":"bldg_46e32271-e1f1-4bf0-9b0b-5de4e14e2149"},"geometry":{"type":"Polygon","coordinates":[[[139.79669742341775,35.60017282757039],[139.7965685471085,35.60010446342108],[139.79657473114733,35.60009671340565],[139.79655167027187,35.60008444754791],[139.79660887268938,35.600012534554416],[139.7967608097885,35.600093164483745],[139.79669742341775,35.60017282757039]]]}},{"type":"Feature","properties":{"height":2.7,"gml_id":"bldg_c1c5de53-02c9-4997-8cfa-a89b7e12f3e9"},"geometry":{"type":"Polygon","coordinates":[[[139.79971691559814,35.60337145646685],[139.79973169728814,35.60339047978026],[139.7997071897241,35.603403182450904],[139.79969240807532,35.603384068996185],[139.79971691559814,35.60337145646685]]]}},{"type":"Feature","properties":{"height":7.8,"gml_id":"bldg_5c756d2c-dc39-4102-aa32-da7f77ce7e71"},"geometry":{"type":"Polygon","coordinates":[[[139.78918349076037,35.60638291411231],[139.7891026396694,35.606486273088535],[139.78896802122514,35.60641609600778],[139.7890167307794,35.60635382836818],[139.78895979389213,35.606324151915736],[139.78888866232035,35.60641525551973],[139.7887889124399,35.60636329902949],[139.7889375818464,35.60617280153109],[139.7890384350323,35.60622529913522],[139.7889765815614,35.606304688224064],[139.78903660803311,35.6063359882938],[139.78912320268992,35.60622505984947],[139.78916745017696,35.606248061340985],[139.78915474820298,35.60626428157864],[139.7891835476557,35.60627934522935],[139.7891867476231,35.60628096889108],[139.789240925993,35.60630920201445],[139.78918669395023,35.606378678785894],[139.78918349076037,35.60638291411231]]]}},{"type":"Feature","properties":{"height":41.6,"gml_id":"bldg_f2928bb8-d581-4d8b-98fd-8ccf29f6c65d"},"geometry":{"type":"Polygon","coordinates":[[[139.79792632671158,35.60147776771122],[139.7982376317097,35.601322910907236],[139.79935932478267,35.60282674027666],[139.79926273092434,35.60287475674828],[139.79928126254475,35.60289955003314],[139.7992166825491,35.60293171115922],[139.7991882010775,35.60294594495217],[139.79888870372966,35.603094948551515],[139.79886176767144,35.60310837146348],[139.79879486910258,35.60314161335921],[139.79765465137186,35.60161298528122],[139.79787035788223,35.60150569414977],[139.79792632671158,35.60147776771122]]]}},{"type":"Feature","properties":{"height":3.4,"gml_id":"bldg_55547c26-ad35-401e-920a-9cd3c40b7066"},"geometry":{"type":"Polygon","coordinates":[[[139.79945973720453,35.603407529927345],[139.7993935533823,35.603316381438184],[139.79944576925067,35.60329106725759],[139.7995119531113,35.60338221571845],[139.79945973720453,35.603407529927345]]]}},{"type":"Feature","properties":{"height":34.1,"gml_id":"bldg_8184fb06-558c-4720-9e41-87449813b93c"},"geometry":{"type":"Polygon","coordinates":[[[139.7988147403398,35.60107483650119],[139.7985675751668,35.6009416310629],[139.79859197938944,35.600911351604424],[139.79866430838942,35.600821955158274],[139.7985764767561,35.600774607207214],[139.79862462248477,35.60071494947278],[139.79861579520352,35.6007101695957],[139.79865234613672,35.60066493065045],[139.79848926215445,35.600577088819335],[139.79849356875746,35.60057177189961],[139.79851819374585,35.60054122210283],[139.79861062005057,35.60042668287708],[139.7988820588001,35.60057287510747],[139.79891662157237,35.60053079035616],[139.79919545239602,35.60068500630558],[139.79914068076528,35.60075484802615],[139.79913096338055,35.60076683367378],[139.79914376302472,35.60077368782297],[139.79902008666105,35.60092697806167],[139.79896017112569,35.60089469144619],[139.79886354862293,35.60101436761865],[139.7988147403398,35.60107483650119]]]}},{"type":"Feature","properties":{"height":4.1,"gml_id":"bldg_dc2353e4-cd7a-476a-b971-a9957197b9d2"},"geometry":{"type":"Polygon","coordinates":[[[139.79943833093665,35.60365594518166],[139.79944450832156,35.60366396923137],[139.79944925529438,35.60366153683099],[139.7994639266034,35.603680560145285],[139.79945167277597,35.603686866384486],[139.79944648823246,35.60368001441281],[139.7994003431587,35.60370379794984],[139.7993846790175,35.603683602549765],[139.79943833093665,35.60365594518166]]]}},{"type":"Feature","properties":{"height":2.3,"gml_id":"bldg_7bd8ddc3-5316-44ba-ae1a-40cb56e6a3a2"},"geometry":{"type":"Polygon","coordinates":[[[139.7996506686588,35.60343029830797],[139.79963698909867,35.60341506110342],[139.79966160787865,35.60340037543457],[139.79967528744098,35.60341561263636],[139.7996506686588,35.60343029830797]]]}},{"type":"Feature","properties":{"height":51.9,"gml_id":"bldg_53181ed2-9a81-4f20-b464-fea1002f837c"},"geometry":{"type":"Polygon","coordinates":[[[139.79934467029446,35.6014633032541],[139.79930370264898,35.60151331849002],[139.79892556051058,35.60130607313241],[139.79900098082464,35.601214243636456],[139.79907706347785,35.60112169317308],[139.7993346832155,35.600808084560825],[139.7992836750743,35.600591467619516],[139.79866731078764,35.60025796013068],[139.79901139295532,35.59983377719075],[139.79918760634396,35.59992910353362],[139.7991995320431,35.59991450449169],[139.79921785167957,35.59991703355425],[139.79924113693335,35.59992154706358],[139.79926386971167,35.59992759276498],[139.7992859396882,35.59993508048918],[139.79930712617053,35.599943920035834],[139.79932753952522,35.59995411143653],[139.7993468486938,35.59996556445993],[139.7993650536767,35.59997827910652],[139.79938193381878,35.599992075037875],[139.79939737875415,35.600006952223424],[139.79941138855875,35.600022730386975],[139.79941999245622,35.600033729692754],[139.7994100543545,35.60004598571743],[139.79957920688355,35.60013743354587],[139.79955944114167,35.600161765374395],[139.79975320013068,35.60026665047091],[139.79976269659215,35.600254754848905],[139.79977572518186,35.600241868687434],[139.79979062939,35.600230425260854],[139.7998071884091,35.60022060478386],[139.7998251814322,35.60021258747115],[139.79984416695808,35.60020646333781],[139.7998640345842,35.60020232249111],[139.79988434284755,35.600200164808065],[139.79990476057625,35.60020017047341],[139.7999251774059,35.60020233945648],[139.79994493121637,35.60020649129705],[139.799964022009,35.60021262599543],[139.79998189799178,35.600220653260855],[139.79999844883687,35.60023048292492],[139.8000134538873,35.600241934650384],[139.8000264717533,35.60025482803904],[139.80003739214308,35.600268982784264],[139.80004610480182,35.60028412844099],[139.8000521687115,35.60029918322721],[139.80013810358705,35.60066435754225],[139.8001386542296,35.600667242122285],[139.8001399715585,35.60068436877848],[139.8001386400478,35.6007015848434],[139.8001346598447,35.60071852976346],[139.80012814142603,35.6007349331537],[139.80011908493947,35.60075043446022],[139.80010782148437,35.60076503377369],[139.80009435124637,35.60077828040168],[139.800079005363,35.60079008429642],[139.80006189431313,35.60080017507255],[139.80004345960234,35.600808462712926],[139.80003584316356,35.600811164760266],[139.79989875842588,35.60083276001772],[139.79990735194423,35.60086908817005],[139.7998218119049,35.60088249503271],[139.79934467029446,35.6014633032541]]]}},{"type":"Feature","properties":{"height":2.7,"gml_id":"bldg_e0415f09-30f7-4956-801e-e67dcb60eba5"},"geometry":{"type":"Polygon","coordinates":[[[139.7988756517559,35.603933321549334],[139.79884992984617,35.60394593355883],[139.79881661716294,35.60390067457656],[139.7988423390634,35.6038880625741],[139.7988756517559,35.603933321549334]]]}},{"type":"Feature","properties":{"height":4.8,"gml_id":"bldg_db5576bf-6645-4fc5-bc34-00a6ec0e5d7e"},"geometry":{"type":"Polygon","coordinates":[[[139.78999682370466,35.606824706717205],[139.78995389992122,35.60680215670023],[139.78998250668076,35.6067658412636],[139.79002543040428,35.606788481408806],[139.78999682370466,35.606824706717205]]]}},{"type":"Feature","properties":{"height":7.4,"gml_id":"bldg_c85a82ec-d115-40f8-9e9b-b843d8594ff2"},"geometry":{"type":"Polygon","coordinates":[[[139.7974034231811,35.60019972109132],[139.79723063209576,35.60010565510715],[139.79728937908382,35.60003365211506],[139.7974621700833,35.60012771801607],[139.7974034231811,35.60019972109132]]]}},{"type":"Feature","properties":{"height":22.5,"gml_id":"bldg_ef9de61e-f8ba-4e0c-8186-99fe94bf6735"},"geometry":{"type":"Polygon","coordinates":[[[139.79907706347785,35.60112169317308],[139.79900098082464,35.601214243636456],[139.7989491202487,35.601185835261724],[139.79902520293467,35.60109328483067],[139.79907706347785,35.60112169317308]]]}},{"type":"Feature","properties":{"height":4.1,"gml_id":"bldg_ff963664-f94a-4ceb-bd4c-b965a33b678f"},"geometry":{"type":"Polygon","coordinates":[[[139.7988147403398,35.60107483650119],[139.79886354862293,35.60101436761865],[139.798888044506,35.60102753482625],[139.7988392362333,35.601088003718594],[139.7988147403398,35.60107483650119]]]}},{"type":"Feature","properties":{"height":12.5,"gml_id":"bldg_ec85397b-fe83-4947-bca8-044339456c73"},"geometry":{"type":"Polygon","coordinates":[[[139.79792632671158,35.60147776771122],[139.79787035788223,35.60150569414977],[139.79780318363916,35.60141562612832],[139.7978591523893,35.60138778985888],[139.79792632671158,35.60147776771122]]]}},{"type":"Feature","properties":{"height":6.6,"gml_id":"bldg_7cbfc9db-c892-455f-b9a7-9d54e6387bcb"},"geometry":{"type":"Polygon","coordinates":[[[139.79948493628294,35.603587453141614],[139.79945912396272,35.603553193318504],[139.79949036547603,35.60353751802468],[139.7994841881722,35.603529313700506],[139.79955881450311,35.603491837088185],[139.79957271340191,35.60351040948156],[139.79957746036183,35.60350797707606],[139.79959544075012,35.60353186877225],[139.79948493628294,35.603587453141614]]]}},{"type":"Feature","properties":{"height":43.7,"gml_id":"bldg_37862c90-1340-4b07-9b71-aef1fe791bf2"},"geometry":{"type":"Polygon","coordinates":[[[139.79848926215445,35.600577088819335],[139.79865234613672,35.60066493065045],[139.79861579520352,35.6007101695957],[139.79862462248477,35.60071494947278],[139.7985764767561,35.600774607207214],[139.79866430838942,35.600821955158274],[139.79859197938944,35.600911351604424],[139.7985407810046,35.60088375448897],[139.79854718572548,35.600875824160234],[139.79850139411124,35.60085111301673],[139.79853761387704,35.600806324703555],[139.79841932816655,35.600742652793336],[139.79844914321342,35.60070579482814],[139.7984045654472,35.600681805105616],[139.79848926215445,35.600577088819335]]]}},{"type":"Feature","properties":{"height":10.2,"gml_id":"bldg_7de16674-606d-40e9-8240-7edad91245ea"},"geometry":{"type":"Polygon","coordinates":[[[139.79483944227735,35.60079798910329],[139.7947653241477,35.600697010416425],[139.79494526400765,35.600609092805755],[139.79496666124294,35.60063821431819],[139.79494855688657,35.600647042114744],[139.7949579319893,35.600659754612735],[139.7949867444558,35.60064561205784],[139.79501630352723,35.60068591331774],[139.79498506246628,35.60070113676743],[139.79499895969687,35.60071998011111],[139.79483944227735,35.60079798910329]]]}},{"type":"Feature","properties":{"height":19.4,"gml_id":"bldg_b68104ea-60b9-4749-9d25-f1e7c4d42188"},"geometry":{"type":"Polygon","coordinates":[[[139.7961699806716,35.6011348031956],[139.79629312084538,35.601199560461815],[139.79626860555146,35.601229298588635],[139.79614712182234,35.601162468626136],[139.7961699806716,35.6011348031956]]]}},{"type":"Feature","properties":{"height":5.0,"gml_id":"bldg_e73ae8b7-67a4-4fbf-bd95-92f8afb047a7"},"geometry":{"type":"Polygon","coordinates":[[[139.7946814799587,35.600854635585605],[139.794650487481,35.60081171977156],[139.79469409251553,35.60079073151731],[139.79466287940872,35.600747635358495],[139.7947234848783,35.60071835981607],[139.79478569056357,35.60080428160867],[139.7946814799587,35.600854635585605]]]}},{"type":"Feature","properties":{"height":13.8,"gml_id":"bldg_d53ef963-9a25-4a65-ad04-f46b7eb018b0"},"geometry":{"type":"Polygon","coordinates":[[[139.79619057410378,35.600993923258166],[139.79615140413435,35.60097146672256],[139.79628314294607,35.60081791149443],[139.79632242324453,35.60084036802166],[139.79619057410378,35.600993923258166]]]}},{"type":"Feature","properties":{"height":14.5,"gml_id":"bldg_04792e13-0d0c-4b24-a337-6be7374990f5"},"geometry":{"type":"Polygon","coordinates":[[[139.7961199577991,35.60095351947846],[139.79606920241577,35.60092438909773],[139.79611779005987,35.60086797748526],[139.7961685454252,35.60089710784579],[139.7961199577991,35.60095351947846]]]}},{"type":"Feature","properties":{"height":24.6,"gml_id":"bldg_5c280392-2400-4ceb-b9c0-455b584a717c"},"geometry":{"type":"Polygon","coordinates":[[[139.79934467029446,35.6014633032541],[139.7998218119049,35.60088249503271],[139.7999297263337,35.600941565633455],[139.799452143452,35.601522914982716],[139.79934467029446,35.6014633032541]]]}},{"type":"Feature","properties":{"height":3.7,"gml_id":"bldg_2587139c-4cf2-4d1a-8440-ca39072a4f08"},"geometry":{"type":"Polygon","coordinates":[[[139.78994577922407,35.60691942369169],[139.78989071787498,35.60688992863349],[139.78994207688288,35.60682603909052],[139.78999713820707,35.60685553412555],[139.78994577922407,35.60691942369169]]]}},{"type":"Feature","properties":{"height":3.4,"gml_id":"bldg_81d22533-f74a-450e-8864-e41d93626340"},"geometry":{"type":"Polygon","coordinates":[[[139.790482046239,35.60721409736709],[139.79044397859357,35.60719163939108],[139.7904806453839,35.60715027896298],[139.79051871302,35.60717273692756],[139.790482046239,35.60721409736709]]]}},{"type":"Feature","properties":{"height":19.1,"gml_id":"bldg_14a83f41-d915-43e2-ac0e-5f3f879cdc58"},"geometry":{"type":"Polygon","coordinates":[[[139.79851819374585,35.60054122210283],[139.79849356875746,35.60057177189961],[139.79847161092314,35.600559957420906],[139.79849623591622,35.600529407628564],[139.79851819374585,35.60054122210283]]]}},{"type":"Feature","properties":{"height":26.5,"gml_id":"bldg_ed146402-1bf6-43c1-a4e1-4d5c6537268a"},"geometry":{"type":"Polygon","coordinates":[[[139.79360825475595,35.59954782075001],[139.7936257912462,35.599571262513486],[139.79367226652624,35.59954793197176],[139.79377064782577,35.599678935404015],[139.79370882797429,35.59970983256434],[139.79374114386616,35.599752839201315],[139.7938010870826,35.599722842793035],[139.7938256881206,35.599744123522434],[139.79394303955087,35.599902174546045],[139.79387812873404,35.59993433271924],[139.7939101136651,35.59997742933939],[139.7939742517672,35.59994563145043],[139.7940865302499,35.60009692029284],[139.7940208465507,35.6001295289821],[139.79405481690355,35.6001753303619],[139.79412127336442,35.60014236135226],[139.79426101566835,35.60033052556166],[139.79419500070603,35.60036322437551],[139.79423007421906,35.60041046827667],[139.79429520610014,35.60037812971137],[139.79438200775934,35.600495067287135],[139.7943186421205,35.600526505086656],[139.7943509584918,35.600569872108174],[139.79429741852113,35.6005949132487],[139.79370789870825,35.5998038466076],[139.79354102691238,35.599578986457374],[139.79360825475595,35.59954782075001]]]}},{"type":"Feature","properties":{"height":9.9,"gml_id":"bldg_5a3cd79c-0460-427d-8d50-b52b5e2f24cc"},"geometry":{"type":"Polygon","coordinates":[[[139.79620429972914,35.60090712422717],[139.79617583265073,35.60089062012942],[139.7961984699292,35.600864577114756],[139.79622693696146,35.600881171345605],[139.79620429972914,35.60090712422717]]]}},{"type":"Feature","properties":{"height":2.5,"gml_id":"bldg_6a7d0942-6c63-46d8-b93d-c361283b25c4"},"geometry":{"type":"Polygon","coordinates":[[[139.7988881168284,35.603949369736874],[139.79886239518606,35.60396135078071],[139.79885500483533,35.603950802481116],[139.7988807264754,35.60393882143883],[139.7988881168284,35.603949369736874]]]}},{"type":"Feature","properties":{"height":2.4,"gml_id":"bldg_cd898856-1bb6-4f51-92d4-caabad349452"},"geometry":{"type":"Polygon","coordinates":[[[139.7907405170675,35.608102141181845],[139.79073851680963,35.608127559467334],[139.79070518387147,35.60812583505302],[139.79070707376292,35.608100416729044],[139.7907405170675,35.608102141181845]]]}},{"type":"Feature","properties":{"height":5.9,"gml_id":"bldg_8655ff34-5f57-413c-a64d-d0b0344edf71"},"geometry":{"type":"Polygon","coordinates":[[[139.79944639265463,35.603906712308735],[139.79937827954086,35.60394004432063],[139.7990922530086,35.60355011506881],[139.79910406513025,35.6035443495706],[139.79909667459415,35.60353425197675],[139.7991103633983,35.603527585627646],[139.79911466536004,35.60353344584155],[139.79913884160024,35.60352155444281],[139.7991457909262,35.60353102094052],[139.79916411625166,35.60352210244199],[139.79944639265463,35.603906712308735]]]}},{"type":"Feature","properties":{"height":2.8,"gml_id":"bldg_00170090-858c-4da7-a986-4e2be98f0bb5"},"geometry":{"type":"Polygon","coordinates":[[[139.79910024066217,35.60345393972579],[139.79912814746092,35.60349378879812],[139.7991346554157,35.603502984756204],[139.79908972561933,35.60352397423123],[139.7990478102976,35.603464110453174],[139.79909274007147,35.603443120993546],[139.79910024066217,35.60345393972579]]]}},{"type":"Feature","properties":{"height":26.9,"gml_id":"bldg_cf62715b-d972-4374-bfe8-07b1418b6a40"},"geometry":{"type":"Polygon","coordinates":[[[139.7961331468333,35.601072416073286],[139.796099051857,35.601054017314496],[139.7961148433495,35.60103464244102],[139.79608461028528,35.60101831805339],[139.79611718731132,35.60097794612399],[139.7961815153291,35.60101266924884],[139.7961331468333,35.601072416073286]]]}},{"type":"Feature","properties":{"height":2.8,"gml_id":"bldg_c952b261-901e-403b-8d61-ee5865828259"},"geometry":{"type":"Polygon","coordinates":[[[139.7978785978113,35.602842178080614],[139.7978663538116,35.602826219989204],[139.79790896613125,35.60280441904144],[139.79792132046606,35.60282046729935],[139.7978785978113,35.602842178080614]]]}},{"type":"Feature","properties":{"height":5.3,"gml_id":"bldg_93631038-ab7e-4378-b1f0-340cc5e34d23"},"geometry":{"type":"Polygon","coordinates":[[[139.7958741179244,35.60082878193186],[139.79583833800706,35.600873839995906],[139.7958106427431,35.600859138819594],[139.7958464226694,35.60081408076366],[139.7958741179244,35.60082878193186]]]}},{"type":"Feature","properties":{"height":3.4,"gml_id":"bldg_f5e6f33b-2d29-4edd-9b02-40cd7215215c"},"geometry":{"type":"Polygon","coordinates":[[[139.79765146569073,35.60133058081439],[139.79760899914277,35.60127432188651],[139.79762003834298,35.601268826717536],[139.7976152953814,35.60126242548714],[139.79764708836095,35.60124639027498],[139.7976942978907,35.60130905041714],[139.79765146569073,35.60133058081439]]]}},{"type":"Feature","properties":{"height":3.6,"gml_id":"bldg_3bea8b4f-ca22-49b2-8876-25c9ce64ed41"},"geometry":{"type":"Polygon","coordinates":[[[139.79443608859623,35.60094866110051],[139.79450122043892,35.60091713367229],[139.7945553747137,35.600991695550434],[139.7945603424108,35.600989263412586],[139.79457214387514,35.60100549211729],[139.79450204428696,35.601039451718975],[139.79443608859623,35.60094866110051]]]}},{"type":"Feature","properties":{"height":3.0,"gml_id":"bldg_b3e9b1c5-c33a-47dc-bfe0-f2ab115be3ac"},"geometry":{"type":"Polygon","coordinates":[[[139.7991537074763,35.60178504323017],[139.79908926741766,35.60174978083376],[139.79912173251864,35.601710219310235],[139.79918617259813,35.60174539155117],[139.7991537074763,35.60178504323017]]]}},{"type":"Feature","properties":{"height":3.2,"gml_id":"bldg_ab330f25-2111-470c-9264-3a668459d893"},"geometry":{"type":"Polygon","coordinates":[[[139.79929216939192,35.60346742470813],[139.79925187598673,35.6034866127865],[139.79920643031411,35.60342296225425],[139.7992467236982,35.60340377419088],[139.79929216939192,35.60346742470813]]]}},{"type":"Feature","properties":{"height":4.6,"gml_id":"bldg_d5d65b65-4e03-469b-83a9-f6afc149d187"},"geometry":{"type":"Polygon","coordinates":[[[139.7965264538444,35.60020017754542],[139.79655790096564,35.600215961364476],[139.79654255075164,35.60023632795575],[139.79651110366675,35.60022045399436],[139.7965264538444,35.60020017754542]]]}},{"type":"Feature","properties":{"height":3.1,"gml_id":"bldg_afb06e6d-d457-4ca6-993b-5a37d6a1bc2b"},"geometry":{"type":"Polygon","coordinates":[[[139.7997375842998,35.600132249774596],[139.79970735072524,35.60011619670831],[139.79974069865554,35.60007456207029],[139.79977082181756,35.600090705235964],[139.7997375842998,35.600132249774596]]]}},{"type":"Feature","properties":{"height":2.8,"gml_id":"bldg_484c88f6-d014-44dd-a099-93754467f9d5"},"geometry":{"type":"Polygon","coordinates":[[[139.7977408977441,35.60274875415507],[139.7977840615058,35.60272785479761],[139.7978159389141,35.60277176157553],[139.79777277513708,35.60279266094426],[139.7977408977441,35.60274875415507]]]}},{"type":"Feature","properties":{"height":7.2,"gml_id":"bldg_91925dd7-580b-493b-b93a-841249e4c632"},"geometry":{"type":"Polygon","coordinates":[[[139.79666306120896,35.60025691623893],[139.79663600618838,35.60029043948486],[139.79654927970435,35.60024372135793],[139.79657633474534,35.60021019813122],[139.79666306120896,35.60025691623893]]]}},{"type":"Feature","properties":{"height":3.1,"gml_id":"bldg_8daa666d-df67-410f-a2b6-64b158194bad"},"geometry":{"type":"Polygon","coordinates":[[[139.79679671976297,35.60048852235802],[139.79677233483548,35.600475174481154],[139.79682776942528,35.60040776777158],[139.79685215434154,35.60042111563736],[139.79679671976297,35.60048852235802]]]}},{"type":"Feature","properties":{"height":2.8,"gml_id":"bldg_0c24a7be-48ac-42e6-a482-acb327216337"},"geometry":{"type":"Polygon","coordinates":[[[139.79778060759517,35.60280122639883],[139.79782332993602,35.602780236758896],[139.79785454584507,35.602822610077915],[139.79781182348944,35.60284360063012],[139.79778060759517,35.60280122639883]]]}},{"type":"Feature","properties":{"height":4.5,"gml_id":"bldg_9a4ac934-8084-46fe-b17d-42eeab3c7cf6"},"geometry":{"type":"Polygon","coordinates":[[[139.79884998182,35.60485380683157],[139.7988386110163,35.60485948229158],[139.79885019359276,35.604874718983076],[139.79876320120542,35.60491850128315],[139.79868223390042,35.60481139370095],[139.79866633681002,35.60481941143953],[139.79863346461872,35.60477586516802],[139.79872145046718,35.60473163255426],[139.7987312679769,35.60474470543073],[139.79875765266638,35.6047314626702],[139.79884998182,35.60485380683157]]]}},{"type":"Feature","properties":{"height":2.9,"gml_id":"bldg_5e78a299-1092-4209-8fa6-cda3d6c76540"},"geometry":{"type":"Polygon","coordinates":[[[139.79882292174986,35.60489760630998],[139.79883439376283,35.60491329366285],[139.79878261809947,35.60493869783592],[139.798771146093,35.60492301047818],[139.79882292174986,35.60489760630998]]]}},{"type":"Feature","properties":{"height":2.4,"gml_id":"bldg_ffd97ecc-77ca-4175-adb9-670e5d4c5406"},"geometry":{"type":"Polygon","coordinates":[[[139.79879066693186,35.60495817002083],[139.79877399713718,35.60496636782857],[139.7987538106165,35.604939230402884],[139.79877048044636,35.604930942459596],[139.79879066693186,35.60495817002083]]]}},{"type":"Feature","properties":{"height":3.2,"gml_id":"bldg_3ffa966b-82b0-40ed-95c3-733b7c9e4a34"},"geometry":{"type":"Polygon","coordinates":[[[139.7960032502566,35.600584727256994],[139.79602200785504,35.600594918703564],[139.79596999537955,35.60065899098094],[139.79598886335782,35.60066918246676],[139.7959616976343,35.60070252524782],[139.79592418236538,35.6006822324717],[139.7960032502566,35.600584727256994]]]}},{"type":"Feature","properties":{"height":3.1,"gml_id":"bldg_6f0f709d-5a98-497e-a0dd-ed14a6a3513c"},"geometry":{"type":"Polygon","coordinates":[[[139.79523612269324,35.60145089728997],[139.79525752892525,35.60146172066],[139.7952346683873,35.60149209006646],[139.7952131517397,35.60148135679589],[139.79523612269324,35.60145089728997]]]}},{"type":"Feature","properties":{"height":2.6,"gml_id":"bldg_38370f44-7735-46ef-a732-d8bd8459676c"},"geometry":{"type":"Polygon","coordinates":[[[139.7952029112174,35.60143141689763],[139.79522983433432,35.60144539686112],[139.7952147046693,35.601464952103306],[139.79518767113785,35.601451062239924],[139.7952029112174,35.60143141689763]]]}},{"type":"Feature","properties":{"height":2.2,"gml_id":"bldg_d00e8344-4636-43aa-842a-fc9290c2dc8b"},"geometry":{"type":"Polygon","coordinates":[[[139.79473485191716,35.601179601548786],[139.79475338927756,35.60118871146076],[139.7947374860638,35.60121015930209],[139.79471905906775,35.601201049423096],[139.79473485191716,35.601179601548786]]]}},{"type":"Feature","properties":{"height":3.3,"gml_id":"bldg_94f38401-c73c-4077-a695-b367d0d059a5"},"geometry":{"type":"Polygon","coordinates":[[[139.79098522434788,35.608308644067044],[139.79096413716545,35.608318371587444],[139.79094913717572,35.60829691340446],[139.79097033477905,35.608287095787205],[139.79098522434788,35.608308644067044]]]}},{"type":"Feature","properties":{"height":3.3,"gml_id":"bldg_321f3077-7d00-4a3f-80ec-e239c3f89559"},"geometry":{"type":"Polygon","coordinates":[[[139.7909713068868,35.60832747807327],[139.79099162147764,35.60831766014189],[139.79100607035588,35.608337675913646],[139.79098575576177,35.60834749384742],[139.7909713068868,35.60832747807327]]]}},{"type":"Feature","properties":{"height":3.9,"gml_id":"bldg_8823343f-0a67-4836-9dcf-da80e1958caa"},"geometry":{"type":"Polygon","coordinates":[[[139.7909612876512,35.60827988154478],[139.79094428542822,35.60828771759443],[139.7909298370024,35.60826689057085],[139.79094683922239,35.60825905452321],[139.7909612876512,35.60827988154478]]]}},{"type":"Feature","properties":{"height":4.2,"gml_id":"bldg_aaafd03f-5b96-44b7-b162-dcb6cd2aa1ed"},"geometry":{"type":"Polygon","coordinates":[[[139.79064039436085,35.60729140208204],[139.79059879580734,35.60726668944709],[139.7906370086268,35.60722379716934],[139.79067860716984,35.60724850979128],[139.79064039436085,35.60729140208204]]]}},{"type":"Feature","properties":{"height":2.9,"gml_id":"bldg_5c1b0967-6eda-40ec-8d68-8b86c1159c53"},"geometry":{"type":"Polygon","coordinates":[[[139.79944271737915,35.603723279755805],[139.79942483367458,35.6037318378673],[139.79940740529906,35.60370758574852],[139.7994252890001,35.603699027639585],[139.79944271737915,35.603723279755805]]]}},{"type":"Feature","properties":{"height":13.6,"gml_id":"bldg_15f6b3c4-1a19-4d45-a8e8-7a9fc79f098f"},"geometry":{"type":"Polygon","coordinates":[[[139.79561617644225,35.60203439235926],[139.79549844333937,35.601970176938],[139.7957496753281,35.60166315413392],[139.79586740814045,35.60172745945122],[139.79561617644225,35.60203439235926]]]}},{"type":"Feature","properties":{"height":4.9,"gml_id":"bldg_2de32e06-a612-496c-9714-0e03cc62caf3"},"geometry":{"type":"Polygon","coordinates":[[[139.7882577135328,35.605909255159254],[139.7882035356264,35.60588129200726],[139.78821645868175,35.605864711398425],[139.78827052620758,35.605892674503416],[139.7882577135328,35.605909255159254]]]}},{"type":"Feature","properties":{"height":3.0,"gml_id":"bldg_182b35fc-db99-4f45-bb53-1d7d52e29ecc"},"geometry":{"type":"Polygon","coordinates":[[[139.7950806913591,35.600593451789884],[139.79509780972094,35.60056920999656],[139.7951250641449,35.60058210842984],[139.79512020475707,35.60058895740639],[139.79513554224908,35.600596263478025],[139.79512328332564,35.60061356616179],[139.7950806913591,35.600593451789884]]]}},{"type":"Feature","properties":{"height":3.4,"gml_id":"bldg_6474a56b-dcb3-4a77-bb9f-acfbf8d78056"},"geometry":{"type":"Polygon","coordinates":[[[139.79103605503602,35.60778063191963],[139.79100969280702,35.60774691094785],[139.79105208903135,35.607724751815],[139.79107845122348,35.6077585629159],[139.79103605503602,35.60778063191963]]]}},{"type":"Feature","properties":{"height":3.4,"gml_id":"bldg_4f29de0e-42ed-4311-9443-149fd2194ccf"},"geometry":{"type":"Polygon","coordinates":[[[139.7952167262112,35.60139130969184],[139.79517159796256,35.60136569611147],[139.79520837088356,35.601322531469286],[139.795253388752,35.60134814500117],[139.7952167262112,35.60139130969184]]]}},{"type":"Feature","properties":{"height":5.8,"gml_id":"bldg_7a3d9803-522b-475a-9f81-ea618779f978"},"geometry":{"type":"Polygon","coordinates":[[[139.79947621821995,35.603060501921085],[139.79942735292914,35.60299261400436],[139.79939887170156,35.60300630701692],[139.7993824362492,35.60298340724652],[139.7994470165242,35.602950524925156],[139.79951562828413,35.603041583933425],[139.79947621821995,35.603060501921085]]]}},{"type":"Feature","properties":{"height":5.7,"gml_id":"bldg_d81bf799-a20b-4cc2-b229-9c88bfda0149"},"geometry":{"type":"Polygon","coordinates":[[[139.79862414367815,35.600290217249885],[139.7985161206786,35.60023123558115],[139.79856006964252,35.60017752578844],[139.79866809260218,35.60023650741827],[139.79862414367815,35.600290217249885]]]}},{"type":"Feature","properties":{"height":4.2,"gml_id":"bldg_4ea83364-ca54-4871-b4bc-2f368bcbb9db"},"geometry":{"type":"Polygon","coordinates":[[[139.79555021066435,35.6021954489499],[139.79551236365415,35.6021752460848],[139.79554637724766,35.60213271144783],[139.79558422428872,35.60215282416405],[139.79555021066435,35.6021954489499]]]}},{"type":"Feature","properties":{"height":4.8,"gml_id":"bldg_e80c9e72-2e1a-4f22-a445-b440579bdaef"},"geometry":{"type":"Polygon","coordinates":[[[139.79754360016824,35.60042060185979],[139.79751678707677,35.600407253412236],[139.79753821087883,35.6003786859081],[139.79756491359797,35.600392034318176],[139.79754360016824,35.60042060185979]]]}},{"type":"Feature","properties":{"height":8.7,"gml_id":"bldg_c772694d-4040-4d08-be17-9daf34c60752"},"geometry":{"type":"Polygon","coordinates":[[[139.79592241175686,35.600692417559486],[139.79597537452815,35.600721007857096],[139.7958907847208,35.60082581254472],[139.7958378218686,35.600797312348774],[139.79592241175686,35.600692417559486]]]}},{"type":"Feature","properties":{"height":2.5,"gml_id":"bldg_6224b543-a769-4c77-8a20-1a38730bc347"},"geometry":{"type":"Polygon","coordinates":[[[139.78848009310087,35.606149917264254],[139.78849445196298,35.606131624533056],[139.78851321010296,35.606141456586116],[139.78849896161762,35.60615974936058],[139.78848009310087,35.606149917264254]]]}},{"type":"Feature","properties":{"height":4.6,"gml_id":"bldg_a87894ea-7da7-408b-85ac-c1b378989f25"},"geometry":{"type":"Polygon","coordinates":[[[139.79536358904411,35.601468875054884],[139.79532166103039,35.60144398364627],[139.7953596477815,35.601401179894815],[139.7954016861525,35.60142607132511],[139.79536358904411,35.601468875054884]]]}},{"type":"Feature","properties":{"height":10.5,"gml_id":"bldg_f7ed4262-9386-4b21-be21-b1f2be1d6c22"},"geometry":{"type":"Polygon","coordinates":[[[139.79610119265178,35.600721136932755],[139.7959871017615,35.6006599878056],[139.79614556929755,35.60046272388204],[139.79625966007023,35.600523782722696],[139.79610119265178,35.600721136932755]]]}},{"type":"Feature","properties":{"height":1.6,"gml_id":"bldg_f1135d12-4260-49b8-a689-189fc16674be"},"geometry":{"type":"Polygon","coordinates":[[[139.79983364450288,35.60241548160395],[139.79981035661373,35.602415475128026],[139.79981047668187,35.602392219464534],[139.79983365415757,35.6023923160481],[139.79983364450288,35.60241548160395]]]}},{"type":"Feature","properties":{"height":1.9,"gml_id":"bldg_4508cdca-9c73-4334-9a59-896ba786bd0c"},"geometry":{"type":"Polygon","coordinates":[[[139.78795635490437,35.60597611481573],[139.7879327417899,35.605963847112555],[139.78795726257908,35.60593239808075],[139.7879808756881,35.60594466577918],[139.78795635490437,35.60597611481573]]]}},{"type":"Feature","properties":{"height":3.0,"gml_id":"bldg_ceceb143-642c-44cf-a851-42e56432618e"},"geometry":{"type":"Polygon","coordinates":[[[139.78787693485893,35.60608416070666],[139.78785045332333,35.6060695483097],[139.78792644252738,35.605977906314294],[139.78795292404664,35.60599251869476],[139.78787693485893,35.60608416070666]]]}},{"type":"Feature","properties":{"height":6.6,"gml_id":"bldg_ade583c3-3923-4326-859c-e9a6db003a11"},"geometry":{"type":"Polygon","coordinates":[[[139.79467772527028,35.60085923143876],[139.79456070768586,35.60091841476339],[139.79451581688187,35.60085917939578],[139.79463294477998,35.600799996149576],[139.79467772527028,35.60085923143876]]]}},{"type":"Feature","properties":{"height":3.5,"gml_id":"bldg_9654db55-9f5c-44e5-9cb1-8408ba2736aa"},"geometry":{"type":"Polygon","coordinates":[[[139.788485550039,35.605073848174655],[139.78846270921466,35.60506248224413],[139.78848270167438,35.605035628468436],[139.78850554249394,35.605046994395224],[139.788485550039,35.605073848174655]]]}},{"type":"Feature","properties":{"height":3.2,"gml_id":"bldg_addfaaef-d04a-4359-b9e5-fc5777a17d2b"},"geometry":{"type":"Polygon","coordinates":[[[139.7884502077961,35.60511493808832],[139.78843045710184,35.60510411413256],[139.78844194367883,35.60509014697322],[139.78846169437122,35.60510097092714],[139.7884502077961,35.60511493808832]]]}},{"type":"Feature","properties":{"height":8.9,"gml_id":"bldg_280a4ebe-b51f-499f-b39f-4a017691154d"},"geometry":{"type":"Polygon","coordinates":[[[139.78874875790603,35.606323983882056],[139.78869689866426,35.60629376835405],[139.7887419600486,35.60624222593045],[139.78879381932407,35.60627235130104],[139.78874875790603,35.606323983882056]]]}},{"type":"Feature","properties":{"height":10.6,"gml_id":"bldg_29f2be9e-b707-4ff2-9304-14e7019249df"},"geometry":{"type":"Polygon","coordinates":[[[139.7888108366599,35.606236843100035],[139.78869122778758,35.60617027678402],[139.7888300604531,35.606003842694335],[139.7889496692428,35.606070318735995],[139.7888108366599,35.606236843100035]]]}},{"type":"Feature","properties":{"height":5.5,"gml_id":"bldg_d5dbfda9-1449-493a-ad1d-b7169b98a382"},"geometry":{"type":"Polygon","coordinates":[[[139.78810797563054,35.60603512226402],[139.78805324470395,35.60600914188011],[139.78807334872246,35.60598084600578],[139.78812807963632,35.606006826380664],[139.78810797563054,35.60603512226402]]]}},{"type":"Feature","properties":{"height":6.8,"gml_id":"bldg_3957dbdc-fdeb-4c23-81a2-694cc278d1af"},"geometry":{"type":"Polygon","coordinates":[[[139.79627564991517,35.60127085454645],[139.79622628690146,35.601333034836],[139.79619175028114,35.60131472610659],[139.7962411133103,35.60125254583099],[139.79627564991517,35.60127085454645]]]}},{"type":"Feature","properties":{"height":25.7,"gml_id":"bldg_5a42281f-0eca-4c94-abf2-7dfbd4d61ed3"},"geometry":{"type":"Polygon","coordinates":[[[139.79588927359677,35.60122665744853],[139.79584381332484,35.60120275664515],[139.79597335070156,35.601038564748265],[139.7960188109192,35.601062465503404],[139.79588927359677,35.60122665744853]]]}},{"type":"Feature","properties":{"height":2.8,"gml_id":"bldg_6ec3041e-2cae-42ee-8ce4-ee91728e3442"},"geometry":{"type":"Polygon","coordinates":[[[139.78757111093486,35.60488078866185],[139.78755102924785,35.60487005457422],[139.78758040911362,35.60483355971338],[139.78760049079546,35.60484429379619],[139.78757111093486,35.60488078866185]]]}},{"type":"Feature","properties":{"height":2.6,"gml_id":"bldg_d73c7d31-d50e-4114-a060-713bb697e35f"},"geometry":{"type":"Polygon","coordinates":[[[139.78762191566446,35.60482212789863],[139.78759808178475,35.60481058115049],[139.7876064766013,35.604799136769635],[139.78763031053003,35.60481059337787],[139.78762191566446,35.60482212789863]]]}},{"type":"Feature","properties":{"height":14.0,"gml_id":"bldg_713a2817-a385-44f2-a973-16670c1a3545"},"geometry":{"type":"Polygon","coordinates":[[[139.7955164820745,35.6021013339199],[139.79555701526414,35.60204203558941],[139.7956127394912,35.60206747206309],[139.7955722063298,35.60212677041207],[139.7955164820745,35.6021013339199]]]}},{"type":"Feature","properties":{"height":6.9,"gml_id":"bldg_8fae28b7-851b-4792-aa2e-806c6d4d8674"},"geometry":{"type":"Polygon","coordinates":[[[139.7995356106311,35.60381623847261],[139.79946269706394,35.6037172461043],[139.79957176603307,35.60366373453626],[139.79964456927738,35.603762816946976],[139.7995356106311,35.60381623847261]]]}},{"type":"Feature","properties":{"height":9.2,"gml_id":"bldg_8edabf1c-b531-40ac-abff-d8207f23927b"},"geometry":{"type":"Polygon","coordinates":[[[139.78838956784568,35.60519585969394],[139.78769090237554,35.60481521339698],[139.78770371453197,35.60479944404304],[139.78783137605436,35.60486898895877],[139.7878503732842,35.60484574044415],[139.7875767344002,35.604696638209596],[139.78755641173495,35.60472150866792],[139.7875884097984,35.60473891751477],[139.78757614995257,35.604753875821444],[139.78692295105367,35.604398030341876],[139.78693344376848,35.60438523474023],[139.7871234446182,35.60448869640731],[139.78714531375692,35.604461753432346],[139.78690919200696,35.60433321558569],[139.7869213414888,35.604318347441684],[139.7875379075042,35.60465425844946],[139.7875259789841,35.60466885632385],[139.78715910610615,35.60446896978391],[139.78713823119867,35.60449438079097],[139.78754283969178,35.60471492341407],[139.78756492959877,35.60468780017119],[139.78754219995162,35.604675442586235],[139.78755324492732,35.60466183589613],[139.7878928660713,35.604846838134726],[139.78788171075513,35.60486044481393],[139.78786438757848,35.60485106389363],[139.78784362316696,35.60487647506301],[139.7881552197684,35.60504623259848],[139.78817598412536,35.60502082137609],[139.78790973675675,35.60487568875723],[139.7879211129681,35.60486181174376],[139.78832848397312,35.60508379497103],[139.78831777049186,35.6050968610252],[139.7881894461019,35.605027045963844],[139.78816724588876,35.60505425941668],[139.78840105454373,35.605181712262144],[139.78838956784568,35.60519585969394]]]}},{"type":"Feature","properties":{"height":1.6,"gml_id":"bldg_0d8865fa-00b6-494e-91c6-115533f32452"},"geometry":{"type":"Polygon","coordinates":[[[139.78867643943656,35.60616702632581],[139.78865006730052,35.606153856358034],[139.78869314520531,35.60609636408814],[139.78871951727953,35.60610962418487],[139.78867643943656,35.60616702632581]]]}},{"type":"Feature","properties":{"height":4.5,"gml_id":"bldg_f2dd5e9c-a8db-4dba-878e-31d11e25cf9d"},"geometry":{"type":"Polygon","coordinates":[[[139.7945791385538,35.60091932207562],[139.79459867774054,35.600910584934546],[139.79462106623748,35.60094385319097],[139.79460163736877,35.600952680509444],[139.7945791385538,35.60091932207562]]]}},{"type":"Feature","properties":{"height":35.3,"gml_id":"bldg_875dcf6d-d5a2-4f91-9339-c17327422d3a"},"geometry":{"type":"Polygon","coordinates":[[[139.79506406407964,35.60144074727622],[139.7950332794093,35.60142406189732],[139.79502411351405,35.60143532628055],[139.79478831896495,35.60130716446366],[139.79480024575372,35.60129238558433],[139.79477486786564,35.601278496157356],[139.79489280966436,35.601133771603614],[139.79493087650494,35.60115451556693],[139.79494434920616,35.60113802453639],[139.7951955909467,35.60127466394834],[139.7951419210439,35.601340447965335],[139.79515703751778,35.60134865534705],[139.79513252154405,35.601378843933546],[139.79512005320626,35.60137207960251],[139.79506406407964,35.60144074727622]]]}},{"type":"Feature","properties":{"height":35.8,"gml_id":"bldg_50425dfd-6d1d-4175-b349-28f694476b1a"},"geometry":{"type":"Polygon","coordinates":[[[139.79040028368888,35.60716566400509],[139.79014836712793,35.607033341122],[139.7901587495407,35.60702009451407],[139.79011439111477,35.606996822934626],[139.7902157848109,35.60686814178088],[139.790265881019,35.606894570214415],[139.7902757111318,35.606882044505014],[139.79052177916267,35.60701130034564],[139.79040028368888,35.60716566400509]]]}},{"type":"Feature","properties":{"height":24.3,"gml_id":"bldg_c1259a47-a54b-4108-a076-39bf5b9651c2"},"geometry":{"type":"Polygon","coordinates":[[[139.79605789284926,35.601036788160165],[139.796001729694,35.601007115248315],[139.79605771863726,35.600936464089244],[139.79611388176383,35.60096613697532],[139.79605789284926,35.601036788160165]]]}},{"type":"Feature","properties":{"height":19.8,"gml_id":"bldg_3b8ccb91-7b59-475e-b205-477ea825265c"},"geometry":{"type":"Polygon","coordinates":[[[139.79594697984305,35.60126336168376],[139.79589313175725,35.60123675414538],[139.79599948236933,35.60109319670418],[139.79605332929057,35.60111980419529],[139.79594697984305,35.60126336168376]]]}},{"type":"Feature","properties":{"height":9.3,"gml_id":"bldg_147ea232-5b87-42f1-b2c1-1e7c33aa4c58"},"geometry":{"type":"Polygon","coordinates":[[[139.79961485649937,35.605396115128535],[139.79964289704458,35.60538242194738],[139.79968999946738,35.60544679386372],[139.79966394604295,35.60545949608946],[139.7997609088817,35.60559193632424],[139.79972149751103,35.60561112479831],[139.7997403606095,35.605636909615384],[139.79963912730264,35.605686367284974],[139.79962202921965,35.60566292654213],[139.7995236660915,35.60571103284271],[139.79954120542342,35.60573501455293],[139.79944030310588,35.6057842017325],[139.79942265345764,35.605760129838465],[139.7993794884543,35.60578111990994],[139.79928197445398,35.605647958110296],[139.79925592101458,35.60566038983242],[139.79920826713834,35.60559556690102],[139.79923034642994,35.60558475655406],[139.79909157729853,35.605395246467246],[139.7990700501372,35.60540551611624],[139.7990244918819,35.60534484006785],[139.79904469428578,35.605335201018164],[139.79890272710102,35.605141273018624],[139.798882303674,35.60515163308819],[139.79883630533502,35.60508834282908],[139.7988569494201,35.60507816310698],[139.79880653863543,35.60500928299741],[139.79884904102147,35.60498856335375],[139.79883006806585,35.60496259808638],[139.79892964506072,35.60491386172413],[139.79894894900062,35.604940187623754],[139.7990489674628,35.60489127101201],[139.79902933257668,35.604864494342365],[139.7991269221267,35.60481692904867],[139.79914534362663,35.60484208286856],[139.7991879562477,35.604821272997704],[139.7992358301646,35.604886636837556],[139.79926563690057,35.60487213299781],[139.79931384183794,35.60493794759134],[139.79928734695233,35.60495082988877],[139.79942832194388,35.60514340508757],[139.79945514806505,35.60513034257603],[139.7995016987045,35.60519381303031],[139.79947597648928,35.605206425170614],[139.79961485649937,35.605396115128535]]]}},{"type":"Feature","properties":{"height":2.1,"gml_id":"bldg_082e55b8-8d93-4c65-ba72-4f7dd3cd72ba"},"geometry":{"type":"Polygon","coordinates":[[[139.79917023421513,35.60470850493098],[139.7991447326179,35.604721657894125],[139.79913270867186,35.60470606055197],[139.79915821022777,35.60469299772964],[139.79917023421513,35.60470850493098]]]}},{"type":"Feature","properties":{"height":2.8,"gml_id":"bldg_e83c9cc4-de25-468e-af82-06fbb91a4d76"},"geometry":{"type":"Polygon","coordinates":[[[139.799178182897,35.604704090406216],[139.79916549717336,35.6046874112198],[139.79920038234934,35.60466966385579],[139.7992130681157,35.60468625290026],[139.799178182897,35.604704090406216]]]}},{"type":"Feature","properties":{"height":3.2,"gml_id":"bldg_8e1346a6-5d1d-4b0f-80b4-11fab8f6c724"},"geometry":{"type":"Polygon","coordinates":[[[139.79459864950766,35.60096917487265],[139.7945730383307,35.60098160573441],[139.79455583253215,35.600957803666965],[139.7945813332936,35.6009454629117],[139.79459864950766,35.60096917487265]]]}},{"type":"Feature","properties":{"height":2.9,"gml_id":"bldg_50069c59-227b-46d7-933e-fa223bd922c6"},"geometry":{"type":"Polygon","coordinates":[[[139.79910024066217,35.60345393972579],[139.7991373326511,35.603436373279834],[139.79916534975615,35.60347640265162],[139.79912814746092,35.60349378879812],[139.79910024066217,35.60345393972579]]]}},{"type":"Feature","properties":{"height":5.0,"gml_id":"bldg_4068f931-edca-4fda-be88-288fbdc1a979"},"geometry":{"type":"Polygon","coordinates":[[[139.79754169034194,35.60247900119257],[139.7975979455867,35.60255338203251],[139.79758182805625,35.60256148970412],[139.79752557278061,35.602487198995114],[139.79754169034194,35.60247900119257]]]}},{"type":"Feature","properties":{"height":11.7,"gml_id":"bldg_2380ed01-f06f-4976-8e6b-f20a462f7e2b"},"geometry":{"type":"Polygon","coordinates":[[[139.78783953215077,35.606059178282514],[139.78780676099092,35.60604158893726],[139.78788485043327,35.60594444932465],[139.7879176216216,35.60596194851065],[139.78783953215077,35.606059178282514]]]}},{"type":"Feature","properties":{"height":14.4,"gml_id":"bldg_faed3712-ca90-4c1f-b04b-093b1d833753"},"geometry":{"type":"Polygon","coordinates":[[[139.79607180061777,35.60150974851892],[139.79582850539768,35.60136824593952],[139.79589884719283,35.60128759396492],[139.7961421422512,35.60142918654251],[139.79607180061777,35.60150974851892]]]}}]}