{"type":"FeatureCollection","crs":{"type":"name","properties":{"name":"urn:ogc:def:crs:OGC:1.3:CRS84"}},"features":[{"type":"Feature","properties":{"height":4.8,"gml_id":"bldg_7aa5bf16-9a15-4fb8-90d9-f68810901f96"},"geometry":{"type":"Polygon","coordinates":[[[139.8236243126466,35.633105652049245],[139.8236580981669,35.6331085391804],[139.82365257233974,35.63315216548199],[139.8236187868013,35.6331492783493],[139.8236243126466,35.633105652049245]]]}},{"type":"Feature","properties":{"height":8.1,"gml_id":"bldg_949bb4aa-4a32-4197-a721-41d1761f5338"},"geometry":{"type":"Polygon","coordinates":[[[139.8248331719789,35.6334302398599],[139.8247351272453,35.63342157966349],[139.82476242127606,35.63321246167757],[139.82486046578583,35.63322085143832],[139.8248331719789,35.6334302398599]]]}},{"type":"Feature","properties":{"height":10.5,"gml_id":"bldg_4aada271-5d95-40cb-9c8f-c23bc099a7a8"},"geometry":{"type":"Polygon","coordinates":[[[139.82497610126728,35.63288798023199],[139.82481887738874,35.63287444853595],[139.82484031476517,35.63270769491728],[139.82489121368263,35.63271202511465],[139.82488237350432,35.6327815208233],[139.824988587832,35.632790632156464],[139.82497610126728,35.63288798023199]]]}},{"type":"Feature","properties":{"height":15.1,"gml_id":"bldg_205a3177-0260-4354-9212-0b92c24b93c1"},"geometry":{"type":"Polygon","coordinates":[[[139.82455295026338,35.633399302461605],[139.82440698753047,35.63338504994614],[139.82443582666514,35.63318945283299],[139.8245817890476,35.6332037053139],[139.82455295026338,35.633399302461605]]]}},{"type":"Feature","properties":{"height":8.5,"gml_id":"bldg_7b9e8312-f1b4-4997-9a0a-b31090566fd7"},"geometry":{"type":"Polygon","coordinates":[[[139.82484723287936,35.633065002071056],[139.82479368388917,35.63306049139168],[139.8248166682123,35.63288346217057],[139.82497742523347,35.63289726452832],[139.8249640547854,35.633000020813924],[139.82485684649245,35.63299081925158],[139.82484723287936,35.633065002071056]]]}},{"type":"Feature","properties":{"height":43.1,"gml_id":"bldg_88218f2f-18fd-4ef6-919c-ca8e3c3f4726"},"geometry":{"type":"Polygon","coordinates":[[[139.82166011171117,35.63223141040982],[139.82337796195264,35.632400753489435],[139.82333066649707,35.63272037860935],[139.82348998736305,35.632736075729206],[139.82347694800842,35.6328246802278],[139.82348235807845,35.63282522149776],[139.82347550690017,35.632871641960044],[139.82346689495208,35.63287073987593],[139.82340092438236,35.63331691708201],[139.82341240705753,35.63331799968303],[139.82340445081033,35.63337145080266],[139.82151908797954,35.633185596578386],[139.82166011171117,35.63223141040982]]]}},{"type":"Feature","properties":{"height":7.9,"gml_id":"bldg_3bbe7c09-b747-4b2f-858f-1aec08a1d5e8"},"geometry":{"type":"Polygon","coordinates":[[[139.82478131807645,35.633058146928924],[139.8246207817557,35.63304281198141],[139.82464553267988,35.63286902788488],[139.82480606866747,35.63288427266191],[139.82478131807645,35.633058146928924]]]}},{"type":"Feature","properties":{"height":7.9,"gml_id":"bldg_fdf5753c-83d8-4962-9b1c-617266862539"},"geometry":{"type":"Polygon","coordinates":[[[139.82417341093273,35.63290649028074],[139.82407691270615,35.63289746911387],[139.82410442747806,35.63270241278994],[139.82418668946386,35.63265013907563],[139.82420921301244,35.63265221395563],[139.82417341093273,35.63290649028074]]]}},{"type":"Feature","properties":{"height":8.5,"gml_id":"bldg_058607c0-e825-43e2-92b8-96435e3554ab"},"geometry":{"type":"Polygon","coordinates":[[[139.8242437186434,35.63311967175341],[139.82402411285688,35.63309901340305],[139.824035715576,35.63301671839175],[139.82411366504206,35.63302411569098],[139.82411532253502,35.63301257816589],[139.82417924992396,35.63301871241822],[139.8241768189138,35.633035928573435],[139.82425454758902,35.633043325764696],[139.8242437186434,35.63311967175341]]]}},{"type":"Feature","properties":{"height":6.7,"gml_id":"bldg_d5f65823-61ca-4d81-80e7-dd73d71de1c7"},"geometry":{"type":"Polygon","coordinates":[[[139.82465226854077,35.63286172719992],[139.8246640920848,35.63277312248708],[139.82476710446076,35.632782233785065],[139.8247646735165,35.63280008091819],[139.82481623492524,35.63280468160803],[139.82480673207172,35.63287543919391],[139.82465226854077,35.63286172719992]]]}},{"type":"Feature","properties":{"height":9.1,"gml_id":"bldg_18ebf534-9f80-42dd-bce0-de02484fe9ef"},"geometry":{"type":"Polygon","coordinates":[[[139.82454108508057,35.63285793334434],[139.82463647927014,35.63286632309439],[139.82461338449585,35.633040107309014],[139.82452052955065,35.633031807864604],[139.8245256126698,35.63299349962638],[139.82450330982974,35.632991514959755],[139.82450761942275,35.63295915576716],[139.82452738282748,35.63296086983371],[139.82454108508057,35.63285793334434]]]}},{"type":"Feature","properties":{"height":6.7,"gml_id":"bldg_4fe3d2f0-cfbc-483f-a043-3bf64382865d"},"geometry":{"type":"Polygon","coordinates":[[[139.82454108508057,35.63285793334434],[139.82452738282748,35.63296086983371],[139.82450761942275,35.63295915576716],[139.82450330982974,35.632991514959755],[139.8245256126698,35.63299349962638],[139.82452052955065,35.633031807864604],[139.82449657049193,35.63303018362718],[139.8244320977689,35.63296311627843],[139.82444082949334,35.63287964922127],[139.82447052975988,35.63288235554723],[139.82447461831947,35.63285197937298],[139.82454108508057,35.63285793334434]]]}},{"type":"Feature","properties":{"height":7.9,"gml_id":"bldg_1dd9d335-1e29-4b73-b2b5-5a8cb7f233cf"},"geometry":{"type":"Polygon","coordinates":[[[139.82458438506785,35.632684691434875],[139.8245684721826,35.63281052280022],[139.82446115375726,35.63280150115327],[139.82447120986603,35.63272254108468],[139.82453812339625,35.63268072199815],[139.82458438506785,35.632684691434875]]]}},{"type":"Feature","properties":{"height":8.9,"gml_id":"bldg_45e6c12c-179a-49b2-b9ba-a83140a72728"},"geometry":{"type":"Polygon","coordinates":[[[139.82458438506785,35.632684691434875],[139.82465736702798,35.632690735953155],[139.82463603832915,35.63285983313317],[139.82445573883845,35.632844766950484],[139.82446115375726,35.63280150115327],[139.8245684721826,35.63281052280022],[139.82458438506785,35.632684691434875]]]}}]}