{"type":"FeatureCollection","crs":{"type":"name","properties":{"name":"urn:ogc:def:crs:OGC:1.3:CRS84"}},"features":[{"type":"Feature","properties":{"height":13.1,"gml_id":"bldg_4a6848c8-0d43-4a51-8e52-ef941ffcf120"},"geometry":{"type":"Polygon","coordinates":[[[139.7995789787145,35.64796602714743],[139.7995653462879,35.648054358248864],[139.79953377518018,35.64805110443711],[139.79954739549348,35.64796277333581],[139.7995789787145,35.64796602714743]]]}},{"type":"Feature","properties":{"height":3.9,"gml_id":"bldg_5cf90210-165e-4063-9286-b5238f584189"},"geometry":{"type":"Polygon","coordinates":[[[139.79193273258483,35.64868103829503],[139.79190491345327,35.64866182039332],[139.79193109903161,35.64863658183768],[139.79195890711745,35.648655799729646],[139.79193273258483,35.64868103829503]]]}},{"type":"Feature","properties":{"height":31.0,"gml_id":"bldg_e690af21-3276-41ef-be90-1bef65b1f25d"},"geometry":{"type":"Polygon","coordinates":[[[139.79922669905488,35.64861839755691],[139.79909349932123,35.64853102627977],[139.79909851512346,35.64852595295481],[139.79909248719207,35.64852200321143],[139.79912364266352,35.64849034670156],[139.79910691681417,35.64847939022298],[139.79913714421997,35.6484486979187],[139.79915548192415,35.64846072658743],[139.79917623011036,35.64843965017375],[139.79916806039938,35.648434275651475],[139.799186886224,35.64841514476284],[139.7991949896979,35.64842046518247],[139.79923650811233,35.648378293414865],[139.7995818783228,35.64860480660064],[139.79957553677428,35.64861125868039],[139.79958023990832,35.64861434270668],[139.79954361581983,35.64865153225272],[139.7995517414278,35.648656852654355],[139.7995117808126,35.64869742141705],[139.79950322463742,35.64869181154992],[139.79944343277,35.64875254842872],[139.79943921540055,35.64874978902943],[139.799432376668,35.648756745732484],[139.79922464411436,35.648620498083986],[139.79922669905488,35.64861839755691]]]}},{"type":"Feature","properties":{"height":4.0,"gml_id":"bldg_152ce852-1849-4841-9f64-4c1e9ee09a9f"},"geometry":{"type":"Polygon","coordinates":[[[139.79939138938119,35.644958268691724],[139.79941235863365,35.64496052804197],[139.79940843924976,35.64498476497148],[139.79941443520102,35.64498540663794],[139.79939953263303,35.64507764938387],[139.79937915963367,35.64507545329592],[139.79936271805036,35.64517716907626],[139.7993486943419,35.64517565982039],[139.7994006280713,35.64483738759471],[139.799410742765,35.64483848111023],[139.79939138938119,35.644958268691724]]]}},{"type":"Feature","properties":{"height":10.2,"gml_id":"bldg_f6a88cd1-eff7-41f0-836c-a6cea7c5c8de"},"geometry":{"type":"Polygon","coordinates":[[[139.79982598679987,35.644168576561384],[139.7998547454653,35.64397466223436],[139.79999254087642,35.643988004785015],[139.79995988332004,35.6442112669104],[139.79995181143607,35.64421054357177],[139.79994871056795,35.64423199459147],[139.79988719441403,35.64422593919887],[139.79988609799744,35.644233600601716],[139.79981709520527,35.64422686615976],[139.79981840202984,35.64421778965368],[139.79980358336368,35.64421638839466],[139.79981216196262,35.64416722064875],[139.79982598679987,35.644168576561384]]]}},{"type":"Feature","properties":{"height":3.6,"gml_id":"bldg_0e1e25ec-366a-4915-bbe9-69d118aadb5e"},"geometry":{"type":"Polygon","coordinates":[[[139.7903548014948,35.64930268779859],[139.79034969677363,35.64930770664423],[139.7903269005027,35.64929227595399],[139.79033190578582,35.64928734721145],[139.79032199244645,35.649280637430266],[139.79037950340015,35.64922407854856],[139.79042302051963,35.64925356005959],[139.7904054744325,35.649270833195494],[139.79041481372568,35.649277164187126],[139.79038484836963,35.64930662941975],[139.79037380901156,35.649299152169874],[139.79036393104641,35.649308864583894],[139.7903548014948,35.64930268779859]]]}},{"type":"Feature","properties":{"height":48.5,"gml_id":"bldg_4aea6be9-3151-4601-9cb3-f6d73ccc9a7f"},"geometry":{"type":"Polygon","coordinates":[[[139.79834670274045,35.645331490565326],[139.79831557434764,35.645328507876194],[139.79831689253265,35.64531913393696],[139.79823254004407,35.64531099699027],[139.79827474065465,35.64501914334847],[139.79837819604603,35.64502909757942],[139.7983496305336,35.64522684242793],[139.7988293209536,35.645273041169936],[139.79881668380204,35.64535978608742],[139.79834902900015,35.64531481666491],[139.79834670274045,35.645331490565326]]]}},{"type":"Feature","properties":{"height":3.1,"gml_id":"bldg_f725c5b9-f50f-461d-afd8-4de1b79ff07b"},"geometry":{"type":"Polygon","coordinates":[[[139.7894068619449,35.64879754788702],[139.78937584167974,35.64877676885267],[139.78941966320818,35.64873319426483],[139.78945068346832,35.64875397238666],[139.7894068619449,35.64879754788702]]]}},{"type":"Feature","properties":{"height":59.5,"gml_id":"bldg_8b9ff127-5221-445d-b867-ce183183f5ac"},"geometry":{"type":"Polygon","coordinates":[[[139.79331269097918,35.64896535723924],[139.79345115150053,35.648833162204745],[139.79344060880703,35.64882581159249],[139.79347980900857,35.64878838228628],[139.79383853763608,35.64903845218489],[139.79365778352627,35.64921100639203],[139.79366937503,35.64921912259893],[139.79348409021836,35.649396001655205],[139.79312232540093,35.64914349598528],[139.79331048308094,35.64896382416537],[139.79331269097918,35.64896535723924]]]}},{"type":"Feature","properties":{"height":8.6,"gml_id":"bldg_3823ff88-2c76-4522-8c92-3a0e8ee0bb66"},"geometry":{"type":"Polygon","coordinates":[[[139.7937973487418,35.64737435303778],[139.79379287397038,35.647379056755966],[139.7937868096591,35.647382407886816],[139.79378496524816,35.64738284174486],[139.79377550849406,35.6473906788151],[139.7937891001288,35.6473955867682],[139.79382984054706,35.64741308684762],[139.7938826025778,35.647439424344306],[139.79392830650525,35.64746900356404],[139.793965295638,35.647502277365874],[139.7940267194696,35.64756575435461],[139.79403224984847,35.64756353336407],[139.79402986879407,35.64756160003524],[139.7940265143172,35.64755622673476],[139.7940253687426,35.64755028628771],[139.79402653117523,35.647544355607636],[139.7940298908876,35.64753903858082],[139.79403507216625,35.64753483985549],[139.79404155577726,35.647532182909146],[139.79404869005788,35.64753131090078],[139.79405573509783,35.64753226865781],[139.79406202946782,35.6475349477994],[139.79406692950448,35.6475390416477],[139.79406715570533,35.64753941579282],[139.7940675255064,35.64753970886085],[139.79407080282903,35.64754478468069],[139.79407199269406,35.64755049078378],[139.79407095181398,35.647556268269845],[139.79406774672933,35.64756154027938],[139.7940626537868,35.647565757062424],[139.79405618117278,35.647568504151145],[139.79404894745232,35.64756947527898],[139.794047310962,35.64756927013268],[139.79403419188318,35.64757347257845],[139.7940398982461,35.6475794595822],[139.79367911905712,35.64782595803267],[139.79364157733474,35.64779349610311],[139.79362833155642,35.647803677294874],[139.79353867863185,35.647746139868815],[139.79354740857082,35.647734334716986],[139.7935049044146,35.64771025390917],[139.79373179677734,35.64737465599835],[139.79373885184657,35.64737763286135],[139.7937645115039,35.64738675421363],[139.79376854643556,35.647382712864],[139.79376544157284,35.64738178793279],[139.79375964578398,35.64737806334234],[139.79375555126336,35.647373059355516],[139.79375356636078,35.647367271863956],[139.79375387851493,35.64736129583808],[139.79375643222096,35.64735571715458],[139.79376095113,35.64735108556239],[139.79376697120986,35.647347851597274],[139.79377387390056,35.647346313411575],[139.7937809523839,35.64734659426169],[139.79378751097497,35.64734863442828],[139.79378788852603,35.64734888333225],[139.79378840637455,35.647349030426696],[139.79379396926893,35.647352520581364],[139.79379798660474,35.6473572901836],[139.79380000472835,35.64736289740995],[139.79379980305737,35.64736877432076],[139.7937973487418,35.64737435303778]]]}},{"type":"Feature","properties":{"height":35.0,"gml_id":"bldg_990c7c6d-798d-45e2-8ae1-4afd63377ced"},"geometry":{"type":"Polygon","coordinates":[[[139.79674945690024,35.6420172831772],[139.79678146323357,35.642053528275376],[139.79675814656395,35.64206722213781],[139.79677735034193,35.64208904130639],[139.79666182725666,35.64215678978941],[139.79623999771704,35.6416782093616],[139.79635565301794,35.64161037118048],[139.79640861736132,35.64167050932123],[139.79643280656614,35.64165627496621],[139.79648048458415,35.64171019194928],[139.79663115327506,35.64162172266166],[139.79640710043458,35.64136746566493],[139.79650859520765,35.64130782643039],[139.79653178296826,35.64133406270834],[139.79657034187093,35.641311449901146],[139.79683631206717,35.64161331204819],[139.7968074729065,35.64163024920756],[139.79701243433348,35.641862775590475],[139.79674945690024,35.6420172831772]]]}},{"type":"Feature","properties":{"height":11.5,"gml_id":"bldg_9ab045c8-1ece-4f25-825f-c64711ae8643"},"geometry":{"type":"Polygon","coordinates":[[[139.79563238583057,35.64202579926445],[139.7956569582306,35.64199556573279],[139.795755320658,35.64204887689202],[139.7957307482829,35.642079101429715],[139.79563238583057,35.64202579926445]]]}},{"type":"Feature","properties":{"height":48.9,"gml_id":"bldg_2eb1f1b0-4a1d-441b-99df-4584e163a123"},"geometry":{"type":"Polygon","coordinates":[[[139.8003381830322,35.64523130744233],[139.80028756486942,35.64522636213104],[139.80028841752176,35.64522063861986],[139.80026701743685,35.64521855056559],[139.8002659872997,35.64522621198883],[139.79993170201593,35.64519400368302],[139.79992465858075,35.64524256793214],[139.79980671516677,35.64523117780813],[139.79981371442204,35.64518280284276],[139.7996488853153,35.64516688360751],[139.79965013726678,35.64515707697378],[139.79962602078407,35.64515476270165],[139.79962520121356,35.64516048621745],[139.79958477519008,35.645156598975355],[139.79959709064767,35.64507126003244],[139.80035084082348,35.645144029654645],[139.8003381830322,35.64523130744233]]]}},{"type":"Feature","properties":{"height":6.7,"gml_id":"bldg_5fc84479-89e0-424d-94f8-2623909e899f"},"geometry":{"type":"Polygon","coordinates":[[[139.79891067648074,35.64248510421322],[139.79890724262043,35.642510071391015],[139.79872869368089,35.64249361515621],[139.7987322380591,35.64246855787745],[139.79891067648074,35.64248510421322]]]}},{"type":"Feature","properties":{"height":5.2,"gml_id":"bldg_5487b0a6-b61e-4f2b-b2cd-b5b8f00e707b"},"geometry":{"type":"Polygon","coordinates":[[[139.79788802976196,35.64250306141987],[139.7979655581046,35.6425042550985],[139.7979637487148,35.64257586901573],[139.79788645219412,35.64257467540415],[139.79788802976196,35.64250306141987]]]}},{"type":"Feature","properties":{"height":47.4,"gml_id":"bldg_9654d29a-08d5-4f8c-9e17-1fd48df9bcf9"},"geometry":{"type":"Polygon","coordinates":[[[139.79913735322327,35.643060247653466],[139.79914033081988,35.643069352411544],[139.79925502618374,35.643050690346435],[139.79939368825995,35.643647982202225],[139.79932559529382,35.64365836489167],[139.79925971249168,35.6436648271761],[139.79923690403967,35.64357383568509],[139.79917558179358,35.64358050743268],[139.7990966267096,35.64358210659454],[139.7990396266332,35.64357815136016],[139.7990308384378,35.64367753473177],[139.79896272982688,35.64367271097467],[139.79896251836945,35.643676559795885],[139.7988932842901,35.64366970757917],[139.79889338433094,35.64366817526618],[139.79894466945305,35.643067602119935],[139.7989450021571,35.64306426711815],[139.79905795248422,35.6430723044455],[139.7990581671039,35.64306103638643],[139.79913735322327,35.643060247653466]]]}},{"type":"Feature","properties":{"height":29.1,"gml_id":"bldg_cd07aba9-6c19-4fb9-907a-f10b3874a40b"},"geometry":{"type":"Polygon","coordinates":[[[139.80003117876902,35.64454750037914],[139.79997791649004,35.64492741615381],[139.79971090183707,35.6449028235528],[139.79976351388186,35.644522817576004],[139.80003117876902,35.64454750037914]]]}},{"type":"Feature","properties":{"height":22.4,"gml_id":"bldg_3950e49f-21fa-473d-a4ef-6aee96e9297c"},"geometry":{"type":"Polygon","coordinates":[[[139.79947260883773,35.641739103074805],[139.79933370131403,35.64172761554821],[139.79933703640182,35.641700819431726],[139.79942882797675,35.64170837180745],[139.79943058970147,35.64169417560443],[139.7994776503925,35.64169809180633],[139.79947260883773,35.641739103074805]]]}},{"type":"Feature","properties":{"height":44.9,"gml_id":"bldg_0e450a46-12e3-443e-a679-51052823dfd5"},"geometry":{"type":"Polygon","coordinates":[[[139.79263600078832,35.64800741778005],[139.79333303249436,35.64847852957477],[139.79275628754962,35.649046925930406],[139.79205925429935,35.6485758099401],[139.79263600078832,35.64800741778005]]]}},{"type":"Feature","properties":{"height":29.6,"gml_id":"bldg_411db617-759d-4744-800c-06a48a9987cf"},"geometry":{"type":"Polygon","coordinates":[[[139.80026182214166,35.64903607859821],[139.8003220359134,35.64907623341706],[139.80030318824356,35.64909505800701],[139.80032248669878,35.64910791692818],[139.8000903589563,35.64934022796604],[139.79985796065185,35.649185487378226],[139.79987741606038,35.64916611318734],[139.79982740361447,35.64913283758722],[139.79980851160013,35.64915176214001],[139.79965438964112,35.64904914158394],[139.79967150293567,35.649032021113854],[139.79959333808094,35.64897998981222],[139.7998089054451,35.64876417030283],[139.7998848290795,35.64881466940513],[139.79990473739215,35.64879475360703],[139.79998233917283,35.64884651413929],[139.7999624309007,35.64886634792477],[139.80016494237617,35.649001330930744],[139.8001840552487,35.6489821368707],[139.80026310369465,35.649034798995295],[139.80026182214166,35.64903607859821]]]}},{"type":"Feature","properties":{"height":9.4,"gml_id":"bldg_1067ef93-f8ee-4fd2-a6eb-906621d0379d"},"geometry":{"type":"Polygon","coordinates":[[[139.79993683703415,35.64304424717677],[139.7998732343088,35.64303927194918],[139.79987809947454,35.64299726910854],[139.79994171320942,35.643002244336635],[139.79993683703415,35.64304424717677]]]}},{"type":"Feature","properties":{"height":5.3,"gml_id":"bldg_262b5de0-8c53-4fab-9080-481142ccb851"},"geometry":{"type":"Polygon","coordinates":[[[139.7981575504947,35.648858163614],[139.7981270572281,35.648889522611185],[139.79810530813452,35.648875364638805],[139.79813580140424,35.64884400564706],[139.7981575504947,35.648858163614]]]}},{"type":"Feature","properties":{"height":6.1,"gml_id":"bldg_fc3a92ea-8b67-4b44-861f-1b48054e40a6"},"geometry":{"type":"Polygon","coordinates":[[[139.78817829159334,35.64411458359203],[139.78804195690148,35.64404016967819],[139.78809113051548,35.64398006629092],[139.7882274872357,35.644054481059456],[139.78817829159334,35.64411458359203]]]}},{"type":"Feature","properties":{"height":20.5,"gml_id":"bldg_7881a984-a499-491f-a05b-8acccad11e95"},"geometry":{"type":"Polygon","coordinates":[[[139.78894276808845,35.64532316481997],[139.78901429877126,35.645371595112515],[139.789066780643,35.64531996640391],[139.78921922517137,35.64542313897433],[139.78918464243603,35.64545710822056],[139.78921246005805,35.64547586705735],[139.78924693231193,35.64544198790051],[139.78940246816396,35.64554723543722],[139.7893471136371,35.645601748549204],[139.78955475297116,35.645742348884085],[139.78889513419603,35.64639136919457],[139.78887493312382,35.646377750947586],[139.7888466477664,35.64640550291441],[139.786376322192,35.64473260082845],[139.7864036134404,35.644705750423995],[139.78616971116125,35.644547287085715],[139.78683066268425,35.64389692995248],[139.7877880208802,35.644545295890495],[139.7878408344851,35.644493306382216],[139.7881724307872,35.644717874096855],[139.78811751796144,35.64477193612819],[139.78819500850443,35.64482433520818],[139.78824992131393,35.64477027314199],[139.7884037324979,35.644874430667265],[139.78836929349296,35.64490789496485],[139.7883942848887,35.64492468793485],[139.78842814963764,35.64489127659737],[139.78858137628424,35.6449949568474],[139.7885284415188,35.645046658190346],[139.78860477358083,35.64509820026529],[139.78865890189397,35.64504480474286],[139.7888136635597,35.645149421795146],[139.78877974363866,35.64518285034534],[139.78880469094526,35.64519980455968],[139.7888391633019,35.645165836281706],[139.78899524997496,35.645271535240745],[139.78894276808845,35.64532316481997]]]}},{"type":"Feature","properties":{"height":7.6,"gml_id":"bldg_490a4aec-733e-4180-b7df-4e548634bbce"},"geometry":{"type":"Polygon","coordinates":[[[139.79994740142618,35.6476708387965],[139.79989869267123,35.64763828558211],[139.79996554239193,35.647571602235544],[139.80012729048207,35.64767963188027],[139.80005965640592,35.647747126337876],[139.80000633279886,35.647711507211305],[139.7999636995881,35.647754131431455],[139.79990397279954,35.64771418297537],[139.79994740142618,35.6476708387965]]]}},{"type":"Feature","properties":{"height":11.1,"gml_id":"bldg_11ca706c-7f16-45fe-a066-2f1a68dbccf3"},"geometry":{"type":"Polygon","coordinates":[[[139.79923662784137,35.643574151089005],[139.7992593591175,35.64366485411747],[139.7992190628206,35.64366933157094],[139.79919866168262,35.64357836779587],[139.79923662784137,35.643574151089005]]]}},{"type":"Feature","properties":{"height":4.4,"gml_id":"bldg_5880a280-98b0-453c-8a04-667aaeb6e9b1"},"geometry":{"type":"Polygon","coordinates":[[[139.79815591591338,35.64351786477977],[139.7981121761668,35.643543360978995],[139.79807409839748,35.64349990344649],[139.79808205106065,35.64349530874927],[139.79779553099394,35.64316820481363],[139.79783131799437,35.643147303409194],[139.79815591591338,35.64351786477977]]]}},{"type":"Feature","properties":{"height":50.4,"gml_id":"bldg_62d8a777-df3e-48d3-ab34-64e455051922"},"geometry":{"type":"Polygon","coordinates":[[[139.7983506990993,35.64733534385758],[139.79838279319773,35.647303381337515],[139.7992157582418,35.647857966911744],[139.79918265886454,35.647891011017926],[139.7992155692281,35.64791292380043],[139.79883662548886,35.648292115197656],[139.79880252275504,35.64826939073208],[139.79876892584826,35.64830300244692],[139.79793572745186,35.64774823257784],[139.79797066125113,35.64771335955736],[139.7979351017116,35.64768973394098],[139.79831382588176,35.64731081569173],[139.7983506990993,35.64733534385758]]]}},{"type":"Feature","properties":{"height":3.0,"gml_id":"bldg_ab0785c1-90f9-4eac-a2c9-a74f660b146d"},"geometry":{"type":"Polygon","coordinates":[[[139.79934416591271,35.64885391631505],[139.79930564676278,35.64882816212204],[139.7993699348008,35.64876413655562],[139.79940844289703,35.6487898916266],[139.79934416591271,35.64885391631505]]]}},{"type":"Feature","properties":{"height":16.9,"gml_id":"bldg_4706d3ff-18f1-4cae-8e69-bdb7104b5366"},"geometry":{"type":"Polygon","coordinates":[[[139.78914130359857,35.647356383733076],[139.78915499081532,35.64736567293547],[139.78895951045882,35.64757721730918],[139.7882546864348,35.64709952331765],[139.78850267205146,35.64685745196248],[139.78875265765225,35.64702795906254],[139.78880480913583,35.6469769604229],[139.7892316835226,35.64726808193051],[139.78914130359857,35.647356383733076]]]}},{"type":"Feature","properties":{"height":6.5,"gml_id":"bldg_3a874c66-37d9-43bd-998c-54e13a574fd1"},"geometry":{"type":"Polygon","coordinates":[[[139.79536999613774,35.642331708415725],[139.79541031281195,35.642283135961435],[139.79588876655023,35.642548201421036],[139.79584845007506,35.6425966820929],[139.79536999613774,35.642331708415725]]]}},{"type":"Feature","properties":{"height":5.4,"gml_id":"bldg_0139672f-aa3f-45e8-babb-ff11624b55f0"},"geometry":{"type":"Polygon","coordinates":[[[139.79909694677886,35.64358249427781],[139.79917589082103,35.64358089421123],[139.79917719816848,35.643622628356596],[139.7990982430427,35.643624228420855],[139.79909694677886,35.64358249427781]]]}},{"type":"Feature","properties":{"height":4.5,"gml_id":"bldg_140ea185-f8c3-4e2f-8231-0ef4db91f65e"},"geometry":{"type":"Polygon","coordinates":[[[139.79825857525037,35.64362669097239],[139.7985826120326,35.644001577612535],[139.79854437288574,35.644023623278194],[139.79822034722406,35.64364876358115],[139.79825857525037,35.64362669097239]]]}},{"type":"Feature","properties":{"height":4.3,"gml_id":"bldg_b604471c-e916-4e3b-a106-39da619be7ad"},"geometry":{"type":"Polygon","coordinates":[[[139.79800823887004,35.643604083380055],[139.79798040443293,35.643620300007235],[139.7976566898321,35.64325082008471],[139.7976845352889,35.64323451339686],[139.79800823887004,35.643604083380055]]]}},{"type":"Feature","properties":{"height":32.7,"gml_id":"bldg_f9db098a-84bc-4af5-9b39-f3e48a9224f4"},"geometry":{"type":"Polygon","coordinates":[[[139.79185725759586,35.64475985142301],[139.79195252984908,35.64481135283107],[139.7918800433297,35.644900654387676],[139.7917894077106,35.64485158824079],[139.79178477106382,35.644849062785305],[139.79185725759586,35.64475985142301]]]}},{"type":"Feature","properties":{"height":5.1,"gml_id":"bldg_28879e5f-878f-482c-b606-b39bd90a8a4c"},"geometry":{"type":"Polygon","coordinates":[[[139.79929524078614,35.64261320911562],[139.7992744234833,35.64272272060496],[139.79913097825738,35.64270555378562],[139.7991463835368,35.64259937588189],[139.79927060613701,35.64261076843227],[139.79929524078614,35.64261320911562]]]}},{"type":"Feature","properties":{"height":42.5,"gml_id":"bldg_f9c4149a-2758-48db-b353-5c5bde8385bd"},"geometry":{"type":"Polygon","coordinates":[[[139.79376129422837,35.64846920658694],[139.7937462644301,35.64846908537035],[139.79374665625141,35.648435941878745],[139.79371702735025,35.64843570679272],[139.79371770735517,35.64837807299126],[139.79374502820846,35.64837828929097],[139.7937483470289,35.648097799977535],[139.7937776445096,35.64809803494698],[139.79377331039768,35.64846693996642],[139.79377320980865,35.64846937365041],[139.79389193527754,35.64847033199174],[139.79389313625597,35.648498365199515],[139.79380839249475,35.648583697789846],[139.79375991316056,35.648582510081425],[139.79376129422837,35.64846920658694]]]}},{"type":"Feature","properties":{"height":3.1,"gml_id":"bldg_6234ceed-d8d3-47f8-a905-499de5a965e6"},"geometry":{"type":"Polygon","coordinates":[[[139.79810753312935,35.64908971264779],[139.7980679812496,35.64912782930351],[139.79802315887275,35.64909698909188],[139.7980627107982,35.64905878231305],[139.79810753312935,35.64908971264779]]]}},{"type":"Feature","properties":{"height":3.6,"gml_id":"bldg_d7e96e38-a3ab-4ca2-9e0f-17f09248f354"},"geometry":{"type":"Polygon","coordinates":[[[139.79824563455185,35.64895301412771],[139.79820210618502,35.64899347324906],[139.79816070670537,35.64896389601357],[139.79820423507704,35.648923436906976],[139.79824563455185,35.64895301412771]]]}},{"type":"Feature","properties":{"height":3.3,"gml_id":"bldg_2a1d6cd5-cddb-42db-b885-7ada74539f9a"},"geometry":{"type":"Polygon","coordinates":[[[139.79929723167598,35.64442823229374],[139.79936016144228,35.64443419914985],[139.79934889753673,35.644513282815865],[139.7992859566704,35.64450730693703],[139.79929723167598,35.64442823229374]]]}},{"type":"Feature","properties":{"height":24.7,"gml_id":"bldg_09bc1c97-4111-49bb-908e-c540d134cec0"},"geometry":{"type":"Polygon","coordinates":[[[139.79984550678856,35.643832746811675],[139.79976656597998,35.64382605464591],[139.79979970243056,35.64356754883468],[139.7998529322586,35.64352997620323],[139.80011971124065,35.64355276477261],[139.8001089653587,35.64363631859499],[139.80005044177696,35.64363125562586],[139.80002285686422,35.64384541527163],[139.80002218326507,35.64384541508534],[139.79988412242878,35.64383361384998],[139.7998823499236,35.64384726021141],[139.79984412197922,35.64384349084514],[139.79984550678856,35.643832746811675]]]}},{"type":"Feature","properties":{"height":3.6,"gml_id":"bldg_4f165bb6-9dea-4a4f-98ed-b2b3a8a4d9bd"},"geometry":{"type":"Polygon","coordinates":[[[139.79230687787418,35.648077974058204],[139.7923329418197,35.648095649917245],[139.79232077718325,35.64810754394844],[139.79232718002507,35.64811187273678],[139.79231016502575,35.64812845227438],[139.7922778197104,35.648106447661284],[139.79230687787418,35.648077974058204]]]}},{"type":"Feature","properties":{"height":8.9,"gml_id":"bldg_de572369-08c1-4e0a-a7ab-d693ae8d1bbe"},"geometry":{"type":"Polygon","coordinates":[[[139.79496877012596,35.64221692515926],[139.79462909489686,35.64203455793643],[139.79467428515028,35.64197850675895],[139.79501396020206,35.6421609639937],[139.79496877012596,35.64221692515926]]]}},{"type":"Feature","properties":{"height":3.1,"gml_id":"bldg_aec95f90-d552-4e4d-adeb-633a502b858d"},"geometry":{"type":"Polygon","coordinates":[[[139.7990130690951,35.64267469313517],[139.79897077879735,35.642669362950436],[139.79897508403351,35.6426466485626],[139.79901737431922,35.64265197964721],[139.7990130690951,35.64267469313517]]]}},{"type":"Feature","properties":{"height":9.6,"gml_id":"bldg_701b6f44-b109-4b39-aedc-a20a6042e768"},"geometry":{"type":"Polygon","coordinates":[[[139.79941036052918,35.644567157434324],[139.7994123425839,35.64455435843517],[139.79946281662674,35.644559509588206],[139.7994519537061,35.644630626101325],[139.79941275373753,35.64462664900836],[139.79939281072504,35.64475688339058],[139.7992860541556,35.6447460457479],[139.79928417165175,35.64475839408409],[139.79924364657768,35.64475423628611],[139.7992728587173,35.64456243056714],[139.79939212589213,35.644574543591084],[139.7993934548673,35.644565440055075],[139.79941036052918,35.644567157434324]]]}},{"type":"Feature","properties":{"height":6.3,"gml_id":"bldg_314fc394-6632-4541-b912-9319b30f0a3d"},"geometry":{"type":"Polygon","coordinates":[[[139.79895665361133,35.64857720088181],[139.7989624055474,35.648580943236574],[139.7989508492259,35.648592775013924],[139.79894430240256,35.64858850061943],[139.79894043555728,35.648592474586444],[139.79886456745933,35.64854310342669],[139.79890746726414,35.648499190709],[139.7989841302411,35.64854907675487],[139.79895665361133,35.64857720088181]]]}},{"type":"Feature","properties":{"height":3.2,"gml_id":"bldg_c2b13cef-5692-4144-bb15-48c42ff91e4d"},"geometry":{"type":"Polygon","coordinates":[[[139.78832812477415,35.64928151334744],[139.78838342028922,35.64931840029675],[139.78834485738147,35.64935687467624],[139.78836208960908,35.64936841873116],[139.78831247712426,35.64941788576719],[139.78829502407683,35.64940625058369],[139.78820553356366,35.64949554439952],[139.78815054707084,35.64945892789849],[139.78832812477415,35.64928151334744]]]}},{"type":"Feature","properties":{"height":7.0,"gml_id":"bldg_4b82f3ca-6957-4785-9559-a23893d320e9"},"geometry":{"type":"Polygon","coordinates":[[[139.78996661455736,35.64973504712698],[139.78993558820525,35.64976542135231],[139.78992428389557,35.64975773755111],[139.78991281474185,35.649768973581466],[139.78984558507506,35.649723232412704],[139.7899251177332,35.649645354232725],[139.78999133176558,35.649690392819906],[139.78998426023227,35.64969733087381],[139.78999659119694,35.64970571811253],[139.78996661455736,35.64973504712698]]]}},{"type":"Feature","properties":{"height":26.2,"gml_id":"bldg_342a2770-9f83-4d13-a6a0-f50a0d329906"},"geometry":{"type":"Polygon","coordinates":[[[139.7994011630116,35.64827316637847],[139.79929472356386,35.64820661474238],[139.7993420319286,35.648156241143305],[139.79944843825723,35.648222702591156],[139.7994011630116,35.64827316637847]]]}},{"type":"Feature","properties":{"height":28.1,"gml_id":"bldg_ecbbb177-9b09-49b8-8186-f65e82bd06c6"},"geometry":{"type":"Polygon","coordinates":[[[139.7922133028196,35.64944749379123],[139.79215385881798,35.64950714460739],[139.7921453583249,35.64950146302872],[139.79207022445448,35.64957697266297],[139.79207982887286,35.64958346586382],[139.79202336796862,35.64964005295581],[139.79199477623015,35.649619310585145],[139.79193942144127,35.649672293412486],[139.79192860243472,35.64966543923238],[139.79184330019785,35.64975653903989],[139.79135168635275,35.649259169402406],[139.79138129799577,35.6492296145694],[139.7912187967685,35.64912121239586],[139.79146077193207,35.648879547562174],[139.7914839548244,35.648894969159464],[139.79150041794497,35.648878479686786],[139.79152415282186,35.6488942620187],[139.79150503794713,35.64891336456582],[139.79157822963825,35.64896224457351],[139.79160883554835,35.64893160837582],[139.79182708644254,35.649077256104185],[139.79182355071248,35.64908086039198],[139.7922408460249,35.64935925842939],[139.79222747667094,35.649372684377674],[139.79223774354128,35.6493794482052],[139.79218724932062,35.64943017756294],[139.7922133028196,35.64944749379123]]]}},{"type":"Feature","properties":{"height":103.2,"gml_id":"bldg_9d5e4522-f955-49a8-adca-c855ab49120a"},"geometry":{"type":"Polygon","coordinates":[[[139.794267175294,35.64848983388419],[139.7940766799884,35.648488320729776],[139.79407657605267,35.64849761388938],[139.7939198618912,35.648496390919355],[139.79392021698263,35.64847043138739],[139.79377333131987,35.64846930158017],[139.7937789741057,35.647999469837416],[139.79444377106628,35.64800477008855],[139.79443985849267,35.648330526372405],[139.79448491467818,35.648330900562684],[139.79448457212206,35.648354156872315],[139.7944487921923,35.648353874913326],[139.79444856219868,35.64837271361195],[139.7944571758749,35.64837280743158],[139.7944556803813,35.64849638479055],[139.79426690779812,35.64849488240817],[139.794267175294,35.64848983388419]]]}},{"type":"Feature","properties":{"height":45.4,"gml_id":"bldg_a3f7e82e-cb2a-429d-a830-a6afc24de2bb"},"geometry":{"type":"Polygon","coordinates":[[[139.79802760736922,35.64249999175817],[139.79796555832306,35.6425037593409],[139.79788383390002,35.642502473388284],[139.79782774325156,35.64249146006107],[139.79780663033708,35.64259079465853],[139.79773569896892,35.64257895755832],[139.79773483630015,35.64258202108572],[139.7976657153851,35.642571364382576],[139.79780169185517,35.641972889832665],[139.7979121077674,35.64199013866618],[139.79791521424855,35.6419820271807],[139.79799492696563,35.64198664761915],[139.7979949247039,35.64199178456978],[139.7981127493856,35.64198551033715],[139.7981725542313,35.642591704255786],[139.79810542544183,35.64259583097859],[139.79804102390952,35.642600454220776],[139.79802760736922,35.64249999175817]]]}},{"type":"Feature","properties":{"height":7.7,"gml_id":"bldg_c622259c-26a2-44f7-a8a6-3604ba7f6799"},"geometry":{"type":"Polygon","coordinates":[[[139.798169313678,35.649861426196125],[139.7981402229322,35.64984156037548],[139.79825214079904,35.64973207578209],[139.79835548755432,35.64980250334375],[139.79824632073002,35.64990928470394],[139.79821854372673,35.64989031164777],[139.79821388184433,35.64989385269806],[139.79820930878256,35.6498963121223],[139.7982029032156,35.64989715754799],[139.79819521765532,35.64989561395225],[139.7981845293297,35.64989167181833],[139.7981766796945,35.649886531681396],[139.79817061951226,35.649880445621086],[139.79816772803528,35.649876100142265],[139.79816593063725,35.64986997927118],[139.79816661726616,35.64986556272691],[139.798169313678,35.649861426196125]]]}},{"type":"Feature","properties":{"height":5.0,"gml_id":"bldg_4d599b00-c29f-49b2-b34b-ff2299acde09"},"geometry":{"type":"Polygon","coordinates":[[[139.79885335385828,35.64405627888685],[139.7987689921819,35.644046790245824],[139.79878215517175,35.64396945584489],[139.79886641734606,35.64397903458605],[139.79885335385828,35.64405627888685]]]}},{"type":"Feature","properties":{"height":3.7,"gml_id":"bldg_deeb7498-ac99-494b-8b77-0c93c664a2bb"},"geometry":{"type":"Polygon","coordinates":[[[139.79861795367847,35.644474539584536],[139.7985743666872,35.64442693519457],[139.79864538991546,35.64438359942114],[139.79868897696386,35.64443111454941],[139.79861795367847,35.644474539584536]]]}},{"type":"Feature","properties":{"height":3.7,"gml_id":"bldg_c9acbd2f-4fb2-4faa-88f0-e30b41d8ddea"},"geometry":{"type":"Polygon","coordinates":[[[139.78922531578527,35.64981203490862],[139.78907264294435,35.6497072389554],[139.7891557337856,35.64962668640426],[139.789308406582,35.64973148225353],[139.78922531578527,35.64981203490862]]]}},{"type":"Feature","properties":{"height":149.8,"gml_id":"bldg_bc077280-ed72-4698-b628-e7e351762bf9"},"geometry":{"type":"Polygon","coordinates":[[[139.79311048556525,35.64756002557397],[139.79312296426295,35.647582121584755],[139.793075787502,35.64760520000075],[139.79305884727964,35.647583326936235],[139.7930628917235,35.647600030800696],[139.79306481559243,35.647639330571],[139.79305987158156,35.647654734348755],[139.7929841541133,35.64764418994],[139.79298229473,35.64760849479591],[139.79298152452142,35.64760290600171],[139.79297777529854,35.64759208822396],[139.7929712649335,35.64758199062226],[139.7929657465918,35.6475755889976],[139.79295261149161,35.647563235732356],[139.7929368255934,35.64755178295345],[139.7929256749491,35.647546010401506],[139.79291805683252,35.647542762888996],[139.7929019364707,35.647537619630924],[139.79288261310768,35.647533466809556],[139.792872895666,35.64753247203112],[139.79285898102242,35.64753309831984],[139.7928169031572,35.647540205049495],[139.7927637152425,35.647461253578186],[139.79246968595865,35.64758254259675],[139.79242342161822,35.64757008789183],[139.7923395626513,35.64743548382117],[139.79235084848168,35.647392672262484],[139.79268320510403,35.64725487423381],[139.79268331567178,35.64725460385807],[139.79268409051357,35.647250998612165],[139.79268497578607,35.64724739340352],[139.79268696719228,35.64724018306072],[139.79268940027546,35.647233063004634],[139.7926907272248,35.64722954808266],[139.7926936019394,35.64722260754948],[139.79269514974936,35.64721909360335],[139.7926968079447,35.64721566893075],[139.79269857657067,35.64721224429538],[139.7927003451508,35.64720890979766],[139.7927023345922,35.64720557537439],[139.79270421360272,35.64720224091386],[139.79270841325481,35.64719575241704],[139.79271062351128,35.64719250820581],[139.79271526479383,35.64718620013305],[139.79271769581985,35.647183136271494],[139.79272023727637,35.647180072447135],[139.79272288916337,35.647177008659966],[139.79272819284554,35.647171061360766],[139.792731065502,35.64716817792322],[139.79273681072314,35.647162591323216],[139.79273979376407,35.647159798060315],[139.7927428871898,35.64715709497226],[139.79274598056975,35.64715448202177],[139.7927491843801,35.64715186910842],[139.79275249862093,35.64714925623218],[139.79275912691955,35.64714439103013],[139.79276255149964,35.64714195756479],[139.79276608646367,35.64713961607695],[139.79276962138235,35.647137363825316],[139.79279550607586,35.64683180577313],[139.79281948053065,35.64680982024285],[139.79304055546376,35.646822333403115],[139.7930597580552,35.64684676713984],[139.79303387381975,35.64715340690079],[139.79303707540282,35.647155210725685],[139.79304347838837,35.647159178925904],[139.79304656945072,35.64716116298895],[139.79304955003738,35.64716323715267],[139.79305551112057,35.647167565755204],[139.79305838118654,35.647169820157096],[139.7930666599577,35.64717685366464],[139.7930691986419,35.64717928823085],[139.7930742759202,35.64718433763849],[139.7930767040837,35.647186952442986],[139.79307902181665,35.64718956721053],[139.79308343633127,35.647194976947],[139.7930855331581,35.64719768177827],[139.79308762993986,35.64720047674717],[139.7930896162911,35.64720327167915],[139.79309149216652,35.647206156711874],[139.7930950230564,35.64721192670343],[139.79309667802562,35.64721490179995],[139.79309976710297,35.647220851919116],[139.79310373799984,35.647230047289455],[139.79310594349633,35.64723626842776],[139.793106935792,35.64723942267679],[139.7931078176566,35.647242577790315],[139.7931093604792,35.647248978081244],[139.79311002148245,35.64725213312097],[139.79311057200977,35.647255378261484],[139.79311101210638,35.64725862336514],[139.79311167148327,35.64726502336099],[139.7934275272711,35.64743945470463],[139.7934355739019,35.64746929294328],[139.79329557487608,35.64763532516427],[139.79326550171174,35.647640767591994],[139.79311048556525,35.64756002557397]]]}},{"type":"Feature","properties":{"height":4.9,"gml_id":"bldg_3ebdfeb2-9ba9-4d14-ac78-962d164c4daf"},"geometry":{"type":"Polygon","coordinates":[[[139.79671798009682,35.643216646596684],[139.79689077993126,35.64300793997491],[139.79690644566665,35.643040123890344],[139.796746915274,35.64323260977026],[139.79671798009682,35.643216646596684]]]}},{"type":"Feature","properties":{"height":22.7,"gml_id":"bldg_c990a4d8-aabc-408c-ac60-42b9249cdc15"},"geometry":{"type":"Polygon","coordinates":[[[139.79235593743581,35.64326571875847],[139.7920517992856,35.64310327682654],[139.79214450530546,35.64298757169468],[139.79211083497066,35.64296953262649],[139.79229305287373,35.64274226744131],[139.79233293051573,35.64269252498199],[139.7926696342031,35.64287228366134],[139.79263725923244,35.64291274457749],[139.79265779267135,35.64292374831873],[139.7925374637199,35.643073877114475],[139.79251803418825,35.643063504691284],[139.79235593743581,35.64326571875847]]]}},{"type":"Feature","properties":{"height":5.4,"gml_id":"bldg_3a2f9435-b56f-4f1a-8120-70afd3c87058"},"geometry":{"type":"Polygon","coordinates":[[[139.79853689510412,35.64402804688101],[139.79857638580964,35.64407386627992],[139.79848814408527,35.644124677565586],[139.79844864235824,35.6440788680501],[139.79853689510412,35.64402804688101]]]}},{"type":"Feature","properties":{"height":4.0,"gml_id":"bldg_c256ee3d-f21b-4a5e-9158-b972270ba917"},"geometry":{"type":"Polygon","coordinates":[[[139.7989394881815,35.644567564725605],[139.79885218361895,35.64446685592197],[139.7988608984729,35.64446181070362],[139.79894876637348,35.64456215911094],[139.7989394881815,35.644567564725605]]]}},{"type":"Feature","properties":{"height":8.9,"gml_id":"bldg_0a3ef776-81cc-48f4-b416-83a2f4cdb31c"},"geometry":{"type":"Polygon","coordinates":[[[139.79976798820996,35.64200959905154],[139.79974330070925,35.64218662273989],[139.7993912723721,35.642153894186876],[139.7994159827238,35.64197687057638],[139.79976798820996,35.64200959905154]]]}},{"type":"Feature","properties":{"height":7.3,"gml_id":"bldg_5999a6f0-6169-4d5e-874f-ff72f16a43d7"},"geometry":{"type":"Polygon","coordinates":[[[139.79634313240913,35.64266164406912],[139.79625452431512,35.642764824554504],[139.7962442464926,35.64275896243624],[139.7961521136942,35.64286628809577],[139.79599632377656,35.64277709366809],[139.7961771973505,35.64256667794003],[139.79634313240913,35.64266164406912]]]}},{"type":"Feature","properties":{"height":6.2,"gml_id":"bldg_e09d1085-1285-496a-8b2a-0d3ec6657838"},"geometry":{"type":"Polygon","coordinates":[[[139.79894289169525,35.64306740330932],[139.79893379142197,35.64317337566261],[139.79888353840053,35.643169936066016],[139.79889342275735,35.64306396394066],[139.79894289169525,35.64306740330932]]]}},{"type":"Feature","properties":{"height":3.9,"gml_id":"bldg_65474c7d-d50d-4725-b759-4ac46e78e321"},"geometry":{"type":"Polygon","coordinates":[[[139.7890580461748,35.649562382389824],[139.7889814624587,35.64963825011309],[139.7889774845908,35.64964230484237],[139.78882537420958,35.6495400326343],[139.78881354023625,35.64955174615507],[139.7887822990954,35.64953073343224],[139.78887688250055,35.64943693418555],[139.7890602450536,35.64956012975688],[139.7890580461748,35.649562382389824]]]}},{"type":"Feature","properties":{"height":46.7,"gml_id":"bldg_59276f7b-b9d5-4f1a-b470-c2833cb8774e"},"geometry":{"type":"Polygon","coordinates":[[[139.7980736898742,35.64349978614783],[139.79811142533157,35.643543225552826],[139.79800788572942,35.643603579406516],[139.79768379597627,35.643233305332224],[139.7977949787644,35.643168439008846],[139.79808127813286,35.643495191343995],[139.7980736898742,35.64349978614783]]]}},{"type":"Feature","properties":{"height":14.3,"gml_id":"bldg_2168c01a-c8de-4adf-a8a6-28cc0eb55be7"},"geometry":{"type":"Polygon","coordinates":[[[139.79949467102384,35.644411423154054],[139.79948217189383,35.64448713533478],[139.79937912621128,35.644475839114634],[139.79939164752207,35.64440012695074],[139.79949467102384,35.644411423154054]]]}},{"type":"Feature","properties":{"height":15.9,"gml_id":"bldg_4c0b2c8e-6a7b-446e-ad66-6447e0b27e45"},"geometry":{"type":"Polygon","coordinates":[[[139.79927359689063,35.64258886580297],[139.79927056207435,35.64261051603408],[139.7991716256585,35.64260147423948],[139.79917488200198,35.64257829173177],[139.7990941649589,35.64257087841988],[139.79909371092364,35.642573915031875],[139.79908751903824,35.64261882891604],[139.79892089514996,35.64260354814702],[139.79891102587465,35.6426745738792],[139.79878227597936,35.64266281910854],[139.798804585096,35.64250097414859],[139.7989077945793,35.642510450127354],[139.7989159581025,35.64245155644855],[139.79966608488078,35.64252038131156],[139.79963527114504,35.64274355378097],[139.79950807798062,35.64273189035946],[139.7995184898273,35.64265608743014],[139.79934725019058,35.64264044540406],[139.79935330914486,35.64259618857341],[139.79927359689063,35.64258886580297]]]}},{"type":"Feature","properties":{"height":21.7,"gml_id":"bldg_c7831c98-f009-48f1-8c17-9487fee8710e"},"geometry":{"type":"Polygon","coordinates":[[[139.7995293758171,35.648349368763505],[139.79963806885812,35.648230904236684],[139.8000939205653,35.64828689823157],[139.8000184358064,35.64869633675181],[139.79952498162933,35.64837316387528],[139.7995293758171,35.648349368763505]]]}},{"type":"Feature","properties":{"height":4.6,"gml_id":"bldg_1e5ec2d2-20a1-47b5-9d03-8e4d20a109df"},"geometry":{"type":"Polygon","coordinates":[[[139.799762023882,35.64386102682269],[139.7997665988967,35.64382655942642],[139.79984496553905,35.64383313425346],[139.79984097572958,35.6438678091322],[139.799762023882,35.64386102682269]]]}},{"type":"Feature","properties":{"height":3.1,"gml_id":"bldg_19622806-0481-49c0-94a0-e3c7ee7a1fa7"},"geometry":{"type":"Polygon","coordinates":[[[139.79820003500768,35.6436095206993],[139.79808739390631,35.64367531538374],[139.79801937262192,35.64359764179624],[139.79811226448757,35.64354340607369],[139.79814750572024,35.643583753013154],[139.79816728801936,35.643572230173056],[139.79820003500768,35.6436095206993]]]}},{"type":"Feature","properties":{"height":6.8,"gml_id":"bldg_e2713710-f97c-4fc5-beed-df99f87971b0"},"geometry":{"type":"Polygon","coordinates":[[[139.78881388554973,35.64514936779456],[139.78865889097662,35.645044579394515],[139.78860476268375,35.645097938861866],[139.78852896053414,35.64504664936965],[139.7885817296628,35.64499493895115],[139.78842809464027,35.64489088988604],[139.7883942631111,35.644924138086644],[139.78837005551873,35.64490776004273],[139.7884041079413,35.644874448834855],[139.78824988831738,35.644770038771576],[139.78819503103605,35.644823542004694],[139.78811818056613,35.64477186426673],[139.78817334741476,35.644717730220165],[139.7878405149469,35.6444920713747],[139.78778770134264,35.64454406088286],[139.78683159049888,35.64389652469089],[139.78673962608815,35.64384204596039],[139.78683085719757,35.64375180827517],[139.78890708089597,35.645157839094885],[139.78893138829534,35.64513387142564],[139.78964459979963,35.64561690981757],[139.78953247675216,35.6457271525818],[139.78934716885627,35.645601739555595],[139.78940246816396,35.64554723543722],[139.78924693231687,35.64544197888673],[139.78921246006797,35.64547584902981],[139.78918465347886,35.64545710822461],[139.789219247257,35.64542313898241],[139.78906678068824,35.645319884378615],[139.78901429877624,35.645371586098754],[139.78894280122188,35.64532315581842],[139.78899529415116,35.645271526243235],[139.7888391522991,35.64516576416745],[139.78880469100477,35.64519969729583],[139.7887799313611,35.64518285942856],[139.78881388554973,35.64514936779456]]]}},{"type":"Feature","properties":{"height":14.7,"gml_id":"bldg_7688a7b6-95b5-4b34-9169-b2e72731cee6"},"geometry":{"type":"Polygon","coordinates":[[[139.7988916176029,35.64366797555661],[139.798847790631,35.64366553019912],[139.7988651036215,35.643463987162114],[139.79890870936174,35.643467064315715],[139.7988916176029,35.64366797555661]]]}},{"type":"Feature","properties":{"height":23.7,"gml_id":"bldg_c0ea38f2-b9e0-4fb3-a547-39e3f9bbf28f"},"geometry":{"type":"Polygon","coordinates":[[[139.79654733362105,35.642845046796836],[139.79654136738117,35.642852255994804],[139.7964312904134,35.6427923708536],[139.7965510579291,35.642645753359645],[139.7966440232293,35.64269634899314],[139.7966171639816,35.64272924108938],[139.79673717679358,35.642794447207976],[139.79666522799337,35.64288258004903],[139.7966351005775,35.64286616580295],[139.7966200854035,35.64288463856516],[139.79654733362105,35.642845046796836]]]}},{"type":"Feature","properties":{"height":14.7,"gml_id":"bldg_4b83e2ef-aee3-4f1a-8f9e-bebf6f021074"},"geometry":{"type":"Polygon","coordinates":[[[139.79829137911798,35.64484896817122],[139.79821631652382,35.644759529688024],[139.79832677076203,35.64469790763641],[139.7984330571002,35.64482467212054],[139.79833908252456,35.64487719514728],[139.79834701813627,35.64488666191346],[139.7983265840521,35.64489810256572],[139.79833022627326,35.64490243113627],[139.79829929900663,35.64491972858737],[139.79825403622337,35.644865813055574],[139.79827656894395,35.64485320033461],[139.79827888670036,35.64485599527859],[139.79829137911798,35.64484896817122]]]}},{"type":"Feature","properties":{"height":4.3,"gml_id":"bldg_f0c23fe2-970d-4567-88f4-a4b7694bf8cc"},"geometry":{"type":"Polygon","coordinates":[[[139.79843018555417,35.64408932769425],[139.79840135703893,35.64410590468025],[139.79808084152808,35.643734984650315],[139.79810966997616,35.64371840773997],[139.79843018555417,35.64408932769425]]]}},{"type":"Feature","properties":{"height":7.0,"gml_id":"bldg_c091f0af-977a-48c3-9859-b6cdc2745b1a"},"geometry":{"type":"Polygon","coordinates":[[[139.78884643668593,35.64640778332017],[139.78887540701712,35.64637947275252],[139.78889616013345,35.64639327959087],[139.78949232662907,35.64580480963611],[139.789812562991,35.64602159878463],[139.78920763642253,35.646616828322934],[139.788988194935,35.646468200809984],[139.78870764939307,35.64674418894944],[139.78849239221478,35.64659835635526],[139.78847924380625,35.646611331287374],[139.78836643834404,35.64653485156032],[139.78837946523456,35.646521967634065],[139.78828509471097,35.6464580247498],[139.7882658582246,35.64647703660738],[139.7874511029962,35.64592526655303],[139.78747032844862,35.64590634495736],[139.78736800055339,35.64583699005607],[139.78734754861028,35.645857173095216],[139.78662960223866,35.64537096356812],[139.78665015362296,35.64535078158917],[139.78654463693084,35.645279441716866],[139.78669621985657,35.64513032258831],[139.78628604399054,35.64485222342266],[139.78639166342924,35.64474655111359],[139.78884643668593,35.64640778332017]]]}},{"type":"Feature","properties":{"height":3.6,"gml_id":"bldg_fe546289-67b6-4773-95f0-200c48915cd9"},"geometry":{"type":"Polygon","coordinates":[[[139.78814981061726,35.64664825474847],[139.78806561719796,35.64672943719577],[139.78803284334123,35.64670671017557],[139.7881169152969,35.64662552770526],[139.78814981061726,35.64664825474847]]]}},{"type":"Feature","properties":{"height":3.4,"gml_id":"bldg_78d6e205-c300-4151-ba0b-82ad87da8e54"},"geometry":{"type":"Polygon","coordinates":[[[139.78841885449867,35.646780316955905],[139.7883955423374,35.64680067937862],[139.78837048535203,35.64678165097471],[139.78839379751412,35.64676128855679],[139.78841885449867,35.646780316955905]]]}},{"type":"Feature","properties":{"height":3.7,"gml_id":"bldg_0a11ebdb-cc15-4373-8b18-b30385f6cd9e"},"geometry":{"type":"Polygon","coordinates":[[[139.79932902438574,35.64314926787491],[139.79937516252232,35.643143331799756],[139.79945431451887,35.64348515642359],[139.79935924359356,35.64349819961854],[139.79925541273246,35.64305054623539],[139.79930146259238,35.64304433975013],[139.79932902438574,35.64314926787491]]]}},{"type":"Feature","properties":{"height":116.7,"gml_id":"bldg_ba4e1df9-c369-4f44-ab0c-4153bc2c6e34"},"geometry":{"type":"Polygon","coordinates":[[[139.79563427353608,35.642026944604886],[139.79622234162753,35.64234567407363],[139.79604379439326,35.64256519541242],[139.79545572540448,35.642246464181696],[139.79563427353608,35.642026944604886]]]}},{"type":"Feature","properties":{"height":6.1,"gml_id":"bldg_7cf5cd41-72f3-4e16-8310-271fb3e74522"},"geometry":{"type":"Polygon","coordinates":[[[139.7883558436213,35.644533160393216],[139.78856413925698,35.644676918425944],[139.7885079014947,35.6447311604187],[139.78829971624634,35.64458740233128],[139.7883558436213,35.644533160393216]]]}},{"type":"Feature","properties":{"height":3.2,"gml_id":"bldg_9fd880d5-71ea-4302-aca8-68a053b21e91"},"geometry":{"type":"Polygon","coordinates":[[[139.79937704416503,35.64887445894849],[139.79935781229608,35.64886131956607],[139.7994364950982,35.64878458140248],[139.79945573800157,35.64879772888801],[139.79937704416503,35.64887445894849]]]}},{"type":"Feature","properties":{"height":46.5,"gml_id":"bldg_6fc1a6b6-5a2d-458e-9e29-b1efdd029733"},"geometry":{"type":"Polygon","coordinates":[[[139.79854368822683,35.64402365913555],[139.79843055018875,35.644088805001054],[139.79810686708078,35.6437140262261],[139.79821991614932,35.643649709901766],[139.79854368822683,35.64402365913555]]]}},{"type":"Feature","properties":{"height":3.5,"gml_id":"bldg_35fcb66c-cb03-4d27-a0aa-3da27285eee4"},"geometry":{"type":"Polygon","coordinates":[[[139.79897046591347,35.645463362237656],[139.79883664183075,35.64545403979991],[139.79884495110798,35.64539085564136],[139.7989785532266,35.64540252158723],[139.79897046591347,35.645463362237656]]]}},{"type":"Feature","properties":{"height":3.7,"gml_id":"bldg_eed82e15-571c-4001-8f03-370018c145ad"},"geometry":{"type":"Polygon","coordinates":[[[139.7901977383206,35.64906454204722],[139.7903324952134,35.64915599883122],[139.79029723734658,35.64919061712551],[139.79016246939253,35.64909916029862],[139.7901977383206,35.64906454204722]]]}},{"type":"Feature","properties":{"height":27.2,"gml_id":"bldg_5f8a79bc-21be-4ca2-a9c5-b6d4692e3a2e"},"geometry":{"type":"Polygon","coordinates":[[[139.7990585655755,35.6447912393807],[139.7990541396125,35.64478614533975],[139.79898001347263,35.644828930626204],[139.79867338785277,35.64447491700103],[139.7986949374813,35.64446257433121],[139.79870056645441,35.64446906586633],[139.79876740237646,35.644430596254594],[139.79875922382104,35.644421129445675],[139.79879476798504,35.64440070541971],[139.7989393666615,35.64456768186996],[139.79894201563678,35.64457065717135],[139.7991083695516,35.6447624905946],[139.7990585655755,35.6447912393807]]]}},{"type":"Feature","properties":{"height":4.4,"gml_id":"bldg_1239ea11-b835-41bf-a407-073b94026583"},"geometry":{"type":"Polygon","coordinates":[[[139.7978114161832,35.64270544228193],[139.79767482610066,35.64269404456628],[139.7976771536248,35.64267466563786],[139.7978138540589,35.64268615442259],[139.7978114161832,35.64270544228193]]]}},{"type":"Feature","properties":{"height":6.8,"gml_id":"bldg_d2671d12-981c-4bda-b37c-f33a694205d0"},"geometry":{"type":"Polygon","coordinates":[[[139.7944979519059,35.6417687895913],[139.79453382834424,35.64172325543981],[139.79465558325853,35.64178719235958],[139.79466295299721,35.641777838425476],[139.79473280014938,35.64181451985912],[139.79464887127287,35.64192102676051],[139.79463956493257,35.641916138304424],[139.794609942277,35.64195371623328],[139.79443127836714,35.64185988834577],[139.7944585697081,35.64182526622669],[139.7944474308267,35.641819421703914],[139.79449043399055,35.641764848146735],[139.7944979519059,35.6417687895913]]]}},{"type":"Feature","properties":{"height":4.7,"gml_id":"bldg_ad688d8f-7e11-4e00-bd01-944fb15d3ca6"},"geometry":{"type":"Polygon","coordinates":[[[139.79871394280187,35.647506800550225],[139.79868402456793,35.64748687242046],[139.79872932090896,35.64744145514845],[139.79897573278046,35.64760548613647],[139.7989297736667,35.64765144323532],[139.79889709535547,35.647629620577845],[139.79888759420143,35.64763908231759],[139.79870399968286,35.647516802974735],[139.79871394280187,35.647506800550225]]]}},{"type":"Feature","properties":{"height":5.7,"gml_id":"bldg_f33aeb71-7200-4257-904f-0d8e57a65705"},"geometry":{"type":"Polygon","coordinates":[[[139.79825215007742,35.64465876615308],[139.79822842072693,35.64463018558028],[139.79828398958625,35.64460054554952],[139.79830859171543,35.6446282258894],[139.79825215007742,35.64465876615308]]]}},{"type":"Feature","properties":{"height":4.6,"gml_id":"bldg_91997ffd-0d72-4247-863d-9fc5d093f53e"},"geometry":{"type":"Polygon","coordinates":[[[139.79940370340222,35.643492398266076],[139.7994363506868,35.64363631236441],[139.79939296153125,35.643643059575375],[139.79935943122172,35.643498425015835],[139.79940370340222,35.643492398266076]]]}},{"type":"Feature","properties":{"height":3.1,"gml_id":"bldg_6d419275-59d2-4a2c-969b-b82a4741d2d0"},"geometry":{"type":"Polygon","coordinates":[[[139.79370927995916,35.64811256069611],[139.7937402230413,35.648112471720395],[139.79374044209536,35.64816090276378],[139.79370949899007,35.648161000753305],[139.79370927995916,35.64811256069611]]]}},{"type":"Feature","properties":{"height":6.3,"gml_id":"bldg_5a66438d-1a2d-4bae-95cb-a58659ed8750"},"geometry":{"type":"Polygon","coordinates":[[[139.7998356887483,35.64812129786633],[139.79981837666787,35.648218308228714],[139.79969540558457,35.648203698686146],[139.79971270677484,35.64810667031068],[139.7998356887483,35.64812129786633]]]}},{"type":"Feature","properties":{"height":4.0,"gml_id":"bldg_9480cfce-88f1-4d04-a223-9b2bb1b540f5"},"geometry":{"type":"Polygon","coordinates":[[[139.79877125653712,35.64237861159535],[139.79881255351077,35.64238240922374],[139.79884798314006,35.64242081805818],[139.79884004096866,35.64247843183986],[139.79875851805016,35.642470809853954],[139.79877125653712,35.64237861159535]]]}},{"type":"Feature","properties":{"height":5.4,"gml_id":"bldg_0f0fd325-91e2-4fe8-9bd2-70428ff41d33"},"geometry":{"type":"Polygon","coordinates":[[[139.79226903144783,35.6432682130187],[139.79221035696446,35.643343638293075],[139.79195225142178,35.64320969534662],[139.79196639518568,35.64319158341935],[139.79197743473148,35.64319735512454],[139.7920220760153,35.64314004283679],[139.79226903144783,35.6432682130187]]]}},{"type":"Feature","properties":{"height":3.9,"gml_id":"bldg_b222c19e-4366-426c-9131-58b890475c45"},"geometry":{"type":"Polygon","coordinates":[[[139.7973349949955,35.64948771239314],[139.79723563490276,35.64942016955234],[139.79731717094307,35.649340151724175],[139.79753068494472,35.64948515673073],[139.79744804418672,35.649566165886554],[139.79735585992046,35.649503492716825],[139.79734470120758,35.6495143960391],[139.7973228419322,35.64949960693039],[139.7973349949955,35.64948771239314]]]}},{"type":"Feature","properties":{"height":4.6,"gml_id":"bldg_5c329439-2a1e-4b78-bda5-ed8509bcf24c"},"geometry":{"type":"Polygon","coordinates":[[[139.79820407955143,35.644990278690045],[139.79818189973912,35.64495340589118],[139.79823712324188,35.64493124811519],[139.7982593030341,35.644968211041736],[139.79820407955143,35.644990278690045]]]}},{"type":"Feature","properties":{"height":10.8,"gml_id":"bldg_6cbacad0-f998-4d1d-8266-578c23d6e27c"},"geometry":{"type":"Polygon","coordinates":[[[139.7897833627438,35.64895687673153],[139.78955436481002,35.64880190115825],[139.789579667538,35.6487769782756],[139.78949221502037,35.64871765392106],[139.78950810386937,35.64870188561262],[139.78949947121347,35.64869605056444],[139.78951989016593,35.648675948281365],[139.78952843449957,35.64868173822716],[139.78957155968564,35.64863904667916],[139.7899495429256,35.64889484988475],[139.78988357923373,35.64895978831747],[139.78990553634534,35.648974641908815],[139.78986704090957,35.64901253090775],[139.78984506172276,35.648997650260206],[139.78979371599235,35.64904819893589],[139.790219535349,35.64933638699203],[139.78984326382098,35.64970679858009],[139.7890736483042,35.64918595526154],[139.78944992093744,35.6488155460465],[139.78973259156666,35.64900684870824],[139.7897833627438,35.64895687673153]]]}},{"type":"Feature","properties":{"height":14.8,"gml_id":"bldg_4a056023-216a-4dd5-bb03-90569c957e52"},"geometry":{"type":"Polygon","coordinates":[[[139.79877623061014,35.64234137711353],[139.7987582088974,35.64247072864123],[139.79873197314205,35.64246832344319],[139.79871022888412,35.64262592306454],[139.79857736049686,35.642613635078135],[139.79862986511776,35.64223561155123],[139.7987575100272,35.642247457207404],[139.79874488247057,35.64233849272131],[139.79877623061014,35.64234137711353]]]}},{"type":"Feature","properties":{"height":3.1,"gml_id":"bldg_fb0af13f-6c8b-4fd5-b5b3-c41cd8ab03af"},"geometry":{"type":"Polygon","coordinates":[[[139.79995018052045,35.64438820458946],[139.79994829760233,35.6444018148649],[139.79974456778984,35.64438327999012],[139.7997421419722,35.64440112658428],[139.7997188427745,35.64439904691652],[139.79972104702637,35.644382912877894],[139.79973011272926,35.64438372664697],[139.79973221725464,35.64436840381983],[139.79995018052045,35.64438820458946]]]}},{"type":"Feature","properties":{"height":3.0,"gml_id":"bldg_284af616-2511-48ce-887d-9e03eb711732"},"geometry":{"type":"Polygon","coordinates":[[[139.79903203914762,35.64402027481032],[139.7988951161476,35.644007075630775],[139.79890286895923,35.6439535360317],[139.79903978078806,35.64396682533711],[139.79903203914762,35.64402027481032]]]}},{"type":"Feature","properties":{"height":11.3,"gml_id":"bldg_45f271fb-4197-4675-94bf-69ebfb210168"},"geometry":{"type":"Polygon","coordinates":[[[139.79741437255677,35.642115895700684],[139.79740286168405,35.64220044058817],[139.79717718923965,35.64207620919203],[139.79722889633751,35.64201213675088],[139.79741437255677,35.642115895700684]]]}},{"type":"Feature","properties":{"height":6.9,"gml_id":"bldg_6ae6b94e-d785-4b6a-bf5c-500db0ab4e9b"},"geometry":{"type":"Polygon","coordinates":[[[139.79507616762214,35.642079499229695],[139.79505120830132,35.642110138139344],[139.79479663769334,35.6419716945939],[139.7948162383851,35.641947607939855],[139.79503773460186,35.64206805754839],[139.7950431263887,35.64206153328837],[139.79507616762214,35.642079499229695]]]}},{"type":"Feature","properties":{"height":42.3,"gml_id":"bldg_6371caae-b508-4220-93f1-a34838e11db4"},"geometry":{"type":"Polygon","coordinates":[[[139.79276368204026,35.6474613977873],[139.7928415875101,35.64757806216262],[139.79281788332332,35.647589240277476],[139.7926875790724,35.64749290229063],[139.79276368204026,35.6474613977873]]]}},{"type":"Feature","properties":{"height":3.9,"gml_id":"bldg_b82f4ddf-302c-4034-9f99-cf4332bbc2e3"},"geometry":{"type":"Polygon","coordinates":[[[139.79817256527372,35.642591704259004],[139.7981127493856,35.64198551033715],[139.7981566992533,35.64198254863381],[139.79821661485312,35.6425887425633],[139.79817256527372,35.642591704259004]]]}},{"type":"Feature","properties":{"height":3.1,"gml_id":"bldg_60bcd96e-fd17-4be5-b087-400fb03bd355"},"geometry":{"type":"Polygon","coordinates":[[[139.79942745745848,35.644691182746605],[139.79940355099876,35.644688715254766],[139.7994102835878,35.64464468487182],[139.79943422316654,35.64464714335787],[139.79942745745848,35.644691182746605]]]}},{"type":"Feature","properties":{"height":6.1,"gml_id":"bldg_3573bd6e-4689-4196-8cdb-921b4484416e"},"geometry":{"type":"Polygon","coordinates":[[[139.78823734266496,35.64671748625907],[139.78833713294577,35.64678611836281],[139.78817316520272,35.64694499678406],[139.78819844391484,35.64696249297089],[139.78814474547121,35.64701448228216],[139.78801967629622,35.64692853407781],[139.78823734266496,35.64671748625907]]]}},{"type":"Feature","properties":{"height":11.1,"gml_id":"bldg_7c00fb18-5f0b-4a48-bde9-b81590f1c4b1"},"geometry":{"type":"Polygon","coordinates":[[[139.79628311782062,35.642754918200126],[139.79636752824356,35.64265498136458],[139.79647538506975,35.6427156771258],[139.7963909857181,35.6428157041771],[139.79628311782062,35.642754918200126]]]}},{"type":"Feature","properties":{"height":4.5,"gml_id":"bldg_865f87e5-446a-496d-82b1-3427421c84c5"},"geometry":{"type":"Polygon","coordinates":[[[139.78842823868092,35.644811082002754],[139.78850021015563,35.644859783181936],[139.78848667536604,35.64487306444317],[139.78841482535785,35.64482436330129],[139.78842823868092,35.644811082002754]]]}},{"type":"Feature","properties":{"height":40.1,"gml_id":"bldg_2a9155ca-e1b0-4444-87ed-cfaf36251a8f"},"geometry":{"type":"Polygon","coordinates":[[[139.79820276512268,35.64968287327455],[139.79817458005175,35.649662873420674],[139.79815951116788,35.64967581188622],[139.79815255148327,35.649681136988676],[139.79818538281566,35.64970802562148],[139.7981674294556,35.649725840594364],[139.79812577489673,35.64969789476736],[139.7981051481008,35.64971780014292],[139.7981566285374,35.64975206659503],[139.79802514286422,35.6498836390033],[139.7980156261013,35.64987754290807],[139.79799599324082,35.64989722321166],[139.79798203866744,35.64988737608553],[139.79797808319356,35.64989173758662],[139.797995427048,35.649903983369086],[139.7979111393405,35.64998841758436],[139.7979218263015,35.649995450561946],[139.7978838200106,35.65003347836944],[139.797735671527,35.64993491422687],[139.79811518067757,35.64955509560249],[139.79810567508514,35.64954878318694],[139.7982125225355,35.64944191113376],[139.79903226018038,35.649987750575946],[139.7989133705315,35.65010669835026],[139.79877052003084,35.65001156222589],[139.79875511851768,35.65000202124225],[139.79876241088803,35.64999346025923],[139.79875759634223,35.649992529558084],[139.7987506078513,35.649987850309195],[139.79874468626744,35.649993166729914],[139.79840178708352,35.649764568830456],[139.79838266255496,35.64978376260161],[139.79836134390683,35.649769514664754],[139.79837782788132,35.649753024260086],[139.79831113396713,35.64970856702386],[139.79830032058254,35.64971287155737],[139.7983268249923,35.64968708276959],[139.79831842289803,35.64968262842868],[139.79830273454664,35.64967268979624],[139.79829545371152,35.649680078965766],[139.79826267539596,35.6496581659766],[139.79823429245914,35.64968655106868],[139.79826363734,35.64970602934923],[139.79822895687727,35.64974072224147],[139.79819229233823,35.64971637438407],[139.7981940997376,35.64969965437726],[139.7981899494391,35.64969502910486],[139.79820276512268,35.64968287327455]]]}},{"type":"Feature","properties":{"height":18.1,"gml_id":"bldg_5155c6a2-9197-4bb8-bab6-d2e835cc28ff"},"geometry":{"type":"Polygon","coordinates":[[[139.79044376166343,35.648878441559106],[139.79043642266697,35.64889012078622],[139.79042909470684,35.64890180903056],[139.79041649868745,35.64891424444136],[139.79039760754608,35.64892748704308],[139.79038280478645,35.648936315255895],[139.7903586158381,35.648943968328624],[139.79033928840482,35.64894702611137],[139.78986824239573,35.6486293020631],[139.78986736625842,35.64861578109736],[139.78986914265255,35.648598295031626],[139.78987489530317,35.648579547571906],[139.7898823008755,35.64856738256043],[139.7898948981908,35.64855260542871],[139.78990583681923,35.64854188208977],[139.78991898346075,35.64853233223674],[139.7899399704663,35.64852341617089],[139.78996007225317,35.64851774473852],[139.7899850333106,35.64851162436345],[139.79045574798613,35.648828987292525],[139.79045551753526,35.648846924604946],[139.7904510896193,35.648866753313825],[139.79044376166343,35.648878441559106]]]}},{"type":"Feature","properties":{"height":6.3,"gml_id":"bldg_db11a406-4d72-4119-9866-e42d142aca7d"},"geometry":{"type":"Polygon","coordinates":[[[139.7999502253971,35.64300603158026],[139.79999969382047,35.64301073334469],[139.79995339622891,35.643320704242115],[139.79990614690382,35.64331663494034],[139.7999502253971,35.64300603158026]]]}},{"type":"Feature","properties":{"height":3.5,"gml_id":"bldg_83cdc7ff-4d61-49e9-b3c2-d39200a9180d"},"geometry":{"type":"Polygon","coordinates":[[[139.7885007190651,35.644186003879824],[139.78852674566667,35.64420746634397],[139.7885362480618,35.64421702357635],[139.78854318916478,35.64422550000556],[139.78854762428995,35.64423271267304],[139.78854969694015,35.64423875267152],[139.78854969432464,35.644243439832444],[139.78854793652934,35.64424704468803],[139.7885445117943,35.64424974844783],[139.78853921031038,35.644251548329585],[139.78853159052096,35.64425217555834],[139.7885217518094,35.64425163197342],[139.7885095066034,35.64424964438711],[139.7884950426789,35.64424612363227],[139.78846080578305,35.644234663390954],[139.78842271783355,35.644218153991204],[139.78838540445065,35.64419885059883],[139.78835262981826,35.64417918833893],[139.78832646878925,35.644161241158315],[139.7883048349548,35.64414383558949],[139.788287607145,35.64412643256595],[139.78828177008808,35.64411840902622],[139.7882782294974,35.6441111074471],[139.78827734952745,35.644104976850876],[139.78827922945868,35.64410020025433],[139.78828386918997,35.644096957031415],[139.7882911582948,35.644095247140505],[139.7883007654437,35.644095160594965],[139.78831214964882,35.644096516916576],[139.788338427548,35.64410292741598],[139.7883663489882,35.64411258167879],[139.78839670904233,35.644125482704574],[139.78843138431034,35.644142802080204],[139.78846748218044,35.644163547209445],[139.7885007190651,35.644186003879824]]]}},{"type":"Feature","properties":{"height":11.3,"gml_id":"bldg_2a8e19d9-23fd-40ac-be98-a1e9f7db00d7"},"geometry":{"type":"Polygon","coordinates":[[[139.79054645420106,35.64854544556045],[139.79051255650825,35.64853587982263],[139.7904793220935,35.6485250505812],[139.79044652999485,35.64851314163883],[139.79041451151238,35.64850015040983],[139.79038304578157,35.6484860777174],[139.7903524641007,35.648470923680215],[139.7903226560381,35.6484546882595],[139.79029362149782,35.64843755173113],[139.79026558144184,35.64841933389929],[139.79023842534144,35.64840021500049],[139.79021237406155,35.648380195114385],[139.79018731716994,35.648359274202136],[139.7901633650504,35.64833754244157],[139.79014051770278,35.64831499983334],[139.79011888551048,35.64829173655535],[139.7900984685221,35.648267661569186],[139.79007926663854,35.648242957854926],[139.79006139029264,35.64821762274867],[139.79004483943447,35.64819174729003],[139.7900295036797,35.64816524130219],[139.79001571422612,35.64813828518006],[139.7900032502085,35.648110878844726],[139.78999211157708,35.648083112434215],[139.78998251924295,35.648054895890745],[139.78997436267596,35.64802640854886],[139.78996764182446,35.64799774325064],[139.78996444899707,35.64797980470405],[139.78999461005364,35.647975850404194],[139.78999326784975,35.64796647470183],[139.7899897596346,35.647939522274946],[139.78998766504463,35.647912390081245],[139.78998701711046,35.647885258407996],[139.7899876943559,35.64785812721156],[139.7899898071624,35.64783108666928],[139.78999335557734,35.64780404664343],[139.79002341717853,35.647800091399056],[139.79001985773078,35.647827131421856],[139.79001775597763,35.64785417196866],[139.7900170676992,35.64788130316131],[139.79001771564356,35.647908434834406],[139.7900198102436,35.64793556702762],[139.79002331846914,35.64796251855227],[139.79002466067647,35.64797189425433],[139.79002796419203,35.647989382150776],[139.79003401249986,35.64801606507649],[139.79004160700347,35.64804247814452],[139.7900504274519,35.64806862123951],[139.7900606837155,35.6480944042989],[139.79007237574743,35.64811991655864],[139.79008563619703,35.648144917398334],[139.79009980240681,35.64816953006824],[139.7901150842658,35.648193629351965],[139.79013145971257,35.6482171701724],[139.79014922690962,35.648240161649724],[139.79016820925892,35.648262431557114],[139.79018840673533,35.648284027666946],[139.7902095984763,35.64830494719542],[139.79023178455427,35.64832505583691],[139.79025522991964,35.64834451593345],[139.79027952609894,35.648363092980325],[139.79030468414496,35.648380768953515],[139.79033078125858,35.6483977331691],[139.79035760776787,35.64841370612491],[139.79038518566708,35.64842885908987],[139.79041366970097,35.64844293071937],[139.79044278370105,35.64845608316226],[139.79047260504166,35.648468181239096],[139.79050296809245,35.64847918883542],[139.79053376241512,35.648489114925304],[139.79056523091202,35.64849804973239],[139.79059703128948,35.64850590299701],[139.79062938431056,35.64851286408627],[139.79066195887816,35.64851855430426],[139.79069475493807,35.64852307280218],[139.79072779462805,35.648526320436275],[139.790760923188,35.64852858559215],[139.79079416275576,35.64852976912616],[139.79082740289752,35.64852987099919],[139.79086064370728,35.648528710935985],[139.79089377465564,35.64852646917291],[139.79092666326943,35.648523056427095],[139.7909594641066,35.648518560186695],[139.7909920446929,35.64851289297163],[139.79102430568102,35.648505972721956],[139.7910562248025,35.64849814195318],[139.79108759232494,35.64848922933049],[139.791115757394,35.64848013530181],[139.79113639457282,35.64852717636777],[139.7911088921796,35.6485360903582],[139.79107509479297,35.648545633097534],[139.79104074580562,35.64855409398169],[139.79100606613142,35.648561382950184],[139.79097094538685,35.648567409826235],[139.79093571482355,35.64857226486375],[139.7909001535779,35.648575947984796],[139.7908643721317,35.648578369090394],[139.79082859130406,35.64857961839593],[139.7907928111443,35.64857960576378],[139.79075704269744,35.64857833119783],[139.79072125278748,35.64857588482404],[139.79068580589137,35.64857217663375],[139.79065047005446,35.648567296682735],[139.79061535571083,35.64856124501027],[139.79058068377503,35.64855393155729],[139.79054645420106,35.64854544556045]]]}},{"type":"Feature","properties":{"height":16.3,"gml_id":"bldg_f02fafa0-e5cd-4ca8-b084-0d22562231a2"},"geometry":{"type":"Polygon","coordinates":[[[139.79746189748357,35.6417732241025],[139.79743331600386,35.64175735134008],[139.79709389495247,35.642177833418415],[139.79693382018996,35.64209017034453],[139.79745044460975,35.6414565667002],[139.79759087439302,35.64151952461777],[139.79748009866867,35.642309368948034],[139.79738956540368,35.64230186143365],[139.79746189748357,35.6417732241025]]]}},{"type":"Feature","properties":{"height":10.1,"gml_id":"bldg_7e43d918-0aab-45bb-b66a-062c0b17bf2c"},"geometry":{"type":"Polygon","coordinates":[[[139.7928229147935,35.64943499096547],[139.79281231670194,35.64942795666348],[139.7928688762911,35.64937136923259],[139.7928794743347,35.6493784936673],[139.792954496643,35.64930334403866],[139.79296245622925,35.64930866482848],[139.7930377103954,35.649233334949486],[139.79326411219148,35.64938403140435],[139.7933420538122,35.64943336170387],[139.7933654690924,35.649448873152565],[139.79321786664025,35.649596739967514],[139.79327084631763,35.64963200142284],[139.79314962836878,35.649753286316766],[139.79297111596577,35.64963451534315],[139.79298505976794,35.649620548679415],[139.79293083272836,35.64958447544108],[139.79292398232639,35.64959141374199],[139.79276942673738,35.64948851472851],[139.7928229147935,35.64943499096547]]]}},{"type":"Feature","properties":{"height":3.1,"gml_id":"bldg_b1f455eb-7dc8-4bb3-a778-2c5cd0169c2f"},"geometry":{"type":"Polygon","coordinates":[[[139.79940224513712,35.64469538507862],[139.799427178538,35.64469793398375],[139.7994208334778,35.64473953075779],[139.79939586693598,35.64473698184204],[139.79940224513712,35.64469538507862]]]}},{"type":"Feature","properties":{"height":8.0,"gml_id":"bldg_a57a8469-1a5a-44be-be34-99c9f0f0159a"},"geometry":{"type":"Polygon","coordinates":[[[139.79078145137322,35.64875996721531],[139.79074048102885,35.6487595020455],[139.790741160563,35.64872759355338],[139.7907821308911,35.648728058722945],[139.79078145137322,35.64875996721531]]]}},{"type":"Feature","properties":{"height":14.4,"gml_id":"bldg_e08d4ed1-1931-41d8-a1f7-bb2352905a58"},"geometry":{"type":"Polygon","coordinates":[[[139.78833848096568,35.649896436255375],[139.7883037850887,35.64993112628149],[139.78800285429128,35.64973009658651],[139.78838605408401,35.64934805656733],[139.7886861012403,35.64954854416399],[139.78838013867127,35.64985372656728],[139.78840210687795,35.64986842720063],[139.78835978687297,35.649910595823066],[139.78833848096568,35.649896436255375]]]}},{"type":"Feature","properties":{"height":4.3,"gml_id":"bldg_8a062f4a-0439-4346-bf25-cc684da45364"},"geometry":{"type":"Polygon","coordinates":[[[139.7895752017902,35.64570657164508],[139.78967198906233,35.6456114213488],[139.78975058527658,35.645664631061514],[139.78965379803333,35.64575978142013],[139.7895752017902,35.64570657164508]]]}},{"type":"Feature","properties":{"height":7.0,"gml_id":"bldg_3025d221-011d-4f00-bc42-02cf97ebe75a"},"geometry":{"type":"Polygon","coordinates":[[[139.78915376714173,35.64962835322939],[139.78907620093725,35.64970358968816],[139.78898155079096,35.6496382771869],[139.78905812346414,35.64956240855813],[139.78915376714173,35.64962835322939]]]}},{"type":"Feature","properties":{"height":4.4,"gml_id":"bldg_44893e37-871c-41f8-bcdc-61e47dea6794"},"geometry":{"type":"Polygon","coordinates":[[[139.800022205051,35.64384613619328],[139.800017319882,35.643883180551306],[139.7999538271,35.64387775560988],[139.79995871229835,35.64384071035304],[139.800022205051,35.64384613619328]]]}},{"type":"Feature","properties":{"height":4.5,"gml_id":"bldg_087fc816-ea0a-4e28-9d75-c309bc7e9d47"},"geometry":{"type":"Polygon","coordinates":[[[139.79219292399475,35.64723631967965],[139.7922629438514,35.647201550429166],[139.79233054659787,35.64716407618436],[139.792409999974,35.64725360992807],[139.79237995369652,35.64727144697727],[139.79240445526466,35.6472990374372],[139.7923720892768,35.64731813562357],[139.79233895071778,35.64733633216143],[139.79230492915735,35.647353627012464],[139.79227015720542,35.64736983994582],[139.7922346900323,35.64738506111733],[139.79221180414353,35.64739402200548],[139.79215620427036,35.647411399582985],[139.7921371853892,35.64741658500996],[139.79212604360188,35.64739371326849],[139.7921048927847,35.64740010580592],[139.79205359668535,35.6472945279951],[139.79212088476743,35.64726802441837],[139.79219292399475,35.64723631967965]]]}},{"type":"Feature","properties":{"height":31.8,"gml_id":"bldg_6d47b5b6-94d4-4f26-9825-a3b6fee6ae14"},"geometry":{"type":"Polygon","coordinates":[[[139.79342762668142,35.647439409668735],[139.7933476746173,35.64739506155256],[139.79336837079398,35.64737005611571],[139.79346552337213,35.647423711220476],[139.79343374430923,35.64746212639146],[139.79342762668142,35.647439409668735]]]}},{"type":"Feature","properties":{"height":33.0,"gml_id":"bldg_e68a62d0-f1ca-4a3c-8e6b-794fe328dfa5"},"geometry":{"type":"Polygon","coordinates":[[[139.79178234231304,35.644847800019384],[139.79178024479808,35.644846627505416],[139.79168188120832,35.64479404323979],[139.7917537054282,35.644704471159095],[139.79185427689634,35.644758227917585],[139.79178234231304,35.644847800019384]]]}},{"type":"Feature","properties":{"height":5.4,"gml_id":"bldg_d7d2e217-4ebd-41ca-939b-e2c756352a1b"},"geometry":{"type":"Polygon","coordinates":[[[139.79968825633605,35.64176061629175],[139.7995807086304,35.641749859808876],[139.79959510403705,35.641653776978124],[139.79970276200117,35.641664623616826],[139.79968825633605,35.64176061629175]]]}},{"type":"Feature","properties":{"height":4.8,"gml_id":"bldg_1fea1964-169b-4f71-99d5-d1eec9fd1d6c"},"geometry":{"type":"Polygon","coordinates":[[[139.79982561149265,35.644168233933605],[139.7997876152674,35.644164527710444],[139.79980675140533,35.644034229928806],[139.79973081439078,35.64402660114338],[139.79974011668932,35.643963327047125],[139.7998539504864,35.64397444568282],[139.79982561149265,35.644168233933605]]]}},{"type":"Feature","properties":{"height":3.8,"gml_id":"bldg_9dfeb92c-820d-479d-b7a1-e02ad5af40b9"},"geometry":{"type":"Polygon","coordinates":[[[139.79861519558284,35.64268169999534],[139.79856154321482,35.64267501432516],[139.7985696228248,35.642632020947566],[139.79862328624654,35.64263861557825],[139.79861519558284,35.64268169999534]]]}},{"type":"Feature","properties":{"height":53.3,"gml_id":"bldg_89109ed2-cd36-4479-b74e-08df24bbafc5"},"geometry":{"type":"Polygon","coordinates":[[[139.79082808944392,35.64723377259669],[139.79086132852407,35.64723486597436],[139.7908944565547,35.64723713109365],[139.79092736310648,35.647240567915745],[139.79096015865917,35.64724508634202],[139.79099273273624,35.647250775570015],[139.79101719724576,35.647222076216345],[139.79104932902422,35.647228847827265],[139.79108123937706,35.64723670100415],[139.79111259701332,35.647245635631045],[139.79114351236956,35.64725564273329],[139.79117387504917,35.64726665917622],[139.79120368502473,35.64727873904281],[139.7912328318994,35.647291819198514],[139.7912612052479,35.64730589059149],[139.79128891549698,35.64732096227456],[139.79131585227776,35.64733691703069],[139.79134190514566,35.64735378186322],[139.79136707410095,35.647371556772676],[139.7913912487695,35.64739013355598],[139.79141453958232,35.64740951225215],[139.79143672566335,35.64742971982615],[139.79145791750463,35.647450639138036],[139.79147800467013,35.647472279163686],[139.79149698720653,35.647494549766],[139.79147252278486,35.64752325011729],[139.7914902902599,35.64754615126191],[139.79150695310418,35.64756968298404],[139.7915222905016,35.647593755069735],[139.79153652336126,35.6476182765571],[139.79154743389395,35.647639634860354],[139.79154932033967,35.64764334107479],[139.79156090239502,35.647668763016235],[139.7915711590931,35.64769454594903],[139.79158009043329,35.64772068897212],[139.7915876964612,35.64774710194812],[139.79159397717567,35.64777378487728],[139.79159871175878,35.647800648446996],[139.7916022315051,35.64782769006812],[139.7916043156426,35.64785473209301],[139.7916049641234,35.647881863758045],[139.79160428742455,35.64790899496385],[139.79160217511304,35.647936125672125],[139.7915986272812,35.6479630756075],[139.79159386474424,35.647989934984025],[139.7915875562524,35.64801661354908],[139.79157992271485,35.64804302124133],[139.7915709641303,35.64806915806053],[139.79156068054448,35.64809493386872],[139.7915490719093,35.64812043880323],[139.79154696051376,35.648124557362344],[139.79153624879694,35.64814540158766],[139.79152199024716,35.648170005124406],[139.7915066276504,35.648194066548555],[139.7914899401878,35.64821749744807],[139.7914721486307,35.64824047456898],[139.79145314268465,35.64826273286766],[139.7914330327361,35.648284358914154],[139.79141181883173,35.648305262570254],[139.79138961144923,35.6483253564403],[139.79136630006337,35.648344818056465],[139.7913421056795,35.64836337798351],[139.79131691786554,35.64838103618243],[139.79129084700682,35.64839788282876],[139.79126389315078,35.64841382778433],[139.79123616673022,35.64842887108712],[139.79120777822533,35.64844292263757],[139.79117861720442,35.64845598239661],[139.79114879410068,35.648468050402336],[139.7911184193947,35.6484790365553],[139.7910874930401,35.64848903099279],[139.79105612551777,35.64849794361548],[139.79102420639634,35.64850577438422],[139.7909920669744,35.64851252341504],[139.79095948638823,35.648518190630114],[139.79092668555174,35.64852268596914],[139.7908937748511,35.64852609960854],[139.79086064390287,35.648528341371616],[139.79082740309326,35.64852950143484],[139.7907941629039,35.64852948969944],[139.79076092333625,35.648528306165446],[139.79072779477642,35.64852604100957],[139.79070822721158,35.648524005988726],[139.79069477727364,35.64852260409424],[139.79066198121393,35.64851808559632],[139.7906294066465,35.64851239537834],[139.79059727438977,35.64850562365651],[139.7905654740124,35.648497770391955],[139.7905340055156,35.648488835584935],[139.79050308976542,35.64847881931424],[139.79047272671474,35.64846781171797],[139.7904429164127,35.64845572265886],[139.7904138796768,35.648442642353665],[139.79038539564297,35.648428570724214],[139.7903576851767,35.64841350784967],[139.79033085866266,35.64839754390763],[139.79030480566882,35.648380678859276],[139.79027963657958,35.648363002882164],[139.7902553514435,35.64834442583924],[139.79023206069294,35.648324947770526],[139.790209874615,35.648304839129075],[139.79019331856392,35.648288500254694],[139.79018868287395,35.64828391960065],[139.79016859585343,35.64826227936299],[139.7901496135045,35.648240008554296],[139.7901318463074,35.648217017077016],[139.7901151836838,35.64819357530505],[139.7900998465942,35.648169503042794],[139.7900857245572,35.64814489038875],[139.7900728174748,35.64811991761867],[139.7900612358756,35.648094403595906],[139.79005097961135,35.648068621437936],[139.79004204873087,35.64804247830329],[139.7900344431839,35.64801606523132],[139.790028273401,35.647989382261954],[139.7900234289009,35.647962518591974],[139.79001990963212,35.64793556706336],[139.7900178260752,35.647908434874125],[139.79001717813085,35.64788130320103],[139.79001785536605,35.6478541720044],[139.79001996816282,35.64782713056019],[139.79002351656692,35.647800091434796],[139.79002839004957,35.64777323215959],[139.79003458860902,35.64774655363576],[139.79004222262677,35.64772014604049],[139.79005118167004,35.6476940093338],[139.7900614656891,35.64766823365306],[139.79007307468228,35.64764281989933],[139.79008600864998,35.647617765368075],[139.7901001570613,35.64759325299872],[139.79011551996442,35.647569191751764],[139.79013220774115,35.64754567180403],[139.79014999947992,35.647522783213496],[139.79016900561126,35.647500526019186],[139.79018615443508,35.64748208999415],[139.79018911570364,35.64747890018102],[139.7902103297081,35.64745799583611],[139.7902325371933,35.64743781294435],[139.79025584854182,35.647418441682355],[139.7902801533225,35.64739988201003],[139.79030534110453,35.647382133887334],[139.79033141184019,35.647365286550006],[139.79035825509752,35.6473493426622],[139.79038598130924,35.647334299558665],[139.7904144799963,35.64732024823847],[139.79044353029758,35.647307188622456],[139.7904733530756,35.64729512078882],[139.7905037274214,35.64728413479609],[139.79053465338353,35.6472741414076],[139.79056613091643,35.64726522805646],[139.7905979391581,35.647257397367994],[139.79063007811024,35.6472506484406],[139.79066265820484,35.64724498131312],[139.79069545853372,35.64724048604469],[139.79070395112754,35.64723960570146],[139.7907284791466,35.64723707159607],[139.79076160956484,35.64723483076987],[139.79079484979127,35.64723376086186],[139.79082808944392,35.64723377259669]]]}},{"type":"Feature","properties":{"height":5.1,"gml_id":"bldg_487d70d3-ce9f-4c97-8712-6b1674d0d678"},"geometry":{"type":"Polygon","coordinates":[[[139.78829971624634,35.64458740233128],[139.7885079014947,35.6447311604187],[139.78846856811438,35.644769182991276],[139.7882602724103,35.64462542569679],[139.78829971624634,35.64458740233128]]]}},{"type":"Feature","properties":{"height":3.1,"gml_id":"bldg_60512a14-e677-4906-892c-ef969096da04"},"geometry":{"type":"Polygon","coordinates":[[[139.79929195724193,35.64881834226211],[139.79927247131624,35.64880541101213],[139.79933540066793,35.6487422603164],[139.7993548645053,35.648755183437714],[139.79929195724193,35.64881834226211]]]}},{"type":"Feature","properties":{"height":5.3,"gml_id":"bldg_f8d9025c-5361-4edb-a236-561e974220c7"},"geometry":{"type":"Polygon","coordinates":[[[139.79802362158253,35.64450672716893],[139.79796755326748,35.644441811554834],[139.79806940366294,35.64438325189222],[139.79812535054992,35.64444816742406],[139.79802362158253,35.64450672716893]]]}},{"type":"Feature","properties":{"height":3.0,"gml_id":"bldg_0c54fedb-d74e-4549-bb9a-7b3b62b3318c"},"geometry":{"type":"Polygon","coordinates":[[[139.7990563608352,35.64268804585032],[139.7990224510911,35.64268425041012],[139.7990288722394,35.64264558314163],[139.79906278200596,35.642649288442264],[139.7990563608352,35.64268804585032]]]}},{"type":"Feature","properties":{"height":26.2,"gml_id":"bldg_030bc8ba-bc92-4798-bfea-2418a72c3edb"},"geometry":{"type":"Polygon","coordinates":[[[139.79949009973208,35.64818116083726],[139.79938477703004,35.64811145477494],[139.7994320730965,35.64806378526646],[139.79953738473395,35.64813349128489],[139.79949009973208,35.64818116083726]]]}},{"type":"Feature","properties":{"height":4.8,"gml_id":"bldg_8db2637f-1889-47f0-b8a9-d56114e401c6"},"geometry":{"type":"Polygon","coordinates":[[[139.79883331330316,35.64346118379075],[139.79885951001384,35.643169631736804],[139.798933823982,35.64317469979544],[139.79890895252996,35.643466523558736],[139.79883331330316,35.64346118379075]]]}},{"type":"Feature","properties":{"height":29.6,"gml_id":"bldg_34a4f30e-389a-43f9-8af7-e63c4d95d9b7"},"geometry":{"type":"Polygon","coordinates":[[[139.79924028089854,35.64516459632597],[139.7992701571621,35.644969492669524],[139.79909121696062,35.644951207070925],[139.7991052139042,35.6448600187153],[139.7992778046034,35.64487764359148],[139.79928578849146,35.6448256372835],[139.79940061702854,35.64483738759161],[139.7993486943419,35.64517565982039],[139.79924028089854,35.64516459632597]]]}},{"type":"Feature","properties":{"height":42.0,"gml_id":"bldg_b6a5a462-190c-48e8-acf9-4cf991173d12"},"geometry":{"type":"Polygon","coordinates":[[[139.79657721244172,35.6431389951225],[139.7965711577187,35.643146474707834],[139.79649729034765,35.643107061944576],[139.79650292512846,35.64310030333649],[139.7961547334295,35.64290820295906],[139.79626168433492,35.64277897838569],[139.79646624935395,35.64289180259853],[139.7965011629822,35.64284953957513],[139.79667404456717,35.6429448679191],[139.79672176337363,35.642887194271694],[139.79683403724098,35.642949062842845],[139.79681834830004,35.642967987015496],[139.7968906695186,35.643007912900195],[139.7967176709391,35.6432165743925],[139.79657721244172,35.6431389951225]]]}},{"type":"Feature","properties":{"height":3.9,"gml_id":"bldg_1a68ee71-efb9-4509-a37c-5ad913ab6f0f"},"geometry":{"type":"Polygon","coordinates":[[[139.79908662320662,35.64808216576156],[139.79901547463618,35.64815326413557],[139.79899177157574,35.64813761759179],[139.79906280972102,35.64806652010155],[139.79908662320662,35.64808216576156]]]}},{"type":"Feature","properties":{"height":12.6,"gml_id":"bldg_5493fb54-7e41-446c-9293-3f688018075f"},"geometry":{"type":"Polygon","coordinates":[[[139.7918997625206,35.648499958416295],[139.79186800988433,35.64848495759507],[139.79188408953212,35.6484622655639],[139.79191585320052,35.64847727629988],[139.7918997625206,35.648499958416295]]]}},{"type":"Feature","properties":{"height":7.2,"gml_id":"bldg_c236bb98-5d6d-45ab-984e-212e2e235eff"},"geometry":{"type":"Polygon","coordinates":[[[139.78839514014004,35.646730101416544],[139.78833757490378,35.64678569488077],[139.78816603285847,35.646667730574435],[139.78822348774958,35.646612047012106],[139.78839514014004,35.646730101416544]]]}},{"type":"Feature","properties":{"height":4.3,"gml_id":"bldg_0314ba47-9df9-4cad-be17-226ccc40e275"},"geometry":{"type":"Polygon","coordinates":[[[139.79981371442204,35.64518280284276],[139.79980671516677,35.64523117780813],[139.79964198536194,35.64521522343748],[139.7996488853115,35.64516689262127],[139.79981371442204,35.64518280284276]]]}},{"type":"Feature","properties":{"height":6.3,"gml_id":"bldg_33f4af80-9544-4b0b-b8eb-e4bfd76e493f"},"geometry":{"type":"Polygon","coordinates":[[[139.7880352505841,35.64966088306225],[139.7879292957747,35.64976612393749],[139.78785918561618,35.64971913577352],[139.78808669702096,35.649493156235984],[139.78815690640454,35.649540324581785],[139.78806154849002,35.64963502344511],[139.78807921127682,35.649646838114734],[139.7880530237051,35.649672878052456],[139.7880352505841,35.64966088306225]]]}},{"type":"Feature","properties":{"height":5.3,"gml_id":"bldg_e8a01e17-af76-4198-93d7-047c1ddd7eac"},"geometry":{"type":"Polygon","coordinates":[[[139.7990624983723,35.64845938505745],[139.79900706578505,35.64842304379123],[139.79912342355468,35.64830490641032],[139.79917883402663,35.64834124761744],[139.7990624983723,35.64845938505745]]]}},{"type":"Feature","properties":{"height":5.2,"gml_id":"bldg_45028d82-dc2b-4c4a-896d-4c43866cd716"},"geometry":{"type":"Polygon","coordinates":[[[139.78848468790508,35.649318438047764],[139.78852719578316,35.64933467864616],[139.78868163339052,35.649440828015805],[139.78870613369617,35.64946959100689],[139.78871075101333,35.64950718011778],[139.78868611228873,35.64954853515432],[139.78838606512738,35.64934805657145],[139.7884331142514,35.64932049199855],[139.78848468790508,35.649318438047764]]]}},{"type":"Feature","properties":{"height":6.0,"gml_id":"bldg_08953a08-e9d3-40bc-bfbc-f957fb58f0ce"},"geometry":{"type":"Polygon","coordinates":[[[139.78913162319327,35.646865255984636],[139.78940301852444,35.64659946711281],[139.78950809769557,35.64667094942942],[139.78923670247065,35.646936737633546],[139.78913162319327,35.646865255984636]]]}},{"type":"Feature","properties":{"height":4.1,"gml_id":"bldg_0ee1330d-7dc3-4ad5-949e-d934f94a3b75"},"geometry":{"type":"Polygon","coordinates":[[[139.7976657153851,35.642571364382576],[139.79762232150978,35.64256486160671],[139.7977582983323,35.641966296967574],[139.79780169185517,35.641972889832665],[139.7976657153851,35.642571364382576]]]}},{"type":"Feature","properties":{"height":3.6,"gml_id":"bldg_88a4ed64-dabb-4a29-a039-4a710ac14172"},"geometry":{"type":"Polygon","coordinates":[[[139.78798671243808,35.646831534419746],[139.78795094692504,35.6468070025961],[139.78796630522564,35.64679195538762],[139.7880021811674,35.64681648634695],[139.78798671243808,35.646831534419746]]]}},{"type":"Feature","properties":{"height":37.2,"gml_id":"bldg_ad1846f7-efd7-4cc5-a541-9c3e4e65c27f"},"geometry":{"type":"Polygon","coordinates":[[[139.7952633203905,35.642996502885346],[139.79504213093526,35.64326853159266],[139.79514468960465,35.643324098017096],[139.79434274304762,35.644310327420236],[139.79378564533266,35.644008489959575],[139.79322855180902,35.64370665081121],[139.79403050601093,35.64272042963342],[139.79413452050093,35.642776781596105],[139.79435571167357,35.642504755435674],[139.7952633203905,35.642996502885346]]]}}]}