{"type":"FeatureCollection","crs":{"type":"name","properties":{"name":"urn:ogc:def:crs:OGC:1.3:CRS84"}},"features":[{"type":"Feature","properties":{"height":10.4,"gml_id":"bldg_3e153e41-ede0-4d7f-ae7d-2ea6964bb421"},"geometry":{"type":"Polygon","coordinates":[[[139.82226708437332,35.63748911997656],[139.8221287040834,35.638476026296935],[139.82204876203352,35.6384681768438],[139.82219255360522,35.63748226263086],[139.82226708437332,35.63748911997656]]]}},{"type":"Feature","properties":{"height":4.4,"gml_id":"bldg_feb0be0b-db0b-4749-b327-88d222c15d4b"},"geometry":{"type":"Polygon","coordinates":[[[139.82454427470896,35.637004456196884],[139.82451479378796,35.63700138935551],[139.82451877155017,35.63697624118755],[139.8245482524621,35.63697930802795],[139.82454427470896,35.637004456196884]]]}},{"type":"Feature","properties":{"height":11.7,"gml_id":"bldg_cce0b894-5e76-4676-9b59-00e6aaa10422"},"geometry":{"type":"Polygon","coordinates":[[[139.8224169361399,35.640623586028575],[139.82248137154335,35.64018299830987],[139.8225033450316,35.64018525373242],[139.82243769516973,35.64062539066393],[139.8224169361399,35.640623586028575]]]}},{"type":"Feature","properties":{"height":4.5,"gml_id":"bldg_24c7b016-ae51-44e9-9610-f10176468b30"},"geometry":{"type":"Polygon","coordinates":[[[139.82330551529014,35.64049602816544],[139.8232731621641,35.64049305092053],[139.8232779154827,35.64045158793227],[139.82331037908116,35.640454024358334],[139.82330551529014,35.64049602816544]]]}},{"type":"Feature","properties":{"height":2.4,"gml_id":"bldg_3662d122-9121-441a-9d05-e16772b7599b"},"geometry":{"type":"Polygon","coordinates":[[[139.82123315878013,35.63440900982929],[139.82125524109313,35.634411085216705],[139.82124982493488,35.63445038479106],[139.821227632198,35.63444830939157],[139.82123315878013,35.63440900982929]]]}},{"type":"Feature","properties":{"height":12.3,"gml_id":"bldg_7e902ba5-fbe9-4877-83a0-e7c96daec1eb"},"geometry":{"type":"Polygon","coordinates":[[[139.82257711639556,35.6392859554637],[139.82215631154594,35.63924905078787],[139.8221340936023,35.639417966981725],[139.8221764943616,35.63942175670439],[139.82216897793964,35.63947827241427],[139.82203934645753,35.63946609172564],[139.82204177815916,35.639448605218675],[139.82176230876448,35.639422438732495],[139.82181193805687,35.639069193404026],[139.82253639149437,35.639137134291545],[139.82252412326315,35.63922366549192],[139.82257987952386,35.63926630566745],[139.82257711639556,35.6392859554637]]]}},{"type":"Feature","properties":{"height":11.4,"gml_id":"bldg_13c303c4-90d6-4f62-860a-7a2777f97329"},"geometry":{"type":"Polygon","coordinates":[[[139.822452836145,35.639713377789214],[139.8223880699454,35.64015216274109],[139.82236532349765,35.6401500875027],[139.82239361516113,35.639974862192425],[139.82236843966646,35.63997161494253],[139.82234158310143,35.640149183960716],[139.82231453032264,35.64014647735511],[139.82238305142278,35.63970616044112],[139.822452836145,35.639713377789214]]]}},{"type":"Feature","properties":{"height":12.9,"gml_id":"bldg_5ac69d16-6918-431c-9e38-a79c0826fbce"},"geometry":{"type":"Polygon","coordinates":[[[139.82288473735449,35.640201061533645],[139.82294961129915,35.63976227632737],[139.82296827212892,35.63976408069062],[139.82290406072934,35.64020349692878],[139.82288473735449,35.640201061533645]]]}},{"type":"Feature","properties":{"height":11.5,"gml_id":"bldg_05f3b905-ef49-4bb0-ad98-fba44e3fd22e"},"geometry":{"type":"Polygon","coordinates":[[[139.82298836089825,35.640681054232196],[139.82305257181494,35.64024479280687],[139.82307421402663,35.64024740864817],[139.8230097824401,35.64068321847564],[139.82298836089825,35.640681054232196]]]}},{"type":"Feature","properties":{"height":9.3,"gml_id":"bldg_af9814dd-bb44-46a1-b718-ef570673cf4b"},"geometry":{"type":"Polygon","coordinates":[[[139.82278129830902,35.64084688980375],[139.82328095178755,35.64089470556545],[139.82327222070631,35.64095644922061],[139.822772456308,35.64090953479131],[139.82278129830902,35.64084688980375]]]}},{"type":"Feature","properties":{"height":34.3,"gml_id":"bldg_0ddab2b8-6654-4205-8875-b3e8eb4c1866"},"geometry":{"type":"Polygon","coordinates":[[[139.82306583678658,35.63495226070559],[139.82304318188613,35.63510873812423],[139.82141470774621,35.63495210865853],[139.8212617867435,35.634937400957575],[139.82135717232325,35.63427760118501],[139.82313855299574,35.63444920737108],[139.82306583678658,35.63495226070559]]]}},{"type":"Feature","properties":{"height":4.7,"gml_id":"bldg_8e4a2985-436d-4acd-a627-3369479825bc"},"geometry":{"type":"Polygon","coordinates":[[[139.8216353857051,35.63976864578953],[139.82164864916794,35.639679320512194],[139.82167106417643,35.63968157612957],[139.8216576903176,35.63977090139865],[139.8216353857051,35.63976864578953]]]}},{"type":"Feature","properties":{"height":11.2,"gml_id":"bldg_dcc437a8-10d0-49c5-a18d-6edb104d2a79"},"geometry":{"type":"Polygon","coordinates":[[[139.82454179367377,35.633445001563054],[139.8244009097114,35.63343156065196],[139.82440698709954,35.633388925875835],[139.82454787100787,35.633402186504085],[139.82454179367377,35.633445001563054]]]}},{"type":"Feature","properties":{"height":13.5,"gml_id":"bldg_2d47857d-2fc0-45cc-9d63-e4a153e44c42"},"geometry":{"type":"Polygon","coordinates":[[[139.82248447732502,35.638445502142105],[139.8224649334755,35.63844360748602],[139.82259457817918,35.637519706344385],[139.82267694848522,35.63752782606482],[139.8225416734604,35.63845100568707],[139.82248447732502,35.638445502142105]]]}},{"type":"Feature","properties":{"height":11.0,"gml_id":"bldg_f385ae1a-5184-45fe-837e-2dae03aca5d3"},"geometry":{"type":"Polygon","coordinates":[[[139.8218839571316,35.63966429009446],[139.82182183964545,35.640091357083016],[139.82179832029598,35.64008919152588],[139.8218223060059,35.63991928406603],[139.82177769696287,35.63991288001089],[139.82181759546927,35.63965752343307],[139.8218839571316,35.63966429009446]]]}},{"type":"Feature","properties":{"height":1.5,"gml_id":"bldg_68e5607d-2f07-42f9-9657-3ac8f743680e"},"geometry":{"type":"Polygon","coordinates":[[[139.82159858410563,35.638473992788306],[139.82157881945912,35.63847191769131],[139.82158202461036,35.638451366580206],[139.8216017892651,35.63845335153885],[139.82159858410563,35.638473992788306]]]}},{"type":"Feature","properties":{"height":12.3,"gml_id":"bldg_eb84ef4c-f4b3-45d9-9c34-c14312cf1edc"},"geometry":{"type":"Polygon","coordinates":[[[139.8225539164533,35.64019589452876],[139.82248970286562,35.64063215569136],[139.8224685021461,35.64063035102513],[139.82253172213066,35.64019354895783],[139.8225539164533,35.64019589452876]]]}},{"type":"Feature","properties":{"height":10.5,"gml_id":"bldg_c638626f-9021-4e57-9845-c2e194e84f9a"},"geometry":{"type":"Polygon","coordinates":[[[139.82247563530856,35.638508507684186],[139.822483482631,35.63845235252714],[139.82274174841783,35.63847905630852],[139.8227553301464,35.63847734488331],[139.82276802901114,35.63847193772837],[139.82278106059954,35.638455353511056],[139.82279332334696,35.63840758153772],[139.82284514083253,35.638169171509325],[139.82291426100164,35.63818215735497],[139.82284322068,35.63849853495787],[139.82282798014393,35.63851953574249],[139.8228057841489,35.63853341502944],[139.8227801661464,35.63853981257323],[139.82276194707893,35.63853954056224],[139.82247563530856,35.638508507684186]]]}},{"type":"Feature","properties":{"height":6.6,"gml_id":"bldg_8b34cf87-7489-43af-a359-ee4fff59cfc5"},"geometry":{"type":"Polygon","coordinates":[[[139.824629019113,35.63344392624238],[139.82458187374664,35.63343959620746],[139.82458706727414,35.633401287977264],[139.82463421261824,35.63340561801019],[139.824629019113,35.63344392624238]]]}},{"type":"Feature","properties":{"height":11.5,"gml_id":"bldg_993bd8ca-d221-4745-bd8d-72f02e94e2c0"},"geometry":{"type":"Polygon","coordinates":[[[139.82479350008506,35.63375049700271],[139.824543418785,35.63372875578204],[139.82458065883367,35.63344311149727],[139.8248062280487,35.63346277773735],[139.82480280251434,35.633488827347605],[139.82482742413956,35.63349090226028],[139.82479350008506,35.63375049700271]]]}},{"type":"Feature","properties":{"height":8.5,"gml_id":"bldg_a6f8497b-7ab3-4f24-a5a2-50526f5fb8b3"},"geometry":{"type":"Polygon","coordinates":[[[139.8244484652591,35.633720095578234],[139.82421008787597,35.633697993976554],[139.8242226850996,35.63360776689584],[139.82446106220834,35.63362995861079],[139.8244484652591,35.633720095578234]]]}},{"type":"Feature","properties":{"height":2.6,"gml_id":"bldg_c7e85ab8-0e6b-46a3-88c6-bd478cde21f5"},"geometry":{"type":"Polygon","coordinates":[[[139.8212236532176,35.634475530632564],[139.82122630604368,35.63445624139209],[139.82124849879628,35.63445822665394],[139.82124584597545,35.63447751589488],[139.8212236532176,35.634475530632564]]]}},{"type":"Feature","properties":{"height":7.3,"gml_id":"bldg_01269818-4ce3-48b4-a9dc-7224e4ba69b2"},"geometry":{"type":"Polygon","coordinates":[[[139.82452994838906,35.633729746315225],[139.8244586228806,35.63372280046384],[139.8244714404639,35.63363428599374],[139.8245426555025,35.63364105155379],[139.82452994838906,35.633729746315225]]]}},{"type":"Feature","properties":{"height":2.9,"gml_id":"bldg_d69472ae-aebb-45c4-85b6-58b4365f7097"},"geometry":{"type":"Polygon","coordinates":[[[139.8212222166764,35.63448328234612],[139.82124595522154,35.63448526776384],[139.82124197560748,35.63451672548567],[139.8212182370531,35.634514740067196],[139.8212222166764,35.63448328234612]]]}},{"type":"Feature","properties":{"height":9.3,"gml_id":"bldg_5d550644-668b-46d5-851d-5c9b5ff68b9f"},"geometry":{"type":"Polygon","coordinates":[[[139.82418215721907,35.63366626331874],[139.82398220307186,35.63364758941868],[139.82404994173814,35.63316274289439],[139.82424989469362,35.63318141668331],[139.82418215721907,35.63366626331874]]]}},{"type":"Feature","properties":{"height":10.5,"gml_id":"bldg_b504b5d3-9794-4857-9b83-5d6a3c91f5ce"},"geometry":{"type":"Polygon","coordinates":[[[139.82309677906903,35.63561117118079],[139.8220015897312,35.63550588224485],[139.82201374722413,35.63542160448052],[139.82310893542828,35.63552689330722],[139.82309677906903,35.63561117118079]]]}},{"type":"Feature","properties":{"height":9.4,"gml_id":"bldg_25841bd6-61d3-4dd2-953c-1fc3b104e989"},"geometry":{"type":"Polygon","coordinates":[[[139.82199750444067,35.635505521309014],[139.82197208411122,35.6356819187197],[139.82189203440564,35.63567433956258],[139.82191745490854,35.63549794216863],[139.82199750444067,35.635505521309014]]]}},{"type":"Feature","properties":{"height":7.9,"gml_id":"bldg_e3881d18-431b-4c7c-9c76-78f790999682"},"geometry":{"type":"Polygon","coordinates":[[[139.82109494437773,35.63715639796016],[139.82111616665998,35.63701028666854],[139.82144829534946,35.63704240896835],[139.82142707367655,35.63718843017995],[139.82109494437773,35.63715639796016]]]}},{"type":"Feature","properties":{"height":9.1,"gml_id":"bldg_7d90b09b-4cb3-45ea-bdff-49f4bf3cad30"},"geometry":{"type":"Polygon","coordinates":[[[139.82138804184723,35.63681363315324],[139.82106055167176,35.63678115060746],[139.82106751510713,35.636734009221506],[139.82139511548263,35.63676667203522],[139.82138804184723,35.63681363315324]]]}},{"type":"Feature","properties":{"height":10.4,"gml_id":"bldg_01521434-84f5-4b4c-a412-246d75ffc090"},"geometry":{"type":"Polygon","coordinates":[[[139.82430895632314,35.63522151194061],[139.82429337562348,35.63533066773521],[139.82429017361625,35.635330577357],[139.82423353247324,35.6353178636518],[139.82422911594935,35.63531741262873],[139.82424381262396,35.63521528752959],[139.82430895632314,35.63522151194061]]]}},{"type":"Feature","properties":{"height":10.3,"gml_id":"bldg_6841d51c-483d-493b-a690-3a77c8d42e6b"},"geometry":{"type":"Polygon","coordinates":[[[139.82387435438253,35.63531891763831],[139.82388938318616,35.63521309695577],[139.82391279072817,35.63521544237327],[139.82390428231076,35.63527096663694],[139.8239022948849,35.63527069606774],[139.8238947808197,35.6353208121358],[139.82387435438253,35.63531891763831]]]}},{"type":"Feature","properties":{"height":8.4,"gml_id":"bldg_f5b0ba8f-633f-4b53-8258-3d689e48467b"},"geometry":{"type":"Polygon","coordinates":[[[139.823159481605,35.6365854766153],[139.82271660810872,35.63654343415789],[139.82271915001402,35.636525767362755],[139.822726326973,35.636526398959894],[139.82273141100328,35.636489352749756],[139.82315849505738,35.63652868968489],[139.8231530796648,35.63656816960681],[139.82316191283817,35.63656907173151],[139.823159481605,35.6365854766153]]]}},{"type":"Feature","properties":{"height":5.5,"gml_id":"bldg_2a880bfd-59d7-4e46-b941-7cc4da385f35"},"geometry":{"type":"Polygon","coordinates":[[[139.82296207890712,35.63642041737194],[139.82295633231723,35.63645881560296],[139.82293877640384,35.63645710147011],[139.82294441258614,35.636418703230376],[139.82296207890712,35.63642041737194]]]}},{"type":"Feature","properties":{"height":16.5,"gml_id":"bldg_5bd098de-ef3b-4f5c-8e89-8470cc9148a9"},"geometry":{"type":"Polygon","coordinates":[[[139.82483762943374,35.64034633695417],[139.82472999554187,35.64009565609918],[139.82478874132823,35.640078353823114],[139.82489924641865,35.64032822358725],[139.82483762943374,35.64034633695417]]]}},{"type":"Feature","properties":{"height":7.8,"gml_id":"bldg_b005b0dd-cd6c-490b-b93d-2b418feefbd5"},"geometry":{"type":"Polygon","coordinates":[[[139.82464135428117,35.64086822076634],[139.82479745290962,35.6412264394882],[139.82474853418856,35.64124094819467],[139.82458945427686,35.64088345029623],[139.82464135428117,35.64086822076634]]]}},{"type":"Feature","properties":{"height":10.6,"gml_id":"bldg_f4022900-293b-4b2e-b55d-fb91c7fd7a3a"},"geometry":{"type":"Polygon","coordinates":[[[139.8243494270478,35.64061301926397],[139.82446026386833,35.6408529742766],[139.8243011401828,35.64090271850887],[139.82418875782406,35.640663123785686],[139.8243494270478,35.64061301926397]]]}},{"type":"Feature","properties":{"height":27.3,"gml_id":"bldg_f411deb3-39fc-434f-8c88-40f3115b436f"},"geometry":{"type":"Polygon","coordinates":[[[139.8239910219794,35.640409911551515],[139.82406103144567,35.64038990637048],[139.82409183072124,35.64046183869748],[139.82402193162136,35.64048184390469],[139.8239910219794,35.640409911551515]]]}},{"type":"Feature","properties":{"height":32.7,"gml_id":"bldg_0035eccc-51e1-4315-bc9e-13b844fd2e7d"},"geometry":{"type":"Polygon","coordinates":[[[139.82346341893734,35.637794610928836],[139.8234689446668,35.63775522114788],[139.82347579645455,35.637707268380574],[139.82346585898685,35.63770627605075],[139.82347481058835,35.63764300002295],[139.82353178539583,35.63764841294253],[139.82353023828384,35.63765877866779],[139.82356601317883,35.637662116673816],[139.82356888648144,35.6376420161693],[139.8236180217446,35.63764661717183],[139.8236152590027,35.637665636032395],[139.8236520276519,35.63766906423086],[139.8236535748027,35.63765824781487],[139.82371297880954,35.637663750981766],[139.8237038063418,35.6377288297661],[139.82369397927548,35.63772792760177],[139.82366513568002,35.63793199734526],[139.82367374818412,35.63793280927669],[139.8236651281892,35.63799419244841],[139.82360638643854,35.63798877944951],[139.82360716006383,35.637983010690796],[139.82348371412073,35.63797137287994],[139.82348271942936,35.637978944376435],[139.82342773188176,35.63797380201087],[139.82343679406117,35.637909714757306],[139.82344706281856,35.637910616978836],[139.82346341893734,35.637794610928836]]]}},{"type":"Feature","properties":{"height":18.1,"gml_id":"bldg_c5ba89eb-d259-4e41-998e-559ceece8034"},"geometry":{"type":"Polygon","coordinates":[[[139.8245326562232,35.63622287003551],[139.82454470036748,35.63614210739382],[139.82476398325008,35.63616384641663],[139.82472321057514,35.636437411903806],[139.82450403738218,35.636415582677905],[139.82451055670418,35.636372046571545],[139.8245326562232,35.63622287003551]]]}},{"type":"Feature","properties":{"height":41.8,"gml_id":"bldg_5f6f591a-ce6c-4dd2-b496-4fc9a5b51c5b"},"geometry":{"type":"Polygon","coordinates":[[[139.82366524291024,35.64162548402212],[139.82361930330978,35.64165531593004],[139.82353548553633,35.6417097523579],[139.82347950805053,35.641652239890696],[139.8234015430705,35.64170298105524],[139.82334026603974,35.64164014995739],[139.82327036253966,35.64168557267549],[139.82286670958362,35.641271265947445],[139.82285069694626,35.641281720537684],[139.8228230950196,35.64125332473115],[139.82283910764315,35.64124296028231],[139.82283204153316,35.64123583878168],[139.8231441212965,35.64103314570874],[139.8232024166831,35.64109300211505],[139.82328016031803,35.6410425314691],[139.8235997929754,35.64137038883791],[139.82351851540855,35.64142320298179],[139.82369616377824,35.641605385775755],[139.82366524291024,35.64162548402212]]]}},{"type":"Feature","properties":{"height":39.3,"gml_id":"bldg_8c8a4393-4007-45ea-a6c9-2f194d6234fc"},"geometry":{"type":"Polygon","coordinates":[[[139.82216897793964,35.63947827241427],[139.8221764943616,35.63942175670439],[139.8221340936023,35.639417966981725],[139.82215631154594,35.63924905078787],[139.82257711639556,35.6392859554637],[139.82278282616312,35.63930409135702],[139.82275165665456,35.639540069408326],[139.822167651444,35.63948872827711],[139.82216897793964,35.63947827241427]]]}},{"type":"Feature","properties":{"height":16.8,"gml_id":"bldg_d4379742-71d4-40ed-9761-6554d831f553"},"geometry":{"type":"Polygon","coordinates":[[[139.82316785189974,35.63588195134498],[139.82318874133279,35.6357160092985],[139.82322451538187,35.635719076993276],[139.82322517854104,35.63571375891488],[139.8232280521995,35.635690954276036],[139.82329109843562,35.63569627678102],[139.8232742986673,35.63582959018228],[139.82317867159261,35.63588979425158],[139.82316696771102,35.63588880174792],[139.82316785189974,35.63588195134498]]]}},{"type":"Feature","properties":{"height":20.1,"gml_id":"bldg_2c0885fa-63e4-4a0b-b343-0f9b202a8404"},"geometry":{"type":"Polygon","coordinates":[[[139.82499708043102,35.641384014311235],[139.82501187356172,35.64141790713942],[139.82463167595668,35.64152874974191],[139.82459425190086,35.64144320628052],[139.82451121128915,35.641467447289806],[139.8244745601603,35.6413836164648],[139.82448869472526,35.6413794711656],[139.824478648804,35.64135639515573],[139.82454755475774,35.64133629947622],[139.82454137263926,35.64132214739352],[139.82501178726844,35.641185171381494],[139.825056497828,35.64128730056963],[139.82496627983073,35.64131361456886],[139.82499708043102,35.641384014311235]]]}},{"type":"Feature","properties":{"height":31.1,"gml_id":"bldg_17d94b5c-bc06-41d4-8c7f-89f891617495"},"geometry":{"type":"Polygon","coordinates":[[[139.82402193162136,35.64048184390469],[139.82409183072124,35.64046183869748],[139.82406103144567,35.64038990637048],[139.8239910219794,35.640409911551515],[139.82387765032422,35.640145889098385],[139.82465581131623,35.639923127026954],[139.82472999554187,35.64009565609918],[139.82483762943374,35.64034633695417],[139.82483972692324,35.64035120454306],[139.82406145186943,35.64057396777772],[139.82402193162136,35.64048184390469]]]}},{"type":"Feature","properties":{"height":9.1,"gml_id":"bldg_40458c60-5019-430f-93b6-b9a1a7c97e91"},"geometry":{"type":"Polygon","coordinates":[[[139.82362708021478,35.6376116444215],[139.8236228807941,35.63764102901776],[139.82339663781397,35.63761982817588],[139.82343332860844,35.637358972292034],[139.82365957086307,35.637380173065814],[139.8236593498223,35.637381885667025],[139.82362708021478,35.6376116444215]]]}},{"type":"Feature","properties":{"height":11.7,"gml_id":"bldg_2863ae3a-ae33-479b-97c1-472f7c4d2e34"},"geometry":{"type":"Polygon","coordinates":[[[139.82396753408966,35.63729772127933],[139.823968418131,35.63729168211268],[139.8241964269704,35.637313242567096],[139.82412095126375,35.637843157164205],[139.8238415972292,35.63781672509082],[139.8238588367701,35.63769504037125],[139.8238973720938,35.637698739047266],[139.82390090835005,35.637674131695086],[139.82391382706308,35.63767539463567],[139.82395383108985,35.63739425784063],[139.82396753408966,35.63729772127933]]]}},{"type":"Feature","properties":{"height":11.9,"gml_id":"bldg_418817b6-67a1-4727-bfe9-12b8b66d4a49"},"geometry":{"type":"Polygon","coordinates":[[[139.82357600385726,35.638133718622996],[139.8235604218692,35.63824062082401],[139.82345066729368,35.63822997560589],[139.82332458588903,35.638098544242034],[139.82334337304655,35.63796946842841],[139.8235963377619,35.63799400663187],[139.8235933539808,35.6380145578161],[139.82357600385726,35.638133718622996]]]}},{"type":"Feature","properties":{"height":22.8,"gml_id":"bldg_45f3f323-bc4a-4676-917c-26608b22ad60"},"geometry":{"type":"Polygon","coordinates":[[[139.82346341893734,35.637794610928836],[139.82343504190084,35.63779190446538],[139.82344056763299,35.63775260482353],[139.8234689446668,35.63775522114788],[139.82346341893734,35.637794610928836]]]}},{"type":"Feature","properties":{"height":10.1,"gml_id":"bldg_dcc7df3d-77a4-4fb3-97bc-29d2c74ee5f8"},"geometry":{"type":"Polygon","coordinates":[[[139.82468295510398,35.638056735357196],[139.82496054397402,35.638079199291234],[139.82492374473105,35.63836547446862],[139.8246441675136,35.638341477964346],[139.8246427309309,35.63835202398633],[139.8245499801684,35.63834453581948],[139.82455882287377,35.63826016745834],[139.82465433411738,35.63826657416347],[139.82468295510398,35.638056735357196]]]}},{"type":"Feature","properties":{"height":11.4,"gml_id":"bldg_ba0ee709-a084-4b95-ac19-700d847cee78"},"geometry":{"type":"Polygon","coordinates":[[[139.8247662443897,35.63773810407138],[139.82497570481385,35.63775695759363],[139.8249581347773,35.63788747595654],[139.8247485635988,35.63786862239623],[139.8247662443897,35.63773810407138]]]}},{"type":"Feature","properties":{"height":12.5,"gml_id":"bldg_380b34b6-46d8-429b-b9d2-a5635bcde0e9"},"geometry":{"type":"Polygon","coordinates":[[[139.82208274000837,35.63711358865357],[139.82257861559748,35.63716185769257],[139.82258193113492,35.63713923338979],[139.8226676135321,35.637147533688335],[139.82266418758954,35.6371702481215],[139.82278409882778,35.637181976601966],[139.82278785635475,35.6371564679213],[139.82291494460844,35.637168827864556],[139.82291140820095,35.63719244367355],[139.82307658990175,35.63720859252532],[139.8230368047708,35.63748161665071],[139.8220431726198,35.63738489985622],[139.82208274000837,35.63711358865357]]]}},{"type":"Feature","properties":{"height":13.3,"gml_id":"bldg_a3308e32-3d2d-47db-b532-b210f6b1d591"},"geometry":{"type":"Polygon","coordinates":[[[139.8224169361399,35.640623586028575],[139.8221362480447,35.64059633865076],[139.82216177973058,35.64042183425378],[139.82213814987884,35.640419488477264],[139.82194193376432,35.64040045100637],[139.8219808397317,35.64013427776546],[139.82248137154335,35.64018299830987],[139.8224169361399,35.640623586028575]]]}},{"type":"Feature","properties":{"height":18.3,"gml_id":"bldg_a814c55c-9e9e-4eaa-91ea-d16536a87cc6"},"geometry":{"type":"Polygon","coordinates":[[[139.82247563530856,35.638508507684186],[139.8221287040834,35.638476026296935],[139.82226708437332,35.63748911997656],[139.82259457817918,35.637519706344385],[139.8224649334755,35.63844360748602],[139.82248447732502,35.638445502142105],[139.822483482631,35.63845235252714],[139.82247563530856,35.638508507684186]]]}},{"type":"Feature","properties":{"height":13.0,"gml_id":"bldg_7fbfb39d-ea2b-449f-b3f7-8c15bf658a84"},"geometry":{"type":"Polygon","coordinates":[[[139.82288473735449,35.640201061533645],[139.8223880699454,35.64015216274109],[139.822452836145,35.639713377789214],[139.82294961129915,35.63976227632737],[139.82288473735449,35.640201061533645]]]}},{"type":"Feature","properties":{"height":12.9,"gml_id":"bldg_32b39718-a049-4e37-ac2e-4f4bb6f30045"},"geometry":{"type":"Polygon","coordinates":[[[139.82298836089825,35.640681054232196],[139.82248970286562,35.64063215569136],[139.8225539164533,35.64019589452876],[139.82305257181494,35.64024479280687],[139.82298836089825,35.640681054232196]]]}},{"type":"Feature","properties":{"height":7.7,"gml_id":"bldg_c2cb4d60-ed58-45bd-b541-85a82d5cba77"},"geometry":{"type":"Polygon","coordinates":[[[139.82163786639043,35.638657787628304],[139.8227143269896,35.63876316830784],[139.82269266516397,35.638911623383045],[139.82161377338073,35.63880624227585],[139.821605483488,35.63886410994834],[139.8215153826389,35.638855538049654],[139.82155384705263,35.63859306048567],[139.82164593508568,35.63860208323786],[139.82163786639043,35.638657787628304]]]}},{"type":"Feature","properties":{"height":15.4,"gml_id":"bldg_9af4fcad-5ea1-4fbd-9cb7-21c9f8f6a854"},"geometry":{"type":"Polygon","coordinates":[[[139.82328095178755,35.64089470556545],[139.82278129830902,35.64084688980375],[139.82239703481628,35.64081016944886],[139.82242090853836,35.64064404766716],[139.8233168595486,35.64072966626551],[139.82329309807733,35.640895788231944],[139.82328095178755,35.64089470556545]]]}},{"type":"Feature","properties":{"height":10.7,"gml_id":"bldg_e0025304-931a-4996-9051-85102d787a31"},"geometry":{"type":"Polygon","coordinates":[[[139.82330551529014,35.64049602816544],[139.8233314640389,35.64049846404329],[139.82338952598334,35.64065801274272],[139.8233804645731,35.64071308618443],[139.8232327217407,35.64070090528455],[139.82323415856214,35.64069026914575],[139.82318027364155,35.64068314373041],[139.82318602170352,35.640634650083214],[139.82317553203097,35.64063158451418],[139.8231981868576,35.64048601388754],[139.8232731621641,35.64049305092053],[139.82330551529014,35.64049602816544]]]}},{"type":"Feature","properties":{"height":13.7,"gml_id":"bldg_847df068-6735-4a6e-9cd4-3e3fc7c4473e"},"geometry":{"type":"Polygon","coordinates":[[[139.8216353857051,35.63976864578953],[139.82162985938382,35.639804970787736],[139.82132775327153,35.639774835029904],[139.8213527332891,35.63960745161244],[139.82165494920116,35.63963758731903],[139.82164864916794,35.639679320512194],[139.8216353857051,35.63976864578953]]]}},{"type":"Feature","properties":{"height":6.8,"gml_id":"bldg_41f11448-5c9a-4cac-bc97-f3e192d95862"},"geometry":{"type":"Polygon","coordinates":[[[139.82446552759887,35.639184614110185],[139.82442435135724,35.63909176912348],[139.82464551931972,35.639114229593744],[139.82463225951,35.639201482040306],[139.82446552759887,35.639184614110185]]]}},{"type":"Feature","properties":{"height":8.1,"gml_id":"bldg_e2706a28-a131-4f47-b7d0-1fba74a21994"},"geometry":{"type":"Polygon","coordinates":[[[139.8243133772722,35.639113303802404],[139.8243746621097,35.63909573150207],[139.82438117517557,35.63911087513911],[139.82442214215536,35.63909907012303],[139.82454070267616,35.63937390902583],[139.824438450552,35.63940319630696],[139.8243133772722,35.639113303802404]]]}},{"type":"Feature","properties":{"height":10.7,"gml_id":"bldg_03c1326b-516a-400b-b7aa-1f24b748be14"},"geometry":{"type":"Polygon","coordinates":[[[139.82361930330978,35.64165531593004],[139.82366524291024,35.64162548402212],[139.823687435203,35.64164829065874],[139.8236414956086,35.64167803243725],[139.82361930330978,35.64165531593004]]]}},{"type":"Feature","properties":{"height":13.2,"gml_id":"bldg_c24f2911-3476-4997-8464-ea21499ae6b4"},"geometry":{"type":"Polygon","coordinates":[[[139.82231453032264,35.64014647735511],[139.82182073438887,35.640098658139145],[139.82182183964545,35.640091357083016],[139.8218839571316,35.63966429009446],[139.82188484140724,35.639657890394304],[139.82238305142278,35.63970616044112],[139.82231453032264,35.64014647735511]]]}},{"type":"Feature","properties":{"height":10.1,"gml_id":"bldg_4f22feef-ffb1-4803-bab9-e493ddb24ea8"},"geometry":{"type":"Polygon","coordinates":[[[139.82316785189974,35.63588195134498],[139.8218789934653,35.63575834681348],[139.82188938279134,35.635685967095384],[139.82197042622954,35.63569363648583],[139.82197208411122,35.6356819187197],[139.82199750444067,35.635505521309014],[139.8220015897312,35.63550588224485],[139.82309677906903,35.63561117118079],[139.82308395958498,35.635700226302426],[139.82322517854104,35.63571375891488],[139.82322451538187,35.635719076993276],[139.82318874133279,35.6357160092985],[139.82316785189974,35.63588195134498]]]}},{"type":"Feature","properties":{"height":12.9,"gml_id":"bldg_0acebf09-d4d2-4f8f-9822-27f3949a2fd3"},"geometry":{"type":"Polygon","coordinates":[[[139.8248318214766,35.63888484214457],[139.824678892365,35.63887004865213],[139.82469447302472,35.638762785766176],[139.82484740192535,35.63877766937689],[139.8248318214766,35.63888484214457]]]}},{"type":"Feature","properties":{"height":12.2,"gml_id":"bldg_64445d34-ecce-431d-9539-c5a90308cb4d"},"geometry":{"type":"Polygon","coordinates":[[[139.82201374722413,35.63542160448052],[139.8211636782083,35.63534003696768],[139.82121485371354,35.634984718630356],[139.82158583926258,35.63502035984081],[139.8215814181782,35.63505127670078],[139.82327868193804,35.635214129184966],[139.82323182545068,35.635538801873544],[139.82310893542828,35.63552689330722],[139.82201374722413,35.63542160448052]]]}},{"type":"Feature","properties":{"height":10.9,"gml_id":"bldg_58b2ab97-7ed9-44eb-9b52-09193c39c41f"},"geometry":{"type":"Polygon","coordinates":[[[139.82138804184723,35.63681363315324],[139.8215845802464,35.63683312225759],[139.82155562264876,35.637027276351844],[139.8210312612441,35.63697746785158],[139.82106055167176,35.63678115060746],[139.82138804184723,35.63681363315324]]]}},{"type":"Feature","properties":{"height":8.4,"gml_id":"bldg_f39e0ce4-4118-4ff2-aaee-0a304d3be78b"},"geometry":{"type":"Polygon","coordinates":[[[139.82474874775224,35.63924412558377],[139.82465941918593,35.639234563675],[139.82470339565342,35.638961089605594],[139.8248659311557,35.638978497739046],[139.82484913634428,35.63908314656121],[139.82477592901552,35.63907529939284],[139.82474874775224,35.63924412558377]]]}},{"type":"Feature","properties":{"height":6.8,"gml_id":"bldg_4d6b93db-b694-4b90-94a6-57a7806be1a3"},"geometry":{"type":"Polygon","coordinates":[[[139.82489719393547,35.63884446499811],[139.82485843715816,35.63884094690267],[139.82486893512032,35.63876378966772],[139.82490769186083,35.63876730775983],[139.82489719393547,35.63884446499811]]]}},{"type":"Feature","properties":{"height":8.2,"gml_id":"bldg_4ec30427-e53f-4f9a-a587-fd1a44f6425f"},"geometry":{"type":"Polygon","coordinates":[[[139.82109494437773,35.63715639796016],[139.8207919649725,35.63712707199817],[139.82081318778438,35.63698105089717],[139.82111616665998,35.63701028666854],[139.82109494437773,35.63715639796016]]]}},{"type":"Feature","properties":{"height":15.9,"gml_id":"bldg_11733f9e-892c-4dfd-9728-c44023f4a2b9"},"geometry":{"type":"Polygon","coordinates":[[[139.8250986030152,35.635572294960824],[139.82503069862074,35.6355658905112],[139.82461764143187,35.63552656122347],[139.82458219869855,35.63552313341493],[139.8242701702233,35.63549345498443],[139.82428442499656,35.635393312883224],[139.82429337562348,35.63533066773521],[139.82430895632314,35.63522151194061],[139.82514301742378,35.63530089286369],[139.82513649825574,35.635347133148194],[139.82511351557423,35.635508117817345],[139.82510423411074,35.63557283617285],[139.8250986030152,35.635572294960824]]]}},{"type":"Feature","properties":{"height":8.3,"gml_id":"bldg_0375e325-21fb-428c-999d-595819d74f94"},"geometry":{"type":"Polygon","coordinates":[[[139.82455471119403,35.63345104174432],[139.8245315049804,35.633631045433084],[139.82422378956758,35.63360470229088],[139.82423495100812,35.633517990476925],[139.8242124271955,35.63351609587781],[139.82422447268698,35.633422713925924],[139.82455471119403,35.63345104174432]]]}},{"type":"Feature","properties":{"height":9.5,"gml_id":"bldg_f2672637-bb1e-4a33-9aa1-5aee58f916ed"},"geometry":{"type":"Polygon","coordinates":[[[139.82429017361625,35.635330577357],[139.82426918781877,35.63539313146194],[139.82421254663495,35.63538041774699],[139.82423353247324,35.6353178636518],[139.82429017361625,35.635330577357]]]}},{"type":"Feature","properties":{"height":13.4,"gml_id":"bldg_3892a037-9f80-4a6a-9ab4-b94c305e89d0"},"geometry":{"type":"Polygon","coordinates":[[[139.82387435438253,35.63531891763831],[139.82385578927372,35.63545015691811],[139.82371048535856,35.63543644444238],[139.82374971553207,35.635159904580085],[139.82389490853927,35.63517361700042],[139.82388938318616,35.63521309695577],[139.82387435438253,35.63531891763831]]]}},{"type":"Feature","properties":{"height":7.1,"gml_id":"bldg_45681110-c3ba-42a3-9729-2c2e759437e3"},"geometry":{"type":"Polygon","coordinates":[[[139.82296207890712,35.63642041737194],[139.82296716235632,35.636386976665335],[139.823078349685,35.63639816327616],[139.8230675197439,35.63647000222366],[139.82295633231723,35.63645881560296],[139.82296207890712,35.63642041737194]]]}},{"type":"Feature","properties":{"height":12.0,"gml_id":"bldg_b6a914d3-1542-4ebe-8dfb-0c97075dc364"},"geometry":{"type":"Polygon","coordinates":[[[139.823159481605,35.6365854766153],[139.82313969949342,35.6367242872336],[139.82267595684544,35.63668016968927],[139.82267761462066,35.63666863219104],[139.8226272654556,35.63666385042064],[139.82264539064968,35.636536667521206],[139.82271660810872,35.63654343415789],[139.823159481605,35.6365854766153]]]}},{"type":"Feature","properties":{"height":5.9,"gml_id":"bldg_54f7671d-b8aa-4aae-8acb-b5b8bdf32272"},"geometry":{"type":"Polygon","coordinates":[[[139.82360792091058,35.63352551307078],[139.8235903656137,35.63352388917005],[139.823591249784,35.633516678209716],[139.82358550843094,35.633516136917876],[139.82358959730297,35.6334862114664],[139.82359467619366,35.6334866625666],[139.82359567080778,35.6334791812014],[139.82361410937887,35.633480895310534],[139.82360792091058,35.63352551307078]]]}},{"type":"Feature","properties":{"height":12.9,"gml_id":"bldg_329af3c4-8069-4723-879a-03b4f35b32b2"},"geometry":{"type":"Polygon","coordinates":[[[139.8243494270478,35.64061301926397],[139.82484291674595,35.64046838390132],[139.82491025775644,35.640621622877006],[139.82492152107864,35.64061864911697],[139.82491820924133,35.64061089703556],[139.82510681494577,35.64055709780206],[139.82516609727526,35.64069528307083],[139.82447814796444,35.6408916447037],[139.82446026386833,35.6408529742766],[139.8243494270478,35.64061301926397]]]}},{"type":"Feature","properties":{"height":2.6,"gml_id":"bldg_1df1e999-d7dc-4e8a-9393-ef6dd4e5c722"},"geometry":{"type":"Polygon","coordinates":[[[139.8207726158985,35.63799969438423],[139.82074799300963,35.63799752850624],[139.82075683666457,35.63793235977794],[139.8207814595337,35.63793452565414],[139.8207726158985,35.63799969438423]]]}},{"type":"Feature","properties":{"height":3.4,"gml_id":"bldg_3425582b-6753-4657-9211-830329fd299f"},"geometry":{"type":"Polygon","coordinates":[[[139.82404817194484,35.63891840569398],[139.82405876906552,35.63894553799329],[139.82397694581542,35.63896698446593],[139.82396623828967,35.63893994228876],[139.82404817194484,35.63891840569398]]]}},{"type":"Feature","properties":{"height":3.0,"gml_id":"bldg_1a559970-f7ee-41e2-98b9-2b7ec76b4cd5"},"geometry":{"type":"Polygon","coordinates":[[[139.82491306920397,35.63697843270288],[139.82485995930446,35.63697356153505],[139.82487498734707,35.636865577450195],[139.82492798675958,35.636870448603766],[139.82491306920397,35.63697843270288]]]}},{"type":"Feature","properties":{"height":9.8,"gml_id":"bldg_2fb4a7a7-230a-462f-b08c-35ae8b3c7ae0"},"geometry":{"type":"Polygon","coordinates":[[[139.825101626817,35.6373104234147],[139.82463489852086,35.637265592109],[139.8246611975372,35.637082704320875],[139.8247274469426,35.63708901872119],[139.82474159072314,35.636991580719915],[139.8248150170773,35.636998526548766],[139.82480054212462,35.63709605467296],[139.825127924794,35.637127445388074],[139.825101626817,35.6373104234147]]]}},{"type":"Feature","properties":{"height":2.7,"gml_id":"bldg_86cd933c-a499-4f7d-9ed9-ad577e47de17"},"geometry":{"type":"Polygon","coordinates":[[[139.82160338215368,35.636620218488574],[139.8215655098977,35.63661687969427],[139.8215695998262,35.63658596281061],[139.8216074720678,35.63658930160364],[139.82160338215368,35.636620218488574]]]}},{"type":"Feature","properties":{"height":6.5,"gml_id":"bldg_634c649b-00b0-41fe-a868-039fb63f4228"},"geometry":{"type":"Polygon","coordinates":[[[139.82164593508568,35.63860208323786],[139.82272184251966,35.638709987656455],[139.82271410618714,35.63876289787492],[139.82163786639043,35.638657787628304],[139.82164593508568,35.63860208323786]]]}},{"type":"Feature","properties":{"height":7.7,"gml_id":"bldg_bfa3c5ef-6dd7-4e6c-9ef2-88a1e6032695"},"geometry":{"type":"Polygon","coordinates":[[[139.82269266516397,35.638911623383045],[139.82268536996813,35.63896831942515],[139.821605483488,35.63886410994834],[139.82161377338073,35.63880624227585],[139.82269266516397,35.638911623383045]]]}},{"type":"Feature","properties":{"height":2.6,"gml_id":"bldg_eb41d5f3-1f3a-4052-97d0-c24d55e4eaa1"},"geometry":{"type":"Polygon","coordinates":[[[139.82163465317853,35.636460677530344],[139.82163144659623,35.63649168464055],[139.82160903236095,35.636490241156814],[139.8216102487271,35.63647798162573],[139.82156950564357,35.63647518338034],[139.82157138546197,35.63645643489032],[139.82163465317853,35.636460677530344]]]}},{"type":"Feature","properties":{"height":4.1,"gml_id":"bldg_182f5161-ff1c-4893-b196-a169793fd2f1"},"geometry":{"type":"Polygon","coordinates":[[[139.82160902175067,35.636562891363795],[139.8215477414179,35.636558829180515],[139.82155293850005,35.63650754125067],[139.82161410839106,35.636511513282734],[139.82160902175067,35.636562891363795]]]}},{"type":"Feature","properties":{"height":8.9,"gml_id":"bldg_fe5a2578-d8ac-47c0-ba39-052da88d7d81"},"geometry":{"type":"Polygon","coordinates":[[[139.82258196172566,35.63691082409207],[139.8225472586238,35.63715121862339],[139.821954438382,35.637094196965776],[139.82198925365083,35.636853802613686],[139.82258196172566,35.63691082409207]]]}},{"type":"Feature","properties":{"height":4.3,"gml_id":"bldg_2b963408-ccc1-4671-bd90-ca6b49399496"},"geometry":{"type":"Polygon","coordinates":[[[139.82112604581135,35.63957227510816],[139.82098537209322,35.63956153437084],[139.82098658830998,35.63955116864767],[139.82112726201012,35.639561909383566],[139.82112604581135,35.63957227510816]]]}},{"type":"Feature","properties":{"height":7.9,"gml_id":"bldg_e0f3d648-e8f4-4924-b9df-f933db08cdec"},"geometry":{"type":"Polygon","coordinates":[[[139.8224545231652,35.64111619243945],[139.82211171126693,35.640762099764395],[139.82219707500857,35.640707033497065],[139.82253988704832,35.641061125932474],[139.8224545231652,35.64111619243945]]]}},{"type":"Feature","properties":{"height":3.8,"gml_id":"bldg_6f548a32-0697-4cfb-b231-b086f3859ab3"},"geometry":{"type":"Polygon","coordinates":[[[139.82141464061067,35.639866423666696],[139.82137445385302,35.63982378450283],[139.82142525205012,35.63979188075286],[139.82146543881873,35.63983451990003],[139.82141464061067,35.639866423666696]]]}},{"type":"Feature","properties":{"height":2.5,"gml_id":"bldg_4ae54d2f-f9f0-488e-94c0-bacd28903f61"},"geometry":{"type":"Polygon","coordinates":[[[139.82455869345196,35.63742386863064],[139.82453362885965,35.63742269501034],[139.82453628291415,35.637385828827654],[139.82456134749503,35.6373870024474],[139.82455869345196,35.63742386863064]]]}},{"type":"Feature","properties":{"height":14.4,"gml_id":"bldg_83364088-aeb7-4677-90a4-da3d44f54ae1"},"geometry":{"type":"Polygon","coordinates":[[[139.82444310814046,35.63822608687504],[139.82442785966472,35.63832289377478],[139.82416595009133,35.6382954722279],[139.82418119886742,35.63819875549875],[139.82444310814046,35.63822608687504]]]}},{"type":"Feature","properties":{"height":10.4,"gml_id":"bldg_e0f32b67-ad64-4393-b5a1-157a57261853"},"geometry":{"type":"Polygon","coordinates":[[[139.82462595488607,35.63726423939521],[139.82442223732505,35.63724709830732],[139.82444445073037,35.637070249499324],[139.82454139576998,35.63707845915785],[139.8245541048507,35.63697651418139],[139.8246608767939,35.63698544556247],[139.82462595488607,35.63726423939521]]]}},{"type":"Feature","properties":{"height":8.4,"gml_id":"bldg_aee681f6-4b3b-49ec-af70-ec1bb6b49214"},"geometry":{"type":"Polygon","coordinates":[[[139.8244961269372,35.63705979731145],[139.82444434201037,35.63705492605762],[139.82445638688682,35.636969476267986],[139.8245085030092,35.63697434754096],[139.8245018728634,35.63702112859716],[139.8244946958462,35.63702049710584],[139.82449204379,35.63703915544526],[139.82449888955867,35.63703978691243],[139.8244961269372,35.63705979731145]]]}},{"type":"Feature","properties":{"height":12.2,"gml_id":"bldg_d93bc8d0-ea05-437c-9bae-7341285ad8e6"},"geometry":{"type":"Polygon","coordinates":[[[139.8244005961591,35.63724195884744],[139.82404262811744,35.63720785966586],[139.82405511541404,35.6371197959552],[139.82403501977635,35.637117811373116],[139.8240485015789,35.63702316767584],[139.82406881802666,35.6370251522727],[139.8240808631737,35.63694078417438],[139.82443871963403,35.63697479309769],[139.8244005961591,35.63724195884744]]]}},{"type":"Feature","properties":{"height":9.4,"gml_id":"bldg_b2863d88-b4c9-4ea6-94b6-9af192be59d5"},"geometry":{"type":"Polygon","coordinates":[[[139.8237972625611,35.63736810557412],[139.8236708362179,35.63735691840714],[139.82368343508858,35.637262815510766],[139.82380986128535,35.63727400266467],[139.8237972625611,35.63736810557412]]]}},{"type":"Feature","properties":{"height":11.2,"gml_id":"bldg_26dc66cc-cdde-4266-a9f6-af6fc5716020"},"geometry":{"type":"Polygon","coordinates":[[[139.82446221245192,35.6382086015449],[139.82418926176766,35.63817802441059],[139.8242042892572,35.638084823035186],[139.8243727853694,35.6381030435285],[139.82437090697175,35.63811458103093],[139.82447602382638,35.638126306723805],[139.82446221245192,35.6382086015449]]]}},{"type":"Feature","properties":{"height":14.0,"gml_id":"bldg_01bb6c62-a603-476b-8ba9-7cf1be2f69ae"},"geometry":{"type":"Polygon","coordinates":[[[139.8243219938647,35.63809528788624],[139.82410767450887,35.6380747202375],[139.82412889160256,35.637928157747446],[139.82434310015452,35.63794872535063],[139.8243219938647,35.63809528788624]]]}},{"type":"Feature","properties":{"height":15.2,"gml_id":"bldg_43187321-4abb-4a0a-bf00-ea560505fba9"},"geometry":{"type":"Polygon","coordinates":[[[139.8244666016736,35.63745802412834],[139.82419420503092,35.637432675037076],[139.82421067067642,35.63731414502505],[139.82448306694198,35.63733931380385],[139.8244666016736,35.63745802412834]]]}},{"type":"Feature","properties":{"height":10.9,"gml_id":"bldg_4feaf563-8b92-4dac-a6f8-2dedb69da4a2"},"geometry":{"type":"Polygon","coordinates":[[[139.82447515989645,35.637950357615246],[139.8243591117915,35.637939532485724],[139.8243586694041,35.637945932238814],[139.82428259235394,35.6379375437284],[139.8242834768156,35.63792762863333],[139.82412756830288,35.63791319476617],[139.82419398395007,35.63743483832845],[139.82438014556615,35.637452158773954],[139.82436975788443,35.63752787378591],[139.82454796983674,35.63754393145026],[139.82450884749235,35.63785841949872],[139.82448808914137,35.63785652508173],[139.82447515989645,35.637950357615246]]]}},{"type":"Feature","properties":{"height":19.0,"gml_id":"bldg_d9035403-11b5-41da-b36d-02048412709f"},"geometry":{"type":"Polygon","coordinates":[[[139.82370576282315,35.637987615641265],[139.8236852253155,35.637985540827955],[139.82369539189227,35.63791793826805],[139.82371603980084,35.637920013088475],[139.82370576282315,35.637987615641265]]]}},{"type":"Feature","properties":{"height":4.1,"gml_id":"bldg_e1e8c9d7-27fb-4ffe-8d50-e7c51297c781"},"geometry":{"type":"Polygon","coordinates":[[[139.82374388852372,35.63772414579618],[139.82371959697846,35.637721259449215],[139.82372600544358,35.63768583579119],[139.82375029697835,35.63768872213687],[139.82374388852372,35.63772414579618]]]}},{"type":"Feature","properties":{"height":14.5,"gml_id":"bldg_6f5ab141-abbf-4f5e-b717-48f0e813395a"},"geometry":{"type":"Polygon","coordinates":[[[139.82404515384854,35.63828194230027],[139.82385479443766,35.63826498156037],[139.8238929223358,35.637979788463106],[139.8240832810784,35.63799674914345],[139.82404515384854,35.63828194230027]]]}},{"type":"Feature","properties":{"height":9.9,"gml_id":"bldg_eb9f0e1f-3d6f-4c78-bdc4-04a90790fd62"},"geometry":{"type":"Polygon","coordinates":[[[139.82409297325532,35.636292062984985],[139.82364491143912,35.63624930243755],[139.82367121235566,35.63606659511065],[139.82411927314547,35.636109535837136],[139.82409297325532,35.636292062984985]]]}},{"type":"Feature","properties":{"height":9.7,"gml_id":"bldg_cd0eac08-3b2b-460e-b041-9dc4b74353d2"},"geometry":{"type":"Polygon","coordinates":[[[139.82380545500158,35.637186388333305],[139.8236659999736,35.63717330723502],[139.8237036838916,35.63690866553946],[139.82384258639377,35.63692165641331],[139.82382103721667,35.63707308629485],[139.82384411405934,35.63707534156105],[139.82383494186124,35.637139609121206],[139.8238124170741,35.63713744403474],[139.82380545500158,35.637186388333305]]]}},{"type":"Feature","properties":{"height":4.8,"gml_id":"bldg_27af9187-a58d-4d2e-b665-f5044bf617d3"},"geometry":{"type":"Polygon","coordinates":[[[139.8235128533495,35.637159774170605],[139.82346758299303,35.63715508330359],[139.82347277670615,35.63712155245092],[139.82351804704408,35.63712624331602],[139.8235128533495,35.637159774170605]]]}},{"type":"Feature","properties":{"height":12.4,"gml_id":"bldg_95ff6c37-db89-43d0-ba03-c547044dde66"},"geometry":{"type":"Polygon","coordinates":[[[139.82495800472282,35.63807568373934],[139.82463337908698,35.638040777390884],[139.82463691484952,35.63801878401552],[139.8246610020707,35.63786996819166],[139.82498562705595,35.63790460405307],[139.82495800472282,35.63807568373934]]]}},{"type":"Feature","properties":{"height":11.6,"gml_id":"bldg_02a0f275-85c1-4c40-9691-56421bfb55eb"},"geometry":{"type":"Polygon","coordinates":[[[139.8250240638578,35.63566134605472],[139.82501168845312,35.63574760713773],[139.82493517164494,35.6357403006605],[139.82494754713068,35.63565403958527],[139.8250240638578,35.63566134605472]]]}},{"type":"Feature","properties":{"height":4.7,"gml_id":"bldg_be9dd0a9-6888-4274-a8cb-869e15ef6f5e"},"geometry":{"type":"Polygon","coordinates":[[[139.82234437869772,35.64069956558886],[139.82226598018025,35.64069270793909],[139.8222702911763,35.6406597179037],[139.82224743415358,35.64065773277087],[139.8222519662725,35.640622759724884],[139.82240511930277,35.64063620424788],[139.82240091889565,35.64066838305814],[139.82234902129716,35.64066387144724],[139.82234437869772,35.64069956558886]]]}},{"type":"Feature","properties":{"height":12.3,"gml_id":"bldg_d6d61d78-ce9e-490d-884d-117166f20f06"},"geometry":{"type":"Polygon","coordinates":[[[139.82502332829816,35.637433906880126],[139.8248162979141,35.63741478319805],[139.82483287325493,35.637294360213644],[139.82503990332305,35.637313574005404],[139.82502332829816,35.637433906880126]]]}},{"type":"Feature","properties":{"height":13.3,"gml_id":"bldg_ed388a7d-1783-41c3-ae4c-97079b625a15"},"geometry":{"type":"Polygon","coordinates":[[[139.82500794748296,35.63775028962658],[139.82469833886853,35.63772538978805],[139.8247131480122,35.6376027132538],[139.8250227561487,35.63762770319257],[139.82500794748296,35.63775028962658]]]}},{"type":"Feature","properties":{"height":11.3,"gml_id":"bldg_9f153834-dbe7-4456-b567-6966cb11a14f"},"geometry":{"type":"Polygon","coordinates":[[[139.82499349660227,35.637617064905626],[139.82472253451647,35.637593249452266],[139.82472297651523,35.63759018479739],[139.82464491208344,35.63758332871648],[139.82466756620573,35.63741161776585],[139.82501659196586,35.63744237937213],[139.82499349660227,35.637617064905626]]]}},{"type":"Feature","properties":{"height":2.9,"gml_id":"bldg_841080c7-4aa0-4d9b-8b26-36c254e8d395"},"geometry":{"type":"Polygon","coordinates":[[[139.82462154459864,35.641274921021044],[139.82461249222004,35.64125400840055],[139.82467554544527,35.64123589525482],[139.8246844874157,35.64125680786271],[139.82462154459864,35.641274921021044]]]}},{"type":"Feature","properties":{"height":3.9,"gml_id":"bldg_8d6bfe90-c44a-4157-95db-d3b3d59ad43f"},"geometry":{"type":"Polygon","coordinates":[[[139.82437754868644,35.64093463299073],[139.82435569047388,35.64088667806072],[139.82443486585146,35.64086162563069],[139.82445595101044,35.640910842418585],[139.82437754868644,35.64093463299073]]]}},{"type":"Feature","properties":{"height":3.4,"gml_id":"bldg_bf4bfe03-2041-410a-b5f0-727db1e5de7c"},"geometry":{"type":"Polygon","coordinates":[[[139.82426038338505,35.639046778115194],[139.82422813988774,35.63905560918816],[139.82420010103274,35.63898791356592],[139.82423234451616,35.63897899236253],[139.82426038338505,35.639046778115194]]]}},{"type":"Feature","properties":{"height":2.1,"gml_id":"bldg_8e6d7689-930c-4081-8f4a-ab31afcd2b5c"},"geometry":{"type":"Polygon","coordinates":[[[139.82426302523362,35.63911951953067],[139.8242865452088,35.63911420316836],[139.82429173315307,35.63912997767536],[139.82426832360343,35.63913520390917],[139.82426302523362,35.63911951953067]]]}},{"type":"Feature","properties":{"height":4.2,"gml_id":"bldg_5c357e4a-aa32-4b94-a93d-919b7cf763a5"},"geometry":{"type":"Polygon","coordinates":[[[139.82191564875,35.63655219441273],[139.8218413398301,35.636544525629105],[139.82185559664725,35.636452586378006],[139.8219299054706,35.636460345290786],[139.82191564875,35.63655219441273]]]}},{"type":"Feature","properties":{"height":2.7,"gml_id":"bldg_d040d47c-a0ef-4c08-8b6a-f82f0a0eead8"},"geometry":{"type":"Polygon","coordinates":[[[139.82429339338603,35.63909500432801],[139.8242896419438,35.63906994573391],[139.82431294072936,35.63906760389769],[139.8243166921787,35.63909266249107],[139.82429339338603,35.63909500432801]]]}},{"type":"Feature","properties":{"height":11.7,"gml_id":"bldg_a9d672b0-6a3e-483c-840d-2652b659a778"},"geometry":{"type":"Polygon","coordinates":[[[139.8245255381485,35.63669203704616],[139.8244395248163,35.636683557768414],[139.8244585306119,35.63655511273142],[139.82454454378876,35.636563772271465],[139.8245255381485,35.63669203704616]]]}},{"type":"Feature","properties":{"height":9.2,"gml_id":"bldg_c2c09c56-5b8b-469e-b7e7-4ed17ae3e93f"},"geometry":{"type":"Polygon","coordinates":[[[139.82381137387972,35.636623387806544],[139.82373872081487,35.63661689211636],[139.82375684524828,35.63648123609024],[139.82382949820249,35.63648764163176],[139.82381137387972,35.636623387806544]]]}},{"type":"Feature","properties":{"height":5.0,"gml_id":"bldg_60c887f2-fc0b-429e-be9a-f1d93dde40ff"},"geometry":{"type":"Polygon","coordinates":[[[139.8235778293945,35.63674090887668],[139.82353012997916,35.636737299490306],[139.82353355636243,35.63670881620847],[139.82358114533375,35.6367125157224],[139.8235778293945,35.63674090887668]]]}},{"type":"Feature","properties":{"height":6.5,"gml_id":"bldg_c8c09d42-af8e-4cae-965c-4deba2911cb0"},"geometry":{"type":"Polygon","coordinates":[[[139.82451558717986,35.63681498434518],[139.82442570906218,35.63680722587754],[139.82443919157024,35.63670158531393],[139.8245290695907,35.63670916349592],[139.82451558717986,35.63681498434518]]]}},{"type":"Feature","properties":{"height":8.9,"gml_id":"bldg_a469ebc6-53ea-426c-8111-cefa166da7c6"},"geometry":{"type":"Polygon","coordinates":[[[139.82370546737778,35.63676841118996],[139.8235885377327,35.636757765521324],[139.82360798811186,35.63661661121911],[139.82372491755393,35.6366272568691],[139.82370546737778,35.63676841118996]]]}},{"type":"Feature","properties":{"height":7.5,"gml_id":"bldg_55d0ee4e-8800-44ee-b00a-f767cb57f90b"},"geometry":{"type":"Polygon","coordinates":[[[139.82372138502416,35.636620676524096],[139.82360898274172,35.636609310133416],[139.82363130450653,35.63646283792234],[139.82374370658704,35.636474204292426],[139.82372138502416,35.636620676524096]]]}},{"type":"Feature","properties":{"height":6.5,"gml_id":"bldg_ea5caf5e-181b-4c28-a5a7-537bec41f1b3"},"geometry":{"type":"Polygon","coordinates":[[[139.82472516898798,35.636708546703915],[139.82454684825098,35.636694201910835],[139.82456541494003,35.63654078863998],[139.82468554657177,35.636550442074274],[139.82467770007213,35.63661498021296],[139.8247359993121,35.636619581418365],[139.82472516898798,35.636708546703915]]]}},{"type":"Feature","properties":{"height":11.8,"gml_id":"bldg_d68998bd-1242-4d31-a89a-42bf6a74c50c"},"geometry":{"type":"Polygon","coordinates":[[[139.82438098712345,35.63683669763874],[139.82431506921307,35.63683029293459],[139.82432103633633,35.63678901024638],[139.82433583197215,35.636790453558],[139.82435152295102,35.6366845427553],[139.82443334049677,35.63669266123457],[139.8244126770995,35.636832643786505],[139.82438198166562,35.636829576822606],[139.82438098712345,35.63683669763874]]]}},{"type":"Feature","properties":{"height":9.7,"gml_id":"bldg_33897b36-5766-4b91-bb30-34050c7497ec"},"geometry":{"type":"Polygon","coordinates":[[[139.82390631184475,35.636793214983655],[139.82371098749402,35.636774270591246],[139.82373220474128,35.636629601034265],[139.8239275287345,35.63664863553051],[139.82390631184475,35.636793214983655]]]}},{"type":"Feature","properties":{"height":9.8,"gml_id":"bldg_07eb15d7-26aa-44ba-a69e-54a932bc3d47"},"geometry":{"type":"Polygon","coordinates":[[[139.82433043527593,35.6366682262301],[139.82414582106784,35.63665306913211],[139.82416228850903,35.636518043884344],[139.82425349131066,35.63652544209732],[139.8242460866,35.63658583390025],[139.82433960820492,35.63659341249855],[139.82433043527593,35.6366682262301]]]}},{"type":"Feature","properties":{"height":7.4,"gml_id":"bldg_97bccf9c-8e8d-4ae5-9a48-44eb80653be8"},"geometry":{"type":"Polygon","coordinates":[[[139.82412981056208,35.6366544199777],[139.82394486529108,35.63663827103003],[139.82395304336717,35.63657598641151],[139.82398053669397,35.63657842227129],[139.82398352057444,35.63655570776412],[139.82406787760493,35.636563105586006],[139.82406688298613,35.63657067708911],[139.82413997771047,35.63657708247727],[139.82412981056208,35.6366544199777]]]}},{"type":"Feature","properties":{"height":12.2,"gml_id":"bldg_d98e74d4-da8c-45e4-af84-a24fe6c04022"},"geometry":{"type":"Polygon","coordinates":[[[139.82427267631385,35.63676809463757],[139.82415861716157,35.6367597031844],[139.82415961189767,35.636751050026604],[139.8241270393545,35.63674861381967],[139.82413621326705,35.63666694962803],[139.82428273438617,35.63667777726782],[139.82427267631385,35.63676809463757]]]}},{"type":"Feature","properties":{"height":6.3,"gml_id":"bldg_ec2ca356-c6e6-4f5f-a71e-e7dc64c283d2"},"geometry":{"type":"Polygon","coordinates":[[[139.82443013967463,35.63668139376671],[139.8243558303039,35.63667453777495],[139.82437041673052,35.63657169157239],[139.82444472600739,35.63657854755525],[139.82443013967463,35.63668139376671]]]}},{"type":"Feature","properties":{"height":8.2,"gml_id":"bldg_917b0a9c-e1a6-47bf-b3c8-bbb657a9db9d"},"geometry":{"type":"Polygon","coordinates":[[[139.82432083768543,35.6365914280629],[139.82424685956383,35.636585383269285],[139.82425426435546,35.636524270363495],[139.82432824242133,35.63653031515262],[139.82432083768543,35.6365914280629]]]}},{"type":"Feature","properties":{"height":9.5,"gml_id":"bldg_a2cc2000-5860-4e15-b243-7918a91ba771"},"geometry":{"type":"Polygon","coordinates":[[[139.82410627354992,35.63681414244727],[139.82391492395416,35.636796370482024],[139.82393503667768,35.636651700803455],[139.82412638593306,35.63666947273713],[139.82410627354992,35.63681414244727]]]}},{"type":"Feature","properties":{"height":9.9,"gml_id":"bldg_b14a721f-7576-49ec-8ced-90ffd2bf059c"},"geometry":{"type":"Polygon","coordinates":[[[139.82464973790243,35.63686348825281],[139.82452662471962,35.63685239235974],[139.82454574227276,35.636710787194644],[139.82458240011798,35.63671412496371],[139.82458350509637,35.63670664360239],[139.82470198062737,35.63671728841612],[139.82470054406198,35.636728014717356],[139.8247133522384,35.63672909728876],[139.82470020225676,35.63682617481083],[139.82465526320001,35.63682211537857],[139.82464973790243,35.63686348825281]]]}},{"type":"Feature","properties":{"height":5.9,"gml_id":"bldg_9003c484-7e2c-4588-a3bc-c86bdad4af7c"},"geometry":{"type":"Polygon","coordinates":[[[139.8241526479056,35.63681892329651],[139.82411378177423,35.63681495426279],[139.82411930672393,35.636778989683755],[139.8241581728485,35.63678286857786],[139.8241526479056,35.63681892329651]]]}},{"type":"Feature","properties":{"height":7.5,"gml_id":"bldg_fd95a13e-1c6a-4082-b1c7-6649f77e19ca"},"geometry":{"type":"Polygon","coordinates":[[[139.82154156509978,35.63575957618605],[139.82153769315877,35.63581005301079],[139.82147674450295,35.63580698233992],[139.82148061648215,35.63575650551711],[139.82154156509978,35.63575957618605]]]}},{"type":"Feature","properties":{"height":4.4,"gml_id":"bldg_6892331b-c7cb-4567-86a6-95de86128894"},"geometry":{"type":"Polygon","coordinates":[[[139.82184793782807,35.63673300450523],[139.8218001281956,35.63672858318266],[139.82181405494356,35.63662898219032],[139.8218617541013,35.636633403496916],[139.82184793782807,35.63673300450523]]]}},{"type":"Feature","properties":{"height":9.2,"gml_id":"bldg_993595e0-037a-4d32-973a-7ade54c6b6f0"},"geometry":{"type":"Polygon","coordinates":[[[139.822563941104,35.637080191494825],[139.8225829506464,35.63694687931909],[139.82309229630772,35.6369954178597],[139.82307328759964,35.63712873011488],[139.822563941104,35.637080191494825]]]}},{"type":"Feature","properties":{"height":10.4,"gml_id":"bldg_3440847a-ef07-4d39-9a3a-5e918e898869"},"geometry":{"type":"Polygon","coordinates":[[[139.82321274432172,35.63625115979914],[139.8231924097476,35.6363943871423],[139.82274854352227,35.636352524993185],[139.82276887887767,35.6362092977241],[139.82321274432172,35.63625115979914]]]}},{"type":"Feature","properties":{"height":3.7,"gml_id":"bldg_a8f7607c-ba72-451e-8312-569063f49eae"},"geometry":{"type":"Polygon","coordinates":[[[139.82275542175617,35.63694419045227],[139.8226780207043,35.63693670218936],[139.82269294046998,35.6368346674647],[139.822770341413,35.63684224585597],[139.82275542175617,35.63694419045227]]]}},{"type":"Feature","properties":{"height":2.7,"gml_id":"bldg_a2f90291-9895-4375-a68f-2404f470b996"},"geometry":{"type":"Polygon","coordinates":[[[139.82331126383625,35.6351364330533],[139.8233077277026,35.63515950805471],[139.82322248902884,35.63515111810827],[139.82322591478385,35.635127952962186],[139.82331126383625,35.6351364330533]]]}},{"type":"Feature","properties":{"height":1.7,"gml_id":"bldg_37cf7db0-c66d-4350-841b-45831d3aa299"},"geometry":{"type":"Polygon","coordinates":[[[139.82337110753178,35.63514256739261],[139.82336856589214,35.635159603240524],[139.82334504796816,35.6351572577081],[139.82334747918736,35.6351403119894],[139.82337110753178,35.63514256739261]]]}},{"type":"Feature","properties":{"height":8.7,"gml_id":"bldg_77ee30f5-ba66-4289-a42c-dd4d4e5143ee"},"geometry":{"type":"Polygon","coordinates":[[[139.82342516301344,35.6408944471007],[139.82329718533862,35.64088262845556],[139.8233169681482,35.64074426859651],[139.82344417266344,35.64075599701961],[139.82342516301344,35.6408944471007]]]}},{"type":"Feature","properties":{"height":3.2,"gml_id":"bldg_e3b830f6-4bf2-43a9-93b3-62e03867e5ba"},"geometry":{"type":"Polygon","coordinates":[[[139.82279720391048,35.63912760277831],[139.8227379092315,35.63912263999757],[139.82274199902673,35.63909028088192],[139.82280129368206,35.63909524366066],[139.82279720391048,35.63912760277831]]]}},{"type":"Feature","properties":{"height":3.8,"gml_id":"bldg_42912777-95ec-4958-97e2-c9a13e8c020a"},"geometry":{"type":"Polygon","coordinates":[[[139.82161416846694,35.63988167653264],[139.8214974556852,35.639869135966556],[139.82150839722084,35.639801984377776],[139.82162522045869,35.63981362356607],[139.82161416846694,35.63988167653264]]]}},{"type":"Feature","properties":{"height":9.7,"gml_id":"bldg_d329d53c-a216-4c08-a9d5-cad5bb8811b3"},"geometry":{"type":"Polygon","coordinates":[[[139.823184956041,35.640329713837374],[139.8230081134845,35.63992299705946],[139.82302898377384,35.63991695961385],[139.82303295773926,35.63992615400955],[139.82308231761718,35.63991191644754],[139.82314965459378,35.640066778901456],[139.8231626847291,35.640063084352555],[139.82318277567953,35.640107794395874],[139.82317096020276,35.64011121863599],[139.82325121305948,35.64029582758992],[139.82319997572327,35.64031078616467],[139.82320560556892,35.64032376648078],[139.823184956041,35.640329713837374]]]}},{"type":"Feature","properties":{"height":4.5,"gml_id":"bldg_7ed3ff7c-1bf6-4c8b-87c9-f65d5ef3ccf6"},"geometry":{"type":"Polygon","coordinates":[[[139.82303230767985,35.64068944081296],[139.82301486123814,35.640687906977284],[139.8230183982212,35.640660775805195],[139.82303584465706,35.64066230964036],[139.82303230767985,35.64068944081296]]]}},{"type":"Feature","properties":{"height":2.7,"gml_id":"bldg_2c0ae34a-117e-4536-8369-cee960b0cace"},"geometry":{"type":"Polygon","coordinates":[[[139.82313400573491,35.64069251415188],[139.82311136954797,35.64069034892609],[139.82311324834774,35.640677549519246],[139.82313577410937,35.640679714735334],[139.82313400573491,35.64069251415188]]]}},{"type":"Feature","properties":{"height":3.3,"gml_id":"bldg_85435070-4e0e-45d3-b108-4db8862c15f6"},"geometry":{"type":"Polygon","coordinates":[[[139.82308840142966,35.640693411659676],[139.8230363933545,35.64068890033553],[139.82304136719966,35.640650952750676],[139.82309337525055,35.64065546407269],[139.82308840142966,35.640693411659676]]]}},{"type":"Feature","properties":{"height":2.5,"gml_id":"bldg_d19e78b3-51c8-4bbc-9ca6-0d3f4ef8a2f1"},"geometry":{"type":"Polygon","coordinates":[[[139.82301883628148,35.63982970535224],[139.82297931092236,35.63978932022519],[139.8229955441211,35.63977859522074],[139.82303517989206,35.6398190704898],[139.82301883628148,35.63982970535224]]]}},{"type":"Feature","properties":{"height":9.7,"gml_id":"bldg_b94d78e1-312e-42cc-8f6a-a984eea51bb9"},"geometry":{"type":"Polygon","coordinates":[[[139.8217471891451,35.63936754335297],[139.82150835456235,35.63934201114356],[139.8215146548676,35.63929874561263],[139.82175382094735,35.63932175398287],[139.8217471891451,35.63936754335297]]]}},{"type":"Feature","properties":{"height":10.1,"gml_id":"bldg_9b3f61fe-6646-456f-83bd-3e000a72e1a8"},"geometry":{"type":"Polygon","coordinates":[[[139.82176897294985,35.639151845662425],[139.82152649615279,35.63912703424092],[139.82153997914028,35.63903924133038],[139.82178245678048,35.639064052725175],[139.82176897294985,35.639151845662425]]]}},{"type":"Feature","properties":{"height":2.6,"gml_id":"bldg_3c1a9d6f-988b-414e-a101-231ec91bf2f3"},"geometry":{"type":"Polygon","coordinates":[[[139.82095059519133,35.639526106642485],[139.82093580139548,35.63950988031539],[139.82094408367118,35.63950492358807],[139.82095876706154,35.63952105976503],[139.82095059519133,35.639526106642485]]]}},{"type":"Feature","properties":{"height":5.2,"gml_id":"bldg_5ebac083-20f2-4b78-be8f-696b91ba3609"},"geometry":{"type":"Polygon","coordinates":[[[139.82111989955607,35.63932727992036],[139.8210896448639,35.63932493326589],[139.8210921878203,35.63930330044969],[139.82112244250442,35.63930564710353],[139.82111989955607,35.63932727992036]]]}},{"type":"Feature","properties":{"height":9.0,"gml_id":"bldg_eb54ba7b-f584-4a47-8fe4-d6b80bad0eea"},"geometry":{"type":"Polygon","coordinates":[[[139.82120600672403,35.63946195450804],[139.8211096113991,35.6394527507081],[139.8211314978098,35.63929987920122],[139.8210736386474,35.639294374919935],[139.82109209850074,35.63916493889889],[139.8212462421557,35.63917955588916],[139.82120600672403,35.63946195450804]]]}},{"type":"Feature","properties":{"height":7.3,"gml_id":"bldg_70fb958f-966b-4dca-91a8-6bdcc39c20e7"},"geometry":{"type":"Polygon","coordinates":[[[139.82121445304205,35.639833052705455],[139.82102610486493,35.63964167104958],[139.82109567662118,35.639596068407705],[139.82112007572684,35.63962085878084],[139.82113719257052,35.63960968342712],[139.8211572859573,35.639630146741936],[139.82117870962588,35.639616087407795],[139.82124163957573,35.63967991130792],[139.82125621650275,35.63967035816291],[139.82130126115982,35.63971606253803],[139.82128557990373,35.639726426818214],[139.82129761390695,35.639738596624866],[139.82128712293562,35.639745446049325],[139.8213109701243,35.63976969550118],[139.82121445304205,35.639833052705455]]]}},{"type":"Feature","properties":{"height":6.0,"gml_id":"bldg_92f48a19-9069-4824-8b3b-092cddc25712"},"geometry":{"type":"Polygon","coordinates":[[[139.8217523776861,35.639375836530455],[139.82174309346837,35.63943776031275],[139.82163863761937,35.63942738436875],[139.8216479219165,35.63936546059442],[139.8217523776861,35.639375836530455]]]}},{"type":"Feature","properties":{"height":7.0,"gml_id":"bldg_6d97578a-bc18-4d0c-ba80-9045e266aa46"},"geometry":{"type":"Polygon","coordinates":[[[139.82163939600386,35.635737411808094],[139.82159158698897,35.63573290026428],[139.82159258176492,35.63572577946993],[139.82145312967543,35.6357124253936],[139.82146230353692,35.63564869882706],[139.82164956449049,35.63566656443271],[139.82163939600386,35.635737411808094]]]}},{"type":"Feature","properties":{"height":7.3,"gml_id":"bldg_f2af136e-f27d-448d-a7ee-a5b447f75b8c"},"geometry":{"type":"Polygon","coordinates":[[[139.82176074126912,35.635742741660685],[139.82164955490092,35.635732455211304],[139.82165806588367,35.635670351047345],[139.82176936258182,35.635680637499554],[139.82176074126912,35.635742741660685]]]}},{"type":"Feature","properties":{"height":7.0,"gml_id":"bldg_81ea2c6d-5651-4ebf-81a3-58c4e0a66a09"},"geometry":{"type":"Polygon","coordinates":[[[139.82171312594926,35.63592562680147],[139.82155589642184,35.63591380347198],[139.82157314379785,35.63575948913522],[139.82173037303863,35.63577122230456],[139.82171312594926,35.63592562680147]]]}},{"type":"Feature","properties":{"height":2.2,"gml_id":"bldg_6d9ab9f3-ba43-4128-8327-31f8b93fd160"},"geometry":{"type":"Polygon","coordinates":[[[139.82098500128194,35.636947447215576],[139.82088916087523,35.63693959536026],[139.82089170369815,35.63691868364247],[139.82098765449675,35.63692653550713],[139.82098500128194,35.636947447215576]]]}},{"type":"Feature","properties":{"height":8.6,"gml_id":"bldg_89859e4c-946e-426e-9787-cd83e450eec4"},"geometry":{"type":"Polygon","coordinates":[[[139.8215159414854,35.63730958419052],[139.82077593687418,35.6372399229077],[139.82079152291075,35.637129595811764],[139.82149994718762,35.637199794728915],[139.82150016830056,35.63719790185595],[139.8215313054593,35.6372007893216],[139.8215159414854,35.63730958419052]]]}},{"type":"Feature","properties":{"height":16.9,"gml_id":"bldg_b454654e-a3bf-4d8c-93c3-83ab2bd08731"},"geometry":{"type":"Polygon","coordinates":[[[139.8245477276533,35.6357211637989],[139.82451857844825,35.63571809698203],[139.82452576057062,35.6356711356794],[139.82455490977867,35.63567402221882],[139.8245477276533,35.6357211637989]]]}},{"type":"Feature","properties":{"height":15.3,"gml_id":"bldg_214da8d0-e8cc-4a0a-8a71-da8d4a07d84e"},"geometry":{"type":"Polygon","coordinates":[[[139.8246583598486,35.635754162275354],[139.82461110275804,35.63574938155608],[139.82461850601118,35.635699175301],[139.82466576308235,35.63570386587955],[139.8246583598486,35.635754162275354]]]}},{"type":"Feature","properties":{"height":12.2,"gml_id":"bldg_0f687581-be1e-4e19-b6b5-ec309fedd950"},"geometry":{"type":"Polygon","coordinates":[[[139.82493682199595,35.63579645666515],[139.82489398152183,35.63579113553746],[139.8248980692361,35.635768691495535],[139.82494102011353,35.63577401262949],[139.82493682199595,35.63579645666515]]]}},{"type":"Feature","properties":{"height":11.6,"gml_id":"bldg_1bdd76cb-7fac-48be-b31e-375baad17c7a"},"geometry":{"type":"Polygon","coordinates":[[[139.82382871830623,35.63561402542921],[139.82368816178234,35.6356015752315],[139.82369689241472,35.63553604570062],[139.82383733841053,35.63554849587955],[139.82382871830623,35.63561402542921]]]}},{"type":"Feature","properties":{"height":6.9,"gml_id":"bldg_57632957-86a5-4873-b838-5eff79c30259"},"geometry":{"type":"Polygon","coordinates":[[[139.8248258602838,35.63574552098629],[139.824741724882,35.635738033572174],[139.82475012332827,35.63567340532134],[139.82483436907802,35.63568089273747],[139.8248258602838,35.63574552098629]]]}},{"type":"Feature","properties":{"height":30.9,"gml_id":"bldg_e9aa0c3f-678b-4378-b009-d97fc2c17274"},"geometry":{"type":"Polygon","coordinates":[[[139.82346895725652,35.63855131845145],[139.82390510662015,35.63859380829269],[139.8238517311269,35.63895931296054],[139.8232781094166,35.638903471134434],[139.82330474322865,35.63872130482308],[139.8233190975373,35.63872265808457],[139.82332749659903,35.638664790301746],[139.82331601316022,35.63866370769348],[139.8233183339493,35.63864775349213],[139.82346895725652,35.63855131845145]]]}},{"type":"Feature","properties":{"height":10.9,"gml_id":"bldg_5962b7a9-ab12-442f-aeee-fe4ca90ba4da"},"geometry":{"type":"Polygon","coordinates":[[[139.82471478582997,35.63571757035244],[139.82467106201554,35.635712970185125],[139.82467669706426,35.63567691544396],[139.82472053127424,35.63568151561715],[139.82471478582997,35.63571757035244]]]}},{"type":"Feature","properties":{"height":16.5,"gml_id":"bldg_7d808442-1d44-4b06-bdfa-ff201fb0dee0"},"geometry":{"type":"Polygon","coordinates":[[[139.82485655054228,35.635793837045206],[139.8247867689916,35.63578680136115],[139.82479251466742,35.6357483129005],[139.82486229618516,35.63575534858128],[139.82485655054228,35.635793837045206]]]}},{"type":"Feature","properties":{"height":7.5,"gml_id":"bldg_cb1e2711-9a39-46dd-982a-2a629cf59e5f"},"geometry":{"type":"Polygon","coordinates":[[[139.82499513773072,35.6366997321841],[139.82496322772764,35.63669684555986],[139.82496223321044,35.63670423679451],[139.82489289245788,35.636697832168515],[139.82491631861726,35.63652702257838],[139.8249687657379,35.636531803537835],[139.82496324075348,35.636571914498546],[139.8250120442121,35.63657633463448],[139.82499513773072,35.6366997321841]]]}},{"type":"Feature","properties":{"height":6.6,"gml_id":"bldg_33e22334-ea25-452f-9fc4-2b72fe6afb59"},"geometry":{"type":"Polygon","coordinates":[[[139.82247382198136,35.63640451008288],[139.8218634515428,35.63634505266539],[139.82191230262728,35.63601253874839],[139.8225225601586,35.636071995911294],[139.82247382198136,35.63640451008288]]]}},{"type":"Feature","properties":{"height":15.6,"gml_id":"bldg_f7695277-2fb7-41ab-8d29-a3a683abb27f"},"geometry":{"type":"Polygon","coordinates":[[[139.8231093023251,35.63698090711107],[139.8227825835911,35.63694915041591],[139.822813417539,35.6367376897207],[139.8231401354246,35.63676944633318],[139.8231093023251,35.63698090711107]]]}},{"type":"Feature","properties":{"height":8.9,"gml_id":"bldg_26120da7-d3eb-4be8-bd5e-3e0db45cf171"},"geometry":{"type":"Polygon","coordinates":[[[139.822707628675,35.63681339622898],[139.82232305323743,35.63677694600112],[139.82233598433928,35.63668653891895],[139.82272044894526,35.63672289895841],[139.822707628675,35.63681339622898]]]}},{"type":"Feature","properties":{"height":2.6,"gml_id":"bldg_56e5d035-a54b-413d-92ba-a0846a1e336e"},"geometry":{"type":"Polygon","coordinates":[[[139.82294187514418,35.636402297921954],[139.82289064281528,35.636397426047395],[139.82289274265085,35.63638255348334],[139.82294397497043,35.63638742535702],[139.82294187514418,35.636402297921954]]]}},{"type":"Feature","properties":{"height":5.1,"gml_id":"bldg_e5cb1900-8dd4-4621-80ab-90d199ea494f"},"geometry":{"type":"Polygon","coordinates":[[[139.82265811443403,35.63634161033281],[139.82260644038956,35.63633754953889],[139.82261561554918,35.63625777835267],[139.82266728955472,35.636261749004845],[139.82265811443403,35.63634161033281]]]}},{"type":"Feature","properties":{"height":8.2,"gml_id":"bldg_abc24c2a-c336-4c0b-9978-714b39235919"},"geometry":{"type":"Polygon","coordinates":[[[139.82259363224378,35.63633691743267],[139.82250287169157,35.63632789552115],[139.82253403754123,35.6361152631133],[139.82262490827208,35.63612428501143],[139.82259363224378,35.63633691743267]]]}},{"type":"Feature","properties":{"height":7.2,"gml_id":"bldg_8b20ab24-9fb1-4949-9fe6-1b2761a109d9"},"geometry":{"type":"Polygon","coordinates":[[[139.8241536989331,35.641145808970755],[139.8241064509877,35.64103412464563],[139.8242013067363,35.64100736095191],[139.82424855478774,35.64111913537815],[139.8241536989331,35.641145808970755]]]}},{"type":"Feature","properties":{"height":10.5,"gml_id":"bldg_33ec655c-8432-4cc2-962a-e324ec9f4853"},"geometry":{"type":"Polygon","coordinates":[[[139.8235268538671,35.637343386095665],[139.82342703779898,35.63733490497138],[139.82343521654795,35.637270997914165],[139.82353492213142,35.63727938888493],[139.8235268538671,35.637343386095665]]]}},{"type":"Feature","properties":{"height":3.9,"gml_id":"bldg_bb1626dd-5c1f-4e8f-a6b4-fadc35193209"},"geometry":{"type":"Polygon","coordinates":[[[139.8246984012382,35.641251400594015],[139.8246895694931,35.64123229075069],[139.82473142099659,35.641219494181534],[139.8247401423277,35.64123860401396],[139.8246984012382,35.641251400594015]]]}},{"type":"Feature","properties":{"height":17.4,"gml_id":"bldg_7207926e-bc2e-482d-8c5e-19ff104b6194"},"geometry":{"type":"Polygon","coordinates":[[[139.82363850657237,35.637169879787386],[139.82353880126806,35.637160226972426],[139.82354686852642,35.637104252027],[139.82347388387487,35.63709712518573],[139.82348847125405,35.636996352267836],[139.82366116094937,35.6370129516211],[139.82363850657237,35.637169879787386]]]}},{"type":"Feature","properties":{"height":21.7,"gml_id":"bldg_e5f96022-0e5e-4914-bb1f-2489ead93f5c"},"geometry":{"type":"Polygon","coordinates":[[[139.82453096629266,35.637537169871116],[139.82437958582864,35.6375207536276],[139.82438930929914,35.63746027186023],[139.8245408000882,35.63747650782404],[139.82453096629266,35.637537169871116]]]}},{"type":"Feature","properties":{"height":7.5,"gml_id":"bldg_8c02898c-7a9f-4d55-bed4-d276bcc76605"},"geometry":{"type":"Polygon","coordinates":[[[139.82409210096395,35.640991848923996],[139.82405909360568,35.640915048992895],[139.82421766487442,35.640869541514746],[139.82425067235553,35.640946431540776],[139.82409210096395,35.640991848923996]]]}},{"type":"Feature","properties":{"height":12.5,"gml_id":"bldg_fdac7aad-fa36-47e8-acd0-a94eefa88561"},"geometry":{"type":"Polygon","coordinates":[[[139.82131601686788,35.63777476579138],[139.8213089428946,35.637823078964324],[139.82134317190727,35.63782650761393],[139.8213335558281,35.63789158617169],[139.82129303304836,35.63788761606349],[139.82129093294455,35.637902037906734],[139.82129910376318,35.637902759825955],[139.82129015070166,35.63796414279459],[139.82126055910769,35.637961255421864],[139.82125735367674,35.63798324873135],[139.82115797891686,35.63797350384231],[139.82116118434726,35.637951690811086],[139.82110365743597,35.63794600630099],[139.82111305268015,35.63788218966943],[139.82126686255418,35.63789725819288],[139.8212689626351,35.637883016625715],[139.82111570484994,35.63786812843657],[139.82112620537734,35.63779692061289],[139.821103017986,35.63779466481504],[139.82110887623668,35.637754554073524],[139.82131601686788,35.63777476579138]]]}},{"type":"Feature","properties":{"height":7.0,"gml_id":"bldg_b660eed8-0302-4f52-8877-e80b6df2dd4c"},"geometry":{"type":"Polygon","coordinates":[[[139.82495928541917,35.641675787677435],[139.82491799835046,35.64157969793013],[139.82499971269155,35.641556267789106],[139.82504100095028,35.64165235750887],[139.82495928541917,35.641675787677435]]]}},{"type":"Feature","properties":{"height":13.4,"gml_id":"bldg_5988b057-6877-4a4a-bdfd-9dfff2375720"},"geometry":{"type":"Polygon","coordinates":[[[139.82161930869512,35.63946451926796],[139.82147311437615,35.639451885669104],[139.8214166989183,35.639389955426125],[139.82142377291157,35.63934200281068],[139.82163610708778,35.63936473834521],[139.82161930869512,35.63946451926796]]]}},{"type":"Feature","properties":{"height":19.1,"gml_id":"bldg_82f40d35-65b5-478a-aba0-e02129aea85d"},"geometry":{"type":"Polygon","coordinates":[[[139.8217497445171,35.639258657122944],[139.82152681004,35.63923763336825],[139.82154062687877,35.6391398351947],[139.82176345066821,35.63916085891349],[139.8217497445171,35.639258657122944]]]}},{"type":"Feature","properties":{"height":14.6,"gml_id":"bldg_81dd28e7-55c5-4bb7-abc5-af2cbb71c9f2"},"geometry":{"type":"Polygon","coordinates":[[[139.82175437434702,35.63931274025496],[139.82156368192867,35.6392943336602],[139.8215703134993,35.63925079774494],[139.82176100588075,35.63926875364028],[139.82175437434702,35.63931274025496]]]}},{"type":"Feature","properties":{"height":26.1,"gml_id":"bldg_042dde0c-5a77-4ad5-baff-b43959f8b834"},"geometry":{"type":"Polygon","coordinates":[[[139.82437777220957,35.639920943369205],[139.82439764276913,35.63996736581283],[139.82372482607306,35.64015894698568],[139.82366311813334,35.640014361016895],[139.82382588393244,35.639968043144],[139.82378945521646,35.63988276990244],[139.82396867389068,35.63983176597223],[139.82400433003855,35.63991523634446],[139.82433516101256,35.639821067507974],[139.82436474597029,35.6398904758228],[139.82439058526958,35.63988272589287],[139.8243278825991,35.63973777963285],[139.82455314743643,35.639672806905516],[139.82464797483996,35.63989175850692],[139.82442270946487,35.639956731409136],[139.82440383235883,35.63991319345287],[139.82437777220957,35.639920943369205]]]}},{"type":"Feature","properties":{"height":32.4,"gml_id":"bldg_cd85b8cc-4b80-415d-a44f-c9592755161e"},"geometry":{"type":"Polygon","coordinates":[[[139.82523557238144,35.635025978606464],[139.8252062923757,35.63522653340468],[139.82393698459072,35.63510313247241],[139.82396052039547,35.63495233364015],[139.82402229073767,35.63452995232546],[139.82528949171808,35.63465353250512],[139.8252458482906,35.634952426789795],[139.8252405451536,35.63498487606918],[139.8252637318408,35.634987221209435],[139.82525776537267,35.63502814340529],[139.82523557238144,35.635025978606464]]]}},{"type":"Feature","properties":{"height":10.7,"gml_id":"bldg_afa1a11b-158e-4688-95a1-d48d5c1a04db"},"geometry":{"type":"Polygon","coordinates":[[[139.82423087435222,35.63538997374752],[139.8242341867456,35.63539033454924],[139.824221810575,35.63547623500338],[139.82420193616352,35.635474340603245],[139.82417455364325,35.635471724526255],[139.82418692987397,35.635385733939046],[139.82423087435222,35.63538997374752]]]}},{"type":"Feature","properties":{"height":18.6,"gml_id":"bldg_fb1c3f77-f421-4836-a99f-42df8ee02d77"},"geometry":{"type":"Polygon","coordinates":[[[139.82457201606556,35.63574748582445],[139.8247335515298,35.635762730763915],[139.824734546066,35.63575524939214],[139.82478191362074,35.63575966951937],[139.8247685433297,35.63585413305088],[139.8253279010266,35.63590699230994],[139.82528944932042,35.636178665259784],[139.82363179936087,35.63602269480497],[139.82368948513533,35.63561509601747],[139.82401675096776,35.63564603906108],[139.8240034902941,35.63573978141495],[139.82400315873497,35.63574248552522],[139.82399796496586,35.635779171233715],[139.82422431333273,35.6358003709603],[139.82425006067885,35.635617933865014],[139.8242529337573,35.63559765306158],[139.82452653870547,35.635623452805],[139.82450974266843,35.635741622317944],[139.82455898723745,35.63574622294605],[139.82457201606556,35.63574748582445]]]}},{"type":"Feature","properties":{"height":2.9,"gml_id":"bldg_22cc503e-eeca-4371-8bf1-237c1b627ffe"},"geometry":{"type":"Polygon","coordinates":[[[139.82411265543453,35.63893057925257],[139.8241351854532,35.638891551300176],[139.82419889460434,35.638915983496695],[139.8241764750292,35.63895501146925],[139.82411265543453,35.63893057925257]]]}},{"type":"Feature","properties":{"height":14.8,"gml_id":"bldg_f4dafcb2-1d5d-45d6-a32b-48a932d34ec4"},"geometry":{"type":"Polygon","coordinates":[[[139.824587263583,35.63565338300085],[139.82463893713128,35.635658885151344],[139.82463352315065,35.635692596322286],[139.82461099876753,35.63569025110896],[139.82460459021536,35.635731533787094],[139.8245751097497,35.63572855709777],[139.82457367437513,35.63572837671768],[139.8245853865504,35.63565320258883],[139.824587263583,35.63565338300085]]]}},{"type":"Feature","properties":{"height":14.4,"gml_id":"bldg_a87b6182-4cdf-4244-8ff1-a0ca92188162"},"geometry":{"type":"Polygon","coordinates":[[[139.82458219869855,35.63552313341493],[139.82461764143187,35.63552656122347],[139.82461377452987,35.63554855458342],[139.82460449979368,35.635547652533035],[139.82459257512477,35.635546570013965],[139.82457866302124,35.63554521693567],[139.82458219869855,35.63552313341493]]]}},{"type":"Feature","properties":{"height":13.1,"gml_id":"bldg_aa8be227-336a-464b-abba-861ee6069b35"},"geometry":{"type":"Polygon","coordinates":[[[139.8219808397317,35.64013427776546],[139.82194193376432,35.64040045100637],[139.8219254812114,35.64039882696903],[139.82196262056044,35.640132202877616],[139.8219808397317,35.64013427776546]]]}},{"type":"Feature","properties":{"height":6.0,"gml_id":"bldg_20fd8efb-1323-4649-8df5-006956a5129a"},"geometry":{"type":"Polygon","coordinates":[[[139.82396753408966,35.63729772127933],[139.82395383108985,35.63739425784063],[139.82389166687773,35.637388394024605],[139.82390327081947,35.63730213301993],[139.82391431361927,35.637292849686226],[139.82396753408966,35.63729772127933]]]}},{"type":"Feature","properties":{"height":7.5,"gml_id":"bldg_d73306b2-a47a-48e2-ab68-29e3b802ad21"},"geometry":{"type":"Polygon","coordinates":[[[139.82362708021478,35.6376116444215],[139.8236593498223,35.637381885667025],[139.82378820510363,35.63739541662234],[139.8237588068985,35.63762364329588],[139.82362708021478,35.6376116444215]]]}},{"type":"Feature","properties":{"height":8.6,"gml_id":"bldg_9e399170-3022-49fc-835f-72ec13ecdfd8"},"geometry":{"type":"Polygon","coordinates":[[[139.82357600385726,35.638133718622996],[139.8235933539808,35.6380145578161],[139.82362217276278,35.6380173544156],[139.8236048226814,35.63813651522662],[139.82357600385726,35.638133718622996]]]}},{"type":"Feature","properties":{"height":9.3,"gml_id":"bldg_956a9cae-8987-424a-b3e8-f39a6fcf5572"},"geometry":{"type":"Polygon","coordinates":[[[139.8247662443897,35.63773810407138],[139.8247485635988,35.63786862239623],[139.82461893405,35.63785896834004],[139.82463352337368,35.63772826953511],[139.8247662443897,35.63773810407138]]]}},{"type":"Feature","properties":{"height":9.3,"gml_id":"bldg_f243c76d-d5b4-4d94-b972-29df3991b05d"},"geometry":{"type":"Polygon","coordinates":[[[139.82468295510398,35.638056735357196],[139.82465433411738,35.63826657416347],[139.82455882287377,35.63826016745834],[139.82458446299495,35.63804870597713],[139.82468295510398,35.638056735357196]]]}},{"type":"Feature","properties":{"height":11.7,"gml_id":"bldg_8a26d30d-a326-45fc-8dc2-0e3b7b3f61af"},"geometry":{"type":"Polygon","coordinates":[[[139.8245326562232,35.63622287003551],[139.82451055670418,35.636372046571545],[139.82441096255127,35.63636374655323],[139.82443295198738,35.636213217959295],[139.8245326562232,35.63622287003551]]]}},{"type":"Feature","properties":{"height":7.9,"gml_id":"bldg_d7d4afce-8470-490a-9094-d98818ee502a"},"geometry":{"type":"Polygon","coordinates":[[[139.82208274000837,35.63711358865357],[139.8220431726198,35.63738489985622],[139.82186705960376,35.637367757031555],[139.8219066275791,35.6370964458861],[139.82208274000837,35.63711358865357]]]}},{"type":"Feature","properties":{"height":18.4,"gml_id":"bldg_e8c8c34c-86e2-47f1-8809-146864d80f8c"},"geometry":{"type":"Polygon","coordinates":[[[139.82328016031803,35.6410425314691],[139.8232024166831,35.64109300211505],[139.8231441212965,35.64103314570874],[139.8232218649101,35.6409826750999],[139.82328016031803,35.6410425314691]]]}},{"type":"Feature","properties":{"height":11.6,"gml_id":"bldg_48f8cd5a-dec6-4532-afba-4497ed9648c3"},"geometry":{"type":"Polygon","coordinates":[[[139.82213814987884,35.640419488477264],[139.82216177973058,35.64042183425378],[139.8221362480447,35.64059633865076],[139.82211504740565,35.64059408323336],[139.82213814987884,35.640419488477264]]]}},{"type":"Feature","properties":{"height":4.2,"gml_id":"bldg_b1703061-c4cd-4658-a578-069c5012c8f7"},"geometry":{"type":"Polygon","coordinates":[[[139.82393813678004,35.634692554530275],[139.8239669544026,35.63469517077292],[139.8239480577374,35.634831638051736],[139.82391912965278,35.634829021796016],[139.82393813678004,35.634692554530275]]]}}]}