{"type":"FeatureCollection","crs":{"type":"name","properties":{"name":"urn:ogc:def:crs:OGC:1.3:CRS84"}},"features":[{"type":"Feature","properties":{"height":3.8,"gml_id":"bldg_f72fda52-7599-4813-afb5-bbeab1afb362"},"geometry":{"type":"Polygon","coordinates":[[[139.80035247199828,35.63096165446168],[139.80032663962677,35.63095389552458],[139.80034277394978,35.63091811518489],[139.80036860631137,35.63092587411856],[139.80035247199828,35.63096165446168]]]}},{"type":"Feature","properties":{"height":2.5,"gml_id":"bldg_191bf380-c51a-468b-82e2-01eab5f84afa"},"geometry":{"type":"Polygon","coordinates":[[[139.8003363361521,35.63100113045717],[139.800311717743,35.63099463378049],[139.8003239860094,35.63096317900452],[139.80034871481828,35.63096967570894],[139.8003363361521,35.63100113045717]]]}},{"type":"Feature","properties":{"height":3.1,"gml_id":"bldg_9a8e0409-7039-40e8-9278-391cc3fb6680"},"geometry":{"type":"Polygon","coordinates":[[[139.8015901299793,35.62766068425747],[139.80153471271728,35.62764687853174],[139.8015526170768,35.627599019987535],[139.8016080343089,35.62761282570511],[139.8015901299793,35.62766068425747]]]}},{"type":"Feature","properties":{"height":38.2,"gml_id":"bldg_0987ef31-4a15-4129-8e7d-621c2185d42d"},"geometry":{"type":"Polygon","coordinates":[[[139.80039639175027,35.63074803957478],[139.80039186021187,35.630759756267324],[139.8001113426801,35.630688560403925],[139.8002713864436,35.63026847149813],[139.80024919685584,35.630262876853905],[139.80026876004936,35.6302116838733],[139.80057135522537,35.63028856407185],[139.80039639175027,35.63074803957478]]]}},{"type":"Feature","properties":{"height":23.1,"gml_id":"bldg_7999d502-1f1b-4ab5-8afc-c66662c16e51"},"geometry":{"type":"Polygon","coordinates":[[[139.80071687734593,35.62674239558843],[139.80064644788243,35.626724258763176],[139.80034232113186,35.62664566566982],[139.8003349249466,35.62664377074628],[139.80068991002875,35.625727524508285],[139.8012152549915,35.62586323327351],[139.80124564669796,35.62578482130377],[139.80143297843082,35.62583318502533],[139.80140590230013,35.62590312494769],[139.80183896325238,35.626014919926476],[139.80136430077118,35.6272400407047],[139.80070106759106,35.627068690841774],[139.800782961938,35.62685724926666],[139.80081733317124,35.62676838248584],[139.80071687734593,35.62674239558843]]]}},{"type":"Feature","properties":{"height":37.0,"gml_id":"bldg_4f6d22f8-69f0-46ca-9e6c-5a64f5efca60"},"geometry":{"type":"Polygon","coordinates":[[[139.80039639175027,35.63074803957478],[139.80057135522537,35.63028856407185],[139.80061529287002,35.63029966297964],[139.80061286129802,35.63030606211312],[139.80084480357087,35.630364984962924],[139.80084215098123,35.630371924868996],[139.80085319060672,35.630374722122106],[139.8008420275526,35.63040410408058],[139.80085074884153,35.63040635988095],[139.80070397091725,35.63079175003657],[139.80068917776634,35.630787960235644],[139.8006809988042,35.63080950098544],[139.80066432889586,35.63080525998309],[139.80066057102076,35.63081508399884],[139.80039639175027,35.63074803957478]]]}},{"type":"Feature","properties":{"height":16.4,"gml_id":"bldg_a9af3b1b-7cee-417d-8f7d-2ed2e4e2ca06"},"geometry":{"type":"Polygon","coordinates":[[[139.80071687734593,35.62674239558843],[139.80081733317124,35.62676838248584],[139.800782961938,35.62685724926666],[139.80068140260886,35.62682972969597],[139.80071687734593,35.62674239558843]]]}},{"type":"Feature","properties":{"height":2.7,"gml_id":"bldg_be994fd0-1411-4921-87f5-60695ad8d364"},"geometry":{"type":"Polygon","coordinates":[[[139.80173587762224,35.625659478763424],[139.80174967070292,35.62567741984449],[139.8017166541014,35.62569435713063],[139.80170286102518,35.6256764160458],[139.80173587762224,35.625659478763424]]]}},{"type":"Feature","properties":{"height":2.6,"gml_id":"bldg_881067ac-865d-46dc-8471-c3ae734fbffd"},"geometry":{"type":"Polygon","coordinates":[[[139.80168243120832,35.625690652486156],[139.80169445818365,35.62570778186738],[139.8016368180417,35.62573498839574],[139.801624680709,35.62571776884179],[139.80168243120832,35.625690652486156]]]}},{"type":"Feature","properties":{"height":3.0,"gml_id":"bldg_3ab6a104-12d2-4930-9205-f895beca081c"},"geometry":{"type":"Polygon","coordinates":[[[139.80013585722014,35.62507062753164],[139.800095790913,35.62504889322177],[139.80012108535317,35.62501798285624],[139.8001610412143,35.625039807265416],[139.80013585722014,35.62507062753164]]]}}]}