{"type":"FeatureCollection","crs":{"type":"name","properties":{"name":"urn:ogc:def:crs:OGC:1.3:CRS84"}},"features":[{"type":"Feature","properties":{"height":10.8,"gml_id":"bldg_5db54058-8eea-47e9-a9ed-ea5934760133"},"geometry":{"type":"Polygon","coordinates":[[[139.8173603358928,35.608732276761486],[139.81742180972404,35.60876572619223],[139.81741573713745,35.60877482935534],[139.8173539321324,35.60874156015417],[139.8173603358928,35.608732276761486]]]}},{"type":"Feature","properties":{"height":2.8,"gml_id":"bldg_fefa4ad8-c04f-43a8-a830-70a9c8135f8d"},"geometry":{"type":"Polygon","coordinates":[[[139.81283202009237,35.61158338527871],[139.81284912397783,35.61160411997942],[139.81282870047428,35.611615383783864],[139.81284061802944,35.61162980792726],[139.812809927558,35.61164674869008],[139.81278090612759,35.611611589835846],[139.81283202009237,35.61158338527871]]]}},{"type":"Feature","properties":{"height":2.5,"gml_id":"bldg_a50ddd4d-0e17-4153-b817-429c238bffb1"},"geometry":{"type":"Polygon","coordinates":[[[139.81315593583972,35.61136160977725],[139.8131695081427,35.611380000247856],[139.8131182848379,35.6114050500928],[139.8131048229466,35.61138656949681],[139.81315593583972,35.61136160977725]]]}},{"type":"Feature","properties":{"height":2.6,"gml_id":"bldg_49c81acf-8636-4c68-9280-5b531f039d65"},"geometry":{"type":"Polygon","coordinates":[[[139.8131279023988,35.6113479040689],[139.8131401505687,35.611364491556245],[139.8130873816741,35.61139053264962],[139.81307513351118,35.61137394515698],[139.8131279023988,35.6113479040689]]]}},{"type":"Feature","properties":{"height":3.2,"gml_id":"bldg_ead5b3cc-9809-47bb-a9bc-e3fa652f149d"},"geometry":{"type":"Polygon","coordinates":[[[139.81296416792722,35.61150102135122],[139.81293194708664,35.61145928190103],[139.81307148746816,35.61138764555469],[139.8131038187341,35.61142938498663],[139.81296416792722,35.61150102135122]]]}},{"type":"Feature","properties":{"height":2.9,"gml_id":"bldg_55581980-c6bd-438f-8921-4089fe15564e"},"geometry":{"type":"Polygon","coordinates":[[[139.81290047236146,35.61152210291208],[139.81286714724735,35.611482256160215],[139.81291726757382,35.61145441195043],[139.81295059270127,35.61149425868862],[139.81290047236146,35.61152210291208]]]}},{"type":"Feature","properties":{"height":2.8,"gml_id":"bldg_45c4a8c8-b129-4f21-a47e-babb92555bd7"},"geometry":{"type":"Polygon","coordinates":[[[139.81276810654683,35.611593199454056],[139.81273963710882,35.611557860407316],[139.81284307895416,35.61150226275622],[139.812871548418,35.61153760177885],[139.81276810654683,35.611593199454056]]]}},{"type":"Feature","properties":{"height":1.6,"gml_id":"bldg_8617c0f7-5700-4e7f-9e02-031a386edf56"},"geometry":{"type":"Polygon","coordinates":[[[139.8162555453634,35.60985939433561],[139.8162384409699,35.609838660112274],[139.81626692217358,35.609822980093554],[139.81628402657108,35.6098437143129],[139.8162555453634,35.60985939433561]]]}},{"type":"Feature","properties":{"height":1.2,"gml_id":"bldg_e447d20f-e19c-4d79-b849-32b35ca151e8"},"geometry":{"type":"Polygon","coordinates":[[[139.81635312326605,35.609325068543846],[139.8163522333988,35.609357428053706],[139.81630532264631,35.60935652005119],[139.81630621253248,35.60932416054169],[139.81635312326605,35.609325068543846]]]}},{"type":"Feature","properties":{"height":3.3,"gml_id":"bldg_9338edba-f4e6-4d88-bc25-41d502255221"},"geometry":{"type":"Polygon","coordinates":[[[139.81271038241584,35.61157164655247],[139.8127565064672,35.61163222732516],[139.8126521820123,35.61168521074074],[139.81260605800924,35.61162462992865],[139.81271038241584,35.61157164655247]]]}},{"type":"Feature","properties":{"height":9.8,"gml_id":"bldg_95b9b4c6-2fbd-4853-bb4e-868dd574177b"},"geometry":{"type":"Polygon","coordinates":[[[139.8124517308226,35.61125152115874],[139.81240207593657,35.61118742426133],[139.81255486398499,35.61110830933723],[139.81260451899055,35.611172225896105],[139.8124517308226,35.61125152115874]]]}},{"type":"Feature","properties":{"height":10.3,"gml_id":"bldg_953e3ab0-ca1e-4f9c-8a5b-e3ecf2b93e5e"},"geometry":{"type":"Polygon","coordinates":[[[139.8175656670298,35.60858772201903],[139.81755749147675,35.60859836357464],[139.81749777031476,35.60856592218841],[139.8175059590677,35.60855553482845],[139.8175656670298,35.60858772201903]]]}},{"type":"Feature","properties":{"height":6.5,"gml_id":"bldg_ad255436-47e7-4fea-8862-ce78639c7306"},"geometry":{"type":"Polygon","coordinates":[[[139.81698422190303,35.608528137950515],[139.8169764817886,35.60853572383847],[139.81692725854845,35.60851047843062],[139.816935762696,35.60850182180709],[139.81698422190303,35.608528137950515]]]}},{"type":"Feature","properties":{"height":12.6,"gml_id":"bldg_a00970c8-936b-4966-9558-c0126d0ff484"},"geometry":{"type":"Polygon","coordinates":[[[139.81755749147675,35.60859836357464],[139.81805392443405,35.60886784452146],[139.81791790665687,35.60903494354249],[139.81742180972404,35.60876572619223],[139.8173603358928,35.608732276761486],[139.81698422190303,35.608528137950515],[139.816935762696,35.60850182180709],[139.81691203085182,35.6084889333093],[139.81696226517357,35.60842728556573],[139.81699008724772,35.60839303679836],[139.81704804979557,35.6083218354088],[139.81749777031476,35.60856592218841],[139.81755749147675,35.60859836357464]]]}},{"type":"Feature","properties":{"height":7.6,"gml_id":"bldg_0e298d57-097d-48f6-b47a-8eab649e0d71"},"geometry":{"type":"Polygon","coordinates":[[[139.81699008724772,35.60839303679836],[139.81696226517357,35.60842728556573],[139.81694559987505,35.60841899148067],[139.81697452572718,35.608384741965565],[139.81699008724772,35.60839303679836]]]}}]}