{"type":"FeatureCollection","crs":{"type":"name","properties":{"name":"urn:ogc:def:crs:OGC:1.3:CRS84"}},"features":[{"type":"Feature","properties":{"height":2.2,"gml_id":"bldg_139d05fb-2223-45cb-b376-3a6c0da3ee5f"},"geometry":{"type":"Polygon","coordinates":[[[139.78727143528872,35.61106785562045],[139.78724373834135,35.61105270180773],[139.78725599941802,35.611037382998475],[139.78728369636244,35.61105253680844],[139.78727143528872,35.61106785562045]]]}},{"type":"Feature","properties":{"height":8.2,"gml_id":"bldg_4c1b2efd-ab2e-423d-a833-854b8643a83f"},"geometry":{"type":"Polygon","coordinates":[[[139.78069997446485,35.61466221922763],[139.78065738020894,35.61463975620994],[139.78067781849688,35.61461398562684],[139.78072030229995,35.61463653872734],[139.78069997446485,35.61466221922763]]]}},{"type":"Feature","properties":{"height":2.6,"gml_id":"bldg_0851ce95-89f1-48fc-913e-48b916794df4"},"geometry":{"type":"Polygon","coordinates":[[[139.7869967012591,35.61507980136843],[139.7870157928267,35.61508900280172],[139.78700087868887,35.6151097288457],[139.78698178711807,35.61510052741008],[139.7869967012591,35.61507980136843]]]}},{"type":"Feature","properties":{"height":3.8,"gml_id":"bldg_04decf28-edd5-4946-bd28-b2947dfc5fd1"},"geometry":{"type":"Polygon","coordinates":[[[139.7773423602022,35.614351612972655],[139.77734885830606,35.614372627199906],[139.77728305909648,35.61438611733529],[139.77727656100876,35.614365103104554],[139.7773423602022,35.614351612972655]]]}},{"type":"Feature","properties":{"height":3.7,"gml_id":"bldg_e5306360-5eed-4550-9778-371df97be408"},"geometry":{"type":"Polygon","coordinates":[[[139.78070847848622,35.616003848312666],[139.7807973391163,35.61600623068229],[139.78079475781445,35.616071038885416],[139.7807058970537,35.616068746651976],[139.78070847848622,35.616003848312666]]]}},{"type":"Feature","properties":{"height":2.7,"gml_id":"bldg_521f0483-7cdb-452c-8c08-f03b5401cc4a"},"geometry":{"type":"Polygon","coordinates":[[[139.7808268709885,35.61473465554112],[139.78084507803013,35.61474484908677],[139.7808245302011,35.6147693577156],[139.78080621277047,35.61475916411879],[139.7808268709885,35.61473465554112]]]}},{"type":"Feature","properties":{"height":3.7,"gml_id":"bldg_5bd08b91-1343-407f-9577-4ccf8e0cbc0e"},"geometry":{"type":"Polygon","coordinates":[[[139.7823548653499,35.61625242702813],[139.7822849033923,35.616214449247806],[139.78231185914802,35.61618128982729],[139.7823818210895,35.616219267592164],[139.7823548653499,35.61625242702813]]]}},{"type":"Feature","properties":{"height":3.6,"gml_id":"bldg_d1e57e4a-6b16-4c69-b051-5f3b423be944"},"geometry":{"type":"Polygon","coordinates":[[[139.7872179776691,35.61112570391417],[139.78717240472676,35.61110053789957],[139.7872069780572,35.61105863686437],[139.7872526614194,35.61108371277007],[139.7872179776691,35.61112570391417]]]}},{"type":"Feature","properties":{"height":12.4,"gml_id":"bldg_45377e98-26f1-4371-a891-d2d157119f81"},"geometry":{"type":"Polygon","coordinates":[[[139.7848676886114,35.60847075106563],[139.7836582505283,35.60995132017589],[139.7835409580369,35.609885290572734],[139.7847459854604,35.60839931254971],[139.7848676886114,35.60847075106563]]]}},{"type":"Feature","properties":{"height":3.3,"gml_id":"bldg_a94d103a-112c-4d1c-9a85-ff5ff8ad3a3a"},"geometry":{"type":"Polygon","coordinates":[[[139.78359161956018,35.60935457750493],[139.78356701187585,35.60934366061622],[139.7835778390838,35.609327350064106],[139.78360244676458,35.60933826695064],[139.78359161956018,35.60935457750493]]]}},{"type":"Feature","properties":{"height":2.6,"gml_id":"bldg_49a40af1-e854-4432-8a24-ff3989692cb2"},"geometry":{"type":"Polygon","coordinates":[[[139.78485592398792,35.61040754689168],[139.7848284493549,35.61039095040006],[139.78486666641354,35.61034860080727],[139.78489414103998,35.610365197290285],[139.78485592398792,35.61040754689168]]]}},{"type":"Feature","properties":{"height":15.1,"gml_id":"bldg_b7f2f315-01c6-4c16-a813-b0ff5a95340f"},"geometry":{"type":"Polygon","coordinates":[[[139.78097071057033,35.61438588341579],[139.780679175839,35.61422720332161],[139.780814506293,35.6140614081386],[139.78110604069087,35.61422008790946],[139.78097071057033,35.61438588341579]]]}},{"type":"Feature","properties":{"height":3.9,"gml_id":"bldg_de9f22b8-127a-44bd-91b4-057f20c07142"},"geometry":{"type":"Polygon","coordinates":[[[139.78317251260228,35.61076777135832],[139.78318610134053,35.610748667709814],[139.7832161159713,35.61076292203736],[139.78320252723776,35.6107820256892],[139.78317251260228,35.61076777135832]]]}},{"type":"Feature","properties":{"height":7.9,"gml_id":"bldg_8764da92-a64b-43b5-b976-ca0df0a9cd56"},"geometry":{"type":"Polygon","coordinates":[[[139.78642556314054,35.614698476200914],[139.78620519014498,35.61458274293333],[139.7862468365091,35.614530028384124],[139.78646720942018,35.6146457615765],[139.78642556314054,35.614698476200914]]]}},{"type":"Feature","properties":{"height":5.5,"gml_id":"bldg_d14df1f2-919f-4898-ac89-1e83f5b908c7"},"geometry":{"type":"Polygon","coordinates":[[[139.77996104440402,35.61631686678458],[139.77962343206056,35.616136656803704],[139.77970178455624,35.61603879266334],[139.78003939667673,35.61621898439977],[139.77996104440402,35.61631686678458]]]}},{"type":"Feature","properties":{"height":3.9,"gml_id":"bldg_5c22461d-3294-4987-9c13-3ac1db27cbc4"},"geometry":{"type":"Polygon","coordinates":[[[139.77973578303656,35.615113656812525],[139.77977462516307,35.615134586137714],[139.77973231216197,35.61518693759356],[139.77969347008138,35.61516591811678],[139.77973578303656,35.615113656812525]]]}},{"type":"Feature","properties":{"height":12.3,"gml_id":"bldg_70814391-b99c-4fc0-8e6c-de412ababdc5"},"geometry":{"type":"Polygon","coordinates":[[[139.78711814391326,35.6142818547776],[139.78666946090556,35.61403353144147],[139.78671684931555,35.61397631203928],[139.78716619477345,35.61422409462602],[139.78711814391326,35.6142818547776]]]}},{"type":"Feature","properties":{"height":20.0,"gml_id":"bldg_a8e91009-98ed-47cf-bcd2-267eb8cee4b8"},"geometry":{"type":"Polygon","coordinates":[[[139.78727820601483,35.61273568556742],[139.78729035649397,35.61272117796061],[139.78731816420174,35.61273669235373],[139.78732158866498,35.612732186751394],[139.78738448884422,35.61276420981507],[139.78741743432894,35.612867701026936],[139.7873274102703,35.61297511142046],[139.78724232853597,35.612933164643565],[139.78731446006643,35.612844045535205],[139.78722673232792,35.612796779582055],[139.78727820601483,35.61273568556742]]]}},{"type":"Feature","properties":{"height":3.2,"gml_id":"bldg_2a929711-9338-4573-ad80-bf772d5b5b6c"},"geometry":{"type":"Polygon","coordinates":[[[139.78710438879966,35.614974381078525],[139.78708033157525,35.61496220319353],[139.78710076856072,35.61493525972486],[139.7871248257283,35.61494752774397],[139.78710438879966,35.614974381078525]]]}},{"type":"Feature","properties":{"height":3.4,"gml_id":"bldg_c10be3d8-6cf2-4d15-aa99-f2ea1dc77026"},"geometry":{"type":"Polygon","coordinates":[[[139.78598928738975,35.61437507007884],[139.78595033325126,35.614354773677086],[139.78597198517926,35.61432701963141],[139.7860109393098,35.61434731602627],[139.78598928738975,35.61437507007884]]]}},{"type":"Feature","properties":{"height":23.5,"gml_id":"bldg_43830a02-bb38-456b-8deb-f383cee63c0c"},"geometry":{"type":"Polygon","coordinates":[[[139.7869569588806,35.614702918396894],[139.78645320930173,35.614424196500046],[139.78637927485303,35.61438324497994],[139.78666946090556,35.61403353144147],[139.78711814391326,35.6142818547776],[139.78724714357637,35.61435320348471],[139.7869569588806,35.614702918396894]]]}},{"type":"Feature","properties":{"height":16.6,"gml_id":"bldg_d3a207f1-0e67-4321-b6f7-2ed705ede1f9"},"geometry":{"type":"Polygon","coordinates":[[[139.78726637903583,35.609490434530834],[139.78737639426515,35.60954726363639],[139.7862012274032,35.61098839053963],[139.78609430275714,35.61092975882146],[139.78726637903583,35.609490434530834]]]}},{"type":"Feature","properties":{"height":36.8,"gml_id":"bldg_540ab763-6cba-4d36-ad9f-3b69bfe4cf0e"},"geometry":{"type":"Polygon","coordinates":[[[139.7846923072501,35.61265084091818],[139.78381064121044,35.61217094653787],[139.78637921176664,35.609013260744085],[139.7863796535954,35.60901272008673],[139.78642423291203,35.609035812842656],[139.78649551569964,35.60907279725586],[139.78680580633488,35.60923363397243],[139.78683540998856,35.60919524650351],[139.78688318780377,35.60922302751241],[139.78685159714064,35.609261774779455],[139.787154271324,35.609425672356465],[139.78722577451697,35.60946445918498],[139.78726858821446,35.60948764108966],[139.78726637903583,35.609490434530834],[139.78595920934114,35.61109537984382],[139.7846923072501,35.61265084091818]]]}},{"type":"Feature","properties":{"height":3.3,"gml_id":"bldg_5d4df4ea-ba7e-4374-a542-bafd639d3696"},"geometry":{"type":"Polygon","coordinates":[[[139.78553794226707,35.61638001526774],[139.78557689701472,35.6164007624873],[139.78553226676883,35.616456810715604],[139.7854932016172,35.61643606343799],[139.78553794226707,35.61638001526774]]]}},{"type":"Feature","properties":{"height":13.9,"gml_id":"bldg_b8c37bd1-b05f-4b79-8b40-a8456ea91cfd"},"geometry":{"type":"Polygon","coordinates":[[[139.78052016261435,35.61649888573401],[139.78049378896182,35.616484902759034],[139.78038541926568,35.6166209187087],[139.78006786563088,35.61645228441924],[139.7800942482307,35.61641932264573],[139.77995766871408,35.616346800166696],[139.78006546429143,35.61621146939181],[139.77972593143204,35.61603122279076],[139.77974559693718,35.616006533685976],[139.77970675424055,35.61598583871322],[139.77976981641308,35.61590660828922],[139.77981187026407,35.615928963210294],[139.77987928523484,35.61584420919298],[139.77984928141888,35.61582833156385],[139.7799149616548,35.61574587527793],[139.78022967618566,35.61591304038714],[139.78020271918436,35.61594692044764],[139.78023825157354,35.61596577498377],[139.78026288846058,35.61593486755111],[139.7805793700705,35.61610293480347],[139.78055241315278,35.616136814941214],[139.78059500805415,35.616159458267305],[139.78061854009624,35.61612990325287],[139.78093171269134,35.61629625460106],[139.78090453490418,35.61633040513489],[139.7809413918166,35.6163499811441],[139.78097000587522,35.61631393832523],[139.78123738455528,35.61645584242905],[139.78115883430175,35.616554508804285],[139.7811235220958,35.616535834912966],[139.78105811866465,35.61661792240081],[139.7810919632083,35.616635848429524],[139.7810322161692,35.61671087062284],[139.78098632131668,35.61668655756262],[139.78096592686603,35.61671215784696],[139.7809936469428,35.61672687142193],[139.7808611600442,35.616893208798125],[139.78080357905515,35.61686260885249],[139.7807849190244,35.61688604564492],[139.780382162089,35.616672241933685],[139.78052016261435,35.61649888573401]]]}},{"type":"Feature","properties":{"height":27.1,"gml_id":"bldg_d9e7063e-f276-4e15-a0a0-d5fdd74d73f2"},"geometry":{"type":"Polygon","coordinates":[[[139.78343315335871,35.6108938026803],[139.78339890905107,35.61093606332238],[139.78340685378197,35.61094039324928],[139.7831504626287,35.611256131079124],[139.78314229717424,35.611251710905364],[139.78312672142098,35.61127090385761],[139.78297477791668,35.61118863439448],[139.78328231512606,35.610809821431374],[139.78343447893542,35.61089218074116],[139.78343315335871,35.6108938026803]]]}},{"type":"Feature","properties":{"height":47.6,"gml_id":"bldg_383a1030-7b55-4a81-9aa0-a8c49ab1750c"},"geometry":{"type":"Polygon","coordinates":[[[139.77941594550225,35.6166813590663],[139.77946683245517,35.61661887102777],[139.7794867724348,35.616629688404835],[139.77943589652392,35.61669218456904],[139.77941594550225,35.6166813590663]]]}},{"type":"Feature","properties":{"height":5.3,"gml_id":"bldg_53eb7bea-bd79-4458-a2a1-2a2b76224a7b"},"geometry":{"type":"Polygon","coordinates":[[[139.77918040222613,35.61498829671572],[139.77925863656458,35.61503231927504],[139.77921997034696,35.61507827237884],[139.77914162559856,35.61503424974505],[139.77918040222613,35.61498829671572]]]}},{"type":"Feature","properties":{"height":8.3,"gml_id":"bldg_6de3134a-9514-480a-9cc3-88f756cab2c3"},"geometry":{"type":"Polygon","coordinates":[[[139.78596433890567,35.61568792265751],[139.78604829366807,35.61558537841149],[139.7861275272716,35.61562696317014],[139.78604688286273,35.61573176222379],[139.78596433890567,35.61568792265751]]]}},{"type":"Feature","properties":{"height":9.1,"gml_id":"bldg_feea2bb2-fad8-4bda-b25f-1ca883df1e46"},"geometry":{"type":"Polygon","coordinates":[[[139.787329206289,35.613886859901115],[139.78727800351447,35.61385925805685],[139.78751483588542,35.61356603868939],[139.78754154075204,35.61358038081308],[139.78759489411033,35.61351423964697],[139.78756576157065,35.61349854454002],[139.78767412483765,35.613364460023995],[139.78772863783382,35.61339404599526],[139.787329206289,35.613886859901115]]]}},{"type":"Feature","properties":{"height":7.1,"gml_id":"bldg_a117f527-fc88-4fe8-9442-62c5a80cb4e1"},"geometry":{"type":"Polygon","coordinates":[[[139.78615412063047,35.6154559814999],[139.78621940609654,35.6153763249118],[139.7863016202951,35.61541746003202],[139.78623865279462,35.615497478122805],[139.78615412063047,35.6154559814999]]]}},{"type":"Feature","properties":{"height":4.0,"gml_id":"bldg_ce1a17e9-f4cb-414c-b514-d9199a80b7f9"},"geometry":{"type":"Polygon","coordinates":[[[139.78355384521421,35.609394673426934],[139.7835305630167,35.609382224728165],[139.78355552786348,35.60935113734752],[139.78357881005584,35.60936358604151],[139.78355384521421,35.609394673426934]]]}},{"type":"Feature","properties":{"height":3.6,"gml_id":"bldg_e0b04198-87b3-4887-97e3-dad8e89f8f45"},"geometry":{"type":"Polygon","coordinates":[[[139.78086188814567,35.61469672262658],[139.78088130937027,35.614707006833704],[139.780859656642,35.614733137474744],[139.78084034579985,35.61472285331224],[139.78086188814567,35.61469672262658]]]}},{"type":"Feature","properties":{"height":39.8,"gml_id":"bldg_d9ae721f-f7c3-4326-a935-ea59ec24ffb4"},"geometry":{"type":"Polygon","coordinates":[[[139.785022689902,35.61576218317512],[139.78432107885544,35.615380975969885],[139.7846599979766,35.614965125733356],[139.78536149656364,35.615346421084055],[139.785022689902,35.61576218317512]]]}},{"type":"Feature","properties":{"height":5.2,"gml_id":"bldg_8fd12f62-1c32-48a2-8cab-c23659c852e1"},"geometry":{"type":"Polygon","coordinates":[[[139.78309950329177,35.613315948121034],[139.78305249439168,35.61329240244618],[139.78309005619826,35.61324248155669],[139.78313695469618,35.6132660271711],[139.78309950329177,35.613315948121034]]]}},{"type":"Feature","properties":{"height":22.6,"gml_id":"bldg_17a701de-77ea-47df-a08f-68cb4f655c4e"},"geometry":{"type":"Polygon","coordinates":[[[139.78059897486958,35.61482496459737],[139.78036757852408,35.614698309115404],[139.78049042621276,35.614548643554734],[139.78072182232148,35.614675298803725],[139.78059897486958,35.61482496459737]]]}},{"type":"Feature","properties":{"height":5.1,"gml_id":"bldg_c9edba4f-3dd2-4394-9c1f-27ce4b5f4896"},"geometry":{"type":"Polygon","coordinates":[[[139.7774314022581,35.6142507085766],[139.77745309723147,35.61432237758607],[139.77739513664145,35.61433415969395],[139.77737344067617,35.61426239963417],[139.7774314022581,35.6142507085766]]]}},{"type":"Feature","properties":{"height":23.2,"gml_id":"bldg_607de54e-5d1c-4fbe-b876-f4fa3982d55f"},"geometry":{"type":"Polygon","coordinates":[[[139.78532598320288,35.61640255567643],[139.7853196864349,35.616410305047864],[139.7848996852252,35.61618316909772],[139.78539900656904,35.61556754491665],[139.78581900597607,35.61579467914815],[139.78575681238743,35.61587136217531],[139.78532598320288,35.61640255567643]]]}},{"type":"Feature","properties":{"height":2.7,"gml_id":"bldg_68e7c68c-c186-4fdf-acd1-60b67593b664"},"geometry":{"type":"Polygon","coordinates":[[[139.78352020310476,35.612027777482886],[139.78349570689514,35.61201379593109],[139.783527851388,35.61197631172648],[139.78355234753596,35.61199038341002],[139.78352020310476,35.612027777482886]]]}},{"type":"Feature","properties":{"height":6.6,"gml_id":"bldg_b0574398-a83c-4510-ba90-3e9cd0679ae2"},"geometry":{"type":"Polygon","coordinates":[[[139.7869644578645,35.61375917455761],[139.78703265447166,35.613795887023414],[139.78699973559117,35.613837878763434],[139.78693087618635,35.61380197726766],[139.7869644578645,35.61375917455761]]]}},{"type":"Feature","properties":{"height":2.8,"gml_id":"bldg_042034c1-3de0-445e-8c34-0e3a722a65bf"},"geometry":{"type":"Polygon","coordinates":[[[139.78535534302947,35.60919890278926],[139.78533250206902,35.6091865447521],[139.7853542626558,35.60915969221895],[139.7853772139904,35.60917205029595],[139.78535534302947,35.60919890278926]]]}},{"type":"Feature","properties":{"height":2.5,"gml_id":"bldg_4ade6c61-c238-495f-bde8-18787298ac97"},"geometry":{"type":"Polygon","coordinates":[[[139.7863852378808,35.611356857294865],[139.78636118242764,35.61134368773966],[139.78639520406307,35.611302327553545],[139.78641925950942,35.61131549710205],[139.7863852378808,35.611356857294865]]]}},{"type":"Feature","properties":{"height":7.5,"gml_id":"bldg_347c9ed9-b33c-4970-9621-dc38f084f336"},"geometry":{"type":"Polygon","coordinates":[[[139.77644002886476,35.615966835677106],[139.7765256549997,35.616016001367974],[139.77650864131135,35.61603574261317],[139.77642312555355,35.6159865769625],[139.77644002886476,35.615966835677106]]]}},{"type":"Feature","properties":{"height":8.7,"gml_id":"bldg_4676bcf1-579b-47a9-960e-938823203d67"},"geometry":{"type":"Polygon","coordinates":[[[139.78686403681635,35.615426601927844],[139.78593201945336,35.616582621216075],[139.78590079124564,35.6165626883971],[139.78683744294003,35.615410366799665],[139.78686403681635,35.615426601927844]]]}},{"type":"Feature","properties":{"height":3.7,"gml_id":"bldg_a72a2af8-62be-49b6-8012-2b33bfea3a32"},"geometry":{"type":"Polygon","coordinates":[[[139.77885169078505,35.61463426609425],[139.77890598165453,35.61466232360053],[139.77886455075281,35.6147156666739],[139.77881025992295,35.61468751901106],[139.77885169078505,35.61463426609425]]]}},{"type":"Feature","properties":{"height":4.5,"gml_id":"bldg_8d359b72-76a4-4a15-9584-952d1a7134c2"},"geometry":{"type":"Polygon","coordinates":[[[139.78511218837363,35.61433379952346],[139.78509086881903,35.614359029678646],[139.78505853685402,35.61434071867966],[139.78507985635977,35.61431557866828],[139.78511218837363,35.61433379952346]]]}},{"type":"Feature","properties":{"height":7.4,"gml_id":"bldg_c9258cb1-cdb1-4041-9dbc-163254b14a95"},"geometry":{"type":"Polygon","coordinates":[[[139.78512162792728,35.616630523582685],[139.78520193998622,35.61653122345874],[139.78530633254644,35.61658976476935],[139.78522922166908,35.61668933665444],[139.78512162792728,35.616630523582685]]]}},{"type":"Feature","properties":{"height":19.4,"gml_id":"bldg_e2873bd7-35d7-4a62-80b7-241f3d905ccc"},"geometry":{"type":"Polygon","coordinates":[[[139.7859600937351,35.614275816472336],[139.7863936686641,35.613741647019694],[139.78663149731935,35.61344851991008],[139.78674272918198,35.6135097668014],[139.7860758501796,35.61434022058609],[139.7859600937351,35.614275816472336]]]}},{"type":"Feature","properties":{"height":9.1,"gml_id":"bldg_2b32b7b4-114b-4bd9-ab34-71aad471b59a"},"geometry":{"type":"Polygon","coordinates":[[[139.7863574338328,35.616811288013494],[139.78728536056258,35.61566022151263],[139.78731802514147,35.61567781093222],[139.78639009867598,35.61682887768148],[139.7863574338328,35.616811288013494]]]}},{"type":"Feature","properties":{"height":25.0,"gml_id":"bldg_37b9b211-76aa-4e3e-bbdf-504030e6e86a"},"geometry":{"type":"Polygon","coordinates":[[[139.78727820601483,35.61273568556742],[139.78722673232792,35.612796779582055],[139.7866479527454,35.612484588408314],[139.78669943185108,35.61241457095764],[139.78727820601483,35.61273568556742]]]}},{"type":"Feature","properties":{"height":5.5,"gml_id":"bldg_c8f60eba-6b2c-4719-989b-00ffea242db1"},"geometry":{"type":"Polygon","coordinates":[[[139.7794422884112,35.61655997280597],[139.77938887936156,35.616531646431326],[139.7794684264098,35.616431267228705],[139.77952194580803,35.61645959542057],[139.7794422884112,35.61655997280597]]]}},{"type":"Feature","properties":{"height":3.5,"gml_id":"bldg_eddcf3d1-52f4-464c-967d-9fa3e1c1c4c8"},"geometry":{"type":"Polygon","coordinates":[[[139.7837498972897,35.6111519991715],[139.78367982872885,35.61111402212652],[139.78373782279604,35.61104274667514],[139.78380789132223,35.611080723686804],[139.7837498972897,35.6111519991715]]]}},{"type":"Feature","properties":{"height":9.1,"gml_id":"bldg_b251049c-15cd-40f4-8d2c-725147f39ecd"},"geometry":{"type":"Polygon","coordinates":[[[139.78532598320288,35.61640255567643],[139.78575681238743,35.61587136217531],[139.78580238753685,35.61589661884522],[139.7853713378487,35.616427632143065],[139.78532598320288,35.61640255567643]]]}},{"type":"Feature","properties":{"height":4.7,"gml_id":"bldg_41d79300-100a-4703-aa52-8297ee261d95"},"geometry":{"type":"Polygon","coordinates":[[[139.77954918408938,35.616336027287744],[139.77958548764678,35.61635722595111],[139.77955919520932,35.61638714008313],[139.7795228916453,35.61636594141195],[139.77954918408938,35.616336027287744]]]}},{"type":"Feature","properties":{"height":31.9,"gml_id":"bldg_1fcf5090-f50f-4e8d-8adb-9766aad5c60b"},"geometry":{"type":"Polygon","coordinates":[[[139.78722577451697,35.60946445918498],[139.787154271324,35.609425672356465],[139.78726848387163,35.609284559570476],[139.78660586582578,35.60893141317374],[139.78649551569964,35.60907279725586],[139.78642423291203,35.609035812842656],[139.78660140820642,35.60881468240056],[139.78661278488747,35.60880134634971],[139.78662736231357,35.60878837209145],[139.78664215928615,35.60877747109643],[139.7866592728283,35.60876891459166],[139.7866793658882,35.60876153103542],[139.7867003404501,35.60875676182653],[139.7867216445745,35.608754696889235],[139.78674636905188,35.60875497686535],[139.78741162983013,35.60911776829997],[139.7874206701928,35.60913643036361],[139.78742584958204,35.60915112487244],[139.78742804643932,35.60916987446628],[139.78742516058597,35.60919790636386],[139.7874206247699,35.609215932286446],[139.78741310965972,35.60923233458491],[139.7874008480129,35.60924918576494],[139.78722577451697,35.60946445918498]]]}},{"type":"Feature","properties":{"height":3.2,"gml_id":"bldg_4eebe64e-37c0-47d3-8e5b-66842d977089"},"geometry":{"type":"Polygon","coordinates":[[[139.77629632838602,35.6155126787771],[139.77631364096905,35.6154916577398],[139.77635744763109,35.615515655211446],[139.77629878158666,35.615586754571495],[139.77625508528993,35.615562758032475],[139.77627239789456,35.6155417370013],[139.77626656068801,35.61553853433235],[139.7762905022193,35.61550947611455],[139.77629632838602,35.6155126787771]]]}},{"type":"Feature","properties":{"height":10.3,"gml_id":"bldg_915bcacf-f877-4460-ae5e-a49d2dea88d3"},"geometry":{"type":"Polygon","coordinates":[[[139.78337079079336,35.61159973938827],[139.78318221209645,35.611497624587074],[139.78325280009156,35.61141076070312],[139.78333842728827,35.61145712730524],[139.78335786940735,35.611433068466056],[139.78346093115795,35.61148881658529],[139.78337079079336,35.61159973938827]]]}},{"type":"Feature","properties":{"height":20.2,"gml_id":"bldg_5217de32-e358-4702-ac5c-9388d888161d"},"geometry":{"type":"Polygon","coordinates":[[[139.78637921176664,35.609013260744085],[139.78521563221858,35.610441943597806],[139.785108819183,35.61038367159787],[139.78627240099803,35.60895291658312],[139.78637921176664,35.609013260744085]]]}},{"type":"Feature","properties":{"height":14.0,"gml_id":"bldg_63327766-24c9-472b-9180-a2fc5b92fac2"},"geometry":{"type":"Polygon","coordinates":[[[139.787329206289,35.613886859901115],[139.78729054415163,35.613934708508964],[139.78703265447166,35.613795887023414],[139.7869644578645,35.61375917455761],[139.78689780628812,35.61372318375392],[139.78733656515328,35.613180089172346],[139.78767556085623,35.61336265780432],[139.78767412483765,35.613364460023995],[139.78756576157065,35.61349854454002],[139.78759489411033,35.61351423964697],[139.78754154075204,35.61358038081308],[139.78751483588542,35.61356603868939],[139.78727800351447,35.61385925805685],[139.787329206289,35.613886859901115]]]}},{"type":"Feature","properties":{"height":42.6,"gml_id":"bldg_030e0e70-b965-4ca3-bebe-34766f0f40f3"},"geometry":{"type":"Polygon","coordinates":[[[139.7859600937351,35.614275816472336],[139.785940651759,35.61429978558194],[139.7853738944534,35.61399408304134],[139.78608330308379,35.61311695819587],[139.78616760965585,35.61316242087586],[139.7863630199678,35.612920926843515],[139.78627220297133,35.612871946366155],[139.78660447549106,35.61246113562222],[139.7866479527454,35.612484588408314],[139.78722673232792,35.612796779582055],[139.78731446006643,35.612844045535205],[139.78724232853597,35.612933164643565],[139.78698141643275,35.613255669158676],[139.78684645887,35.613182875645265],[139.78665160166003,35.61342373969837],[139.78663149731935,35.61344851991008],[139.7863936686641,35.613741647019694],[139.7859600937351,35.614275816472336]]]}},{"type":"Feature","properties":{"height":4.4,"gml_id":"bldg_ea38b927-45ba-4dba-a2fc-e7a4de0a64fd"},"geometry":{"type":"Polygon","coordinates":[[[139.7812595689242,35.61424755636361],[139.78122348553688,35.61422807091797],[139.7812864555728,35.61415030888827],[139.78132253899886,35.614169704177144],[139.7812595689242,35.61424755636361]]]}},{"type":"Feature","properties":{"height":27.0,"gml_id":"bldg_c622d0ae-edca-4f64-aae6-ee858763ddf2"},"geometry":{"type":"Polygon","coordinates":[[[139.78423006723992,35.61022927046302],[139.78418146371556,35.610288741883274],[139.7836285359817,35.609987633633466],[139.7836582505283,35.60995132017589],[139.7848676886114,35.60847075106563],[139.78490877938094,35.60842038029585],[139.78546159071053,35.60872157283926],[139.78541210534226,35.60878212608028],[139.78423006723992,35.61022927046302]]]}},{"type":"Feature","properties":{"height":3.1,"gml_id":"bldg_b39b273b-da39-4abd-ada2-99cbe40e0ab2"},"geometry":{"type":"Polygon","coordinates":[[[139.77805578462423,35.61434771489801],[139.77800485916788,35.61440249643439],[139.7779898530636,35.614393294547945],[139.77798355636716,35.614400142156676],[139.7779398623249,35.61437308062577],[139.77799708455768,35.61431136227065],[139.77805578462423,35.61434771489801]]]}},{"type":"Feature","properties":{"height":4.3,"gml_id":"bldg_c19ac07a-1624-447a-9be9-f346f1706a7d"},"geometry":{"type":"Polygon","coordinates":[[[139.786026200237,35.615799988688266],[139.78592456445855,35.6157472179205],[139.7859667643983,35.61569306148591],[139.786068400136,35.615745832218515],[139.786026200237,35.615799988688266]]]}},{"type":"Feature","properties":{"height":9.9,"gml_id":"bldg_68e18fff-704a-4f2e-85b1-319fb52e41ba"},"geometry":{"type":"Polygon","coordinates":[[[139.78615412063047,35.6154559814999],[139.78604829366807,35.61558537841149],[139.78596433890567,35.61568792265751],[139.78592004171227,35.61574189798973],[139.7854621931027,35.615491944122745],[139.78599353760376,35.614842798723735],[139.78609594313306,35.61489872457851],[139.78611483280002,35.61487556647334],[139.7861956096658,35.61491967566534],[139.78618246428002,35.6149357151158],[139.78617572589985,35.61494391505195],[139.78626930362358,35.614994969842215],[139.78628929791867,35.61497046006901],[139.7862987880858,35.614975691787606],[139.786313589514,35.61495920227999],[139.78636666838287,35.61498824747114],[139.78635330161464,35.61500536851173],[139.78636455744586,35.61501150229522],[139.78634566787156,35.61503457030088],[139.7864517154891,35.61509248031153],[139.78638576769026,35.61517294801485],[139.786322802206,35.61524999159437],[139.78621940609654,35.6153763249118],[139.78615412063047,35.6154559814999]]]}},{"type":"Feature","properties":{"height":10.2,"gml_id":"bldg_727fff62-a0c5-4512-8f40-24542c8ec2e0"},"geometry":{"type":"Polygon","coordinates":[[[139.78028311937499,35.6152208028976],[139.78007544909912,35.61510380208987],[139.78039438396596,35.614726173589474],[139.7806020537316,35.614843173854425],[139.78028311937499,35.6152208028976]]]}},{"type":"Feature","properties":{"height":4.6,"gml_id":"bldg_ff8e61e5-d87b-4147-9067-61a5ca9afd8f"},"geometry":{"type":"Polygon","coordinates":[[[139.78420891707955,35.61052040834082],[139.7841501032737,35.61048955707368],[139.78418556294181,35.610444412287],[139.78424448710848,35.61047526358201],[139.78420891707955,35.61052040834082]]]}},{"type":"Feature","properties":{"height":3.6,"gml_id":"bldg_5e5e62eb-3238-4ef4-98b5-9b4fe7b4c07b"},"geometry":{"type":"Polygon","coordinates":[[[139.7863335848498,35.61455548121771],[139.78625401977067,35.61451605977413],[139.78630439550582,35.61444802512521],[139.78638407092808,35.61448744657894],[139.7863335848498,35.61455548121771]]]}},{"type":"Feature","properties":{"height":10.3,"gml_id":"bldg_6ffda15c-6272-487f-8483-fdcbe6e75fd9"},"geometry":{"type":"Polygon","coordinates":[[[139.7863574338328,35.616811288013494],[139.78614632647347,35.61669781264378],[139.78612279645654,35.616727097420764],[139.7860676194599,35.616697510478296],[139.7860912598775,35.61666822485386],[139.78593201945336,35.616582621216075],[139.78686403681635,35.615426601927844],[139.7869899493835,35.61549425404216],[139.78701248446046,35.61546631987811],[139.78706225360227,35.615493110034194],[139.787039387114,35.615521494770896],[139.78710173654548,35.615555050105165],[139.7871593998351,35.615483412380094],[139.7873467795094,35.615584078226455],[139.78728536056258,35.61566022151263],[139.7863574338328,35.616811288013494]]]}},{"type":"Feature","properties":{"height":2.4,"gml_id":"bldg_851984a1-ddfe-47f3-bcef-7a1f4ec1da4d"},"geometry":{"type":"Polygon","coordinates":[[[139.78606185561438,35.61579964212946],[139.78607851967456,35.615807220271],[139.78606890752883,35.615821548467345],[139.7860521330791,35.61581397028117],[139.78606185561438,35.61579964212946]]]}},{"type":"Feature","properties":{"height":16.9,"gml_id":"bldg_56ce0955-5100-4bb3-be25-5d3a8c36f78b"},"geometry":{"type":"Polygon","coordinates":[[[139.78645320930173,35.614424196500046],[139.7869569588806,35.614702918396894],[139.78693099875173,35.61473652993995],[139.7868564009867,35.614696389702644],[139.7868357440428,35.61472189083532],[139.7864022841483,35.61448817477967],[139.78645320930173,35.614424196500046]]]}},{"type":"Feature","properties":{"height":3.8,"gml_id":"bldg_97fc5253-3ddc-4d16-b4a4-8ae7d6baee89"},"geometry":{"type":"Polygon","coordinates":[[[139.77773783216102,35.614408592155584],[139.7778023846755,35.61444197304633],[139.77777840967815,35.61447278924899],[139.77771396765934,35.61443922812023],[139.77773783216102,35.614408592155584]]]}},{"type":"Feature","properties":{"height":36.8,"gml_id":"bldg_d248e0e8-9e97-41b1-8588-2ea91649b09b"},"geometry":{"type":"Polygon","coordinates":[[[139.7853648131214,35.615338129693654],[139.78466474923127,35.61495746590845],[139.7850011239606,35.614544858628186],[139.7857012962401,35.61492552052726],[139.7853648131214,35.615338129693654]]]}},{"type":"Feature","properties":{"height":18.3,"gml_id":"bldg_4e7964b7-e874-42e1-8e9f-6cd3862932e4"},"geometry":{"type":"Polygon","coordinates":[[[139.78310158449483,35.61192917277231],[139.78291631637683,35.611827780046156],[139.78318276062893,35.61150303310845],[139.7833680283354,35.61160442543003],[139.78310158449483,35.61192917277231]]]}},{"type":"Feature","properties":{"height":3.8,"gml_id":"bldg_1c9c4991-eff6-4737-ac52-cd01ae1785ed"},"geometry":{"type":"Polygon","coordinates":[[[139.77795359693624,35.61414503735982],[139.77801726519178,35.614179950079404],[139.77799229719773,35.61421031517931],[139.77792862892903,35.61417540244666],[139.77795359693624,35.61414503735982]]]}},{"type":"Feature","properties":{"height":17.2,"gml_id":"bldg_5b68fcc0-977c-4231-bfe4-0e0a5c42d802"},"geometry":{"type":"Polygon","coordinates":[[[139.7846923072501,35.61265084091818],[139.78595920934114,35.61109537984382],[139.78607198245285,35.611157168812184],[139.78479923326944,35.61270929358832],[139.7846923072501,35.61265084091818]]]}},{"type":"Feature","properties":{"height":6.9,"gml_id":"bldg_b2d2fa47-a24d-4d88-a3bb-3d4feb9fb882"},"geometry":{"type":"Polygon","coordinates":[[[139.786322802206,35.61524999159437],[139.78638576769026,35.61517294801485],[139.78646577308558,35.61521570465069],[139.78640369073892,35.615292748615474],[139.786322802206,35.61524999159437]]]}},{"type":"Feature","properties":{"height":8.1,"gml_id":"bldg_27fd1d59-27f6-4f73-a893-95062da33ab5"},"geometry":{"type":"Polygon","coordinates":[[[139.78012298666363,35.61099577495417],[139.78016618334766,35.610938736525824],[139.78027365843502,35.61099304711022],[139.780230461798,35.611050085576615],[139.78012298666363,35.61099577495417]]]}},{"type":"Feature","properties":{"height":5.1,"gml_id":"bldg_4d7d768f-6d7b-45a9-a8a9-ce768a97b6c9"},"geometry":{"type":"Polygon","coordinates":[[[139.78073478790853,35.61476688484307],[139.78078918879237,35.614796654173716],[139.78072124702334,35.61487955163945],[139.7806668461086,35.61484978227849],[139.78073478790853,35.61476688484307]]]}},{"type":"Feature","properties":{"height":2.5,"gml_id":"bldg_e70a5477-0c62-4cae-a2d6-9ad8d5dde16f"},"geometry":{"type":"Polygon","coordinates":[[[139.78608568375248,35.60888055263406],[139.78606052504438,35.608867833272406],[139.78609200725137,35.60882620174349],[139.78611727632938,35.60883892114191],[139.78608568375248,35.60888055263406]]]}},{"type":"Feature","properties":{"height":3.3,"gml_id":"bldg_022c9671-f3ec-434e-a2b7-0b4dc6592006"},"geometry":{"type":"Polygon","coordinates":[[[139.78682349789213,35.61528236522849],[139.78684457530306,35.615293550494705],[139.78682590646943,35.6153167989361],[139.78680482905497,35.61530561366666],[139.78682349789213,35.61528236522849]]]}},{"type":"Feature","properties":{"height":9.8,"gml_id":"bldg_675e12fd-e86d-4f0c-b4a1-c5ad05f6ec81"},"geometry":{"type":"Polygon","coordinates":[[[139.7849392402523,35.61685624650504],[139.78488930721036,35.61691797106334],[139.78447504236883,35.61669480203602],[139.78484048127575,35.616242726600305],[139.78525463436188,35.61646598448102],[139.78520193998622,35.61653122345874],[139.78512162792728,35.616630523582685],[139.7850223145971,35.616753432226744],[139.7849392402523,35.61685624650504]]]}},{"type":"Feature","properties":{"height":38.5,"gml_id":"bldg_2e524a22-074b-4dc9-a36f-d645bed235d8"},"geometry":{"type":"Polygon","coordinates":[[[139.7846166082215,35.616252461349276],[139.78394589199527,35.61588974279815],[139.78427818818554,35.61548011049048],[139.78494890249658,35.61584282721503],[139.7846166082215,35.616252461349276]]]}},{"type":"Feature","properties":{"height":2.9,"gml_id":"bldg_df5cd810-c673-45ec-9967-3fe51134dc56"},"geometry":{"type":"Polygon","coordinates":[[[139.78240580298552,35.61286685885636],[139.78242599602225,35.612878134663916],[139.78241064106345,35.61289651636771],[139.78239033764075,35.61288524051094],[139.78240580298552,35.61286685885636]]]}},{"type":"Feature","properties":{"height":36.8,"gml_id":"bldg_9d7eb20f-2396-4187-a9f3-5deb0991668e"},"geometry":{"type":"Polygon","coordinates":[[[139.78426719948362,35.61666343964176],[139.7835922892243,35.61629657108367],[139.7839229305925,35.61589099531851],[139.78459783890426,35.6162579521859],[139.78426719948362,35.61666343964176]]]}},{"type":"Feature","properties":{"height":19.1,"gml_id":"bldg_7e7af1c5-13af-4768-aa8d-ebbeca0c47e9"},"geometry":{"type":"Polygon","coordinates":[[[139.78423006723992,35.61022927046302],[139.78541210534226,35.60878212608028],[139.78549243440304,35.6088258750548],[139.7843122714709,35.61027644623117],[139.78423006723992,35.61022927046302]]]}},{"type":"Feature","properties":{"height":19.6,"gml_id":"bldg_2c65843c-e9d6-4a8c-a28b-4d34a057d5cb"},"geometry":{"type":"Polygon","coordinates":[[[139.78343315335871,35.6108938026803],[139.78347122202536,35.610914279816676],[139.7834371984347,35.610956630699036],[139.78340685378197,35.61094039324928],[139.78339890905107,35.61093606332238],[139.78343315335871,35.6108938026803]]]}},{"type":"Feature","properties":{"height":3.5,"gml_id":"bldg_854fdddc-7035-417c-ae75-e76af58e5385"},"geometry":{"type":"Polygon","coordinates":[[[139.77876759223986,35.61493646131003],[139.77880588215763,35.61495730055974],[139.7787643423098,35.61500820080245],[139.778726052378,35.61498736244107],[139.77876759223986,35.61493646131003]]]}},{"type":"Feature","properties":{"height":57.4,"gml_id":"bldg_8c575aa1-e912-4927-b540-c2de8abb62d7"},"geometry":{"type":"Polygon","coordinates":[[[139.77682339547343,35.61629502879608],[139.77681554745018,35.616309897908586],[139.77676597553548,35.61632069122285],[139.77671286546686,35.61633959528687],[139.77665345611996,35.616368591836164],[139.77661723546666,35.61638741366354],[139.77657284001035,35.61641479475259],[139.7765424653765,35.61644001911912],[139.776512752544,35.616465964895106],[139.77649594991087,35.61649930808175],[139.77649162524574,35.61652688831222],[139.77649435881102,35.61656384623861],[139.77650858337608,35.61658584665372],[139.7765377125768,35.616604789396995],[139.77657798913128,35.616626442430054],[139.77617383595597,35.617120387726224],[139.77599440113815,35.61702330482679],[139.7759842696485,35.617035630901256],[139.77567764951738,35.6168706399527],[139.77571683924222,35.61682219142469],[139.77634990268018,35.61603701070367],[139.77682339547343,35.61629502879608]]]}},{"type":"Feature","properties":{"height":5.6,"gml_id":"bldg_9e73c845-a5ba-43b3-a519-ced4caf13fb1"},"geometry":{"type":"Polygon","coordinates":[[[139.77826619191194,35.61449059010512],[139.7783440944773,35.614534072280826],[139.7783039915415,35.61458209761655],[139.7782259785656,35.614538615364744],[139.77826619191194,35.61449059010512]]]}},{"type":"Feature","properties":{"height":21.9,"gml_id":"bldg_08603512-1e80-4e29-b017-62fea93d5881"},"geometry":{"type":"Polygon","coordinates":[[[139.78381241055283,35.612165719249006],[139.78370603755346,35.612107806755475],[139.78496864179198,35.61055821317455],[139.7850719212153,35.610619097890584],[139.78381241055283,35.612165719249006]]]}}]}