{"type":"FeatureCollection","crs":{"type":"name","properties":{"name":"urn:ogc:def:crs:OGC:1.3:CRS84"}},"features":[{"type":"Feature","properties":{"height":41.1,"gml_id":"bldg_b7f881a0-5266-480e-9865-ea1c9c683fc4"},"geometry":{"type":"Polygon","coordinates":[[[139.78364174762325,35.64305079556502],[139.78366713476882,35.6430679322071],[139.7836508150425,35.643084006050415],[139.7836254722719,35.6430665359136],[139.78357975100676,35.64311072058641],[139.78360559048255,35.64312853255984],[139.78333897112577,35.643391121428785],[139.7833099414269,35.64337154858539],[139.7832892792285,35.64339182099401],[139.7828508557971,35.643095265149945],[139.7828958266552,35.64305093621924],[139.78287364069993,35.643035873923814],[139.78294579284218,35.64296478544732],[139.78296808927283,35.642979757638074],[139.78322144934813,35.64273027188802],[139.78319915299573,35.642715209605825],[139.7833099768698,35.64260600872813],[139.78333216278833,35.64262107094423],[139.78345768168032,35.64249754412526],[139.78357622760535,35.64257772561494],[139.78343104110513,35.64272071416322],[139.78375467065615,35.64293961211977],[139.78364174762325,35.64305079556502]]]}},{"type":"Feature","properties":{"height":3.6,"gml_id":"bldg_86c2c922-a511-4ae5-81ef-cacb1bba52e6"},"geometry":{"type":"Polygon","coordinates":[[[139.78566385023163,35.64814462761936],[139.7856375441862,35.6481465461512],[139.78563160207284,35.648092280920956],[139.78565790810063,35.64809036239037],[139.78566385023163,35.64814462761936]]]}},{"type":"Feature","properties":{"height":6.9,"gml_id":"bldg_724a8ea5-f199-44fa-84ab-ac748f172fd8"},"geometry":{"type":"Polygon","coordinates":[[[139.78374578549074,35.64293308158803],[139.78343221168905,35.64272057944156],[139.78348977812976,35.64266381559265],[139.78380324138155,35.64287640858492],[139.78374578549074,35.64293308158803]]]}},{"type":"Feature","properties":{"height":17.7,"gml_id":"bldg_a2c8b792-04b0-40ab-b178-367e0e2408d2"},"geometry":{"type":"Polygon","coordinates":[[[139.78285773844422,35.64532004741108],[139.7828995730747,35.645348097763026],[139.7828771753057,35.64537033436938],[139.78288873236374,35.64537792880525],[139.78250320588424,35.64576076184165],[139.7824916599819,35.64575296005726],[139.78244962641838,35.64579472113282],[139.78207421900206,35.64554289658247],[139.78209786569874,35.645519381603386],[139.7820534925024,35.64548961727668],[139.78249946185372,35.645046778568314],[139.78287740699926,35.64530040563098],[139.78285773844422,35.64532004741108]]]}},{"type":"Feature","properties":{"height":18.2,"gml_id":"bldg_c1cb5c79-d7f6-4b79-ba08-09f9e750fc03"},"geometry":{"type":"Polygon","coordinates":[[[139.7860039472673,35.64587981801719],[139.7859973147296,35.64589135303678],[139.7859890262351,35.64590207616576],[139.78597897140764,35.6459118972227],[139.78596759206903,35.645920636105515],[139.78595499875462,35.645928112581885],[139.78594130194688,35.6459342365572],[139.78592683298635,35.64593891802381],[139.78591170235592,35.64594206688725],[139.78589778740184,35.64594359374891],[139.78542666683106,35.64562477140368],[139.785426120339,35.64561530582572],[139.78542712194388,35.64560232639427],[139.7854301111533,35.645589528028715],[139.78543508780487,35.645577181141945],[139.7854418309333,35.64556546592129],[139.78545034048372,35.645554473405504],[139.7854605058675,35.64554447125925],[139.7854721061722,35.645535552236204],[139.7854850308088,35.64552798580373],[139.7854989485461,35.645521681692195],[139.7855137487951,35.645516910270466],[139.78552910027133,35.64551367140671],[139.78554080648317,35.64551232398656],[139.7860119268478,35.64583114679252],[139.78601269315243,35.64584250444426],[139.78601180222694,35.64585521441184],[139.78600881326088,35.645867740575525],[139.7860039472673,35.64587981801719]]]}},{"type":"Feature","properties":{"height":3.5,"gml_id":"bldg_1f641a3d-a0c9-4ce9-937c-e2d77e5c260f"},"geometry":{"type":"Polygon","coordinates":[[[139.78531561646773,35.648269564320366],[139.7852203427982,35.64827594410171],[139.7852193109188,35.64826563194039],[139.7852108072972,35.64826620542423],[139.78520890820027,35.64824723068647],[139.78531267441164,35.648240277419305],[139.78531561646773,35.648269564320366]]]}},{"type":"Feature","properties":{"height":3.0,"gml_id":"bldg_cad6eebb-d9d8-4bd1-9893-a593af2e97b8"},"geometry":{"type":"Polygon","coordinates":[[[139.78275465754993,35.64566450958679],[139.7827700831741,35.64564896821058],[139.78275062272883,35.64563609738908],[139.7827608549145,35.64562578091841],[139.78281081409077,35.645658792284564],[139.7827851562789,35.64568466005464],[139.78275465754993,35.64566450958679]]]}},{"type":"Feature","properties":{"height":3.5,"gml_id":"bldg_2b99d960-b6c6-4f27-9d20-b259f76c3ec9"},"geometry":{"type":"Polygon","coordinates":[[[139.77720975302572,35.64979794937906],[139.77674194696536,35.64947826464965],[139.776756037095,35.64946434500305],[139.77700285975206,35.64963301808819],[139.77699953341687,35.649636251572424],[139.77718352796057,35.64976199026474],[139.77718770522407,35.649757917990705],[139.77722469405393,35.64978320080857],[139.77720975302572,35.64979794937906]]]}},{"type":"Feature","properties":{"height":3.2,"gml_id":"bldg_cd81f5fa-be76-4562-8ca9-d07270ebdf27"},"geometry":{"type":"Polygon","coordinates":[[[139.77652746452134,35.6493348177832],[139.77654262669168,35.64931973589121],[139.77675275991922,35.64946050359989],[139.77673759776107,35.64947558641937],[139.77652746452134,35.6493348177832]]]}},{"type":"Feature","properties":{"height":9.2,"gml_id":"bldg_156d0bbc-5abf-42ca-96bd-2a67a6423687"},"geometry":{"type":"Polygon","coordinates":[[[139.78678150716473,35.645637650618454],[139.78699653795417,35.645783215791276],[139.7867209711455,35.64605433381261],[139.78650594013058,35.645908768154214],[139.78678150716473,35.645637650618454]]]}},{"type":"Feature","properties":{"height":7.8,"gml_id":"bldg_51e7a787-af21-4d65-a38b-44ec8ff81fd3"},"geometry":{"type":"Polygon","coordinates":[[[139.77949532675103,35.64269803526481],[139.77951395804394,35.642710509641454],[139.77938372825125,35.64283464317058],[139.77936817623385,35.642824495707515],[139.77949532675103,35.64269803526481]]]}},{"type":"Feature","properties":{"height":8.9,"gml_id":"bldg_87d23416-5eec-4293-8857-f674baaf578c"},"geometry":{"type":"Polygon","coordinates":[[[139.78590754885613,35.644561606183025],[139.7859485450885,35.64458935769519],[139.78592013776392,35.644617307237894],[139.78595520645803,35.64464104528549],[139.7859327767056,35.64466311118881],[139.785856501802,35.64461188292217],[139.78590754885613,35.644561606183025]]]}},{"type":"Feature","properties":{"height":4.0,"gml_id":"bldg_3c8f1d0e-ebb6-4a46-899a-952c8aef7f65"},"geometry":{"type":"Polygon","coordinates":[[[139.77685444953485,35.642145551561214],[139.77692140040787,35.642191328746925],[139.77683742069328,35.642273180437904],[139.776770458764,35.642227394187174],[139.77685444953485,35.642145551561214]]]}},{"type":"Feature","properties":{"height":5.6,"gml_id":"bldg_98b0e743-4152-4edd-94f4-049d2eee53c8"},"geometry":{"type":"Polygon","coordinates":[[[139.78232176709346,35.646010880354346],[139.78231362294292,35.6460195751929],[139.7823342098041,35.64603242042119],[139.7822819192097,35.646088291755014],[139.7821987769993,35.64603642730982],[139.78225050405166,35.64598114978007],[139.78227198502438,35.645994535323105],[139.7822806817004,35.64598524581268],[139.78232176709346,35.646010880354346]]]}},{"type":"Feature","properties":{"height":6.5,"gml_id":"bldg_c6b541d9-7a27-45d0-b01f-065f8f0ba5be"},"geometry":{"type":"Polygon","coordinates":[[[139.78643715099872,35.648540401191475],[139.78735360291168,35.649167211266885],[139.7872362569852,35.64928146095714],[139.7863198046333,35.64865474013811],[139.78643715099872,35.648540401191475]]]}},{"type":"Feature","properties":{"height":3.9,"gml_id":"bldg_39ed4fb5-c245-4833-bc5a-de10eb8fb73e"},"geometry":{"type":"Polygon","coordinates":[[[139.77596338732897,35.64895458417183],[139.7759007466383,35.64891252313085],[139.77589116554498,35.648921668434966],[139.77554882272577,35.64869204034913],[139.77556297927438,35.648677994679474],[139.7753419450549,35.648529467791825],[139.7753461776484,35.648525278428544],[139.7752371896442,35.64845197103197],[139.77524913571105,35.64844047522817],[139.7755808137778,35.648663184601666],[139.77557911189484,35.648664878373545],[139.77561585720267,35.64868954863678],[139.77562153803711,35.64869852005573],[139.7756241146626,35.64870895021713],[139.77562361020833,35.648719387915975],[139.7758892500934,35.64889774408691],[139.77589957187163,35.64888750035812],[139.77597788652255,35.648940078915174],[139.77597867115784,35.648939295091246],[139.7760001623313,35.64895350200361],[139.77600453863687,35.64894908734176],[139.776058768858,35.64898490680386],[139.77605539821553,35.648988312404214],[139.77606656878604,35.648995690975894],[139.77606348548196,35.64899879925883],[139.77610513254342,35.649025969416535],[139.77609895486725,35.649032221132714],[139.77628503602836,35.649154834424074],[139.7762885282287,35.64915131079464],[139.77653915036242,35.64931644422789],[139.7765243085133,35.64933143613289],[139.7760554290399,35.64902248360265],[139.77604179176495,35.64903623212216],[139.77594557257777,35.64897266631175],[139.77596338732897,35.64895458417183]]]}},{"type":"Feature","properties":{"height":5.4,"gml_id":"bldg_096ff61b-d2ad-49e0-8ba5-bcf6782ab996"},"geometry":{"type":"Polygon","coordinates":[[[139.78034068844775,35.64240337126055],[139.78031958357687,35.64242436407009],[139.779980610995,35.642197230413174],[139.78005443388474,35.642123817943975],[139.7801769498573,35.64220589743132],[139.78019772319792,35.642185265050784],[139.78023656994594,35.64221917397723],[139.78029572477146,35.64226814483981],[139.78038136922802,35.642335605560476],[139.7804176808308,35.642362752981725],[139.78036221162424,35.6424178027681],[139.78034068844775,35.64240337126055]]]}},{"type":"Feature","properties":{"height":3.1,"gml_id":"bldg_08ee40ad-879e-42d9-800e-f0d9dd0eb181"},"geometry":{"type":"Polygon","coordinates":[[[139.77711394996547,35.64165025870924],[139.77714346348608,35.641669697168275],[139.77709480971558,35.64171890770773],[139.777065307231,35.641699469242084],[139.77711394996547,35.64165025870924]]]}},{"type":"Feature","properties":{"height":3.3,"gml_id":"bldg_4c0400b7-6223-4ddd-94fe-9004e20eaf2c"},"geometry":{"type":"Polygon","coordinates":[[[139.78462827549149,35.64786933757986],[139.78465339155017,35.647844695981384],[139.7847524410893,35.647911978677115],[139.78472733608803,35.64793661218804],[139.78462827549149,35.64786933757986]]]}},{"type":"Feature","properties":{"height":8.8,"gml_id":"bldg_c1be447a-572a-4aa3-b99a-e31ee5d192dc"},"geometry":{"type":"Polygon","coordinates":[[[139.7866839201496,35.64750154317881],[139.78672373120833,35.6474624208109],[139.78674098479843,35.6474741093297],[139.7867011626992,35.647513231698944],[139.7866839201496,35.64750154317881]]]}},{"type":"Feature","properties":{"height":3.7,"gml_id":"bldg_75672ef9-f91b-4687-b475-14e4d3cadef4"},"geometry":{"type":"Polygon","coordinates":[[[139.78158132631484,35.64324107402529],[139.78155544282149,35.64322366631765],[139.78160521003173,35.64317450854879],[139.78171779445816,35.64325108378815],[139.78166091109136,35.643307674913935],[139.78157322704143,35.64324898463882],[139.78158132631484,35.64324107402529]]]}},{"type":"Feature","properties":{"height":4.8,"gml_id":"bldg_a8cedfbc-a009-48ee-b7db-44753d627357"},"geometry":{"type":"Polygon","coordinates":[[[139.78449566143064,35.64254715761996],[139.7844829992255,35.642559610424144],[139.784491961982,35.642565688441856],[139.784477830258,35.64257957293846],[139.78455580187838,35.64263246131613],[139.78449645743663,35.64269077442217],[139.78434444373048,35.64258768524336],[139.78443060422677,35.64250303583611],[139.78449566143064,35.64254715761996]]]}},{"type":"Feature","properties":{"height":3.6,"gml_id":"bldg_5a513b1d-2207-4733-9229-f868c5260469"},"geometry":{"type":"Polygon","coordinates":[[[139.78481535049187,35.64797261260543],[139.78483171546915,35.64795601583742],[139.78489006655732,35.647994338817114],[139.7848736905411,35.64801093558848],[139.78481535049187,35.64797261260543]]]}},{"type":"Feature","properties":{"height":3.5,"gml_id":"bldg_eec43276-a0f3-4a58-af47-f55ee2692d7c"},"geometry":{"type":"Polygon","coordinates":[[[139.78684860031706,35.64733993590433],[139.7868822235619,35.64730690440197],[139.7869008900985,35.64731955791626],[139.7868672668508,35.64735259843753],[139.78684860031706,35.64733993590433]]]}},{"type":"Feature","properties":{"height":6.6,"gml_id":"bldg_2500053b-3d16-4a19-b7cd-390cb5341636"},"geometry":{"type":"Polygon","coordinates":[[[139.7851079239755,35.648108657712584],[139.78531431998215,35.64809242525747],[139.78533069129819,35.64823124379314],[139.78512429493767,35.648247476275685],[139.7851079239755,35.648108657712584]]]}},{"type":"Feature","properties":{"height":7.1,"gml_id":"bldg_367db090-f3dc-4813-96b6-d9caaf6ab198"},"geometry":{"type":"Polygon","coordinates":[[[139.78059526566835,35.64179004056741],[139.7808096126952,35.64193513974188],[139.7807681772899,35.64197576478271],[139.780791135208,35.64199130643656],[139.78069800940673,35.64208407972724],[139.78048016236818,35.641904520057665],[139.78059526566835,35.64179004056741]]]}},{"type":"Feature","properties":{"height":64.2,"gml_id":"bldg_731610f8-ef3d-4dcf-8544-fce0efd77434"},"geometry":{"type":"Polygon","coordinates":[[[139.7869549621643,35.64723428957245],[139.78660784535552,35.64757532743549],[139.78623687789445,35.64732362671454],[139.78658336527803,35.64698337476144],[139.78651672478793,35.6469382079234],[139.78671237550265,35.64674595702527],[139.78721378667134,35.64708597816],[139.78701878824847,35.64727757210759],[139.7869549621643,35.64723428957245]]]}},{"type":"Feature","properties":{"height":21.3,"gml_id":"bldg_6fe552d1-6751-4ea1-a84c-6d983593c5fc"},"geometry":{"type":"Polygon","coordinates":[[[139.78291722124968,35.64414999459215],[139.78289887896582,35.64416826684452],[139.7815577023811,35.64326434555],[139.78152545920184,35.64329699940588],[139.7813075519015,35.64315136818573],[139.7813635404733,35.64309553399639],[139.7815807520862,35.64324110081989],[139.7815728073901,35.6432490394425],[139.78291722124968,35.64414999459215]]]}},{"type":"Feature","properties":{"height":22.6,"gml_id":"bldg_be55da04-586b-4342-a01f-64a9ebeaf70b"},"geometry":{"type":"Polygon","coordinates":[[[139.77910992144012,35.643256229652216],[139.78000455968433,35.64236678923334],[139.78015057482312,35.642464653252574],[139.77925475475612,35.64335527501549],[139.7793085075994,35.64339142634202],[139.78020625905685,35.6425020759788],[139.7803560274556,35.64260245624558],[139.77945809882246,35.6434933399727],[139.77951266861862,35.64353005944051],[139.78041275050612,35.64263891485853],[139.7805587776803,35.642736778384204],[139.77965962264247,35.64362979030721],[139.77971595855206,35.643667834592456],[139.77968686423233,35.643696549434935],[139.77983939311522,35.64379954554847],[139.7798734487909,35.64376595732182],[139.77992570097027,35.643801242382416],[139.77980389696523,35.64392327085562],[139.77979992340295,35.64392060101286],[139.77983506229592,35.64388555304795],[139.77957656031754,35.64371228337425],[139.7795413109014,35.6437474213531],[139.7793866737983,35.643643783939304],[139.77942413314372,35.64360657382631],[139.77937523660412,35.643573741796786],[139.77933689317845,35.64361194301353],[139.77918192550615,35.643508034773376],[139.77922435737474,35.64346586938159],[139.778937933174,35.64327383713022],[139.77901775813265,35.643194461803695],[139.77910992144012,35.643256229652216]]]}},{"type":"Feature","properties":{"height":8.7,"gml_id":"bldg_7dd4fc45-80ce-499d-a3dd-e66b572bc57a"},"geometry":{"type":"Polygon","coordinates":[[[139.78255673387105,35.645930261326846],[139.782563687957,35.64593490634986],[139.7825232123489,35.64597514477935],[139.78245689475293,35.645930723967844],[139.78272732818414,35.645661794877725],[139.78278670266562,35.64570157955075],[139.78255673387105,35.645930261326846]]]}},{"type":"Feature","properties":{"height":4.0,"gml_id":"bldg_49ee671c-86ef-45d3-ac1b-903a23394aed"},"geometry":{"type":"Polygon","coordinates":[[[139.77786530921762,35.64199085005207],[139.77782383822617,35.64203283514278],[139.77780060463746,35.642017546083736],[139.7777984167177,35.642019761562466],[139.7777788806467,35.642006899810944],[139.77782251748803,35.641962689331066],[139.77786530921762,35.64199085005207]]]}},{"type":"Feature","properties":{"height":4.9,"gml_id":"bldg_1fae864c-373a-45f8-bbab-cc8f7ac076f3"},"geometry":{"type":"Polygon","coordinates":[[[139.7782599377541,35.641786175043634],[139.77830350206122,35.64181498495494],[139.77824131281167,35.64187765635338],[139.7781977374506,35.641848846414824],[139.7782599377541,35.641786175043634]]]}},{"type":"Feature","properties":{"height":7.8,"gml_id":"bldg_b1f9d189-d667-4fbe-ada6-5fb89b10f4f9"},"geometry":{"type":"Polygon","coordinates":[[[139.7800119397471,35.64209522457004],[139.77993871278534,35.64216916007669],[139.77978935408598,35.64206907692109],[139.7797560944954,35.642102142688834],[139.7796491418989,35.64203043555182],[139.779756213451,35.64192394039334],[139.7800119397471,35.64209522457004]]]}},{"type":"Feature","properties":{"height":3.5,"gml_id":"bldg_ee34074a-8c7c-4f3d-a0cb-43e05240e80e"},"geometry":{"type":"Polygon","coordinates":[[[139.77945820228817,35.64417815241615],[139.7792998227692,35.6440718992299],[139.7793517578426,35.64402036373631],[139.77951003794502,35.644126616810716],[139.77945820228817,35.64417815241615]]]}},{"type":"Feature","properties":{"height":3.9,"gml_id":"bldg_2e8cadb2-b187-4ac9-8907-587f80e1a9d0"},"geometry":{"type":"Polygon","coordinates":[[[139.77692998709577,35.64219742608022],[139.7769969490918,35.642243211341174],[139.77691295836442,35.642325053163844],[139.7768459963418,35.64227927687057],[139.77692998709577,35.64219742608022]]]}},{"type":"Feature","properties":{"height":4.0,"gml_id":"bldg_1d65636b-b1f0-4df0-bfdd-1ee07d845e31"},"geometry":{"type":"Polygon","coordinates":[[[139.77771948416333,35.64189484018206],[139.77773902020317,35.641907693831016],[139.77769821219806,35.64194900315186],[139.7776786761616,35.641936139581205],[139.77771948416333,35.64189484018206]]]}},{"type":"Feature","properties":{"height":8.0,"gml_id":"bldg_5b4a8804-988e-47e9-a789-c55cac51c859"},"geometry":{"type":"Polygon","coordinates":[[[139.78355301251267,35.64228134308796],[139.78356074632308,35.64227467608996],[139.78370499901843,35.64237226466211],[139.7835863311941,35.64248903423981],[139.78348438605175,35.64242032515259],[139.78352924564567,35.642376176209595],[139.78355301251267,35.64228134308796]]]}},{"type":"Feature","properties":{"height":3.7,"gml_id":"bldg_cb00b5e2-385a-4ad7-a76f-3e619cdd76c6"},"geometry":{"type":"Polygon","coordinates":[[[139.78670639088313,35.6456804369742],[139.78662937803475,35.645756212947624],[139.78657970470735,35.64572257231225],[139.78665671757034,35.645646796370166],[139.78670639088313,35.6456804369742]]]}},{"type":"Feature","properties":{"height":27.7,"gml_id":"bldg_140a3c97-c41a-4b76-b9de-4d61f912bbfe"},"geometry":{"type":"Polygon","coordinates":[[[139.78465364727745,35.645693740404106],[139.78463767498494,35.64568264700997],[139.78477580201138,35.64555009217978],[139.78479177430157,35.64556117744344],[139.78465364727745,35.645693740404106]]]}},{"type":"Feature","properties":{"height":5.3,"gml_id":"bldg_97f700ef-94c7-4286-a048-bdcb5a2d2252"},"geometry":{"type":"Polygon","coordinates":[[[139.78084579764447,35.64274689105879],[139.78081778671992,35.64277484859277],[139.78053095274393,35.642582594583814],[139.7805620907827,35.64255148366443],[139.78054336011806,35.64253880208913],[139.78059394512945,35.64248893300274],[139.78091834895358,35.642709461403314],[139.78086639391483,35.642760591955835],[139.78084579764447,35.64274689105879]]]}},{"type":"Feature","properties":{"height":8.1,"gml_id":"bldg_5dc787ca-a8f6-48e5-a248-c9b3574168d7"},"geometry":{"type":"Polygon","coordinates":[[[139.7827930462237,35.64427339518367],[139.78267959768016,35.64419734339679],[139.78270376311488,35.6441733408663],[139.78281653762522,35.644250059367195],[139.7827930462237,35.64427339518367]]]}},{"type":"Feature","properties":{"height":4.0,"gml_id":"bldg_74259c6c-7685-4ebc-b398-87e77d69e469"},"geometry":{"type":"Polygon","coordinates":[[[139.77764400676924,35.64185141299273],[139.77769483352895,35.64188486857582],[139.77767784952064,35.64190207704157],[139.77762702275777,35.64186862055003],[139.77764400676924,35.64185141299273]]]}},{"type":"Feature","properties":{"height":5.5,"gml_id":"bldg_b9a0ee68-6f4b-4d7d-9e88-fd1ebebdf9d9"},"geometry":{"type":"Polygon","coordinates":[[[139.77911835178287,35.64231719643126],[139.77915598949716,35.642342182424926],[139.7788792234625,35.64261777908806],[139.77884254590137,35.64259352355917],[139.77911835178287,35.64231719643126]]]}},{"type":"Feature","properties":{"height":4.5,"gml_id":"bldg_90f5a83f-5be6-4db5-a440-425ceae7ab73"},"geometry":{"type":"Polygon","coordinates":[[[139.77734042988004,35.641710422992304],[139.7773172185551,35.64169514286343],[139.77732051149084,35.641691809297534],[139.77730119632238,35.641679090889674],[139.77734112039386,35.64163866464071],[139.77738365792808,35.641666654154285],[139.77734042988004,35.641710422992304]]]}},{"type":"Feature","properties":{"height":4.0,"gml_id":"bldg_86f69fa0-c9a6-476b-b2da-19b618f0711f"},"geometry":{"type":"Polygon","coordinates":[[[139.7785359839275,35.641739014670605],[139.77855406146628,35.64172098632697],[139.77861292334254,35.641760295118154],[139.77859484580873,35.641778322569124],[139.7785359839275,35.641739014670605]]]}},{"type":"Feature","properties":{"height":4.0,"gml_id":"bldg_0ebd39d6-0001-4527-a37f-b07cc738807d"},"geometry":{"type":"Polygon","coordinates":[[[139.77756096228146,35.64262299881322],[139.77762791395023,35.6426687837157],[139.7775439234197,35.64275062597272],[139.7774769717307,35.64270484102416],[139.77756096228146,35.64262299881322]]]}},{"type":"Feature","properties":{"height":3.8,"gml_id":"bldg_873de096-d69d-4f59-aed5-3bd47a4e137d"},"geometry":{"type":"Polygon","coordinates":[[[139.78644693242484,35.64709006277701],[139.7864630599452,35.647100993741375],[139.78644247490388,35.647121230653234],[139.78642634738227,35.64711029968612],[139.78644693242484,35.64709006277701]]]}},{"type":"Feature","properties":{"height":3.3,"gml_id":"bldg_105819b5-82c7-4a73-9c20-9056b8333ee8"},"geometry":{"type":"Polygon","coordinates":[[[139.77753096218265,35.64188922754846],[139.77747744122178,35.64185568141059],[139.77749313294126,35.641839003285305],[139.77754664285465,35.64187255031257],[139.77753096218265,35.64188922754846]]]}},{"type":"Feature","properties":{"height":3.2,"gml_id":"bldg_e908dcd9-9cc8-412a-8e8c-35c8f8011945"},"geometry":{"type":"Polygon","coordinates":[[[139.78625128123923,35.645511323844126],[139.78606293245753,35.645383696200085],[139.78609705243397,35.64535015131597],[139.7862854122342,35.645477778911655],[139.78625128123923,35.645511323844126]]]}},{"type":"Feature","properties":{"height":6.1,"gml_id":"bldg_ecd27f57-66d1-4f7a-be24-9e647263a43d"},"geometry":{"type":"Polygon","coordinates":[[[139.78573827576656,35.644728204061906],[139.7858240173379,35.644643778867156],[139.78589951958003,35.644694466023516],[139.78581344659165,35.64477916155371],[139.78573827576656,35.644728204061906]]]}},{"type":"Feature","properties":{"height":4.0,"gml_id":"bldg_7c82f5fd-3631-4084-85f0-3528faf1aa5d"},"geometry":{"type":"Polygon","coordinates":[[[139.77677737718807,35.6420936690628],[139.77684432797446,35.642139445390285],[139.776760337194,35.642221296121654],[139.7766933863937,35.642175510734326],[139.77677737718807,35.6420936690628]]]}},{"type":"Feature","properties":{"height":49.9,"gml_id":"bldg_cf339b8c-c7eb-478a-8ebe-02cf42c15395"},"geometry":{"type":"Polygon","coordinates":[[[139.77675728023866,35.649737353579305],[139.77675134584857,35.649743130417114],[139.77670557086034,35.64971184826864],[139.7767107758888,35.64970677596653],[139.77670068707718,35.64969987569356],[139.77675067081273,35.64965113472146],[139.77673835230522,35.64964271909167],[139.77668776077903,35.649692027640015],[139.7765905925691,35.64962562256917],[139.77674081989147,35.649479184425424],[139.77718626265894,35.649783589419734],[139.7770342674066,35.6499317669418],[139.77695931839347,35.64988054271952],[139.77701063924445,35.649830513298575],[139.77697760210745,35.6498079363935],[139.7769266017323,35.649857649567515],[139.77691987951317,35.64985305030088],[139.77691261900281,35.649860122704624],[139.77686851064286,35.64982997803501],[139.77687506389293,35.64982359034841],[139.77680404464166,35.64977506298616],[139.77680751466355,35.64977167543947],[139.77675728023866,35.649737353579305]]]}},{"type":"Feature","properties":{"height":3.3,"gml_id":"bldg_6e646522-979a-487d-9dde-36602df8e35c"},"geometry":{"type":"Polygon","coordinates":[[[139.7854841805224,35.648213384598094],[139.78541757641085,35.6482175855764],[139.7854154255057,35.64819487092971],[139.78548204064168,35.64819066995696],[139.7854841805224,35.648213384598094]]]}},{"type":"Feature","properties":{"height":6.2,"gml_id":"bldg_0334c5f8-17be-4319-bc2b-6c35647ce938"},"geometry":{"type":"Polygon","coordinates":[[[139.78170864164522,35.64515435598847],[139.7821454511507,35.6447200786246],[139.78217809060078,35.644741887791504],[139.7817412921378,35.64517625541463],[139.78170864164522,35.64515435598847]]]}},{"type":"Feature","properties":{"height":7.2,"gml_id":"bldg_0f4e97e7-02da-4ce6-94a2-a9842304723f"},"geometry":{"type":"Polygon","coordinates":[[[139.78090443701765,35.64218305087424],[139.78087066230805,35.642160141178394],[139.78090281628485,35.64212851682589],[139.78092643653954,35.64214448058658],[139.78096362886552,35.64210817214772],[139.7809900747026,35.64212608500138],[139.7810363719268,35.642080530559426],[139.7813237340071,35.64227486669221],[139.78127697271447,35.64232094294021],[139.78129815381658,35.64233522991254],[139.78119877480594,35.64243322076091],[139.78087427194447,35.642212693062454],[139.78090443701765,35.64218305087424]]]}},{"type":"Feature","properties":{"height":4.2,"gml_id":"bldg_62d6f4b0-3dc8-4093-b027-527d9822ef98"},"geometry":{"type":"Polygon","coordinates":[[[139.77774056540017,35.64190874915597],[139.7777630815183,35.6419235691795],[139.77773559992858,35.64195140005157],[139.7777130727716,35.64193657100408],[139.77774056540017,35.64190874915597]]]}},{"type":"Feature","properties":{"height":7.6,"gml_id":"bldg_6f0daea9-3ac9-4e27-a055-70029503977b"},"geometry":{"type":"Polygon","coordinates":[[[139.782068981229,35.643024357067596],[139.78188487275585,35.64289898710437],[139.78191967849745,35.64286474962225],[139.78191865199798,35.642864046109665],[139.78194473991095,35.64283807143137],[139.7819541882016,35.64284442025792],[139.7819939992402,35.64280531654915],[139.78201211213488,35.64281750277898],[139.78205980148968,35.642770444142954],[139.78244476431573,35.64303083507084],[139.78239720767314,35.64307768659658],[139.78211147374242,35.642884391226325],[139.78208860143297,35.64290691593433],[139.7821737022175,35.64296455012882],[139.7821411064187,35.642996625317195],[139.78211505741777,35.64297894724552],[139.782068981229,35.643024357067596]]]}},{"type":"Feature","properties":{"height":18.1,"gml_id":"bldg_bf2fbbf2-8e41-46ee-afcb-e22bbe4747f4"},"geometry":{"type":"Polygon","coordinates":[[[139.77534542028283,35.64874810736558],[139.7755030862512,35.64885396872243],[139.77545912453456,35.648897610285744],[139.77530146958188,35.64879174887743],[139.77534542028283,35.64874810736558]]]}},{"type":"Feature","properties":{"height":4.9,"gml_id":"bldg_a6561dcf-1620-4e84-8c96-79946d2296bd"},"geometry":{"type":"Polygon","coordinates":[[[139.7813634302415,35.6430952355929],[139.78134240267093,35.64311635570683],[139.78104697887892,35.64291840342449],[139.78106894561333,35.64289647343063],[139.78104877981312,35.642882952129476],[139.78110034818795,35.64283203766221],[139.7814284971481,35.64305418878075],[139.7813773156236,35.643104643851046],[139.7813634302415,35.6430952355929]]]}},{"type":"Feature","properties":{"height":3.9,"gml_id":"bldg_2cef4c4c-2544-4bc4-9dac-1e8a49435357"},"geometry":{"type":"Polygon","coordinates":[[[139.77764323418916,35.642678407596144],[139.77771018595047,35.64272419335395],[139.7776261954457,35.64280603566758],[139.77755924366352,35.64276025076509],[139.77764323418916,35.642678407596144]]]}},{"type":"Feature","properties":{"height":4.7,"gml_id":"bldg_f50070b7-9305-4a60-9631-142ad28fe0ce"},"geometry":{"type":"Polygon","coordinates":[[[139.7783945542548,35.641851424145905],[139.77845990245476,35.641787311902945],[139.77855124640703,35.64184934121878],[139.77848588718646,35.641913454406975],[139.7783945542548,35.641851424145905]]]}},{"type":"Feature","properties":{"height":3.2,"gml_id":"bldg_6c281ef2-09ce-4402-9488-4019cbc8289e"},"geometry":{"type":"Polygon","coordinates":[[[139.78404626959113,35.64351495480605],[139.78417542291893,35.643389571907306],[139.78419019164463,35.64339970040189],[139.7840610493606,35.64352509233456],[139.78404626959113,35.64351495480605]]]}},{"type":"Feature","properties":{"height":3.8,"gml_id":"bldg_78d692f4-4aba-43bd-ba09-b1d9fe3fe63a"},"geometry":{"type":"Polygon","coordinates":[[[139.77860749676918,35.64167015489046],[139.77863198790146,35.64168740035533],[139.77858991162205,35.64172721311719],[139.77856542049284,35.64170995863012],[139.77860749676918,35.64167015489046]]]}},{"type":"Feature","properties":{"height":6.7,"gml_id":"bldg_3dfe24e4-0b93-4954-a14b-f12ecd2692d2"},"geometry":{"type":"Polygon","coordinates":[[[139.7784397710227,35.64396875333411],[139.7785135859213,35.64389532470239],[139.7785303630601,35.64390650941534],[139.77846163264292,35.64397281859164],[139.77846591135003,35.64401365383296],[139.77844459846054,35.644014544598555],[139.7784397710227,35.64396875333411]]]}},{"type":"Feature","properties":{"height":3.8,"gml_id":"bldg_b7df7f76-db4a-434a-a81d-6ea6105ebe4d"},"geometry":{"type":"Polygon","coordinates":[[[139.78347463743995,35.641866316428406],[139.7833757397544,35.641799393231565],[139.7834011527472,35.64177425533279],[139.78350016079034,35.64184126869246],[139.78347463743995,35.641866316428406]]]}},{"type":"Feature","properties":{"height":3.7,"gml_id":"bldg_bdfcf879-98f6-47a5-ae36-249f8b0cfaec"},"geometry":{"type":"Polygon","coordinates":[[[139.77805825502372,35.64192271257723],[139.77808271358904,35.641939084703196],[139.7780426576117,35.64197896129517],[139.77801819904178,35.64196259006256],[139.77805825502372,35.64192271257723]]]}},{"type":"Feature","properties":{"height":6.5,"gml_id":"bldg_95cb4beb-d4e0-45bd-bb24-461863f11e52"},"geometry":{"type":"Polygon","coordinates":[[[139.77945388208585,35.64222450509681],[139.77957286566107,35.64230414989755],[139.77943595900123,35.642440196722454],[139.77931708578458,35.64236055183774],[139.77945388208585,35.64222450509681]]]}},{"type":"Feature","properties":{"height":12.3,"gml_id":"bldg_fc652347-7cec-44a6-95cf-d33f91127b8c"},"geometry":{"type":"Polygon","coordinates":[[[139.78003627919446,35.644021029120296],[139.7799892584995,35.64398955023802],[139.78007566843647,35.643904291142036],[139.7801273137257,35.64393916121254],[139.78000624031432,35.64405865734019],[139.7800015823941,35.64405553741387],[139.78003627919446,35.644021029120296]]]}},{"type":"Feature","properties":{"height":3.8,"gml_id":"bldg_102f6c68-7e48-4a99-851e-7256a7e8ee3a"},"geometry":{"type":"Polygon","coordinates":[[[139.77863990247286,35.64169146014861],[139.77866482431787,35.641708633692105],[139.77862281373837,35.64174926674878],[139.77859789188977,35.64173209319672],[139.77863990247286,35.64169146014861]]]}},{"type":"Feature","properties":{"height":30.2,"gml_id":"bldg_2c1616f1-701e-4786-8aa1-77c29b221fbf"},"geometry":{"type":"Polygon","coordinates":[[[139.78326626230822,35.64545192713683],[139.78256343776405,35.64498632404634],[139.78307094763082,35.64448239663203],[139.7837745175687,35.64495455913208],[139.78326626230822,35.64545192713683]]]}},{"type":"Feature","properties":{"height":4.0,"gml_id":"bldg_2aa8adca-ada6-42d8-b102-40b758a7f75d"},"geometry":{"type":"Polygon","coordinates":[[[139.78604026828447,35.648351587874586],[139.78603003805082,35.648265051697024],[139.78611078980637,35.648258683609996],[139.78610813034535,35.64823659883865],[139.7860403218413,35.648241979591134],[139.7860336297322,35.648185641821975],[139.78619950633717,35.648172636887104],[139.78620619834942,35.64822933609921],[139.7861528572059,35.648233461548976],[139.7861576042859,35.64827358368431],[139.78621357390531,35.648269179834045],[139.78622159544454,35.64833732704819],[139.78604026828447,35.648351587874586]]]}},{"type":"Feature","properties":{"height":4.0,"gml_id":"bldg_75a240e1-7109-4ea8-8009-72b0420e66af"},"geometry":{"type":"Polygon","coordinates":[[[139.77848904387068,35.64178626154941],[139.77850607193616,35.64176892679607],[139.7785653537645,35.64180774905743],[139.7785483146674,35.64182507480026],[139.77848904387068,35.64178626154941]]]}},{"type":"Feature","properties":{"height":4.2,"gml_id":"bldg_6dd640a6-9586-4f59-81b7-5e54589b5bb1"},"geometry":{"type":"Polygon","coordinates":[[[139.77739701459456,35.641688995593725],[139.77744856962036,35.64172291222369],[139.77743409397593,35.641737570920604],[139.77738253895245,35.641703646172125],[139.77739701459456,35.641688995593725]]]}},{"type":"Feature","properties":{"height":6.4,"gml_id":"bldg_83cfb574-fa5b-4723-bb92-21e962094d03"},"geometry":{"type":"Polygon","coordinates":[[[139.78154220945433,35.6453181368711],[139.78026612116048,35.64445433341105],[139.780394452882,35.644330197226296],[139.78166414413434,35.645198152850234],[139.78154220945433,35.6453181368711]]]}},{"type":"Feature","properties":{"height":35.9,"gml_id":"bldg_1230b861-7536-4510-85b7-9f47a4869b7a"},"geometry":{"type":"Polygon","coordinates":[[[139.78586658153475,35.646613394683136],[139.78588493373326,35.64657815807638],[139.78590482948198,35.64654706840834],[139.78592704285546,35.64651832322909],[139.78595289954188,35.6464910216819],[139.78596704209966,35.6464782276918],[139.7859821781477,35.646466065054426],[139.7859980866671,35.64645480409566],[139.78601465717523,35.64644453490946],[139.78603199999586,35.64643543781432],[139.78604978378752,35.64642760281752],[139.7860682293039,35.64642121028085],[139.78608689482752,35.64641626003079],[139.7861057803062,35.646412842204896],[139.78612477515233,35.6464112271728],[139.78614365861407,35.6464112345726],[139.7861623202104,35.64641295359736],[139.78618064945843,35.646416477045804],[139.78619853603715,35.64642162189536],[139.7862157590878,35.64642838896121],[139.786232097752,35.64643677815725],[139.78624766261876,35.646446519113994],[139.78626234325893,35.64645761178858],[139.78627591886635,35.64646996595736],[139.78628851112524,35.64648322111745],[139.7862998659943,35.646497467307654],[139.78631023762014,35.64651243421444],[139.78631939415286,35.646528031609854],[139.78632755660988,35.646543989167405],[139.786340568111,35.6465768043649],[139.78634971441934,35.64660988756486],[139.7863556572639,35.64664468393346],[139.78635839563998,35.64668290338273],[139.78635715679638,35.646724095824354],[139.78635493563692,35.646745547728415],[139.78635149942863,35.64676753998454],[139.7863468483288,35.64678980217964],[139.78634098238916,35.64681224417589],[139.78633379128397,35.646834685654675],[139.78632538554803,35.64685694638351],[139.7863156548029,35.64687893618141],[139.7863047096887,35.64690029544184],[139.78629266063598,35.646921022404875],[139.78627950774995,35.64694093679483],[139.78626536161806,35.64695977004428],[139.78625033272402,35.646977431157026],[139.7862346419816,35.646993830081406],[139.7862182894964,35.64700878744324],[139.78620149607852,35.647022390762224],[139.7861844827468,35.64703437241578],[139.7861671390192,35.64704482159684],[139.78614979618808,35.64705373843512],[139.78613256468495,35.64706112297384],[139.78611544451076,35.64706697521308],[139.78609876685198,35.647071475558135],[139.78608231090158,35.647074533784895],[139.7860664078458,35.64707633029877],[139.78605094720183,35.64707695519432],[139.7860361497782,35.647076498696116],[139.7860219051451,35.64707496076098],[139.78600788190457,35.647072522435685],[139.7859937489273,35.647068909571594],[139.78597950626383,35.64706403743923],[139.78596526429433,35.64705799261417],[139.78595102312534,35.64705059572245],[139.78593711410215,35.64704175675679],[139.78592342674176,35.64703156581144],[139.7859102924426,35.64701984274163],[139.7858976007215,35.64700667764169],[139.7858855723864,35.646992160736424],[139.78587442840492,35.646976111837695],[139.7858642790476,35.64695880140228],[139.7858550139372,35.6469401392492],[139.78584696420452,35.646920395922294],[139.78584012979564,35.646899661559424],[139.78583462108674,35.64687802634204],[139.78583043791684,35.64685576068328],[139.78582758028494,35.64683286458328],[139.78582604797657,35.64680969859283],[139.7858259513673,35.64678635289317],[139.78582717986572,35.64676309785377],[139.78582973347122,35.64673993257319],[139.78583339110764,35.646717220219074],[139.78583815277565,35.64669495808719],[139.78584401831444,35.64667341659042],[139.78585076691508,35.646652508208],[139.78586658153475,35.646613394683136]]]}},{"type":"Feature","properties":{"height":7.3,"gml_id":"bldg_9d8c1c69-b879-4004-8f91-ba9c15e8e125"},"geometry":{"type":"Polygon","coordinates":[[[139.78297000711956,35.64573049138757],[139.78288313784518,35.645669881594436],[139.782939158641,35.645616544425714],[139.78302591747206,35.64567715323147],[139.78297000711956,35.64573049138757]]]}},{"type":"Feature","properties":{"height":7.4,"gml_id":"bldg_a8580fd6-09b9-4dbb-9f08-06f48e61fb4d"},"geometry":{"type":"Polygon","coordinates":[[[139.7862577319878,35.648124976831525],[139.78603873521348,35.648142196569],[139.78602490101665,35.64802483279073],[139.78609456464625,35.64801936173522],[139.78607940058896,35.647891089879394],[139.78621050007268,35.64788077540964],[139.78621653297154,35.647931525279674],[139.7862347771337,35.64793009021247],[139.7862577319878,35.648124976831525]]]}},{"type":"Feature","properties":{"height":19.9,"gml_id":"bldg_59bd26f3-da04-4043-8f94-a945582c4f15"},"geometry":{"type":"Polygon","coordinates":[[[139.78495387975144,35.64309405502091],[139.78511738446053,35.64320713528483],[139.78502045220603,35.64330051520051],[139.7848569474436,35.64318743480673],[139.78495387975144,35.64309405502091]]]}},{"type":"Feature","properties":{"height":4.4,"gml_id":"bldg_c604c2d7-2df6-4b02-8547-179b4424c31f"},"geometry":{"type":"Polygon","coordinates":[[[139.77649846096568,35.649495925142354],[139.7764556657435,35.64946772791262],[139.77650565075965,35.649417184288026],[139.77655036662054,35.649446653346516],[139.7765620920289,35.64943480577353],[139.77660860715693,35.6494654555602],[139.77652826425347,35.64954669570981],[139.7764798174178,35.649514773138556],[139.77649846096568,35.649495925142354]]]}},{"type":"Feature","properties":{"height":22.5,"gml_id":"bldg_abf55d69-d7d1-45eb-9db9-287b96caedc3"},"geometry":{"type":"Polygon","coordinates":[[[139.7836291897695,35.644606116966386],[139.78358991982685,35.64464505827806],[139.7834754545661,35.64456821361314],[139.7835147245266,35.644529272338296],[139.7836291897695,35.644606116966386]]]}},{"type":"Feature","properties":{"height":18.7,"gml_id":"bldg_69e1d073-1755-4524-8d04-6fdd0e53bf09"},"geometry":{"type":"Polygon","coordinates":[[[139.7852919994659,35.643871898763365],[139.78501488739445,35.644143192627084],[139.784975823486,35.64411658632024],[139.78492664359047,35.64416479025075],[139.78430718745244,35.64374314581561],[139.7843171428675,35.64373326175778],[139.78426701925252,35.64369923238269],[139.7846182718103,35.643355498583624],[139.78528982639472,35.64381267740571],[139.7852550217861,35.643846735581675],[139.7852919994659,35.643871898763365]]]}},{"type":"Feature","properties":{"height":7.1,"gml_id":"bldg_15faed2f-3ef1-4d03-9a4b-79df1b61858e"},"geometry":{"type":"Polygon","coordinates":[[[139.77901819685815,35.64300305540818],[139.77898248351187,35.64303850759921],[139.7786697922499,35.642828976119645],[139.77870550564143,35.642793523118755],[139.77901819685815,35.64300305540818]]]}},{"type":"Feature","properties":{"height":4.0,"gml_id":"bldg_223722e0-d63e-4cbb-8605-601a96cbc80a"},"geometry":{"type":"Polygon","coordinates":[[[139.77716022282866,35.64235225512392],[139.77722717404285,35.64239804025079],[139.77714318338775,35.64247988223193],[139.77707623215332,35.642434097058974],[139.77716022282866,35.64235225512392]]]}},{"type":"Feature","properties":{"height":7.2,"gml_id":"bldg_0620f9a2-1400-4884-abec-dda7a8fe0758"},"geometry":{"type":"Polygon","coordinates":[[[139.7815002850276,35.642471938855756],[139.78154785276587,35.642425258945984],[139.78183440032413,35.64261936725441],[139.781787108762,35.64266594824252],[139.78180811328582,35.64268036124172],[139.78170806061846,35.64277875783642],[139.78138065190396,35.642556526664734],[139.7814129163215,35.642524812088034],[139.78137574172177,35.64249963861186],[139.78140745370652,35.64246837358538],[139.78144470558647,35.64249356601411],[139.78148039528025,35.64245848174251],[139.7815002850276,35.642471938855756]]]}},{"type":"Feature","properties":{"height":6.6,"gml_id":"bldg_05094fbb-6f56-48c2-841a-a271a6fcf691"},"geometry":{"type":"Polygon","coordinates":[[[139.78582769710727,35.64478872177328],[139.78590725110112,35.644710423444586],[139.78605119089437,35.644807828771505],[139.78597153750624,35.64488621729267],[139.78582769710727,35.64478872177328]]]}},{"type":"Feature","properties":{"height":30.3,"gml_id":"bldg_62ec44e6-81f7-4fbc-8d01-df386aee942b"},"geometry":{"type":"Polygon","coordinates":[[[139.78441540050449,35.6459061885853],[139.78444072219156,35.64592376670477],[139.7843490111239,35.646013930239725],[139.7843223979594,35.64599545019872],[139.78441540050449,35.6459061885853]]]}},{"type":"Feature","properties":{"height":6.9,"gml_id":"bldg_d5b41761-8a16-497a-9402-4b7acdbbe575"},"geometry":{"type":"Polygon","coordinates":[[[139.78515983434602,35.64715826682405],[139.78470095105737,35.6471942997363],[139.78469152406615,35.64711517307098],[139.78513812644817,35.64708010876754],[139.78514021385553,35.64709804700204],[139.78515269310287,35.6470970595787],[139.78515983434602,35.64715826682405]]]}},{"type":"Feature","properties":{"height":13.3,"gml_id":"bldg_2b443f98-6dfe-4b3c-9bc4-e09a34cb589b"},"geometry":{"type":"Polygon","coordinates":[[[139.78041196633512,35.6443305474457],[139.7804451160943,35.64429757159887],[139.78019279260658,35.6441284523066],[139.78027783428715,35.64404153392967],[139.7803298991817,35.644076693439516],[139.78029684908924,35.64410930784747],[139.78044952302292,35.64421241141112],[139.78048172226025,35.64418063396796],[139.7805332685614,35.6442154407231],[139.78041473682103,35.64433240640141],[139.78041196633512,35.6443305474457]]]}},{"type":"Feature","properties":{"height":6.6,"gml_id":"bldg_3a992a96-beca-4958-a98f-8bfb41b10f76"},"geometry":{"type":"Polygon","coordinates":[[[139.786376322192,35.64473260082845],[139.7863926589463,35.644743694135826],[139.7863598430959,35.64477604078414],[139.78623864199912,35.644693968130824],[139.78629841800105,35.644634500591636],[139.7864036134404,35.644705750423995],[139.786376322192,35.64473260082845]]]}},{"type":"Feature","properties":{"height":4.2,"gml_id":"bldg_c52aedc4-44a7-47b7-a11d-803a82c54a45"},"geometry":{"type":"Polygon","coordinates":[[[139.78378916863952,35.643760420576925],[139.7838682817856,35.64368230367602],[139.78390272038058,35.64370548321178],[139.78382360718953,35.64378369027272],[139.78378916863952,35.643760420576925]]]}},{"type":"Feature","properties":{"height":3.2,"gml_id":"bldg_7ac24ec3-a083-481a-bd8c-be0182c44e02"},"geometry":{"type":"Polygon","coordinates":[[[139.78597068138515,35.64512062910124],[139.78601256237872,35.64514663226541],[139.7859947943228,35.64516570743762],[139.78595291332502,35.64513970426736],[139.78597068138515,35.64512062910124]]]}},{"type":"Feature","properties":{"height":3.8,"gml_id":"bldg_c510d57c-aee1-424a-8a5a-ce7aaaac0a32"},"geometry":{"type":"Polygon","coordinates":[[[139.77811943762634,35.64186290809456],[139.77814307943186,35.64187872909233],[139.77810273620912,35.641918903027715],[139.7780790833636,35.641903073003284],[139.77811943762634,35.64186290809456]]]}},{"type":"Feature","properties":{"height":16.1,"gml_id":"bldg_7b221ffd-9c65-4fc0-98a6-3b907d9d9d8a"},"geometry":{"type":"Polygon","coordinates":[[[139.78530083629067,35.64718833898521],[139.7853186358288,35.64733914642449],[139.7855601595321,35.64732013327534],[139.7855874089789,35.6475510768159],[139.78533793316345,35.6475707178139],[139.7853487007119,35.64766221184619],[139.7853138027424,35.64766499220597],[139.78531556085176,35.64767968534808],[139.78454117905304,35.64774057761814],[139.78451415226448,35.64751152683079],[139.7844202813139,35.647518880035854],[139.78440391166245,35.647380150597606],[139.7844985555235,35.64737270758076],[139.78448252661886,35.6472364138081],[139.78525578819236,35.64717561159873],[139.78525776627785,35.647191747033645],[139.78530083629067,35.64718833898521]]]}},{"type":"Feature","properties":{"height":6.1,"gml_id":"bldg_f9bfd534-e112-4193-b736-b967250c41b2"},"geometry":{"type":"Polygon","coordinates":[[[139.78557872046338,35.646953199137165],[139.78559655857006,35.64696570830548],[139.78558012828483,35.64698131363983],[139.7855622901778,35.64696880356774],[139.78557872046338,35.646953199137165]]]}},{"type":"Feature","properties":{"height":6.4,"gml_id":"bldg_a2bfc197-0b5b-4e0b-b238-b2350ee21398"},"geometry":{"type":"Polygon","coordinates":[[[139.77858820510212,35.64311207974606],[139.78037283059442,35.644314566853566],[139.78024368139074,35.644439178582466],[139.7784639043548,35.64323432207357],[139.77858820510212,35.64311207974606]]]}},{"type":"Feature","properties":{"height":3.9,"gml_id":"bldg_68beb240-a0e0-4df5-a50c-ccfa28f06c34"},"geometry":{"type":"Polygon","coordinates":[[[139.7867182996334,35.643429251941306],[139.78661177250547,35.643371702789274],[139.78664381889695,35.643332144746935],[139.7867503459954,35.64338969387097],[139.7867182996334,35.643429251941306]]]}},{"type":"Feature","properties":{"height":4.2,"gml_id":"bldg_c6860934-9d3b-4d23-a4e3-4572f78ee4aa"},"geometry":{"type":"Polygon","coordinates":[[[139.77578451231108,35.649671931410495],[139.77576652039141,35.64965961001056],[139.77575437520272,35.649671430263595],[139.77573797275528,35.64966020028471],[139.7757482502963,35.649650208934474],[139.7757405568156,35.64964495023136],[139.77575396182976,35.64963190471],[139.7756995777105,35.649594678893514],[139.77577266979048,35.649523541163965],[139.77582495668474,35.649559323744235],[139.7758384832257,35.64954617010611],[139.77615222759124,35.6497609371933],[139.77614620473273,35.649766820321666],[139.77617682425821,35.649787782843795],[139.77610509158885,35.64985758742441],[139.77610243142672,35.649855756366335],[139.77609289433434,35.64986501798348],[139.7760760282009,35.649853472348816],[139.77606571751215,35.64986350877974],[139.77582473542816,35.6496985412271],[139.77580736306342,35.649715442752395],[139.7757677035455,35.649688292373604],[139.77578451231108,35.649671931410495]]]}},{"type":"Feature","properties":{"height":5.4,"gml_id":"bldg_84561e77-a372-4e2c-b312-f9cf8ea53f1f"},"geometry":{"type":"Polygon","coordinates":[[[139.7821721933641,35.64571256928663],[139.7820817031274,35.64565121914967],[139.78213098517168,35.64560279109288],[139.78222147538582,35.64566415020707],[139.7821721933641,35.64571256928663]]]}},{"type":"Feature","properties":{"height":5.2,"gml_id":"bldg_da901087-9400-4c21-b143-c805a09daffd"},"geometry":{"type":"Polygon","coordinates":[[[139.77749188118855,35.64168599385557],[139.7776166244179,35.64176807698417],[139.77757771702835,35.641807476223754],[139.7774529737839,35.6417253840416],[139.77749188118855,35.64168599385557]]]}},{"type":"Feature","properties":{"height":6.5,"gml_id":"bldg_4018422d-0165-4eec-ba1d-c2477fa604c8"},"geometry":{"type":"Polygon","coordinates":[[[139.7796491418989,35.64203043555182],[139.77975608345304,35.642102142683925],[139.77966094539045,35.64219674497333],[139.77967286585667,35.642204682406835],[139.77964634653853,35.6422309908144],[139.77952747342243,35.642151346134646],[139.7796491418989,35.64203043555182]]]}},{"type":"Feature","properties":{"height":3.5,"gml_id":"bldg_77c45a66-807a-4e7b-9caf-21bb5dce1511"},"geometry":{"type":"Polygon","coordinates":[[[139.78537561914985,35.648242926406155],[139.78537490664797,35.648234046660804],[139.7854469659276,35.64823017237072],[139.78544971748997,35.64826416437908],[139.78537907175462,35.64826796712345],[139.78537856754284,35.64826164827223],[139.78536818658168,35.64826221200592],[139.78536666281985,35.648243399667905],[139.78537561914985,35.648242926406155]]]}},{"type":"Feature","properties":{"height":11.9,"gml_id":"bldg_3f7f1ac9-0d36-4edc-9aff-a9141f607f94"},"geometry":{"type":"Polygon","coordinates":[[[139.78327358134194,35.64341982928029],[139.7833068398515,35.64338705098847],[139.78333597992506,35.64340671311475],[139.783302610937,35.643439582407744],[139.78327358134194,35.64341982928029]]]}},{"type":"Feature","properties":{"height":32.4,"gml_id":"bldg_d2f68d1f-da85-46bc-bb6a-3ee547002163"},"geometry":{"type":"Polygon","coordinates":[[[139.77906722085845,35.643107951866504],[139.7790582253929,35.64310177337823],[139.77899785952405,35.643161822967],[139.77891538736534,35.64310649524527],[139.77902055902442,35.64300442566566],[139.7787047883416,35.64279284676036],[139.77916440872735,35.64233489316583],[139.7795709731337,35.6426072642843],[139.77906722085845,35.643107951866504]]]}},{"type":"Feature","properties":{"height":6.2,"gml_id":"bldg_bb1f8327-c830-493a-a58c-b8898a02c673"},"geometry":{"type":"Polygon","coordinates":[[[139.7825851560123,35.644344732908],[139.78227720180394,35.64465089074704],[139.78224000368547,35.64462599696296],[139.78254795793998,35.64431983921782],[139.7825851560123,35.644344732908]]]}},{"type":"Feature","properties":{"height":9.0,"gml_id":"bldg_7bdff64e-b648-43f5-88be-468168042614"},"geometry":{"type":"Polygon","coordinates":[[[139.77561521551073,35.649704462198095],[139.77546945056804,35.64984631397076],[139.77544997956653,35.64983298227172],[139.7754314135511,35.649851063971774],[139.77537594771786,35.649813089348065],[139.77538789405887,35.64980146734063],[139.77536826854552,35.649788036402555],[139.7753758054662,35.64978069381198],[139.775363641626,35.649772368253885],[139.77560785019776,35.64953471055888],[139.7757507587776,35.64963255216971],[139.77573459098443,35.64964828156987],[139.7756985961261,35.64962364866211],[139.77563225613744,35.64968821944773],[139.77564332723372,35.64969579541162],[139.77562648529118,35.649712174366556],[139.77561521551073,35.649704462198095]]]}},{"type":"Feature","properties":{"height":18.1,"gml_id":"bldg_0419ede9-d81b-4b57-a2ae-c04d6e4f3cb5"},"geometry":{"type":"Polygon","coordinates":[[[139.78380137322605,35.64491932633172],[139.78346084619636,35.64469077683826],[139.7834292665945,35.644722122671176],[139.78336921924318,35.64468180621691],[139.78340201428057,35.64464928911302],[139.78281269237297,35.64425387959404],[139.7828908127771,35.64417630375209],[139.78388070874774,35.644840578565585],[139.78380137322605,35.64491932633172]]]}},{"type":"Feature","properties":{"height":13.0,"gml_id":"bldg_6d814e28-7c9f-4e5f-952d-ac487fa685d7"},"geometry":{"type":"Polygon","coordinates":[[[139.7838349269658,35.64379979442565],[139.7837894044656,35.643843491609076],[139.78322300320914,35.64346040628679],[139.78326786352932,35.64341625654799],[139.7838349269658,35.64379979442565]]]}},{"type":"Feature","properties":{"height":6.0,"gml_id":"bldg_581d8933-b99a-460d-a61b-14ed468fe484"},"geometry":{"type":"Polygon","coordinates":[[[139.7769447273144,35.6420579087501],[139.7769338226444,35.64205053037624],[139.77686616341393,35.642117118591365],[139.77679992972622,35.642072280946444],[139.77688377722882,35.6419897630988],[139.77692993439462,35.64202100844026],[139.77693559200063,35.642015431562214],[139.77689007498785,35.64198461918408],[139.77717844583938,35.64170081100988],[139.77720026616748,35.64171557673201],[139.7771916251273,35.64172408170955],[139.7772341620869,35.6417528834165],[139.77694800124226,35.642034520436255],[139.77696014206722,35.64204273676713],[139.7769447273144,35.6420579087501]]]}},{"type":"Feature","properties":{"height":4.0,"gml_id":"bldg_97164640-c308-43ba-87eb-644008bf36a9"},"geometry":{"type":"Polygon","coordinates":[[[139.7777508485392,35.641984550742585],[139.7777304626114,35.64197112883549],[139.7777716463129,35.641929441098604],[139.77781430556112,35.64195751163899],[139.77777042563662,35.642001938334424],[139.77774816335682,35.64198728067755],[139.7777508485392,35.641984550742585]]]}},{"type":"Feature","properties":{"height":3.1,"gml_id":"bldg_34eb13d2-213d-4429-b8bb-c5ecaa21465c"},"geometry":{"type":"Polygon","coordinates":[[[139.77860718630316,35.64185017788703],[139.7785800895797,35.64183228224132],[139.77859391304924,35.64181833519877],[139.77862102081338,35.64183623084641],[139.77860718630316,35.64185017788703]]]}},{"type":"Feature","properties":{"height":4.0,"gml_id":"bldg_c9365a00-7dbd-4bb7-9b3c-e1d1221bf803"},"geometry":{"type":"Polygon","coordinates":[[[139.77851383969846,35.64176159311769],[139.77853097780104,35.64174480825117],[139.7785892762791,35.64178447734847],[139.778572127144,35.64180125320439],[139.77851383969846,35.64176159311769]]]}},{"type":"Feature","properties":{"height":12.2,"gml_id":"bldg_c03f6b8a-c32f-48f7-8da0-40b6213e17e1"},"geometry":{"type":"Polygon","coordinates":[[[139.7806525319423,35.644413273138696],[139.7806681946261,35.644423772018946],[139.78061585140821,35.644475533242634],[139.7806128491281,35.64447350382983],[139.7806493138005,35.644437284420455],[139.78059521735966,35.64440108757732],[139.78068480576547,35.64431830011676],[139.78072267638885,35.64434391577766],[139.7806525319423,35.644413273138696]]]}},{"type":"Feature","properties":{"height":4.5,"gml_id":"bldg_bf2d8742-ab79-4a40-a1fe-de8c9ca0ca59"},"geometry":{"type":"Polygon","coordinates":[[[139.78615571545728,35.645644609134145],[139.78614632173517,35.64563823271855],[139.786246493921,35.6455399767503],[139.78623925270065,35.64553506141416],[139.78632573471495,35.64545023144491],[139.7861240407107,35.64531323157514],[139.7859221605114,35.64551125784079],[139.78592833098094,35.64551545167294],[139.78590465244835,35.645538679852656],[139.78575457439985,35.64543673801068],[139.78577671710133,35.64541501455346],[139.78577232383134,35.6454120202468],[139.78592277012254,35.6452644430016],[139.78595006802507,35.64528299507084],[139.78580084821823,35.645429364988395],[139.78582564044115,35.64544620257862],[139.7859633469567,35.645311132273804],[139.78598859175116,35.64532827737842],[139.78609495128,35.64522395769488],[139.78636168343465,35.64540513965776],[139.78634318712156,35.64542328617815],[139.78643604252306,35.64548635566821],[139.78622646135554,35.64569192306428],[139.78617157814352,35.64565464767305],[139.78616409781216,35.64566199096696],[139.786148677094,35.64565151993924],[139.78615571545728,35.645644609134145]]]}},{"type":"Feature","properties":{"height":4.0,"gml_id":"bldg_b06b1709-8473-4cf7-9e1c-91957d2187fe"},"geometry":{"type":"Polygon","coordinates":[[[139.77739658449474,35.64251210724156],[139.7774635359772,35.642557892236084],[139.7773795453954,35.64263973437994],[139.77731259389273,35.642593949339336],[139.77739658449474,35.64251210724156]]]}},{"type":"Feature","properties":{"height":22.6,"gml_id":"bldg_03b3d33f-7bcb-4589-b34e-c7a8bd7dc136"},"geometry":{"type":"Polygon","coordinates":[[[139.78114454981105,35.64463419855098],[139.78204775047027,35.64374394464118],[139.78219989610034,35.643846757327395],[139.78129609901276,35.64473801263406],[139.78134698374149,35.64477238609119],[139.78224970884747,35.64388218456456],[139.78240204264867,35.64398511425214],[139.78150120758676,35.64487345186803],[139.78155201521903,35.64490778013581],[139.7824514254798,35.64401963984604],[139.7826047533146,35.644123082578695],[139.7817035203716,35.64501302687269],[139.78179123925835,35.645072203795095],[139.78170861957125,35.64515433795146],[139.78141280107567,35.644956088105005],[139.78137655742515,35.64499221770006],[139.78122478543847,35.644890476793464],[139.78126313956218,35.64485236512607],[139.7812104775166,35.64481709940288],[139.78117567039124,35.64485169631738],[139.78101286101315,35.644742559068696],[139.78104954659952,35.64470615936028],[139.78080319205839,35.64454101000766],[139.7808887401899,35.64445606544228],[139.78094058486258,35.64449107856696],[139.7809079768372,35.644523261572985],[139.78106217556902,35.64462739258728],[139.78109154597757,35.64459840892632],[139.78114454981105,35.64463419855098]]]}},{"type":"Feature","properties":{"height":3.4,"gml_id":"bldg_d61bd713-32ff-4872-a94a-285ae7b26cde"},"geometry":{"type":"Polygon","coordinates":[[[139.77782991056228,35.64206616186975],[139.7778473025044,35.64204987297605],[139.77789790685296,35.64208589729605],[139.77788050387088,35.64210218619186],[139.77782991056228,35.64206616186975]]]}},{"type":"Feature","properties":{"height":3.6,"gml_id":"bldg_bdd9f1a5-dd31-4240-99e3-ccd0049c8074"},"geometry":{"type":"Polygon","coordinates":[[[139.784759364375,35.64787678270828],[139.78475505497735,35.64788101744089],[139.78477288237477,35.647893103077905],[139.78475594312627,35.647909744675324],[139.78465524874713,35.64784148783082],[139.78466981231358,35.64782717083953],[139.78468390862952,35.64783673112742],[139.78469060476527,35.64783016279552],[139.784759364375,35.64787678270828]]]}},{"type":"Feature","properties":{"height":18.3,"gml_id":"bldg_bb1afafb-9956-4146-b520-37b52d75a13f"},"geometry":{"type":"Polygon","coordinates":[[[139.78572264194798,35.64533792544821],[139.78528048954576,35.64503966444547],[139.7853133170301,35.64500723697355],[139.785288017224,35.64499016381481],[139.7854548944718,35.64482533232349],[139.7854984626634,35.64485472641781],[139.78553009665978,35.64482348732826],[139.78595370430156,35.64510924704475],[139.7859182915151,35.64514422457039],[139.78596120879163,35.645173166649684],[139.78579743671506,35.64533491734886],[139.78575541412448,35.645305560931895],[139.78572264194798,35.64533792544821]]]}},{"type":"Feature","properties":{"height":3.4,"gml_id":"bldg_ef0390e2-aeb1-4eb3-bffd-9c9f8a64893c"},"geometry":{"type":"Polygon","coordinates":[[[139.785316330157,35.6482395397479],[139.78536472295943,35.648237134327445],[139.78536727549914,35.648271477795284],[139.78531889372468,35.648273874207355],[139.785316330157,35.6482395397479]]]}},{"type":"Feature","properties":{"height":44.4,"gml_id":"bldg_04ac04a4-2b30-4164-b1ec-63df19f578e2"},"geometry":{"type":"Polygon","coordinates":[[[139.7830088122713,35.645817724848996],[139.78391642355717,35.6449081424291],[139.7839215232223,35.64491153369941],[139.78392614194496,35.64490690341677],[139.78404550955233,35.64498628162401],[139.78407779637396,35.64495392637763],[139.78419739600523,35.64503345866419],[139.78415951812593,35.64507140921185],[139.78423833150453,35.64512381137394],[139.7841665756064,35.64519571200002],[139.7841720947553,35.64519938285769],[139.7841322278607,35.64523932462727],[139.78412615679756,35.645235283977705],[139.784122852967,35.64523859969573],[139.7841708364808,35.64527050099899],[139.78379404375676,35.64564804164392],[139.78378356838422,35.645641078704145],[139.7835996679343,35.645825335417946],[139.78360560655736,35.64582928499991],[139.78340762781977,35.64602765927745],[139.78333592278764,35.64597997373213],[139.78334099464584,35.64597489207104],[139.7833090276522,35.64595363334266],[139.78331647520497,35.64594619106144],[139.78323181132225,35.64588989192105],[139.78319044084256,35.64593133804819],[139.78325189112067,35.64597224106191],[139.78322063118785,35.646003568938596],[139.78328173937507,35.646044201381216],[139.78327645756414,35.64604949026922],[139.78330113928268,35.64606590558548],[139.78330954760904,35.64616470900929],[139.78327443123453,35.646199893190634],[139.78326340391362,35.646192569426056],[139.78324219925935,35.64621382409219],[139.78325295060975,35.6462209845947],[139.7831859663835,35.646288110210115],[139.783066609229,35.646296091726136],[139.78306089136083,35.64629229544412],[139.78305518962227,35.646298006892714],[139.7829923483392,35.646256219849995],[139.78299749758807,35.64625105711201],[139.78291144278222,35.64619382874971],[139.78292484629225,35.64618040384307],[139.7829128917965,35.646172448694465],[139.78290824717928,35.646130208224896],[139.78289675482569,35.64614248016757],[139.78256803512377,35.64592335343024],[139.78280841390932,35.64568249659281],[139.7830088122713,35.645817724848996]]]}},{"type":"Feature","properties":{"height":3.4,"gml_id":"bldg_06d607eb-1a66-4fee-b2d7-ddb8c6d914c2"},"geometry":{"type":"Polygon","coordinates":[[[139.78366043939457,35.64389449340694],[139.7836943602327,35.6438621470436],[139.7837119103457,35.64387450314425],[139.78367799067055,35.64390675757246],[139.78366043939457,35.64389449340694]]]}},{"type":"Feature","properties":{"height":7.0,"gml_id":"bldg_0c6d5746-951e-47ad-95ae-0229810b7a1e"},"geometry":{"type":"Polygon","coordinates":[[[139.78302530586888,35.645595848765566],[139.78304431142803,35.64557692778385],[139.78293514365842,35.64550369033703],[139.7830107237868,35.64542854708907],[139.7831751930819,35.6455386738325],[139.7830806073922,35.6456328283103],[139.78302530586888,35.645595848765566]]]}},{"type":"Feature","properties":{"height":3.9,"gml_id":"bldg_6e790429-85e0-4d6f-9e8d-bb29183199a1"},"geometry":{"type":"Polygon","coordinates":[[[139.77731592470576,35.6424572930463],[139.77738287610276,35.64250306907222],[139.77729888548996,35.64258492017433],[139.77723193407903,35.64253913508854],[139.77731592470576,35.6424572930463]]]}},{"type":"Feature","properties":{"height":33.5,"gml_id":"bldg_9070b119-c0c6-48f6-9bbc-c74a5a4c3515"},"geometry":{"type":"Polygon","coordinates":[[[139.78272069413592,35.6417351940711],[139.78305990323494,35.64196421392991],[139.78300245834063,35.64202116601876],[139.7835288705507,35.64237561720043],[139.7827976181579,35.643097992026945],[139.7832678414549,35.64341623941263],[139.78310663129287,35.643574994991745],[139.78264701493404,35.643264097674795],[139.78265751187925,35.64325373625125],[139.78239747258448,35.6430778579703],[139.78244519497872,35.643030826239],[139.7820597464559,35.642770164692514],[139.78201202399114,35.642817196273086],[139.7817882903093,35.64266593973437],[139.7818357036094,35.64261893515041],[139.78154782003992,35.64242463698142],[139.78150020796934,35.642471569257815],[139.7812773592568,35.642320852969505],[139.78132409844102,35.642274812766935],[139.78103635007642,35.64208017090029],[139.78099005283008,35.642125759594585],[139.78076842022156,35.64197576488872],[139.78080974520924,35.64193513078589],[139.78043634913166,35.64168249241855],[139.7804509344816,35.64166807587921],[139.7804341572393,35.64165735113223],[139.78041868869448,35.64167147793936],[139.78037848000605,35.64164351756235],[139.7812174921959,35.64081687755855],[139.78163833656586,35.64110162476272],[139.7817046319736,35.641036303310436],[139.7820493426644,35.64126945670719],[139.7819896768522,35.64132829125332],[139.7821544668122,35.64143968242849],[139.78221214371607,35.641382829087256],[139.78255424835905,35.64162076623615],[139.78249747759537,35.6416766727735],[139.7826638906784,35.64179046970774],[139.78272069413592,35.6417351940711]]]}},{"type":"Feature","properties":{"height":6.6,"gml_id":"bldg_fa15c8cc-f9a1-4eee-8df3-f305b4dfe54e"},"geometry":{"type":"Polygon","coordinates":[[[139.77943666117594,35.641723421591024],[139.7795787028212,35.64166751041394],[139.7796500655762,35.64178859635359],[139.77950802382597,35.64184441837719],[139.77943666117594,35.641723421591024]]]}},{"type":"Feature","properties":{"height":46.6,"gml_id":"bldg_c5ce42be-985a-4935-b3e1-91a7060424b5"},"geometry":{"type":"Polygon","coordinates":[[[139.77616400415684,35.64933643955092],[139.77616097609877,35.64933949377983],[139.77609281535834,35.6492945818712],[139.77608769859373,35.6492997533403],[139.77604085262192,35.649268876948895],[139.7760469087552,35.649262749568095],[139.7760408708729,35.64925878244239],[139.77608917621689,35.6492099408901],[139.77607349099077,35.649199612673435],[139.77602500882114,35.649248634410654],[139.77592623945884,35.6491835611734],[139.77607366402012,35.64903451663578],[139.77652429745717,35.6493314541552],[139.77637592277048,35.64948146326068],[139.77630250760294,35.64943308770115],[139.7763529126427,35.649382120691605],[139.77631916886315,35.64935987677939],[139.7762703883646,35.64940919502576],[139.7762629486138,35.64940429702657],[139.7762578208027,35.64940947841273],[139.77621084223932,35.64937851999984],[139.776217561444,35.64937172680784],[139.77616400415684,35.64933643955092]]]}},{"type":"Feature","properties":{"height":11.3,"gml_id":"bldg_40aabd04-30e7-46ee-af75-eea5970f81a1"},"geometry":{"type":"Polygon","coordinates":[[[139.78644318366065,35.645019985922254],[139.78661858415376,35.645138765448365],[139.7865025683202,35.64525283474258],[139.78608310906628,35.64496873712361],[139.786199014657,35.644854668184955],[139.78637717401028,35.64497534203721],[139.78639750434323,35.64495543042703],[139.78646351398913,35.645000073399686],[139.78644318366065,35.645019985922254]]]}},{"type":"Feature","properties":{"height":3.3,"gml_id":"bldg_cab5e0e8-1590-47ea-a1d4-931126f41d73"},"geometry":{"type":"Polygon","coordinates":[[[139.77739951613233,35.64175964763428],[139.77741566118638,35.6417421053082],[139.77746911633764,35.64177486724508],[139.77745297128865,35.64179240957822],[139.77739951613233,35.64175964763428]]]}},{"type":"Feature","properties":{"height":6.7,"gml_id":"bldg_46489287-afbf-402e-bb34-bfd324d4eb9d"},"geometry":{"type":"Polygon","coordinates":[[[139.78602284346942,35.64454677879959],[139.78667882406683,35.643901468260424],[139.7867672973882,35.64395878502579],[139.78616840807982,35.64454735868564],[139.78625611832013,35.64460719937787],[139.7861982423592,35.64466546880819],[139.78602284346942,35.64454677879959]]]}},{"type":"Feature","properties":{"height":18.2,"gml_id":"bldg_b7dca0f0-82b4-4b8f-9bc9-8cc0ff361834"},"geometry":{"type":"Polygon","coordinates":[[[139.78794906086952,35.64643193894505],[139.78766763897335,35.64670882570921],[139.78673200196525,35.646075159889826],[139.7870134248106,35.645798365421],[139.78794906086952,35.64643193894505]]]}},{"type":"Feature","properties":{"height":4.0,"gml_id":"bldg_4f5f6ac4-90fd-4769-a697-a61fa08d3f0e"},"geometry":{"type":"Polygon","coordinates":[[[139.77747876795436,35.64256734573631],[139.7775457195298,35.64261313068482],[139.77746172897386,35.64269497288526],[139.7773947773782,35.64264918789067],[139.77747876795436,35.64256734573631]]]}},{"type":"Feature","properties":{"height":31.4,"gml_id":"bldg_bdc6cd2b-77d6-4083-acc1-68f6ee5f44d2"},"geometry":{"type":"Polygon","coordinates":[[[139.7845751137376,35.644597760233616],[139.78366315578234,35.64396601791568],[139.78402048553718,35.64362224421496],[139.784265747806,35.643792073731284],[139.7842458372935,35.64381127396981],[139.78482655098213,35.64420463592852],[139.78484480431484,35.64418666080123],[139.78493642007413,35.64425015460763],[139.7845751137376,35.644597760233616]]]}},{"type":"Feature","properties":{"height":24.0,"gml_id":"bldg_a90c3773-d781-4ece-9b52-cc9376a7a097"},"geometry":{"type":"Polygon","coordinates":[[[139.7800836127719,35.64459621887312],[139.7800471773666,35.644571234611384],[139.7801118186803,35.644508707612786],[139.7802050979694,35.64457301698764],[139.78014044569346,35.64463545389307],[139.78010391098783,35.64461028932936],[139.78007794398815,35.64463533613714],[139.78005763466788,35.6446213558094],[139.7800836127719,35.64459621887312]]]}},{"type":"Feature","properties":{"height":3.5,"gml_id":"bldg_3f737192-903f-4823-8ea0-d2c52379612a"},"geometry":{"type":"Polygon","coordinates":[[[139.78527797783414,35.64349890321912],[139.78516824930773,35.64344135241557],[139.7852009602347,35.64339972095415],[139.78531068878164,35.64345718159057],[139.78527797783414,35.64349890321912]]]}},{"type":"Feature","properties":{"height":5.7,"gml_id":"bldg_a45aba32-8588-498b-9c85-a0b9e5614f6c"},"geometry":{"type":"Polygon","coordinates":[[[139.78608310906628,35.64496873712361],[139.7865025683202,35.64525283474258],[139.7864735090173,35.645281487233355],[139.7860539392896,35.64499738856978],[139.78608310906628,35.64496873712361]]]}},{"type":"Feature","properties":{"height":4.8,"gml_id":"bldg_9ab10eaa-38fb-4b98-abac-5e384c43aaaa"},"geometry":{"type":"Polygon","coordinates":[[[139.7772979638458,35.64983542461314],[139.77729376448443,35.64983951490817],[139.777314516222,35.64985372124007],[139.77728097658488,35.64988637241768],[139.77718726265854,35.64982223099094],[139.777220128191,35.64979024744495],[139.7772387605859,35.649802992572816],[139.77724364510047,35.64979824459397],[139.7772979638458,35.64983542461314]]]}},{"type":"Feature","properties":{"height":7.3,"gml_id":"bldg_eb0fa87d-4dfc-41c2-9fa8-c61b86148737"},"geometry":{"type":"Polygon","coordinates":[[[139.78307053870918,35.641961514235554],[139.78272307373572,35.64172646973539],[139.78266329759666,35.641785394702204],[139.78250137607816,35.641675809096206],[139.78255993680298,35.641618145625095],[139.78244514608863,35.641540488567394],[139.7824790781471,35.64150706178632],[139.78348327250845,35.64218639918793],[139.7834819459674,35.64218874222062],[139.78338703533765,35.642279651899536],[139.78300788988528,35.64202323244289],[139.78307053870918,35.641961514235554]]]}},{"type":"Feature","properties":{"height":69.2,"gml_id":"bldg_34a4566c-7900-4729-bf4c-5c3201ea1ed7"},"geometry":{"type":"Polygon","coordinates":[[[139.78441250489826,35.646199910118376],[139.78443086899304,35.64618228664203],[139.7842826584472,35.64607939728957],[139.78461428525665,35.645756965103125],[139.7846718998402,35.64567765819914],[139.78484799202508,35.64550866692894],[139.78527052807067,35.64579713271575],[139.78528390858628,35.64578445567929],[139.7857641864967,35.64611787638645],[139.78545224410277,35.64641723528384],[139.78546900038188,35.64642886970641],[139.78519612623094,35.64669074616392],[139.78470406742068,35.64635237892147],[139.78468132894895,35.646372290169595],[139.78446201704938,35.64647906863408],[139.78436201684718,35.64670620204228],[139.78440763826737,35.64673787693916],[139.78435394884386,35.646789404862915],[139.78439619257435,35.64681873481023],[139.78431922179186,35.64689259838909],[139.78439934922076,35.64694821888085],[139.78413097803926,35.647205768121175],[139.78416271336982,35.647227801716745],[139.78402396366235,35.647360949557765],[139.78388116026525,35.647261803559466],[139.7838583096504,35.64728374270082],[139.78365468542847,35.647142368069865],[139.7836889613607,35.64710947293404],[139.7834972150637,35.646976351427845],[139.7834650385431,35.64700722739354],[139.7835022375628,35.647033058222306],[139.78347112179205,35.64706290795995],[139.78343257609433,35.647036148145624],[139.78342395737795,35.647044410200294],[139.78339184701656,35.64702212386848],[139.7839861811473,35.6464517521918],[139.7840110944942,35.64646905080588],[139.7841549627438,35.64639626936243],[139.7841968162973,35.64630489583453],[139.78425077778886,35.64627760611408],[139.78426227242136,35.64624324129386],[139.78431419027893,35.64621697828183],[139.78427706833378,35.646173642990824],[139.78427872068235,35.646144204691524],[139.78439107779434,35.64616994865661],[139.78441250489826,35.646199910118376]]]}},{"type":"Feature","properties":{"height":4.0,"gml_id":"bldg_f0768778-98a5-4bc4-bf50-dd214f433aae"},"geometry":{"type":"Polygon","coordinates":[[[139.77722033305216,35.64253260371169],[139.77715387764795,35.64248823397591],[139.7772040010637,35.6424382038504],[139.77727046749038,35.64248258257779],[139.77722033305216,35.64253260371169]]]}},{"type":"Feature","properties":{"height":5.2,"gml_id":"bldg_bd6a9270-d45b-4e31-9ea5-3d976758de61"},"geometry":{"type":"Polygon","coordinates":[[[139.7861625760842,35.64640974569701],[139.7861435611356,35.646407989577376],[139.786124313257,35.64640798203474],[139.78610494292974,35.64640963297459],[139.78608569299695,35.64641311375378],[139.78606667404082,35.64641816301644],[139.7860478640382,35.64642467258877],[139.7860297378249,35.64643266068491],[139.78601205256638,35.646441937920606],[139.78599516169547,35.646452405283426],[139.78597895488892,35.64646388155364],[139.78596352054174,35.646476279332674],[139.78594910176045,35.64648932559927],[139.78592274783057,35.64651714974851],[139.78590011449236,35.6465464536153],[139.78589221153683,35.64655867317398],[139.78585812642746,35.64653226742725],[139.78610419351563,35.64629449078761],[139.78649882005305,35.64656659030654],[139.78642865023028,35.646646786449],[139.78635740894785,35.646632912634075],[139.78635360120214,35.646610484891106],[139.78634427857963,35.646576760743656],[139.7863310134586,35.64654331358234],[139.7863226965783,35.64652705039799],[139.78631336353757,35.64651114556437],[139.7863027933063,35.64649589104105],[139.78629121773608,35.646481374351836],[139.78627837164206,35.64646785769355],[139.78626454218386,35.64645526906785],[139.78624957455366,35.646443959950865],[139.7862337005953,35.64643402958434],[139.78621705282382,35.64642547801973],[139.78619949856426,35.646418575617936],[139.7861812586702,35.64641333057735],[139.7861625760842,35.64640974569701]]]}},{"type":"Feature","properties":{"height":4.1,"gml_id":"bldg_17abf355-44b6-44f6-b4c6-77535818c33e"},"geometry":{"type":"Polygon","coordinates":[[[139.77708466289405,35.64230037262765],[139.7771516250643,35.64234615780199],[139.7770676343866,35.642427999731154],[139.77700068323793,35.642382215417236],[139.77708466289405,35.64230037262765]]]}},{"type":"Feature","properties":{"height":4.0,"gml_id":"bldg_669648d6-3967-487b-92e9-93917c666c90"},"geometry":{"type":"Polygon","coordinates":[[[139.77700759025038,35.642248489376215],[139.77707454129728,35.64229426557479],[139.77699055059603,35.642376106549506],[139.7769235995283,35.64233033120622],[139.77700759025038,35.642248489376215]]]}},{"type":"Feature","properties":{"height":4.4,"gml_id":"bldg_42d04358-d706-4609-923a-6b7e46ad8af1"},"geometry":{"type":"Polygon","coordinates":[[[139.78674210587633,35.64371716108769],[139.78675412660033,35.643725187995294],[139.78667436449555,35.64380366709169],[139.78658119060097,35.64374062468605],[139.7866794264629,35.643644035122236],[139.78676054647127,35.64369905143565],[139.78674210587633,35.64371716108769]]]}},{"type":"Feature","properties":{"height":3.6,"gml_id":"bldg_f805299e-3091-41b6-9e3e-a5b2ae60a253"},"geometry":{"type":"Polygon","coordinates":[[[139.78233621764332,35.64579223855007],[139.7824090696114,35.645841124909445],[139.78237238412166,35.64587752502516],[139.78229953214182,35.64582864044664],[139.78233621764332,35.64579223855007]]]}},{"type":"Feature","properties":{"height":55.6,"gml_id":"bldg_51d0de9d-4151-440c-bb60-3bd4b8e35240"},"geometry":{"type":"Polygon","coordinates":[[[139.7755695038465,35.6488955450386],[139.77552155267165,35.64894312372644],[139.77547004952393,35.648908540218365],[139.77551754760873,35.64886141202152],[139.77533575269587,35.64873935034438],[139.77531275043063,35.64872284407488],[139.77529914067486,35.64871370657346],[139.77523646921222,35.64877589838317],[139.7751822951147,35.64873952873721],[139.77525374124306,35.64866864290307],[139.77517270097917,35.648614223748794],[139.77509290009598,35.648693398160205],[139.77497352536813,35.64861323504223],[139.7751761272367,35.648412217896364],[139.7753447529455,35.64852544900417],[139.77534053139516,35.648529638372715],[139.7755616981447,35.64867814729899],[139.77554754159584,35.6486921929685],[139.775901915672,35.648930127571916],[139.77576053798225,35.64907039538527],[139.77568900067988,35.64902236286953],[139.7757156672211,35.648995893187184],[139.7755695038465,35.6488955450386]]]}}]}