{"type":"FeatureCollection","crs":{"type":"name","properties":{"name":"urn:ogc:def:crs:OGC:1.3:CRS84"}},"features":[{"type":"Feature","properties":{"height":2.4,"gml_id":"bldg_70112a2e-7d35-48c3-996a-78c72a1b434d"},"geometry":{"type":"Polygon","coordinates":[[[139.80010452568703,35.62475026836142],[139.80008112603633,35.62473791299585],[139.8001038802571,35.62470925538182],[139.80012727990294,35.62472161074302],[139.80010452568703,35.62475026836142]]]}},{"type":"Feature","properties":{"height":7.1,"gml_id":"bldg_db1032e4-4a81-4b85-8ff3-4a53cfc9e003"},"geometry":{"type":"Polygon","coordinates":[[[139.80000646741192,35.62480621698946],[139.79988494290703,35.62474425848875],[139.79997474674397,35.62462683353969],[139.79999891918106,35.62463909900194],[139.80006132886686,35.62455736106276],[139.80015879116567,35.62460705399244],[139.80000646741192,35.62480621698946]]]}}]}