{"type":"FeatureCollection","crs":{"type":"name","properties":{"name":"urn:ogc:def:crs:OGC:1.3:CRS84"}},"features":[{"type":"Feature","properties":{"height":2.8,"gml_id":"bldg_56e6dc6d-07b2-42a5-81ba-d8eaf8d1aa13"},"geometry":{"type":"Polygon","coordinates":[[[139.81269640971374,35.59204848402287],[139.81271825677638,35.59206101701572],[139.81269507527517,35.59208814474231],[139.81267311785385,35.5920756117264],[139.81269640971374,35.59204848402287]]]}},{"type":"Feature","properties":{"height":3.8,"gml_id":"bldg_ae28bd02-fc88-4e09-988e-c1fbac1c430d"},"geometry":{"type":"Polygon","coordinates":[[[139.81252861864263,35.59224784157497],[139.81254980378836,35.592259653375564],[139.81252640125265,35.59228759227731],[139.812505216103,35.59227578047264],[139.81252861864263,35.59224784157497]]]}},{"type":"Feature","properties":{"height":2.6,"gml_id":"bldg_beddc201-f1c6-4c74-a692-a116590eae82"},"geometry":{"type":"Polygon","coordinates":[[[139.8126156062444,35.59214032130955],[139.8126424187175,35.59215510863231],[139.8125978213461,35.5922090939391],[139.81257100886322,35.59219430660654],[139.8126156062444,35.59214032130955]]]}},{"type":"Feature","properties":{"height":2.7,"gml_id":"bldg_ecec1f6c-64b8-4239-919a-73848ff05352"},"geometry":{"type":"Polygon","coordinates":[[[139.81263900868305,35.5921124725283],[139.812661297545,35.59212356339091],[139.81264341388456,35.592147447029234],[139.8126212353503,35.592136446320815],[139.81263900868305,35.5921124725283]]]}},{"type":"Feature","properties":{"height":2.5,"gml_id":"bldg_fe4a2d80-e8f3-4bcb-a5d1-7e2e3c7ec7ab"},"geometry":{"type":"Polygon","coordinates":[[[139.81313658255223,35.595255145387995],[139.8131093271547,35.59524180032383],[139.8131252243775,35.595219989480526],[139.8131525901296,35.59523333455963],[139.81313658255223,35.595255145387995]]]}},{"type":"Feature","properties":{"height":1.9,"gml_id":"bldg_246cd0a0-25af-4565-9261-7303798fc19b"},"geometry":{"type":"Polygon","coordinates":[[[139.813076306353,35.595334547263654],[139.81305015362312,35.59532480791035],[139.8130636235172,35.59530083334367],[139.8130896658815,35.59531057267555],[139.813076306353,35.595334547263654]]]}},{"type":"Feature","properties":{"height":2.6,"gml_id":"bldg_6b44b4ee-734c-4748-ae63-f01d77eb22aa"},"geometry":{"type":"Polygon","coordinates":[[[139.8125483783973,35.59222395827764],[139.81256669486365,35.592233606256194],[139.8125495841963,35.59225532668897],[139.81253126772702,35.59224567870785],[139.8125483783973,35.59222395827764]]]}},{"type":"Feature","properties":{"height":2.3,"gml_id":"bldg_c8383912-2061-4f3f-861e-2b2649550496"},"geometry":{"type":"Polygon","coordinates":[[[139.81252752573536,35.591780202750606],[139.81254088294844,35.59176352942904],[139.81257332273606,35.591780751478865],[139.81255996552682,35.59179742480399],[139.81252752573536,35.591780202750606]]]}},{"type":"Feature","properties":{"height":10.3,"gml_id":"bldg_93fef7ca-20bf-4f12-9336-09fefb78baf0"},"geometry":{"type":"Polygon","coordinates":[[[139.8126985185781,35.592001251800156],[139.81259248234625,35.591943905500756],[139.81264856033573,35.59187486903146],[139.81261049326582,35.59185431090944],[139.81262296728872,35.59183898950494],[139.8126052026554,35.591829431767756],[139.81278005946544,35.59161394050422],[139.81286932382042,35.5916622699427],[139.81288190816443,35.59164676825259],[139.81286999154383,35.59164027625615],[139.81288412132645,35.59162288191911],[139.8128971413516,35.59162991493241],[139.81291027764,35.59161369222464],[139.81289659558203,35.59160629854637],[139.8129113876847,35.59158809307159],[139.81292440770662,35.591595126082005],[139.8129302582914,35.591588006129065],[139.81300219944399,35.59162695812899],[139.8126985185781,35.592001251800156]]]}},{"type":"Feature","properties":{"height":3.0,"gml_id":"bldg_19169c07-e581-4d64-84dc-7d57d915e6cb"},"geometry":{"type":"Polygon","coordinates":[[[139.81564375943643,35.59861328670224],[139.81560081537893,35.59866988731889],[139.81554420498273,35.59864121495844],[139.81555292628858,35.598629678527686],[139.81551761377708,35.59861182590539],[139.81552534150876,35.598601641406006],[139.8154791042112,35.59857828871385],[139.8155127750079,35.598534035732605],[139.81555868121814,35.59855729822477],[139.81555161587755,35.598566581439876],[139.81564375943643,35.59861328670224]]]}},{"type":"Feature","properties":{"height":2.7,"gml_id":"bldg_59574b4e-2ac9-499c-ad7d-a286036ea21d"},"geometry":{"type":"Polygon","coordinates":[[[139.81267024542836,35.592088050349425],[139.8126894445332,35.592098419569005],[139.81266968475865,35.592122663444016],[139.8126505960056,35.59211229424026],[139.81267024542836,35.592088050349425]]]}},{"type":"Feature","properties":{"height":2.4,"gml_id":"bldg_7012b722-5a08-486a-b2c5-940a797af548"},"geometry":{"type":"Polygon","coordinates":[[[139.8159409895354,35.59954103451646],[139.81592818367764,35.59955716744243],[139.8159011473232,35.599542741389634],[139.8159139531646,35.59952669860491],[139.8159409895354,35.59954103451646]]]}},{"type":"Feature","properties":{"height":2.8,"gml_id":"bldg_7f3e8351-fa42-4652-8a2b-115bbcddc7c2"},"geometry":{"type":"Polygon","coordinates":[[[139.81261481103243,35.59180022853877],[139.81259990830628,35.5918190649271],[139.8125703372745,35.59180355601069],[139.8125851296734,35.59178462946846],[139.81261481103243,35.59180022853877]]]}},{"type":"Feature","properties":{"height":2.7,"gml_id":"bldg_fe758254-855a-4d93-9c23-1ab6b0f47b4e"},"geometry":{"type":"Polygon","coordinates":[[[139.81678222531465,35.59831292693111],[139.81676897745714,35.59833347667187],[139.81673399530052,35.598318508880084],[139.8167472431645,35.59829795914311],[139.81678222531465,35.59831292693111]]]}},{"type":"Feature","properties":{"height":2.8,"gml_id":"bldg_d9ed63fb-34d4-4d9c-818e-b0b8404f1b68"},"geometry":{"type":"Polygon","coordinates":[[[139.81595627000553,35.598798837035005],[139.8159671990202,35.59878513757088],[139.81600118725962,35.598803350424184],[139.81599025824823,35.59881704989138],[139.81595627000553,35.598798837035005]]]}},{"type":"Feature","properties":{"height":1.4,"gml_id":"bldg_cbb5e2b7-f241-4d10-91b3-3812aaab2536"},"geometry":{"type":"Polygon","coordinates":[[[139.8153410178652,35.59867264310326],[139.81531883744475,35.59866038096469],[139.81532954565972,35.59864740263243],[139.81535183642205,35.59865975492391],[139.8153410178652,35.59867264310326]]]}}]}