{"type":"FeatureCollection","crs":{"type":"name","properties":{"name":"urn:ogc:def:crs:OGC:1.3:CRS84"}},"features":[{"type":"Feature","properties":{"height":16.0,"gml_id":"bldg_8e2622dd-0bea-43b6-99ae-51a4da9b7103"},"geometry":{"type":"Polygon","coordinates":[[[139.80395126646545,35.6408262817369],[139.80333928210186,35.64060015547222],[139.80335674013094,35.64056960310778],[139.80337651851298,35.6405349951172],[139.80378833464604,35.6406877902439],[139.80386660050218,35.640750905866085],[139.80397115642833,35.640787978028115],[139.80396651547716,35.64079681039975],[139.80395126646545,35.6408262817369]]]}},{"type":"Feature","properties":{"height":10.7,"gml_id":"bldg_7c2d273d-1457-4590-919f-9bfc3c3328da"},"geometry":{"type":"Polygon","coordinates":[[[139.80125305740518,35.63929054668899],[139.80129037143473,35.639033663864],[139.8012988971519,35.63897498641619],[139.80157140179196,35.6390013788189],[139.80152600603083,35.639313784488245],[139.80143226315533,35.63930474591774],[139.80142827718527,35.63933205661761],[139.8014159106245,35.63933088154998],[139.80140970993995,35.639374055916186],[139.80137349356377,35.63937062107599],[139.80137980486683,35.639326996051956],[139.8013520905558,35.639324284562825],[139.8013555230518,35.639300489093],[139.80125305740518,35.63929054668899]]]}},{"type":"Feature","properties":{"height":30.1,"gml_id":"bldg_e3f64166-8129-409c-ba53-7fccee69f5ff"},"geometry":{"type":"Polygon","coordinates":[[[139.8041557818786,35.637446343830064],[139.80424334909858,35.63681954646504],[139.805153040374,35.63690431200976],[139.80506548016353,35.637531110030466],[139.8041557818786,35.637446343830064]]]}},{"type":"Feature","properties":{"height":10.1,"gml_id":"bldg_5da250f9-4f40-4a92-a28d-a37cec1ee4cc"},"geometry":{"type":"Polygon","coordinates":[[[139.8061070022805,35.637013778467036],[139.8061632025488,35.637019199426824],[139.80615313079326,35.63708959480951],[139.80609693047637,35.63708417384507],[139.8060982584748,35.63707534063682],[139.8061013575444,35.63705352797967],[139.8061070022805,35.637013778467036]]]}},{"type":"Feature","properties":{"height":11.1,"gml_id":"bldg_91f7d671-188d-489b-aa18-120ffc1313da"},"geometry":{"type":"Polygon","coordinates":[[[139.80194983527196,35.63865228411512],[139.80173772835212,35.638632218071685],[139.80180039896138,35.6381905591718],[139.80145844626543,35.63815819983103],[139.80148203098568,35.63799280315933],[139.80203619860183,35.6380455889064],[139.80194983527196,35.63865228411512]]]}},{"type":"Feature","properties":{"height":3.2,"gml_id":"bldg_f2e81bde-f5b3-472e-9f1a-58c2120c22c0"},"geometry":{"type":"Polygon","coordinates":[[[139.8027254526125,35.63827201195403],[139.80272799965942,35.63825254283137],[139.8027942485376,35.63825823832812],[139.80279170150655,35.638277707452175],[139.8027254526125,35.63827201195403]]]}},{"type":"Feature","properties":{"height":2.4,"gml_id":"bldg_c459047c-5b54-4b9c-80b5-4664396d986e"},"geometry":{"type":"Polygon","coordinates":[[[139.80411374209154,35.63736611096547],[139.80409519266198,35.6373643037078],[139.80411843843078,35.6372044949605],[139.80413698782394,35.6372063022146],[139.80411374209154,35.63736611096547]]]}},{"type":"Feature","properties":{"height":3.0,"gml_id":"bldg_ab35a3b5-d89b-48bb-9662-6212768be8bc"},"geometry":{"type":"Polygon","coordinates":[[[139.80489472983695,35.64108646554463],[139.8048384216329,35.64106626137435],[139.8048450513521,35.64105391406639],[139.80490135954915,35.64107411823362],[139.80489472983695,35.64108646554463]]]}},{"type":"Feature","properties":{"height":9.3,"gml_id":"bldg_4ffe32c2-b54f-43d2-b2d3-3f46003bf490"},"geometry":{"type":"Polygon","coordinates":[[[139.8048040622334,35.64049577119344],[139.80464395591227,35.64048221249807],[139.8046740750981,35.64024542768763],[139.80493863624434,35.64026784451532],[139.8049157153008,35.640447934419306],[139.8048113701981,35.640439076253685],[139.8048040622334,35.64049577119344]]]}},{"type":"Feature","properties":{"height":24.3,"gml_id":"bldg_ce330032-da09-4979-b2cd-63c101bdc381"},"geometry":{"type":"Polygon","coordinates":[[[139.8045704991324,35.63932356370978],[139.80456828508224,35.63933933729744],[139.80477653004465,35.639358946750434],[139.80475383670665,35.63951974721455],[139.80425906082996,35.63947329797631],[139.80426038920092,35.63946410424075],[139.80424702883022,35.63946283908613],[139.80427060890838,35.639295458870144],[139.8045704991324,35.63932356370978]]]}},{"type":"Feature","properties":{"height":42.3,"gml_id":"bldg_a9a6a7dc-8919-4926-b5da-c95f6154540f"},"geometry":{"type":"Polygon","coordinates":[[[139.8018605272923,35.641414984276004],[139.8018389803907,35.641451844994364],[139.8018099436555,35.64144048003913],[139.80182983312963,35.641406413163466],[139.80180830398876,35.64139802471766],[139.80181339790988,35.64138928268643],[139.80180587929163,35.641386306172166],[139.80180942623247,35.64138026786946],[139.80179926886694,35.641376389286386],[139.8018011471859,35.64137350536925],[139.80179241427422,35.641369627158475],[139.80180821587018,35.64134123789546],[139.8017967335796,35.64133699841426],[139.80181562919492,35.641303021417926],[139.8018017179666,35.64129787992384],[139.8018315642275,35.64124407457828],[139.8022280125844,35.64139074343556],[139.80221300152851,35.64194373388854],[139.80220716023157,35.64194346196595],[139.80220682536063,35.6419527460695],[139.80212189928756,35.64195110161387],[139.8021217984693,35.64195479723623],[139.80209208371863,35.64195424870636],[139.80209220697384,35.64194965171216],[139.80200542582713,35.6419479165555],[139.80200609733942,35.64192493159932],[139.80203745735284,35.64192557071565],[139.80204612369573,35.64150553095275],[139.8020589281339,35.64148903906519],[139.8018605272923,35.641414984276004]]]}},{"type":"Feature","properties":{"height":3.7,"gml_id":"bldg_057f0a1d-6616-4d30-9560-bcca262ad91e"},"geometry":{"type":"Polygon","coordinates":[[[139.80583975610728,35.638413558303505],[139.80587873261692,35.63841726284395],[139.80587441593036,35.638447548168045],[139.80583543937533,35.638443933764044],[139.80583975610728,35.638413558303505]]]}},{"type":"Feature","properties":{"height":12.8,"gml_id":"bldg_c3a3d3d5-adc9-4589-96b6-63ccd55e3876"},"geometry":{"type":"Polygon","coordinates":[[[139.80328706431976,35.63968407204542],[139.80345986622356,35.63970015955335],[139.80341170499938,35.64004447399302],[139.80340582688297,35.64011369836023],[139.80336961008723,35.640110264120395],[139.80290486496943,35.640066160372875],[139.8029438376525,35.63979007813514],[139.8031008499862,35.639805080519736],[139.80310859972033,35.63975118005975],[139.80327521821943,35.63976717614293],[139.80328706431976,35.63968407204542]]]}},{"type":"Feature","properties":{"height":5.1,"gml_id":"bldg_9a0d3e7b-2764-4ca4-8b53-8d713fa61cb6"},"geometry":{"type":"Polygon","coordinates":[[[139.8031519729637,35.638928683444135],[139.80315064430525,35.63893832785726],[139.80316334208905,35.638939502829814],[139.80315691987548,35.638987093986316],[139.80311993056114,35.63898392989082],[139.80308868285468,35.63898130805258],[139.80308227873329,35.63898076561759],[139.80308991913523,35.63892380043829],[139.8031519729637,35.638928683444135]]]}},{"type":"Feature","properties":{"height":10.0,"gml_id":"bldg_175f7ef3-7134-4626-8367-245b7537db93"},"geometry":{"type":"Polygon","coordinates":[[[139.80525585986712,35.63936780279905],[139.80526759328038,35.63928514916353],[139.80532489928018,35.63929057077034],[139.8053131659566,35.639373134273605],[139.80525585986712,35.63936780279905]]]}},{"type":"Feature","properties":{"height":2.6,"gml_id":"bldg_f6bcc0ad-73c9-4f34-b73e-fefcd4ea67bb"},"geometry":{"type":"Polygon","coordinates":[[[139.80073268539167,35.638384612085126],[139.80069823604157,35.63838153807097],[139.80070045104551,35.63836522372544],[139.80073478997014,35.63836829770907],[139.80073268539167,35.638384612085126]]]}},{"type":"Feature","properties":{"height":24.1,"gml_id":"bldg_08a2f611-7dc9-42d4-8ce0-2ea7fa98ffff"},"geometry":{"type":"Polygon","coordinates":[[[139.80523494016364,35.63824981859252],[139.80526184149576,35.63805062026998],[139.80528988681715,35.63805315066149],[139.80528656551823,35.6380782082041],[139.80530864845798,35.63808019637591],[139.8053119697501,35.6380551388327],[139.80549282898653,35.638071495715415],[139.80547279196372,35.63821940725482],[139.8054407716431,35.63821651543428],[139.80543501503996,35.63825923942992],[139.80542353187013,35.638258245253795],[139.80542231432156,35.63826671792714],[139.80523494016364,35.63824981859252]]]}},{"type":"Feature","properties":{"height":2.4,"gml_id":"bldg_e87f20db-ae7e-499a-ad96-58a5876bdaac"},"geometry":{"type":"Polygon","coordinates":[[[139.8036076898876,35.63858645333921],[139.80351979928898,35.638578860041456],[139.80353065145903,35.6384950345549],[139.8036186523856,35.63850262787202],[139.8036076898876,35.63858645333921]]]}},{"type":"Feature","properties":{"height":19.0,"gml_id":"bldg_2d1b78ab-71ef-4744-ba1f-d18266d081a0"},"geometry":{"type":"Polygon","coordinates":[[[139.80323053331637,35.63908392041499],[139.80317362408363,35.639492681139],[139.80306530563257,35.63948291908682],[139.803120780431,35.63907289612431],[139.80323053331637,35.63908392041499]]]}},{"type":"Feature","properties":{"height":5.8,"gml_id":"bldg_dc1712df-53d7-40ae-9f5d-db0c4d804760"},"geometry":{"type":"Polygon","coordinates":[[[139.80593128642016,35.64102090522851],[139.80592763414677,35.64104533173667],[139.80590588179663,35.64104289306552],[139.80590975492095,35.64101846660828],[139.80593128642016,35.64102090522851]]]}},{"type":"Feature","properties":{"height":4.6,"gml_id":"bldg_6a2d0762-dc2a-4217-b26d-c0c22f117ad9"},"geometry":{"type":"Polygon","coordinates":[[[139.8007902482963,35.640749933742796],[139.80079456673312,35.640720369715716],[139.80084966049438,35.64073696993829],[139.80084711335036,35.64075535735962],[139.8007902482963,35.640749933742796]]]}},{"type":"Feature","properties":{"height":15.3,"gml_id":"bldg_e69dc919-5c74-4a47-8658-2c306a2b1c39"},"geometry":{"type":"Polygon","coordinates":[[[139.80128025279586,35.638933608200524],[139.80131667797076,35.63868988523678],[139.80128565145597,35.63868681230045],[139.8012927374122,35.63863886086687],[139.80154050777531,35.638663444002695],[139.80149699740244,35.63895520861729],[139.80128025279586,35.638933608200524]]]}},{"type":"Feature","properties":{"height":7.9,"gml_id":"bldg_93888130-3649-4f4f-98ff-942c5f19d33a"},"geometry":{"type":"Polygon","coordinates":[[[139.79992219664499,35.63842378023663],[139.7999053031201,35.63842251362027],[139.7999079628508,35.63839925880071],[139.7998506574416,35.63839482613248],[139.79985996575502,35.638315327161294],[139.80020777292313,35.638342194241915],[139.80019092954018,35.63848695094823],[139.79993123304422,35.63846686862053],[139.79993732778485,35.63841468051272],[139.79992341548922,35.638413595001026],[139.79992219664499,35.63842378023663]]]}},{"type":"Feature","properties":{"height":5.7,"gml_id":"bldg_2427036f-fd7d-4e3b-8384-0097df0becf7"},"geometry":{"type":"Polygon","coordinates":[[[139.8009390053228,35.640976940779844],[139.80096672040807,35.64097911243832],[139.8009583051293,35.6410366171801],[139.80099341779905,35.64104059267473],[139.80095899412694,35.64127214738288],[139.80089969983996,35.64126564241322],[139.8009390053228,35.640976940779844]]]}},{"type":"Feature","properties":{"height":21.7,"gml_id":"bldg_b2ba462a-d5f8-45c3-8c5c-7e86ee8b9902"},"geometry":{"type":"Polygon","coordinates":[[[139.80431570444512,35.639783971573614],[139.80418762056965,35.639773169183236],[139.80419370927257,35.63973026506287],[139.80421413639846,35.63973207275869],[139.80421668345787,35.639711702231196],[139.80432422967607,35.63972074195937],[139.80431570444512,35.639783971573614]]]}},{"type":"Feature","properties":{"height":10.0,"gml_id":"bldg_54503bdc-52c6-4a74-b477-d3b054714086"},"geometry":{"type":"Polygon","coordinates":[[[139.81130338117617,35.64122707097971],[139.81129519414614,35.6412844872482],[139.8112617371714,35.64128060519778],[139.8112715805128,35.641223369510456],[139.81130338117617,35.64122707097971]]]}},{"type":"Feature","properties":{"height":13.5,"gml_id":"bldg_52b40ed0-ab25-4c80-95fd-4785a9088913"},"geometry":{"type":"Polygon","coordinates":[[[139.8045995719486,35.63892462069751],[139.80484546781796,35.638947123417765],[139.80481928595205,35.63913766855782],[139.804573555814,35.639113272930246],[139.80458252317464,35.639048015295394],[139.8045995719486,35.63892462069751]]]}},{"type":"Feature","properties":{"height":12.1,"gml_id":"bldg_52dc2939-3aff-4f18-9950-c4e393c5652d"},"geometry":{"type":"Polygon","coordinates":[[[139.80041110296202,35.63768298192323],[139.80039637344575,35.63779015177711],[139.80036169327283,35.63781204578216],[139.80017244433174,35.63779468736972],[139.80016746056174,35.63783092050363],[139.79999113001284,35.63781473805565],[139.79999212684288,35.637807347029586],[139.80001427714421,35.63764654726872],[139.80041110296202,35.63768298192323]]]}},{"type":"Feature","properties":{"height":2.4,"gml_id":"bldg_cd902810-ec57-4863-825e-22cbd90d2463"},"geometry":{"type":"Polygon","coordinates":[[[139.80266960368382,35.638212326510974],[139.80270615102017,35.63821531035704],[139.8026986195938,35.63827552050802],[139.80266207226475,35.63827244652187],[139.80266960368382,35.638212326510974]]]}},{"type":"Feature","properties":{"height":15.8,"gml_id":"bldg_e9f16915-3f6a-4cce-946a-bfe496730508"},"geometry":{"type":"Polygon","coordinates":[[[139.8039053011297,35.64090757479763],[139.8037996414884,35.64086878969064],[139.80369231310425,35.640863895887165],[139.80327641064503,35.64071109941692],[139.80329353695095,35.64068189904623],[139.80331419896373,35.64064675046017],[139.8039300493394,35.640870263798625],[139.8039053011297,35.64090757479763]]]}},{"type":"Feature","properties":{"height":7.0,"gml_id":"bldg_72988854-38a7-4d67-bdb6-1316a58fe68e"},"geometry":{"type":"Polygon","coordinates":[[[139.80162543005733,35.63975602676652],[139.80170237610702,35.63979922300288],[139.8016496808249,35.63986176478679],[139.8015727347437,35.63981856851719],[139.80162543005733,35.63975602676652]]]}},{"type":"Feature","properties":{"height":15.3,"gml_id":"bldg_4caf3e7c-e07b-48b9-8656-4ef310d4e0a1"},"geometry":{"type":"Polygon","coordinates":[[[139.8038543181129,35.63961787078083],[139.80388070766608,35.639620310956865],[139.80387495082616,35.63966114197384],[139.80384867168007,35.639658701823585],[139.8038543181129,35.63961787078083]]]}},{"type":"Feature","properties":{"height":6.4,"gml_id":"bldg_b070f512-7875-4734-8279-6c593133be9b"},"geometry":{"type":"Polygon","coordinates":[[[139.80256103657317,35.63885588285413],[139.80258793404192,35.63868462787272],[139.80262768349976,35.638688243524385],[139.80259946098025,35.63885976858997],[139.80256103657317,35.63885588285413]]]}},{"type":"Feature","properties":{"height":7.5,"gml_id":"bldg_6fd18f52-4009-4827-b2a9-49625b9cd2b7"},"geometry":{"type":"Polygon","coordinates":[[[139.8018735962436,35.63962494133466],[139.80184521879625,35.639623491715106],[139.80184666119007,35.63960582508281],[139.80187503859588,35.6396073648398],[139.8018735962436,35.63962494133466]]]}},{"type":"Feature","properties":{"height":6.3,"gml_id":"bldg_61c96bbf-1e02-457d-9dde-b1dd5064eb6a"},"geometry":{"type":"Polygon","coordinates":[[[139.8007013728875,35.639357010339545],[139.80058490595067,35.639293071027225],[139.80061926356214,35.63925125642037],[139.80073584088558,35.63931519572979],[139.8007013728875,35.639357010339545]]]}},{"type":"Feature","properties":{"height":3.9,"gml_id":"bldg_6d1dcefc-366c-44e6-917c-d0dc064a86ed"},"geometry":{"type":"Polygon","coordinates":[[[139.8042009620946,35.63769675766799],[139.8042019595496,35.63768657233417],[139.8041932367539,35.63768602939739],[139.80419600746768,35.6376577267882],[139.8042922894134,35.63766378927368],[139.80428664347195,35.63770425979912],[139.8042009620946,35.63769675766799]]]}},{"type":"Feature","properties":{"height":2.8,"gml_id":"bldg_f0fb2806-b7d7-42e6-8427-ef945c1d1d3c"},"geometry":{"type":"Polygon","coordinates":[[[139.80431115553736,35.63770606846392],[139.80429238515688,35.637704351321325],[139.80430688780652,35.63759943437938],[139.8043255477453,35.63760115149318],[139.80431115553736,35.63770606846392]]]}},{"type":"Feature","properties":{"height":9.8,"gml_id":"bldg_837eb6cf-fd3d-4582-a518-501c6c077044"},"geometry":{"type":"Polygon","coordinates":[[[139.80540678490775,35.63878771092747],[139.8052353099524,35.63877063500394],[139.80524217193016,35.63872493673133],[139.80541353637028,35.63874201261957],[139.80540678490775,35.63878771092747]]]}},{"type":"Feature","properties":{"height":16.5,"gml_id":"bldg_a1c84953-6177-4a41-b178-69b27ea27891"},"geometry":{"type":"Polygon","coordinates":[[[139.80481928595205,35.63913766855782],[139.80480638862338,35.63923176937776],[139.80427838038534,35.63917918297123],[139.80429243763183,35.63908535290022],[139.804573555814,35.639113272930246],[139.80481928595205,35.63913766855782]]]}},{"type":"Feature","properties":{"height":11.9,"gml_id":"bldg_54d489a9-d0ec-4056-bf99-542f77c4fd6a"},"geometry":{"type":"Polygon","coordinates":[[[139.80570011199518,35.63638596584505],[139.80569247468136,35.636440046803905],[139.80566685902957,35.63643760720146],[139.805651732548,35.63643616152077],[139.80562688977892,35.63643381222528],[139.80563463755215,35.63637973129593],[139.80570011199518,35.63638596584505]]]}},{"type":"Feature","properties":{"height":13.7,"gml_id":"bldg_abc798fa-2534-421b-a29e-4221b071ca44"},"geometry":{"type":"Polygon","coordinates":[[[139.8051541422525,35.640056251579566],[139.80471368827114,35.640014323797615],[139.8047441300854,35.63980070444263],[139.80518458291064,35.63984263211421],[139.8051541422525,35.640056251579566]]]}},{"type":"Feature","properties":{"height":2.5,"gml_id":"bldg_7d2b2a9a-816c-42f7-880b-239bc17d826f"},"geometry":{"type":"Polygon","coordinates":[[[139.80579733992417,35.63813664521996],[139.80577349051248,35.63813393563101],[139.80577802684985,35.63810716573443],[139.80580187625375,35.63810987532248],[139.80579733992417,35.63813664521996]]]}},{"type":"Feature","properties":{"height":2.1,"gml_id":"bldg_368824c9-9e73-45c4-be31-29b08eb4060e"},"geometry":{"type":"Polygon","coordinates":[[[139.80518534430686,35.63956068124646],[139.8051600587139,35.639558872579045],[139.8051623850038,35.639537600601216],[139.80518767059007,35.63953940926815],[139.80518534430686,35.63956068124646]]]}},{"type":"Feature","properties":{"height":6.9,"gml_id":"bldg_525d3fdd-e0ba-4e5a-9b08-98cb711fc1f5"},"geometry":{"type":"Polygon","coordinates":[[[139.8040937686725,35.639151736406134],[139.80406307309838,35.639148754403486],[139.80406584072097,35.6391291951711],[139.8040965362877,35.63913217717303],[139.8040937686725,35.639151736406134]]]}},{"type":"Feature","properties":{"height":4.5,"gml_id":"bldg_b122404c-a066-447a-af49-eaebfcc79b19"},"geometry":{"type":"Polygon","coordinates":[[[139.80199372867656,35.641503894852114],[139.80197983510269,35.64148170833016],[139.80197591904306,35.64147159385242],[139.8019732633646,35.64145748659926],[139.80205823248048,35.64148901184324],[139.80204572625385,35.641505324434],[139.80204502776712,35.64154089171689],[139.80203438459336,35.64153679669689],[139.8020125151604,35.64152309007065],[139.80199372867656,35.641503894852114]]]}},{"type":"Feature","properties":{"height":24.3,"gml_id":"bldg_66fa2d23-65ac-4ce5-9559-e8c48a55f2c4"},"geometry":{"type":"Polygon","coordinates":[[[139.80086123529543,35.6383285810822],[139.8008565838241,35.638362922338196],[139.80064359433848,35.63834348509427],[139.80066729414506,35.638170877592934],[139.8008802831785,35.63819031479528],[139.8008675477423,35.638282612494415],[139.80090806977947,35.638286409197576],[139.80090164697302,35.63833228852129],[139.80086123529543,35.6383285810822]]]}},{"type":"Feature","properties":{"height":9.5,"gml_id":"bldg_61e74a2e-29b6-4c4a-9bbf-32472188c713"},"geometry":{"type":"Polygon","coordinates":[[[139.80191295884165,35.63920752343018],[139.80179735383157,35.639196225993864],[139.80182215418975,35.63902722408983],[139.8019377589247,35.63903861164032],[139.80191295884165,35.63920752343018]]]}},{"type":"Feature","properties":{"height":20.9,"gml_id":"bldg_10cc7fea-e762-48d1-ad0f-8d1ec98e0149"},"geometry":{"type":"Polygon","coordinates":[[[139.80504598356416,35.6380236185631],[139.80518565804843,35.638036180439876],[139.80518787222564,35.638019595596994],[139.80524650236515,35.63802492741361],[139.8052163908202,35.63824711012951],[139.8050180856831,35.638229215488124],[139.80504598356416,35.6380236185631]]]}},{"type":"Feature","properties":{"height":13.5,"gml_id":"bldg_a5392a7c-d299-45c2-9997-725cb23069ce"},"geometry":{"type":"Polygon","coordinates":[[[139.80073500035664,35.64070513835194],[139.8006986242697,35.6409573159947],[139.80039010597002,35.64092766682031],[139.80042650513397,35.64067539913824],[139.80073500035664,35.64070513835194]]]}},{"type":"Feature","properties":{"height":4.9,"gml_id":"bldg_e1a3c015-17e9-415b-bab8-416c0da8e08d"},"geometry":{"type":"Polygon","coordinates":[[[139.8057275427005,35.638174126580076],[139.80575139233937,35.63817620521338],[139.80573744279042,35.63828337589184],[139.80571359312003,35.638281297255816],[139.8057275427005,35.638174126580076]]]}},{"type":"Feature","properties":{"height":7.6,"gml_id":"bldg_2f7f5569-3dd1-4f62-8941-b459aeb109fc"},"geometry":{"type":"Polygon","coordinates":[[[139.8012679422533,35.638792358969816],[139.80110320312366,35.63877681130008],[139.8010933475479,35.63884720629585],[139.80105249396124,35.63884340956645],[139.80107275845668,35.638699645180125],[139.80127835095223,35.638718989558335],[139.8012679422533,35.638792358969816]]]}},{"type":"Feature","properties":{"height":13.9,"gml_id":"bldg_28224257-4496-4a64-b589-739a3f9b295e"},"geometry":{"type":"Polygon","coordinates":[[[139.8038989878054,35.63794888990763],[139.8039033056729,35.63791734272265],[139.8042282551407,35.63794644605542],[139.80425408390283,35.63797142047177],[139.8042052606591,35.63832664184552],[139.80368929154926,35.63828171747591],[139.80373346965658,35.63795317596503],[139.80383361549133,35.637962124176795],[139.8038965517015,35.63796772811842],[139.8038989878054,35.63794888990763]]]}},{"type":"Feature","properties":{"height":8.2,"gml_id":"bldg_b7222c7f-0809-47cd-9927-7ede00b20fee"},"geometry":{"type":"Polygon","coordinates":[[[139.80544639959706,35.63822625162238],[139.80547356167,35.63822869162878],[139.8054669194205,35.63827808561998],[139.80543975733107,35.6382756456121],[139.80544639959706,35.63822625162238]]]}},{"type":"Feature","properties":{"height":11.4,"gml_id":"bldg_d3323e45-e3f8-4c50-bdf3-c65ed4105896"},"geometry":{"type":"Polygon","coordinates":[[[139.80589632334122,35.63702508803352],[139.80590141455343,35.63698984529643],[139.80598455562972,35.636997706193476],[139.80597946445351,35.63703294893403],[139.80589632334122,35.63702508803352]]]}},{"type":"Feature","properties":{"height":9.7,"gml_id":"bldg_ca9e95c9-421c-4eea-850f-a7c018bfea13"},"geometry":{"type":"Polygon","coordinates":[[[139.8045995719486,35.63892462069751],[139.80458252317464,35.639048015295394],[139.8045488462311,35.63904521298049],[139.8045668888947,35.63892163834906],[139.8045995719486,35.63892462069751]]]}},{"type":"Feature","properties":{"height":9.7,"gml_id":"bldg_07ead962-973a-48d1-a952-913dd1b06eec"},"geometry":{"type":"Polygon","coordinates":[[[139.80650022878325,35.63856784291364],[139.80587340125635,35.638508661379284],[139.80590007634228,35.638320910374425],[139.80652679200435,35.63838009174661],[139.80650022878325,35.63856784291364]]]}},{"type":"Feature","properties":{"height":17.9,"gml_id":"bldg_18737cde-6c79-45d4-b6ed-c20fb781ac06"},"geometry":{"type":"Polygon","coordinates":[[[139.8015326773636,35.63780370737643],[139.8015461863813,35.637707624014624],[139.80164787729828,35.63771711527849],[139.80161277559657,35.63796841030822],[139.80121782506885,35.63793161956228],[139.8012355425444,35.63780507077303],[139.80152880138476,35.63783237018294],[139.8015326773636,35.63780370737643]]]}},{"type":"Feature","properties":{"height":3.2,"gml_id":"bldg_95dd035b-26fc-4fb5-91fa-39a5a4d8535a"},"geometry":{"type":"Polygon","coordinates":[[[139.80066676877388,35.64160530784176],[139.8006254834112,35.641600879887434],[139.8006323355616,35.641559238096754],[139.80067353256487,35.64156366602482],[139.80066676877388,35.64160530784176]]]}},{"type":"Feature","properties":{"height":2.6,"gml_id":"bldg_3f09d0e6-136a-4df2-b59e-9289dcff6fdc"},"geometry":{"type":"Polygon","coordinates":[[[139.80467684758366,35.640830512739925],[139.80464372522053,35.6408186968056],[139.80466416686397,35.64078066352702],[139.80469728921443,35.64079247945579],[139.80467684758366,35.640830512739925]]]}},{"type":"Feature","properties":{"height":7.5,"gml_id":"bldg_995a52a7-0c3a-4668-84b3-8aa3381e3587"},"geometry":{"type":"Polygon","coordinates":[[[139.80068554960027,35.638352780668285],[139.80068322300193,35.63837197939362],[139.80063717996785,35.63836827125422],[139.8006395065771,35.63834907252979],[139.80068554960027,35.638352780668285]]]}},{"type":"Feature","properties":{"height":3.3,"gml_id":"bldg_aec5a33c-5f4a-4673-abee-64ea312a0c4c"},"geometry":{"type":"Polygon","coordinates":[[[139.80611590556853,35.637784458986104],[139.80606754415237,35.63777985101988],[139.8060735207912,35.637738388969964],[139.80608478302878,35.63773947317205],[139.80608810357498,35.637715857811116],[139.80612520271814,35.637719381571856],[139.80611590556853,35.637784458986104]]]}},{"type":"Feature","properties":{"height":8.8,"gml_id":"bldg_7dc7e249-9d48-445b-a91c-09689950ce7f"},"geometry":{"type":"Polygon","coordinates":[[[139.80554957125207,35.63715102125794],[139.80558214323608,35.63715391317707],[139.80557904336706,35.63717761871493],[139.80564860388293,35.637183854232745],[139.8056375337972,35.63726614753558],[139.80553518038155,35.63725692989972],[139.80554957125207,35.63715102125794]]]}},{"type":"Feature","properties":{"height":15.3,"gml_id":"bldg_70ebc692-040c-4925-9337-508eac69b0ec"},"geometry":{"type":"Polygon","coordinates":[[[139.8007362711661,35.640702777085856],[139.80070293611746,35.640699613237736],[139.8007064686842,35.6406747361656],[139.800739825807,35.64067790001873],[139.8007362711661,35.640702777085856]]]}},{"type":"Feature","properties":{"height":2.1,"gml_id":"bldg_9577203f-a6ba-41d0-a827-8859980e16a9"},"geometry":{"type":"Polygon","coordinates":[[[139.81226108271852,35.64162033317708],[139.812163581315,35.64161220368091],[139.81216590497667,35.64159408639642],[139.81226329593542,35.64160221587142],[139.81226108271852,35.64162033317708]]]}},{"type":"Feature","properties":{"height":4.2,"gml_id":"bldg_7fcf5b7e-bc27-41be-8900-def0c666ab2e"},"geometry":{"type":"Polygon","coordinates":[[[139.8052907674345,35.63774487949],[139.80508881973768,35.63772698501718],[139.80509579453658,35.637674436296145],[139.80529774210277,35.63769233075737],[139.8052907674345,35.63774487949]]]}},{"type":"Feature","properties":{"height":11.7,"gml_id":"bldg_1703f35a-318c-46db-b122-c7b36e64adb4"},"geometry":{"type":"Polygon","coordinates":[[[139.80089067659023,35.641324553133124],[139.80066889039193,35.6413031665959],[139.80071495599375,35.64095659931606],[139.8009379675147,35.6409765438945],[139.80089067659023,35.641324553133124]]]}},{"type":"Feature","properties":{"height":16.3,"gml_id":"bldg_b5053690-dbae-4e09-a968-0706e5cf04f8"},"geometry":{"type":"Polygon","coordinates":[[[139.80243951860393,35.63842968014858],[139.8020321990359,35.63839162697251],[139.80203752116213,35.63833511194121],[139.8020607084524,35.63833665030615],[139.80236313418686,35.638364130338154],[139.80237775086937,35.638256689810895],[139.80246255026165,35.638261759291005],[139.80243951898552,35.63842868863266],[139.80243951860393,35.63842968014858]]]}},{"type":"Feature","properties":{"height":11.8,"gml_id":"bldg_c1bc9128-81e3-4d8d-aca0-67258229b082"},"geometry":{"type":"Polygon","coordinates":[[[139.8058069970555,35.637022633932965],[139.80586374942408,35.637027965020785],[139.8058633067702,35.6370308493308],[139.8058602076368,35.63705266198188],[139.80585622319293,35.63708024325275],[139.80588559310317,35.63708304422157],[139.80586987626646,35.63719309894314],[139.80578375386565,35.637184876734004],[139.8058069970555,35.637022633932965]]]}},{"type":"Feature","properties":{"height":3.6,"gml_id":"bldg_9b463c0c-8d60-4c7d-955e-3651c2271519"},"geometry":{"type":"Polygon","coordinates":[[[139.80614615011712,35.64107386479416],[139.80616227122107,35.64107549091176],[139.80615906186438,35.641096492290956],[139.80614294075627,35.64109486617292],[139.80614615011712,35.64107386479416]]]}},{"type":"Feature","properties":{"height":21.3,"gml_id":"bldg_d60a3a84-d2fa-46d6-bc44-c54bb56cd83b"},"geometry":{"type":"Polygon","coordinates":[[[139.80552313518024,35.639834778626394],[139.80632487345494,35.639910857086235],[139.80631624019313,35.639971608026734],[139.80551361704863,35.639898143301885],[139.80552313518024,35.639834778626394]]]}},{"type":"Feature","properties":{"height":5.2,"gml_id":"bldg_45d8473c-e23d-4c50-9786-c1e2ee86976e"},"geometry":{"type":"Polygon","coordinates":[[[139.80569408698204,35.638171144360065],[139.80571352001155,35.63817286143608],[139.8056836313478,35.63839270073132],[139.8056641982657,35.63839098365052],[139.80569408698204,35.638171144360065]]]}},{"type":"Feature","properties":{"height":6.0,"gml_id":"bldg_77d0c5bc-5361-49b9-b857-a3f8b50a5e84"},"geometry":{"type":"Polygon","coordinates":[[[139.80040041559332,35.640856190377384],[139.800394325147,35.640898192919146],[139.8003634083473,35.640894849362844],[139.80035842506203,35.64092964118294],[139.80033126234275,35.6409269296105],[139.80034322204793,35.640843915988235],[139.80037005351065,35.64084653732956],[139.8003691675066,35.64085293686975],[139.80040041559332,35.640856190377384]]]}},{"type":"Feature","properties":{"height":26.9,"gml_id":"bldg_85ce95f3-a33d-4616-abe7-cd6352a97f74"},"geometry":{"type":"Polygon","coordinates":[[[139.8015932418713,35.641293408419],[139.80157458127567,35.64129133033154],[139.80157159276797,35.64130926696127],[139.80144196239993,35.641294721429404],[139.80136600506364,35.64184327888202],[139.80141158613174,35.641847527445385],[139.80140849660825,35.64186943010444],[139.80136201005627,35.641865181299586],[139.80135481177962,35.64191727901896],[139.80133129245036,35.64191510856483],[139.80133051747327,35.6419201569753],[139.80128821580033,35.641916269804874],[139.80128768414835,35.641920325863005],[139.80125056115642,35.64191689074582],[139.80125134736062,35.64191139255138],[139.8011951438924,35.641906239716036],[139.80119570878423,35.641901913253875],[139.8011868641935,35.64190109965385],[139.80126837108105,35.6413122513096],[139.80141346107897,35.641325630236246],[139.80141956285533,35.64128164461771],[139.80139560169712,35.64128028620028],[139.8013904972627,35.641315348442156],[139.8013617885332,35.64131245641669],[139.8013655535283,35.641285776633865],[139.80136655067005,35.641277394085186],[139.80135847903247,35.64127676097837],[139.80135794724467,35.64128117758832],[139.80134170458874,35.64127991134661],[139.80133861337976,35.641306049579654],[139.80130017649662,35.64130297558096],[139.80130383295963,35.64127160860672],[139.80127357811725,35.64126925697577],[139.80127490595996,35.64126231672029],[139.80123405102773,35.641258789565256],[139.80125431372142,35.641120254098375],[139.80147746865075,35.64114203742784],[139.80147623974298,35.64115014860161],[139.8016176956241,35.64116596004141],[139.80161603536993,35.64117587475997],[139.80168802751692,35.64118418637067],[139.80168825993707,35.64118283436506],[139.80172899306697,35.64118717167274],[139.80176443239307,35.641203135352846],[139.80176377909248,35.64120773220835],[139.80177303214037,35.64120863601089],[139.80176187159606,35.64128480041018],[139.80175180144835,35.64128380535341],[139.8017466085474,35.641319588689434],[139.80174165071384,35.641319226838114],[139.8017402010554,35.6413271585823],[139.80170685331575,35.641327420244444],[139.80170000633174,35.64132940057623],[139.80166523573914,35.64132560655461],[139.80166754911954,35.641311545669545],[139.80164688990428,35.64130937693009],[139.80164424432718,35.64132578130956],[139.80157258307594,35.641318100724554],[139.8015757931422,35.641298361397716],[139.80159212393016,35.64130016755635],[139.8015932418713,35.641293408419]]]}},{"type":"Feature","properties":{"height":3.0,"gml_id":"bldg_f106c849-7caf-42a0-8234-1d1127afb7c6"},"geometry":{"type":"Polygon","coordinates":[[[139.80443383538253,35.64045016335379],[139.80437144910027,35.64044510065373],[139.8043775402274,35.64039534605727],[139.80443992643896,35.640400498892],[139.80443383538253,35.64045016335379]]]}},{"type":"Feature","properties":{"height":2.8,"gml_id":"bldg_84441f01-ec8e-4ff3-8ccf-b27f03edbfcd"},"geometry":{"type":"Polygon","coordinates":[[[139.8059262752591,35.63694018500351],[139.80592893205778,35.63692026514442],[139.80599043227485,35.63692559725265],[139.80598788590794,35.63694551713815],[139.8059262752591,35.63694018500351]]]}},{"type":"Feature","properties":{"height":10.7,"gml_id":"bldg_7d1b8cc5-96c2-4940-92fc-60a8498864ed"},"geometry":{"type":"Polygon","coordinates":[[[139.80412254725158,35.63896083150309],[139.80358935100423,35.63890968302126],[139.80361802571556,35.638704085741544],[139.80415210393568,35.638755324449356],[139.80412254725158,35.63896083150309]]]}},{"type":"Feature","properties":{"height":10.3,"gml_id":"bldg_13541dc7-f585-46c8-a9b0-75e22cb3f402"},"geometry":{"type":"Polygon","coordinates":[[[139.80645571588414,35.63893974162211],[139.80650652021683,35.63857514547834],[139.80667722251317,35.638590957492326],[139.80662641894574,35.63895555370747],[139.80645571588414,35.63893974162211]]]}},{"type":"Feature","properties":{"height":22.2,"gml_id":"bldg_5b8a56c1-5193-43d7-bd9b-bd000d4fbf97"},"geometry":{"type":"Polygon","coordinates":[[[139.8024831780964,35.63888948434375],[139.80247088755942,35.63897790639011],[139.80194553125318,35.63892873567273],[139.80202104714525,35.63839063255812],[139.8020321990359,35.63839162697251],[139.80243951860393,35.63842968014858],[139.8024557495547,35.63843121665318],[139.80246513479275,35.63843212043677],[139.80245505920024,35.63850359714578],[139.80240789100853,35.63884052020553],[139.80248904628488,35.6388479323142],[139.8024831780964,35.63888948434375]]]}},{"type":"Feature","properties":{"height":3.6,"gml_id":"bldg_2a0b5326-9cb9-4912-87f9-99e909c3103b"},"geometry":{"type":"Polygon","coordinates":[[[139.80641596652657,35.63959350227611],[139.8064220538737,35.63955104873029],[139.80644181842288,35.63955303617597],[139.8064355102456,35.639595489673475],[139.80641596652657,35.63959350227611]]]}},{"type":"Feature","properties":{"height":10.1,"gml_id":"bldg_5f25a844-8a59-4036-b38d-a9a786ae08e6"},"geometry":{"type":"Polygon","coordinates":[[[139.80125753104997,35.63887194788798],[139.80123638687408,35.639007239112665],[139.80103123619867,35.63898573147458],[139.80105249109758,35.638850530453006],[139.80125753104997,35.63887194788798]]]}},{"type":"Feature","properties":{"height":5.3,"gml_id":"bldg_bacd27f7-8f01-4a13-9e75-f6c077f58dfc"},"geometry":{"type":"Polygon","coordinates":[[[139.80527730514623,35.63961559662318],[139.80523291796274,35.63961053855959],[139.805237233282,35.639585030567694],[139.80528162045164,35.6395900886297],[139.80527730514623,35.63961559662318]]]}},{"type":"Feature","properties":{"height":2.9,"gml_id":"bldg_f63f9744-3f36-44d5-bbe5-fc7413e7820e"},"geometry":{"type":"Polygon","coordinates":[[[139.80427390439385,35.64086773324782],[139.80421715504073,35.64084689771555],[139.80422279028787,35.64083662337007],[139.80427953963522,35.640857458899745],[139.80427390439385,35.64086773324782]]]}},{"type":"Feature","properties":{"height":2.7,"gml_id":"bldg_4e53f455-349e-4405-8e92-834b5d9bc24d"},"geometry":{"type":"Polygon","coordinates":[[[139.8019337932148,35.638732322315676],[139.8019062998931,35.63872970114924],[139.80191227896387,35.6386876984866],[139.8019397722714,35.638690319651666],[139.8019337932148,35.638732322315676]]]}},{"type":"Feature","properties":{"height":36.9,"gml_id":"bldg_3d6849b1-a8a1-49f1-aabb-86eb0015bab8"},"geometry":{"type":"Polygon","coordinates":[[[139.80584005028533,35.63755463500527],[139.8058274322132,35.63764359816689],[139.80588915362787,35.6376494712038],[139.80586424999083,35.63782388223231],[139.8056558983878,35.6378040943554],[139.80565733736174,35.63779381897329],[139.80548387676876,35.63777728377201],[139.8055564865644,35.63726937383637],[139.80574209155003,35.63728708350843],[139.8057327940472,35.63735243131117],[139.80586716738543,35.63736517145983],[139.80585886626045,35.637423128196055],[139.80584005028533,35.63755463500527]]]}},{"type":"Feature","properties":{"height":15.2,"gml_id":"bldg_fd474757-5089-4ce0-894e-44be041fbfd2"},"geometry":{"type":"Polygon","coordinates":[[[139.80431570444512,35.639783971573614],[139.80433352902452,35.63965422250043],[139.80423062067834,35.639644823349876],[139.80425088105716,35.63949727265793],[139.8047566991907,35.63954345413631],[139.80471905829515,35.63981845563617],[139.80434706287596,35.63978672832662],[139.80431570444512,35.639783971573614]]]}},{"type":"Feature","properties":{"height":5.7,"gml_id":"bldg_b1460b9f-f0a0-4f2b-8690-beedc6412afa"},"geometry":{"type":"Polygon","coordinates":[[[139.80026806126466,35.640540680881],[139.8002413684461,35.640550210128815],[139.80022643989074,35.64052237057621],[139.80025313270144,35.640512842233036],[139.80026806126466,35.640540680881]]]}},{"type":"Feature","properties":{"height":8.2,"gml_id":"bldg_1642a5a3-2f93-4a50-9660-a4a4873bf382"},"geometry":{"type":"Polygon","coordinates":[[[139.80639329807494,35.63705764982666],[139.8063796849147,35.63715265206641],[139.80633010930856,35.63714795379566],[139.8063268995773,35.63717066781196],[139.80620202207015,35.637158741555474],[139.80620523171442,35.63713638809379],[139.80615676026665,35.63713178013818],[139.80617037380915,35.63703641737207],[139.80639329807494,35.63705764982666]]]}},{"type":"Feature","properties":{"height":2.7,"gml_id":"bldg_872edb60-89cb-4e1e-85f4-7fed69796c0b"},"geometry":{"type":"Polygon","coordinates":[[[139.80615536154227,35.637675671531234],[139.80615835084285,35.637651965955534],[139.80620671236994,35.63765603305841],[139.80620372308348,35.63767973863532],[139.80615536154227,35.637675671531234]]]}},{"type":"Feature","properties":{"height":3.1,"gml_id":"bldg_8641da0d-00f7-4a98-8829-b93d413012b4"},"geometry":{"type":"Polygon","coordinates":[[[139.80188453862297,35.63959745216213],[139.80180989708495,35.639590942729775],[139.80181621007944,35.63954245024347],[139.8018908515729,35.63954895967191],[139.80188453862297,35.63959745216213]]]}},{"type":"Feature","properties":{"height":16.4,"gml_id":"bldg_943271a4-aafa-46ba-8a24-fa8c36927329"},"geometry":{"type":"Polygon","coordinates":[[[139.80366952908068,35.64036669023847],[139.80361995141547,35.640362621818475],[139.80362238799097,35.64034288224301],[139.80353659327113,35.64033583030297],[139.80354855475733,35.64023884499585],[139.80365179538148,35.64024734343228],[139.80363972339742,35.64034486954904],[139.80367196544427,35.64034749148873],[139.80366952908068,35.64036669023847]]]}},{"type":"Feature","properties":{"height":3.1,"gml_id":"bldg_ee6bbbf7-9fe6-4937-9707-0dbac3966c6e"},"geometry":{"type":"Polygon","coordinates":[[[139.80126937060143,35.63770439582553],[139.80125634679447,35.63769069140779],[139.80127976123325,35.63767591503614],[139.80129278500587,35.63768970958921],[139.80126937060143,35.63770439582553]]]}},{"type":"Feature","properties":{"height":6.5,"gml_id":"bldg_846e6739-ab8a-4a65-88da-85fc99b18a55"},"geometry":{"type":"Polygon","coordinates":[[[139.80445376523656,35.64030008870995],[139.8046466642393,35.64031933415347],[139.8046414654192,35.640344571497224],[139.80444922920893,35.64032442482643],[139.80445376523656,35.64030008870995]]]}},{"type":"Feature","properties":{"height":9.8,"gml_id":"bldg_3a52d831-9ed9-4f33-a4b2-0ded2046511f"},"geometry":{"type":"Polygon","coordinates":[[[139.80189979128468,35.63899605669146],[139.80167862964774,35.63897454597673],[139.80170331959027,35.63880599475102],[139.80192448073424,35.6388275955586],[139.80189979128468,35.63899605669146]]]}},{"type":"Feature","properties":{"height":4.9,"gml_id":"bldg_79336e6a-68c1-44f0-bc49-3e35629dc578"},"geometry":{"type":"Polygon","coordinates":[[[139.80584005028533,35.63755463500527],[139.80585886626045,35.637423128196055],[139.8058843718153,35.63742556773225],[139.8058656662988,35.637557074570594],[139.80584005028533,35.63755463500527]]]}},{"type":"Feature","properties":{"height":18.7,"gml_id":"bldg_d4daad18-aaf8-4904-b083-3ec252b4dff7"},"geometry":{"type":"Polygon","coordinates":[[[139.80336322102244,35.63859044896497],[139.80358129162886,35.63860844044969],[139.80357475723235,35.63866153001031],[139.80360313403736,35.6386638806006],[139.80356226721815,35.63899341435897],[139.80352627159257,35.63899043090946],[139.80351707936003,35.63906425150255],[139.8031781019471,35.6390362243985],[139.8031506084127,35.63903378379174],[139.80309860219913,35.63903016523696],[139.803082481908,35.63902763733097],[139.80307155350738,35.6390193419073],[139.80306923881096,35.6390084346505],[139.8030697943065,35.63899942100883],[139.80307509753092,35.63899121980018],[139.80308095179814,35.63898581300183],[139.80308868285468,35.63898130805258],[139.80311993056114,35.63898392989082],[139.80312478647076,35.63899069144463],[139.8031268818278,35.63899763258164],[139.8031278719055,35.63900745785145],[139.80312278840483,35.63901863366533],[139.8031522691784,35.63902188601668],[139.80315691987548,35.638987093986316],[139.80316334208905,35.638939502829814],[139.80315064430525,35.63893832785726],[139.8031519729637,35.638928683444135],[139.80316991075307,35.63879600507444],[139.8032055690326,35.63881494293944],[139.80322816293216,35.638632599785545],[139.80323469742032,35.6385798707948],[139.80336322102244,35.63859044896497]]]}},{"type":"Feature","properties":{"height":23.1,"gml_id":"bldg_8654ec38-926a-4b14-834c-df454049e557"},"geometry":{"type":"Polygon","coordinates":[[[139.79992219664499,35.63842378023663],[139.79991654503203,35.63847245309156],[139.8001725978362,35.63849226403444],[139.8001492160915,35.63869398603121],[139.7998350322608,35.63852939755272],[139.7998506574416,35.63839482613248],[139.7999079628508,35.63839925880071],[139.7999053031201,35.63842251362027],[139.79992219664499,35.63842378023663]]]}},{"type":"Feature","properties":{"height":7.0,"gml_id":"bldg_ea533582-dcb4-444f-afcd-c9f6fa4a8051"},"geometry":{"type":"Polygon","coordinates":[[[139.80336381441705,35.64025430287443],[139.8032538382602,35.64024544195826],[139.80327056370714,35.640106994480995],[139.80338065006353,35.64011594554726],[139.80336381441705,35.64025430287443]]]}},{"type":"Feature","properties":{"height":9.0,"gml_id":"bldg_6ec71e51-1db3-4cb1-9e97-0762ca79bccb"},"geometry":{"type":"Polygon","coordinates":[[[139.80041110296202,35.63768298192323],[139.80001427714421,35.63764654726872],[139.80001671362552,35.637628971065425],[139.80002136530115,35.63759490025131],[139.80041819086688,35.63763133488261],[139.80041110296202,35.63768298192323]]]}},{"type":"Feature","properties":{"height":26.9,"gml_id":"bldg_a1d4bba7-46ca-4685-bf85-424b2ecf1014"},"geometry":{"type":"Polygon","coordinates":[[[139.80381282508125,35.639850145733654],[139.80384175428395,35.63985285695391],[139.80389254604083,35.639857556544264],[139.8039139589168,35.63988135815494],[139.80390565559148,35.63994075693616],[139.80389505556587,35.63993976283031],[139.8038939482511,35.639948235512726],[139.80383332935665,35.63994254200099],[139.8038430721118,35.639872507316866],[139.80381016789212,35.63986943457152],[139.80381282508125,35.639850145733654]]]}},{"type":"Feature","properties":{"height":16.3,"gml_id":"bldg_938e89a9-0694-4a72-9753-3ad549e71084"},"geometry":{"type":"Polygon","coordinates":[[[139.80535830687336,35.637215064995864],[139.8052065973001,35.63720547505705],[139.80521513094695,35.63711542934672],[139.805366840351,35.63712501927485],[139.80535830687336,35.637215064995864]]]}},{"type":"Feature","properties":{"height":4.0,"gml_id":"bldg_03a56be3-62f8-464a-add2-957002bc3145"},"geometry":{"type":"Polygon","coordinates":[[[139.80159338350646,35.641521637304635],[139.80145711544642,35.64150943272103],[139.80148092636884,35.641333039393096],[139.80161718305519,35.641345334084825],[139.80159338350646,35.641521637304635]]]}},{"type":"Feature","properties":{"height":15.3,"gml_id":"bldg_87f9cc23-9831-4c93-a6d1-6edc3cf89b3a"},"geometry":{"type":"Polygon","coordinates":[[[139.80350907252318,35.639513856907115],[139.80354174217504,35.63925598072663],[139.8039387994872,35.639289429262014],[139.80393204433253,35.63934278919561],[139.80396075264858,35.639345139782336],[139.8039620814144,35.63933495453411],[139.8040580333382,35.63934309029471],[139.80404795615513,35.639422499252966],[139.80399572907254,35.63941815992955],[139.8039786749468,35.63955336248266],[139.80350907252318,35.639513856907115]]]}},{"type":"Feature","properties":{"height":9.0,"gml_id":"bldg_9110324d-d38d-48f3-99aa-452107dcb9fb"},"geometry":{"type":"Polygon","coordinates":[[[139.80256103657317,35.63885588285413],[139.80248904628488,35.6388479323142],[139.80240789100853,35.63884052020553],[139.80245505920024,35.63850359714578],[139.80261118695572,35.63851499443169],[139.80259778594012,35.638620362123085],[139.8026390807488,35.638625240094775],[139.8026426139816,35.63862569168413],[139.80263397714128,35.63868887609324],[139.80262768349976,35.638688243524385],[139.80258793404192,35.63868462787272],[139.80256103657317,35.63885588285413]]]}},{"type":"Feature","properties":{"height":23.2,"gml_id":"bldg_17e40ba7-f8bd-400b-a670-fc77a5a736ca"},"geometry":{"type":"Polygon","coordinates":[[[139.80378169437213,35.637429216587336],[139.80379420459192,35.63733935223252],[139.80390616374166,35.63734983562423],[139.80394491128405,35.637072490951944],[139.80396920215043,35.63707475032172],[139.80391783420424,35.63744195934363],[139.80378169437213,35.637429216587336]]]}},{"type":"Feature","properties":{"height":7.0,"gml_id":"bldg_bb44a9d3-c875-44cb-935c-4ca46982f9b2"},"geometry":{"type":"Polygon","coordinates":[[[139.80019530947288,35.638308659544236],[139.80007562044273,35.63829753960632],[139.80008126854904,35.63825706928338],[139.80010456597347,35.638259148882206],[139.80020095755685,35.63826809907792],[139.80019530947288,35.638308659544236]]]}},{"type":"Feature","properties":{"height":3.0,"gml_id":"bldg_df247746-64bf-4a9f-970c-59a9d8a6f70e"},"geometry":{"type":"Polygon","coordinates":[[[139.80447153558887,35.64093502355072],[139.80440893386503,35.64091391629323],[139.80441412743664,35.64090355169507],[139.80447672915378,35.640924658949885],[139.80447153558887,35.64093502355072]]]}},{"type":"Feature","properties":{"height":3.1,"gml_id":"bldg_7b3e11d5-637d-4dfb-bf6d-56ee0cb25f4c"},"geometry":{"type":"Polygon","coordinates":[[[139.80193025680762,35.63873998310815],[139.80192770976328,35.63875891138543],[139.80186112938253,35.63875294491243],[139.80186367644242,35.63873401663656],[139.80193025680762,35.63873998310815]]]}},{"type":"Feature","properties":{"height":13.5,"gml_id":"bldg_6cd71a74-86e9-49de-a2ef-39401e6adfbf"},"geometry":{"type":"Polygon","coordinates":[[[139.80336322102244,35.63859044896497],[139.80323469742032,35.6385798707948],[139.80322816293216,35.638632599785545],[139.80315120307952,35.63862690184441],[139.8031670460984,35.63848556971286],[139.80337319212703,35.63850094459092],[139.80336322102244,35.63859044896497]]]}},{"type":"Feature","properties":{"height":30.6,"gml_id":"bldg_693e345a-fa65-447d-aa44-4f79b4ba2d62"},"geometry":{"type":"Polygon","coordinates":[[[139.80286924962908,35.63789617367194],[139.8028316019483,35.63817405906469],[139.80252509139706,35.638146308749974],[139.8025212159981,35.63817434062224],[139.80228470824963,35.63815300736714],[139.80228880543808,35.638122722113934],[139.80220500094634,35.638115128909405],[139.8022034508269,35.63812612532352],[139.80212207547032,35.63811871296469],[139.80212019289309,35.63813277397763],[139.8020568150755,35.63812698871776],[139.8020975659542,35.63782638963732],[139.80286924962908,35.63789617367194]]]}},{"type":"Feature","properties":{"height":5.7,"gml_id":"bldg_9c9aa167-1b50-421f-a880-d33d64dc17bd"},"geometry":{"type":"Polygon","coordinates":[[[139.80457285318064,35.637992499116045],[139.8045284667451,35.63798798161887],[139.8045341118086,35.63794967439166],[139.80457849835244,35.63795383133549],[139.80457285318064,35.637992499116045]]]}},{"type":"Feature","properties":{"height":9.6,"gml_id":"bldg_ff8bd2d1-8fb6-484b-9caa-a56883c4dcf2"},"geometry":{"type":"Polygon","coordinates":[[[139.81127460141926,35.64148143452479],[139.81205593382157,35.641555758466225],[139.81205294604493,35.64157973458679],[139.8112709507013,35.641506041469256],[139.81127460141926,35.64148143452479]]]}},{"type":"Feature","properties":{"height":9.1,"gml_id":"bldg_3c68c7da-de71-45cc-9217-60dc6baec16f"},"geometry":{"type":"Polygon","coordinates":[[[139.80153558887466,35.638537339897134],[139.80153481390786,35.63854247754824],[139.80158858575797,35.63854780986223],[139.80157928572578,35.63861063347027],[139.80152573467197,35.638605301210475],[139.80152462737567,35.63861314290824],[139.80130059618412,35.63859118005148],[139.80130159250766,35.638584780531325],[139.80124605398643,35.63857935748086],[139.80125568646855,35.6385141904035],[139.80131122494535,35.63851961344956],[139.80131188914794,35.63851537714865],[139.80153558887466,35.638537339897134]]]}},{"type":"Feature","properties":{"height":5.8,"gml_id":"bldg_8240d28b-fd46-4c62-8cb2-051da52a4a61"},"geometry":{"type":"Polygon","coordinates":[[[139.8012277203665,35.637761351840894],[139.80120641050402,35.63775945326491],[139.80120784997453,35.63774935821182],[139.8012290493806,35.63775134689593],[139.8012277203665,35.637761351840894]]]}},{"type":"Feature","properties":{"height":16.3,"gml_id":"bldg_83fc80ba-a333-4c7a-b919-4f6018f077d7"},"geometry":{"type":"Polygon","coordinates":[[[139.80391643307203,35.64036143265914],[139.8036506579371,35.64033721053169],[139.80366316952552,35.64024527306519],[139.80342279083314,35.64022340027012],[139.80345955098167,35.639953807244396],[139.80396570286266,35.639999811848554],[139.80391643307203,35.64036143265914]]]}},{"type":"Feature","properties":{"height":23.4,"gml_id":"bldg_64bdf486-48ba-479c-8da8-fdeb5bb1a917"},"geometry":{"type":"Polygon","coordinates":[[[139.80400305331375,35.63871382485364],[139.80364431421017,35.63868038597781],[139.8036965701809,35.638306056479145],[139.80378236238056,35.638314099822544],[139.80378369078684,35.6383049060905],[139.80405663600902,35.63833030146561],[139.80404456904935,35.63841619987653],[139.80403504811022,35.63848452202936],[139.80400958538974,35.63866632381429],[139.80400305331375,35.63871382485364]]]}},{"type":"Feature","properties":{"height":2.4,"gml_id":"bldg_4297994f-7412-4e2f-92df-277c41cd1c38"},"geometry":{"type":"Polygon","coordinates":[[[139.80138287004476,35.63745185977494],[139.8013638792393,35.63744942101482],[139.8013690799424,35.637421569803834],[139.80138807077734,35.637423918425334],[139.80138287004476,35.63745185977494]]]}},{"type":"Feature","properties":{"height":8.7,"gml_id":"bldg_54bb650c-0655-473c-9e9f-ce68a04e2328"},"geometry":{"type":"Polygon","coordinates":[[[139.80168227920083,35.6392400929249],[139.80160796934211,35.63923340317866],[139.80163787072752,35.6390104101081],[139.80171218041787,35.63901700969822],[139.80168227920083,35.6392400929249]]]}},{"type":"Feature","properties":{"height":23.6,"gml_id":"bldg_792608b7-d54c-49ef-a97f-075db34c675b"},"geometry":{"type":"Polygon","coordinates":[[[139.80028274427758,35.641272144005335],[139.80028718506233,35.64124095755266],[139.80054699924116,35.64126545588919],[139.80054002244003,35.641314848590554],[139.80058682878118,35.64131927897679],[139.80053887723875,35.641658364238005],[139.8004915075445,35.641653934581115],[139.80047468575415,35.64177246116218],[139.80005244374098,35.641732684619406],[139.80011966755632,35.641256775727314],[139.80028274427758,35.641272144005335]]]}},{"type":"Feature","properties":{"height":14.0,"gml_id":"bldg_ec8319b2-f7ea-41b2-a99f-f854780a3fab"},"geometry":{"type":"Polygon","coordinates":[[[139.8015326773636,35.63780370737643],[139.80152880138476,35.63783237018294],[139.8012355425444,35.63780507077303],[139.80123941826625,35.63777730935409],[139.8015326773636,35.63780370737643]]]}},{"type":"Feature","properties":{"height":12.7,"gml_id":"bldg_567a84c3-f31b-47dd-aac8-b325abba79cd"},"geometry":{"type":"Polygon","coordinates":[[[139.80198531710604,35.639687616233566],[139.80190273999855,35.639643337054316],[139.80191336991547,35.63956780434868],[139.80207005050056,35.63958244743955],[139.80198531710604,35.639687616233566]]]}},{"type":"Feature","properties":{"height":36.7,"gml_id":"bldg_ce866e59-08bd-4d63-8180-3dc91da88f09"},"geometry":{"type":"Polygon","coordinates":[[[139.80378169437213,35.637429216587336],[139.8037613240019,35.637574694053875],[139.8014706877861,35.63736120437275],[139.80157554949434,35.63661137535562],[139.80386682706163,35.63682495335895],[139.80383372540024,35.637062097923064],[139.80394491128405,35.637072490951944],[139.80390616374166,35.63734983562423],[139.80379420459192,35.63733935223252],[139.80378169437213,35.637429216587336]]]}},{"type":"Feature","properties":{"height":4.8,"gml_id":"bldg_8ee513a2-cf4c-4d63-9d12-45b023b3044f"},"geometry":{"type":"Polygon","coordinates":[[[139.8017361870164,35.6377791533025],[139.80167932404566,35.637773639965964],[139.80169105969907,35.63769405134457],[139.8017478121611,35.6376996547845],[139.8017361870164,35.6377791533025]]]}},{"type":"Feature","properties":{"height":4.2,"gml_id":"bldg_c74a271f-fd4f-4680-8223-7e57a9e30556"},"geometry":{"type":"Polygon","coordinates":[[[139.80433001409284,35.640214157659216],[139.80413578931703,35.64019779579642],[139.80414841363302,35.64009792617853],[139.80434274859073,35.64011428804769],[139.80433001409284,35.640214157659216]]]}},{"type":"Feature","properties":{"height":6.3,"gml_id":"bldg_e792ac23-8692-4efd-b1f0-a445bef33c90"},"geometry":{"type":"Polygon","coordinates":[[[139.80478704811415,35.63927971811029],[139.80471969447046,35.63927285165633],[139.8047251177945,35.63923706823435],[139.8047925818284,35.639243934711445],[139.80478704811415,35.63927971811029]]]}},{"type":"Feature","properties":{"height":27.7,"gml_id":"bldg_e9c6b17b-e9ac-40d1-9fd1-726552544407"},"geometry":{"type":"Polygon","coordinates":[[[139.80237775086937,35.638256689810895],[139.80236313418686,35.638364130338154],[139.8020607084524,35.63833665030615],[139.80207532553456,35.6382292098153],[139.80237775086937,35.638256689810895]]]}},{"type":"Feature","properties":{"height":15.2,"gml_id":"bldg_c663fb49-c719-4509-b257-dcc0c712f325"},"geometry":{"type":"Polygon","coordinates":[[[139.80474785585864,35.6380203933609],[139.804977407629,35.638041449729684],[139.80493169680452,35.638347096324864],[139.80467178066155,35.63832161589552],[139.80471671895612,35.63801759169528],[139.80474785585864,35.6380203933609]]]}},{"type":"Feature","properties":{"height":2.5,"gml_id":"bldg_ba976d57-dc69-4815-8d55-fa97db15a16b"},"geometry":{"type":"Polygon","coordinates":[[[139.8061106298786,35.63771261794197],[139.80611372878613,35.6376913461138],[139.80615347785076,35.63769514087811],[139.80615037892306,35.637716502845144],[139.8061106298786,35.63771261794197]]]}},{"type":"Feature","properties":{"height":27.8,"gml_id":"bldg_11721704-faef-4612-9134-94b2549d0277"},"geometry":{"type":"Polygon","coordinates":[[[139.80518278735073,35.63960998602776],[139.8051089187592,35.639602667580014],[139.80477700733175,35.63956923836447],[139.8048073336471,35.639368959345724],[139.80513858177093,35.63940229818556],[139.80513957779863,35.63939589863441],[139.80516155061395,35.63939806708264],[139.8051356508474,35.639573108640974],[139.8051874361274,35.63957825860708],[139.80518278735073,35.63960998602776]]]}},{"type":"Feature","properties":{"height":3.6,"gml_id":"bldg_dee08773-480f-40c4-a266-564131823178"},"geometry":{"type":"Polygon","coordinates":[[[139.80408884098853,35.63873556892535],[139.8040482078255,35.63873267464353],[139.80404986973437,35.638717261480885],[139.80409050288964,35.63872015576216],[139.80408884098853,35.63873556892535]]]}},{"type":"Feature","properties":{"height":30.0,"gml_id":"bldg_5a71de35-3c94-4082-8305-7a75f668948d"},"geometry":{"type":"Polygon","coordinates":[[[139.80323053331637,35.63908392041499],[139.8035423473977,35.63911284203456],[139.8034748109988,35.63959794699053],[139.8031629950576,35.63956902519756],[139.80317362408363,35.639492681139],[139.80323053331637,35.63908392041499]]]}},{"type":"Feature","properties":{"height":19.2,"gml_id":"bldg_4f2c0dee-0939-4ea8-8423-4da4e7f4b2c4"},"geometry":{"type":"Polygon","coordinates":[[[139.80505109064558,35.63982493383633],[139.80475208193616,35.63979628957742],[139.8047815263204,35.639592404851335],[139.80508042386063,35.63962104901188],[139.80505109064558,35.63982493383633]]]}},{"type":"Feature","properties":{"height":11.1,"gml_id":"bldg_1ca5c011-628c-4637-86c4-1ec94d77fcd9"},"geometry":{"type":"Polygon","coordinates":[[[139.80203588101827,35.63801052520934],[139.80166257237454,35.637972840164494],[139.80168670629203,35.63781357296432],[139.80194750286321,35.637839871306014],[139.80196377630642,35.63773234111356],[139.80207628753647,35.63774363758965],[139.80203588101827,35.63801052520934]]]}},{"type":"Feature","properties":{"height":9.1,"gml_id":"bldg_08d7d509-142f-4250-8dbd-a0f28148bae9"},"geometry":{"type":"Polygon","coordinates":[[[139.80593128642016,35.64102090522851],[139.80595032224565,35.640894265971355],[139.80611219547683,35.640910437324706],[139.80609371329882,35.64103329094547],[139.80608740485118,35.64107565427639],[139.80606217136128,35.64124402594043],[139.80590029746747,35.64122785452045],[139.80592763414677,35.64104533173667],[139.80593128642016,35.64102090522851]]]}},{"type":"Feature","properties":{"height":4.4,"gml_id":"bldg_74e6db4a-e35c-4363-8791-9cbe75d091c2"},"geometry":{"type":"Polygon","coordinates":[[[139.80518659371018,35.64040617408464],[139.80494787037495,35.640384484995735],[139.80496104450975,35.64028831107464],[139.80519976756253,35.64031000013765],[139.80518659371018,35.64040617408464]]]}},{"type":"Feature","properties":{"height":7.5,"gml_id":"bldg_c8e06c3e-9963-40cb-981a-5ba27e6f90bf"},"geometry":{"type":"Polygon","coordinates":[[[139.80640191021917,35.6370587334065],[139.80652115655576,35.6370700272378],[139.8065073221085,35.63716683219936],[139.80638807566027,35.637155448216674],[139.80640191021917,35.6370587334065]]]}},{"type":"Feature","properties":{"height":5.6,"gml_id":"bldg_b4bd2172-be79-44e0-8e68-72e0aeb213ce"},"geometry":{"type":"Polygon","coordinates":[[[139.80020837753622,35.63821491980307],[139.8002059409674,35.638232766422],[139.80015868369412,35.638228426800964],[139.80016123069169,35.638210580213396],[139.80020837753622,35.63821491980307]]]}},{"type":"Feature","properties":{"height":7.8,"gml_id":"bldg_8ad6b1ee-0dd0-4089-b74b-137ebb22a447"},"geometry":{"type":"Polygon","coordinates":[[[139.80328706431976,35.63968407204542],[139.80327521821943,35.63976717614293],[139.80310859972033,35.63975118005975],[139.8031008499862,35.639805080519736],[139.8029438376525,35.63979007813514],[139.8029635443417,35.639653073647054],[139.80328706431976,35.63968407204542]]]}},{"type":"Feature","properties":{"height":11.2,"gml_id":"bldg_d9173728-ed3c-4e39-82f5-3a2053efe7b9"},"geometry":{"type":"Polygon","coordinates":[[[139.8040623009827,35.63914650077061],[139.80356322151255,35.63909986735049],[139.8035891279946,35.63891554192409],[139.8041258580289,35.63896578988562],[139.80410570958293,35.639108923844],[139.80406805778884,35.6391053993277],[139.8040623009827,35.63914650077061]]]}},{"type":"Feature","properties":{"height":4.8,"gml_id":"bldg_cbe4fc41-8688-48ef-b85e-0c06d0447459"},"geometry":{"type":"Polygon","coordinates":[[[139.80190500390913,35.63865551738806],[139.8019006864165,35.63868399981167],[139.80184669361637,35.63867866757934],[139.80184558656254,35.63868596845312],[139.80182968686432,35.63868434181518],[139.8018305726925,35.638678032399675],[139.8018204145708,35.63867694808884],[139.80182484286428,35.63864756431889],[139.80190500390913,35.63865551738806]]]}},{"type":"Feature","properties":{"height":13.7,"gml_id":"bldg_5d9ffd5f-9b4c-43d3-8fce-1a755b000507"},"geometry":{"type":"Polygon","coordinates":[[[139.8063201251735,35.638927091997544],[139.8063742289494,35.63893215183604],[139.8063716831587,35.638950449242486],[139.80631757937059,35.63894538940287],[139.8063201251735,35.638927091997544]]]}},{"type":"Feature","properties":{"height":6.8,"gml_id":"bldg_516e93bd-bd8c-4b1c-ba6e-898f280f3b00"},"geometry":{"type":"Polygon","coordinates":[[[139.80400305331375,35.63871382485364],[139.80400958538974,35.63866632381429],[139.80403504811022,35.63848452202936],[139.80404456904935,35.63841619987653],[139.80407416025494,35.638418911202464],[139.80403264462763,35.6387165361897],[139.80400305331375,35.63871382485364]]]}},{"type":"Feature","properties":{"height":4.3,"gml_id":"bldg_4eabf981-0bed-4040-8d45-414911ff62da"},"geometry":{"type":"Polygon","coordinates":[[[139.80180430405602,35.64146093983806],[139.8017680757854,35.64145723470102],[139.80177583651843,35.64140612861579],[139.80181204268183,35.64140983374473],[139.80180430405602,35.64146093983806]]]}},{"type":"Feature","properties":{"height":15.5,"gml_id":"bldg_6e0ba5e8-172b-4e63-bd1b-a8538071cf2a"},"geometry":{"type":"Polygon","coordinates":[[[139.8048852159568,35.63864354864777],[139.80439497218794,35.63859818268629],[139.80443538008413,35.63830650639861],[139.8049256221266,35.63835178205921],[139.8048852159568,35.63864354864777]]]}},{"type":"Feature","properties":{"height":3.9,"gml_id":"bldg_240183b9-145b-42ff-a09e-45e8306e6707"},"geometry":{"type":"Polygon","coordinates":[[[139.80116829779453,35.64163608965288],[139.8010946484439,35.64162903921738],[139.80110760441966,35.641538183809075],[139.80118125372422,35.64154514409895],[139.80116829779453,35.64163608965288]]]}},{"type":"Feature","properties":{"height":3.3,"gml_id":"bldg_5ca7abd1-2dd5-4af3-96a0-ba8710aaf46f"},"geometry":{"type":"Polygon","coordinates":[[[139.80311250210602,35.63965112807887],[139.8030765061344,35.63964832477073],[139.80307894343326,35.63962696272368],[139.8031149393954,35.63962976603109],[139.80311250210602,35.63965112807887]]]}},{"type":"Feature","properties":{"height":28.5,"gml_id":"bldg_38611a10-e5bd-46e8-84a9-affc1b3da0d6"},"geometry":{"type":"Polygon","coordinates":[[[139.80139810553047,35.638012250709416],[139.80146678291945,35.63801893909629],[139.80143511806722,35.63823354887662],[139.80136831757355,35.63822695110778],[139.80136654560317,35.638240200897584],[139.80125966446585,35.63823052773941],[139.8012615471961,35.638216466740246],[139.8012019236343,35.63821059189233],[139.80119441547598,35.63820986878677],[139.80119485844853,35.6382066239433],[139.80120283021589,35.638152543375455],[139.80118483276178,35.63815073581707],[139.80120808350685,35.637993541652065],[139.8012274059067,35.637995439697974],[139.80139810553047,35.638012250709416]]]}},{"type":"Feature","properties":{"height":34.8,"gml_id":"bldg_c8706137-647b-4438-a44a-10fd25134faa"},"geometry":{"type":"Polygon","coordinates":[[[139.80381282508125,35.639850145733654],[139.80381016789212,35.63986943457152],[139.8038430721118,35.639872507316866],[139.80383332935665,35.63994254200099],[139.8034533847342,35.639907294610964],[139.80349933186557,35.6395775819226],[139.8038463708331,35.639609756433345],[139.80383740327466,35.63967375207787],[139.80381282508125,35.639850145733654]]]}},{"type":"Feature","properties":{"height":3.8,"gml_id":"bldg_1b4b3fa1-524c-46d0-9a0b-ff656475dadd"},"geometry":{"type":"Polygon","coordinates":[[[139.80254262924007,35.63934640811588],[139.80248620667916,35.639341165687355],[139.80248797745006,35.63933062001738],[139.80254439972703,35.63933658354744],[139.80254262924007,35.63934640811588]]]}},{"type":"Feature","properties":{"height":3.0,"gml_id":"bldg_771193d1-dc02-431d-ac12-ab97f874f105"},"geometry":{"type":"Polygon","coordinates":[[[139.8052792894602,35.63709732659962],[139.8052326949227,35.63709343981199],[139.8052349095373,35.637075502898114],[139.80528161451278,35.63707929957277],[139.8052792894602,35.63709732659962]]]}},{"type":"Feature","properties":{"height":9.7,"gml_id":"bldg_7ac11f49-ea18-4135-9202-f6bd0b2ab0a7"},"geometry":{"type":"Polygon","coordinates":[[[139.80598235814526,35.63826215922419],[139.80600471566146,35.63810649627428],[139.8067637063537,35.638179227026264],[139.80674135028892,35.63833489011579],[139.80598235814526,35.63826215922419]]]}},{"type":"Feature","properties":{"height":4.5,"gml_id":"bldg_84578943-802a-4026-97ed-eec3491449fe"},"geometry":{"type":"Polygon","coordinates":[[[139.8058511338514,35.638077527090736],[139.8058480344272,35.63810006084024],[139.80576157964634,35.63809228922959],[139.80576467912547,35.63806966534447],[139.8058511338514,35.638077527090736]]]}},{"type":"Feature","properties":{"height":14.8,"gml_id":"bldg_dced84d9-1c57-4e26-b0d1-a52d2ed30c5c"},"geometry":{"type":"Polygon","coordinates":[[[139.81211734009543,35.64109597648438],[139.81234855870153,35.64111792046888],[139.8122830681796,35.641577341302344],[139.81205593382157,35.641555758466225],[139.81127460141926,35.64148143452479],[139.81126720328675,35.64148071206753],[139.81129519414614,35.6412844872482],[139.81130338117617,35.64122707097971],[139.81133269951926,35.64102138191882],[139.81133899348663,35.641021743619355],[139.81211734009543,35.64109597648438]]]}},{"type":"Feature","properties":{"height":9.2,"gml_id":"bldg_cc20d8c5-e595-4169-a63e-645045956985"},"geometry":{"type":"Polygon","coordinates":[[[139.800605670931,35.63819492766513],[139.8005848511708,35.63834473106786],[139.80019530947288,35.638308659544236],[139.80020095755685,35.63826809907792],[139.80020372601547,35.63824872020749],[139.8002059409674,35.638232766422],[139.80020837753622,35.63821491980307],[139.80021624036883,35.638158856238675],[139.800605670931,35.63819492766513]]]}},{"type":"Feature","properties":{"height":9.3,"gml_id":"bldg_a889511f-51ef-4e3e-97db-4be148f4e88a"},"geometry":{"type":"Polygon","coordinates":[[[139.800605670931,35.63819492766513],[139.80021624036883,35.638158856238675],[139.80021956295624,35.63813451993955],[139.8006089933651,35.638170681493136],[139.800605670931,35.63819492766513]]]}},{"type":"Feature","properties":{"height":13.4,"gml_id":"bldg_6b8f18d1-7382-4679-99c0-719d1ed32b13"},"geometry":{"type":"Polygon","coordinates":[[[139.80468129812928,35.64011752387482],[139.80424183879546,35.640072980608416],[139.8042574453979,35.63997013714986],[139.80444769346155,35.63998938227298],[139.80447392887947,35.63980667924245],[139.80472523840868,35.63982810184873],[139.80468129812928,35.64011752387482]]]}},{"type":"Feature","properties":{"height":17.6,"gml_id":"bldg_a414d5ad-b9f6-448e-a4d7-ff7dc9d7f142"},"geometry":{"type":"Polygon","coordinates":[[[139.80586716738543,35.63736517145983],[139.8057327940472,35.63735243131117],[139.80574209155003,35.63728708350843],[139.80587646474956,35.63729991378464],[139.80586716738543,35.63736517145983]]]}},{"type":"Feature","properties":{"height":6.2,"gml_id":"bldg_68f7028e-d7f6-4f02-82ba-ceee2a25c7f9"},"geometry":{"type":"Polygon","coordinates":[[[139.800426549347,35.64067529098498],[139.80043342970203,35.64061877557067],[139.8006420962028,35.64063929456204],[139.80070338229905,35.640661394937155],[139.80069639845277,35.64070132408448],[139.800426549347,35.64067529098498]]]}},{"type":"Feature","properties":{"height":4.5,"gml_id":"bldg_4e42103b-9cf2-4596-b640-45b66461b7f1"},"geometry":{"type":"Polygon","coordinates":[[[139.80122439121385,35.6378029044932],[139.8012003210765,35.637800554491214],[139.80120607831293,35.63776179675991],[139.80123014843886,35.637764146760766],[139.80122439121385,35.6378029044932]]]}},{"type":"Feature","properties":{"height":7.9,"gml_id":"bldg_1b753733-6a58-43d3-85a6-52575527b4de"},"geometry":{"type":"Polygon","coordinates":[[[139.80240309426662,35.639826626583826],[139.80222321934514,35.63982612957303],[139.80214858996362,35.639787711572694],[139.80222294034712,35.63969128335115],[139.80226643732342,35.639713648752085],[139.80234410174052,35.639612984832446],[139.8023711493519,35.63962687300944],[139.8023813137534,35.639612002884185],[139.80250785354514,35.63961681263642],[139.80257022656002,35.63965450618336],[139.80254215977712,35.6397066887995],[139.8025123338792,35.63973895050456],[139.80240309426662,35.639826626583826]]]}},{"type":"Feature","properties":{"height":11.1,"gml_id":"bldg_0bce5953-2392-41ef-a2b7-6116555af27e"},"geometry":{"type":"Polygon","coordinates":[[[139.80474785585864,35.6380203933609],[139.80471671895612,35.63801759169528],[139.80470766496316,35.6380167783036],[139.8047133135104,35.637968465770044],[139.80475493965565,35.637972531855155],[139.80474785585864,35.6380203933609]]]}},{"type":"Feature","properties":{"height":8.0,"gml_id":"bldg_226bfbf4-ad2f-4179-b9cf-50f2719c5b7f"},"geometry":{"type":"Polygon","coordinates":[[[139.80020140725762,35.64065630033349],[139.8003679166682,35.64067221026828],[139.80033125130052,35.640926929607474],[139.80016476345332,35.64091101962848],[139.80020140725762,35.64065630033349]]]}},{"type":"Feature","properties":{"height":4.0,"gml_id":"bldg_539b079e-5866-429d-9c8e-e02977e81f7f"},"geometry":{"type":"Polygon","coordinates":[[[139.8037184816415,35.63787502278362],[139.80371427355618,35.63790810233227],[139.80367319935377,35.63790466698825],[139.80367729703792,35.63787158741384],[139.8037184816415,35.63787502278362]]]}},{"type":"Feature","properties":{"height":11.9,"gml_id":"bldg_46d36dcd-946c-4443-8df5-6d757b07255c"},"geometry":{"type":"Polygon","coordinates":[[[139.8044844822718,35.63809397317764],[139.8044859213361,35.63808387808571],[139.80468831162918,35.63810132298451],[139.80467635335276,35.63819407196269],[139.80447341135266,35.63817491429315],[139.8044844822718,35.63809397317764]]]}},{"type":"Feature","properties":{"height":3.3,"gml_id":"bldg_c28d931c-587e-488f-a267-869d72969379"},"geometry":{"type":"Polygon","coordinates":[[[139.80606074779,35.63698402251554],[139.80606882571692,35.636932465497566],[139.80616819713578,35.636942853799944],[139.80616011927165,35.636994410824535],[139.80606074779,35.63698402251554]]]}},{"type":"Feature","properties":{"height":2.7,"gml_id":"bldg_c0d59864-9c99-4af9-a74b-851187abbe31"},"geometry":{"type":"Polygon","coordinates":[[[139.80172786334234,35.63872803198293],[139.80173207104744,35.63869810733187],[139.80184601925774,35.638708863571615],[139.80184181159453,35.63873878822661],[139.80172786334234,35.63872803198293]]]}},{"type":"Feature","properties":{"height":5.2,"gml_id":"bldg_5ca442f1-df79-4211-8a14-08af487922e0"},"geometry":{"type":"Polygon","coordinates":[[[139.80528647505582,35.63707299105564],[139.80522773506587,35.63706801978352],[139.80523902899577,35.636978245126954],[139.80529776892075,35.6369832163936],[139.80528647505582,35.63707299105564]]]}},{"type":"Feature","properties":{"height":11.7,"gml_id":"bldg_bbad8417-c21b-48cb-abc4-c36462fca901"},"geometry":{"type":"Polygon","coordinates":[[[139.80469195957826,35.638089696072356],[139.8044417597465,35.63806809338218],[139.80445128213844,35.63799463333654],[139.80470148174385,35.6380162360071],[139.80469195957826,35.638089696072356]]]}},{"type":"Feature","properties":{"height":9.5,"gml_id":"bldg_62ead6c5-b2d8-4fe7-a68b-5fd8dbce9a3f"},"geometry":{"type":"Polygon","coordinates":[[[139.80500858881263,35.63823173801586],[139.8049598958721,35.638227309802915],[139.8049817051168,35.63806641891933],[139.8050302875746,35.63807075695974],[139.80500858881263,35.63823173801586]]]}},{"type":"Feature","properties":{"height":2.2,"gml_id":"bldg_51c5b7aa-f86e-4345-aa71-0839b85f1959"},"geometry":{"type":"Polygon","coordinates":[[[139.8008201337285,35.63839247771066],[139.80078248237893,35.63838904230503],[139.80078436515998,35.63837507145154],[139.80082201650308,35.638378506856604],[139.8008201337285,35.63839247771066]]]}},{"type":"Feature","properties":{"height":10.5,"gml_id":"bldg_e856c218-cf84-44e8-8a10-0e656f23dd3b"},"geometry":{"type":"Polygon","coordinates":[[[139.8044844822718,35.63809397317764],[139.80447341135266,35.63817491429315],[139.80443090160824,35.63817129858803],[139.80444274530228,35.63809089848865],[139.8044844822718,35.63809397317764]]]}},{"type":"Feature","properties":{"height":10.3,"gml_id":"bldg_b7e0eea1-0d6a-4223-887a-650cddb35bfe"},"geometry":{"type":"Polygon","coordinates":[[[139.8038989878054,35.63794888990763],[139.8038965517015,35.63796772811842],[139.80383361549133,35.637962124176795],[139.8038352756698,35.63795148831963],[139.8038362722801,35.63794373671045],[139.8038989878054,35.63794888990763]]]}},{"type":"Feature","properties":{"height":3.4,"gml_id":"bldg_1f547b02-700e-46e3-af6f-09a7c6aa1772"},"geometry":{"type":"Polygon","coordinates":[[[139.80114884525065,35.63867947466249],[139.80111141487973,35.638675318316295],[139.80111894138477,35.63863043169652],[139.80115637173515,35.63863458804038],[139.80114884525065,35.63867947466249]]]}},{"type":"Feature","properties":{"height":15.5,"gml_id":"bldg_7664715e-42cd-48ae-872e-a49b0999c2af"},"geometry":{"type":"Polygon","coordinates":[[[139.80650652021683,35.63857514547834],[139.80645571588414,35.63893974162211],[139.8063742289494,35.63893215183604],[139.8063201251735,35.638927091997544],[139.80568468224251,35.63886799768959],[139.80573560041918,35.63850349203129],[139.80650652021683,35.63857514547834]]]}},{"type":"Feature","properties":{"height":12.2,"gml_id":"bldg_0919dbd7-cdc9-4c05-a6a9-23009e9bbb4e"},"geometry":{"type":"Polygon","coordinates":[[[139.80537742935098,35.6384248993975],[139.80494681005428,35.63838694080475],[139.8049661849409,35.63824083195775],[139.805396693076,35.63827870031838],[139.80537742935098,35.6384248993975]]]}},{"type":"Feature","properties":{"height":17.4,"gml_id":"bldg_1767c14b-ba0d-4376-9a14-5e8c9ccfc84f"},"geometry":{"type":"Polygon","coordinates":[[[139.80154281869974,35.639798550034],[139.80115521582366,35.63958995838073],[139.80120305152676,35.639530660475174],[139.80159076466148,35.63973925200559],[139.80154281869974,35.639798550034]]]}},{"type":"Feature","properties":{"height":7.9,"gml_id":"bldg_8d06a8a5-2e40-4191-965c-3ef0cfa9a339"},"geometry":{"type":"Polygon","coordinates":[[[139.80316563677295,35.638416073100274],[139.80309916730818,35.63840929609867],[139.8031033723807,35.638384959942265],[139.80316973110223,35.63839254815423],[139.80316563677295,35.638416073100274]]]}},{"type":"Feature","properties":{"height":2.4,"gml_id":"bldg_b2e67a97-6e21-4d56-8bcd-1f1a20807b29"},"geometry":{"type":"Polygon","coordinates":[[[139.80403334812547,35.63769671701494],[139.8040061862107,35.63769445695932],[139.80400984052898,35.63766561374259],[139.80403700243411,35.63766787379738],[139.80403334812547,35.63769671701494]]]}},{"type":"Feature","properties":{"height":3.5,"gml_id":"bldg_4c695512-681d-45b5-a65e-b6e59d07ca37"},"geometry":{"type":"Polygon","coordinates":[[[139.8061317865144,35.641099550819185],[139.80615961196185,35.641102441508636],[139.8061547429107,35.641133357669105],[139.80612702787508,35.64113046700349],[139.8061317865144,35.641099550819185]]]}},{"type":"Feature","properties":{"height":9.7,"gml_id":"bldg_cd6e9845-90c3-4800-b069-166293cb2a0d"},"geometry":{"type":"Polygon","coordinates":[[[139.81211734009543,35.64109597648438],[139.81133899348663,35.641021743619355],[139.81134220175676,35.64099975058582],[139.812120105537,35.641077498725906],[139.81211734009543,35.64109597648438]]]}},{"type":"Feature","properties":{"height":3.9,"gml_id":"bldg_6392f55e-1cc0-4e6a-a2c0-75616c807352"},"geometry":{"type":"Polygon","coordinates":[[[139.8121482321097,35.64161373332448],[139.8120119732519,35.64160181109622],[139.81201518193546,35.64157765474031],[139.81215144075273,35.64158957696497],[139.8121482321097,35.64161373332448]]]}},{"type":"Feature","properties":{"height":1.9,"gml_id":"bldg_cde994cd-3ba8-4e37-b8f6-9e8c5c680357"},"geometry":{"type":"Polygon","coordinates":[[[139.80672310395303,35.63841718191843],[139.80673933492395,35.6384188981215],[139.8067347983817,35.6384472003959],[139.80671856740517,35.63844548419222],[139.80672310395303,35.63841718191843]]]}},{"type":"Feature","properties":{"height":14.7,"gml_id":"bldg_7818d237-ec8d-48b0-bb1e-41d5f3379fc4"},"geometry":{"type":"Polygon","coordinates":[[[139.803702454646,35.63791945679201],[139.80362253272193,35.638460264053656],[139.80318319299545,35.638416978874],[139.80318728887679,35.63838930758797],[139.80310525088822,35.638381264762984],[139.8031313763801,35.638203970218456],[139.8032131933534,35.63821201297057],[139.80321939263968,35.638169739880844],[139.80313349040225,35.63816124541963],[139.8031623832572,35.63796520288745],[139.80324464166233,35.63797324572902],[139.80324618906863,35.637969099775454],[139.80346337444882,35.63798754194312],[139.80347489158592,35.63789704641887],[139.803702454646,35.63791945679201]]]}},{"type":"Feature","properties":{"height":12.2,"gml_id":"bldg_82578d34-2c20-4b29-8981-4c52ec630c85"},"geometry":{"type":"Polygon","coordinates":[[[139.8046466642393,35.64031933415347],[139.80445376523656,35.64030008870995],[139.80439436076728,35.640294125358565],[139.8044221432416,35.6401088087242],[139.80467444617213,35.64013392732363],[139.8046466642393,35.64031933415347]]]}},{"type":"Feature","properties":{"height":38.4,"gml_id":"bldg_280bcd54-032f-4483-bc2b-c4e9dc8fffd8"},"geometry":{"type":"Polygon","coordinates":[[[139.80567476922664,35.64039853531688],[139.80570476005767,35.64020492621918],[139.8058211397735,35.64021694118333],[139.8058241276615,35.64019792279101],[139.80593310944886,35.64020912471711],[139.80593078546693,35.64022417720018],[139.80606306533605,35.64023781802697],[139.80606549980655,35.640222495153],[139.80617415036718,35.640233786923794],[139.8061719370034,35.64024838874743],[139.8063108420111,35.640262661760346],[139.8062677944726,35.6405405469086],[139.8061718415023,35.640530610153455],[139.80616896434984,35.640548907476024],[139.80610006371253,35.64054177103286],[139.80610294103334,35.640523023023],[139.80566259562616,35.64047758336407],[139.80566602633468,35.64045541025554],[139.80567476922664,35.64039853531688]]]}},{"type":"Feature","properties":{"height":15.9,"gml_id":"bldg_f30cb597-5aca-4708-94bf-8d08235d985c"},"geometry":{"type":"Polygon","coordinates":[[[139.80526759328038,35.63928514916353],[139.80525585986712,35.63936780279905],[139.8050162565598,35.63934521225943],[139.8050278797649,35.63926264875889],[139.80526759328038,35.63928514916353]]]}},{"type":"Feature","properties":{"height":8.1,"gml_id":"bldg_f1e8e8b1-ccb0-4f71-b277-d778b441fa2e"},"geometry":{"type":"Polygon","coordinates":[[[139.8007899058936,35.64075016800852],[139.80088427980706,35.640759162178284],[139.80088022681826,35.64078772575049],[139.80095630458698,35.640794957246214],[139.80093127886568,35.640969276990226],[139.80071749885235,35.64094884815536],[139.8007510624138,35.64071576092887],[139.80079425757037,35.640720324563326],[139.8007899058936,35.64075016800852]]]}},{"type":"Feature","properties":{"height":32.6,"gml_id":"bldg_61e8ab34-fe43-4adf-b774-53a1ef5c81da"},"geometry":{"type":"Polygon","coordinates":[[[139.80384175428395,35.63985285695391],[139.80381282508125,35.639850145733654],[139.80383740327466,35.63967375207787],[139.8038663324146,35.63967646329228],[139.80384175428395,35.63985285695391]]]}},{"type":"Feature","properties":{"height":10.3,"gml_id":"bldg_fb544ae8-43db-4007-8a91-98ead283a9d3"},"geometry":{"type":"Polygon","coordinates":[[[139.80166738786932,35.63948111750577],[139.80231221620022,35.63954591409945],[139.80230579935647,35.63957818178047],[139.80166251658224,35.6395135658347],[139.80166738786932,35.63948111750577]]]}},{"type":"Feature","properties":{"height":6.0,"gml_id":"bldg_d6558221-bc29-4818-a711-bde12c45c5ae"},"geometry":{"type":"Polygon","coordinates":[[[139.80077351082068,35.64153322742535],[139.80063723186117,35.641520930872154],[139.8006628066198,35.641329033586565],[139.80079908529402,35.641341239973265],[139.80077351082068,35.64153322742535]]]}},{"type":"Feature","properties":{"height":12.2,"gml_id":"bldg_1182f570-711c-4889-9a04-13811ac3675c"},"geometry":{"type":"Polygon","coordinates":[[[139.80194553125318,35.63892873567273],[139.80247088755942,35.63897790639011],[139.8024831780964,35.63888948434375],[139.80258630538205,35.63890077793804],[139.8025598498953,35.63907104150991],[139.80193202730237,35.63901256031877],[139.80194553125318,35.63892873567273]]]}},{"type":"Feature","properties":{"height":29.5,"gml_id":"bldg_34c369b0-7ff3-4d9d-81c8-3934ea591ae3"},"geometry":{"type":"Polygon","coordinates":[[[139.80519664723795,35.63913135750924],[139.805170699547,35.63912873744902],[139.80485866394312,35.63909991012994],[139.80490482695325,35.63876659139811],[139.80521686130973,35.63879532846081],[139.8051768990118,35.63908321930358],[139.805203398786,35.639085839491436],[139.80519664723795,35.63913135750924]]]}},{"type":"Feature","properties":{"height":9.0,"gml_id":"bldg_23f3d62a-2d4e-4f5d-96b3-38f04d0fe076"},"geometry":{"type":"Polygon","coordinates":[[[139.8012679422533,35.638792358969816],[139.80125797640082,35.638862753949574],[139.8010933475479,35.63884720629585],[139.80110320312366,35.63877681130008],[139.8012679422533,35.638792358969816]]]}},{"type":"Feature","properties":{"height":4.1,"gml_id":"bldg_8a98e3c3-9e78-46b2-ae4f-7c7a930be076"},"geometry":{"type":"Polygon","coordinates":[[[139.8052729181201,35.63984625823639],[139.80520026377138,35.63983939081676],[139.80520070674896,35.6398356952704],[139.8052107795911,35.63976557041344],[139.80521166526023,35.6397589905607],[139.8052844299577,35.63976585799923],[139.8052729181201,35.63984625823639]]]}},{"type":"Feature","properties":{"height":5.8,"gml_id":"bldg_b2426d51-7e16-4299-99e5-672f9083b717"},"geometry":{"type":"Polygon","coordinates":[[[139.8026390807488,35.638625240094775],[139.80259778594012,35.638620362123085],[139.80261118695572,35.63851499443169],[139.80265170943426,35.63851815958356],[139.8026390807488,35.638625240094775]]]}},{"type":"Feature","properties":{"height":29.3,"gml_id":"bldg_ebb616ae-88ce-439c-bb31-adaf2cb1dfac"},"geometry":{"type":"Polygon","coordinates":[[[139.80540630199133,35.63858886678992],[139.8049233467945,35.63854098080906],[139.80494249467554,35.638412538929146],[139.80532894651276,35.6384508478284],[139.8053166613171,35.638533140801805],[139.80541316401292,35.63854271781708],[139.80540630199133,35.63858886678992]]]}},{"type":"Feature","properties":{"height":4.1,"gml_id":"bldg_c1074aed-d001-46c9-b5ba-a2cdd7651cbf"},"geometry":{"type":"Polygon","coordinates":[[[139.80164313510352,35.63770251170233],[139.80160128838577,35.63769853462155],[139.8016040563441,35.63767951626821],[139.80164590305208,35.63768349334804],[139.80164313510352,35.63770251170233]]]}},{"type":"Feature","properties":{"height":5.3,"gml_id":"bldg_c4c3180a-9f83-4859-9494-53c28c839a11"},"geometry":{"type":"Polygon","coordinates":[[[139.8053615621421,35.63769622152068],[139.80532457314646,35.63769359892866],[139.80532734273834,35.637667369463294],[139.8053644421396,35.6376699920801],[139.8053615621421,35.63769622152068]]]}},{"type":"Feature","properties":{"height":13.9,"gml_id":"bldg_6fa68ca6-cf64-4bce-a746-56fe0144c026"},"geometry":{"type":"Polygon","coordinates":[[[139.80230579935647,35.63957818178047],[139.80231221620022,35.63954591409945],[139.80166738786932,35.63948111750577],[139.80169219246244,35.6393022906167],[139.80242557508527,35.63936990410566],[139.80243022577056,35.63933601348352],[139.80248620667916,35.639341165687355],[139.80254262924007,35.63934640811588],[139.80260468305113,35.63935210264364],[139.80257002561765,35.63960258675766],[139.80230579935647,35.63957818178047]]]}},{"type":"Feature","properties":{"height":15.8,"gml_id":"bldg_01c3725e-a90c-4fb1-9f9e-74eb6f2814cf"},"geometry":{"type":"Polygon","coordinates":[[[139.80439597778968,35.63887166106351],[139.80440782207725,35.6387899990477],[139.80442331968032,35.63868192752602],[139.8047827212144,35.638716536030564],[139.80486487019743,35.63872439746337],[139.80487591171885,35.63872548172617],[139.80485532056346,35.638875466185304],[139.80485000051283,35.638931620785705],[139.80439365310346,35.638887975449464],[139.80439597778968,35.63887166106351]]]}},{"type":"Feature","properties":{"height":4.9,"gml_id":"bldg_ee0e6b5c-a2a2-431d-89eb-437fb7100b77"},"geometry":{"type":"Polygon","coordinates":[[[139.8008075135302,35.641497360876386],[139.80078035053046,35.64149482968089],[139.80080082997182,35.64134124044449],[139.8008276617618,35.641343501132695],[139.8008075135302,35.641497360876386]]]}},{"type":"Feature","properties":{"height":1.5,"gml_id":"bldg_48cb574e-de4b-4cf2-809e-96243ac04cd5"},"geometry":{"type":"Polygon","coordinates":[[[139.8040816215641,35.637336267545656],[139.8040635137778,35.6373345505282],[139.80408166731763,35.63721070554779],[139.80409977507637,35.637212422562534],[139.8040816215641,35.637336267545656]]]}},{"type":"Feature","properties":{"height":14.6,"gml_id":"bldg_97b0444b-c037-4b8b-94dd-94e91b8d1d08"},"geometry":{"type":"Polygon","coordinates":[[[139.8039950527274,35.63915387571101],[139.8039782235512,35.639277991374364],[139.8036007107775,35.639244006967814],[139.80361743007722,35.63911998146734],[139.8039950527274,35.63915387571101]]]}},{"type":"Feature","properties":{"height":4.9,"gml_id":"bldg_4b1db5e0-b2a8-4096-bf4c-42a7d7e20520"},"geometry":{"type":"Polygon","coordinates":[[[139.80571093653288,35.63830031572744],[139.80573511749523,35.63830230430208],[139.80572315884797,35.63839956027235],[139.80569886743802,35.63839757166999],[139.80571093653288,35.63830031572744]]]}},{"type":"Feature","properties":{"height":2.7,"gml_id":"bldg_a9ce1c34-9440-4955-a6d4-b78167bbbfc8"},"geometry":{"type":"Polygon","coordinates":[[[139.80592228982792,35.636970740825696],[139.80592494662852,35.636950820966774],[139.80598644686876,35.63695615307703],[139.80598379008322,35.636976072937294],[139.80592228982792,35.636970740825696]]]}},{"type":"Feature","properties":{"height":3.0,"gml_id":"bldg_cd19f249-96a3-4c1c-9b6e-6508cad15816"},"geometry":{"type":"Polygon","coordinates":[[[139.80103344588005,35.63953133621807],[139.8010015417167,35.63951330009811],[139.80102374672083,35.63948707595508],[139.8010556508788,35.63950511206923],[139.80103344588005,35.63953133621807]]]}},{"type":"Feature","properties":{"height":8.0,"gml_id":"bldg_a202c6b8-819a-4a33-9f5c-75163355dc8e"},"geometry":{"type":"Polygon","coordinates":[[[139.80020372601547,35.63824872020749],[139.80020095755685,35.63826809907792],[139.80010456597347,35.638259148882206],[139.80010722403665,35.63823976998352],[139.80020372601547,35.63824872020749]]]}},{"type":"Feature","properties":{"height":9.7,"gml_id":"bldg_b976f4c8-b2f4-47e5-bea3-476f3c72e145"},"geometry":{"type":"Polygon","coordinates":[[[139.8052266973247,35.638770452719015],[139.80512511500388,35.63876114477873],[139.80512600047885,35.63875510575238],[139.80489291337835,35.63873359814502],[139.8049149429993,35.63857478050901],[139.80524950134063,35.638605595969466],[139.8052266973247,35.638770452719015]]]}},{"type":"Feature","properties":{"height":13.5,"gml_id":"bldg_f15dafc3-558c-4d2d-bab0-3dfc8a2c47bb"},"geometry":{"type":"Polygon","coordinates":[[[139.80465687342416,35.63832368551752],[139.8043983931446,35.63829748373745],[139.8044152165288,35.638187068942955],[139.80467358604005,35.63821327066096],[139.80465687342416,35.63832368551752]]]}},{"type":"Feature","properties":{"height":19.4,"gml_id":"bldg_3770e56b-d22f-4b7e-b7f9-197752293400"},"geometry":{"type":"Polygon","coordinates":[[[139.80477653004465,35.639358946750434],[139.80456828508224,35.63933933729744],[139.8045704991324,35.63932356370978],[139.80457138465536,35.63931752468809],[139.8046450322566,35.6393243927241],[139.8046462499033,35.639315920060135],[139.80478073683886,35.63932848116869],[139.80477653004465,35.639358946750434]]]}},{"type":"Feature","properties":{"height":14.9,"gml_id":"bldg_06acef1a-b6e6-44ad-b1aa-24cd30f32063"},"geometry":{"type":"Polygon","coordinates":[[[139.80440782207725,35.6387899990477],[139.80439597778968,35.63887166106351],[139.8043780904888,35.638869944146684],[139.80437521243448,35.638889773774],[139.80432596716386,35.63888498462117],[139.80434057913342,35.63878358309697],[139.80440782207725,35.6387899990477]]]}},{"type":"Feature","properties":{"height":2.9,"gml_id":"bldg_f964c288-13ed-453d-b876-85715fccc105"},"geometry":{"type":"Polygon","coordinates":[[[139.8058444489998,35.636962250130374],[139.80584699540285,35.63694233024798],[139.8059084956006,35.63694775253587],[139.80590594921262,35.636967672419566],[139.8058444489998,35.636962250130374]]]}},{"type":"Feature","properties":{"height":4.0,"gml_id":"bldg_4bea8e0d-6ee8-4c41-98f4-36629d891a6a"},"geometry":{"type":"Polygon","coordinates":[[[139.8017196834387,35.641582243102704],[139.80165253761018,35.641576186230466],[139.80168255066985,35.64135193133639],[139.80174968530628,35.64135789805138],[139.8017196834387,35.641582243102704]]]}},{"type":"Feature","properties":{"height":7.0,"gml_id":"bldg_0a7dea9a-61d8-4b0a-a662-75bbf6ad06ff"},"geometry":{"type":"Polygon","coordinates":[[[139.80035638937954,35.640509147855084],[139.80026859136603,35.64054049173716],[139.80023205889526,35.64047233843649],[139.8003002101361,35.640447657588126],[139.80030792258452,35.64046226292623],[139.8003274811113,35.640455238440815],[139.80035638937954,35.640509147855084]]]}},{"type":"Feature","properties":{"height":2.7,"gml_id":"bldg_88bae4db-0fcc-4bea-80a6-7cb507d0c811"},"geometry":{"type":"Polygon","coordinates":[[[139.80409999259174,35.63873755466415],[139.80410287083987,35.6387173644917],[139.804136326661,35.63872052742907],[139.80413344842117,35.638740717602325],[139.80409999259174,35.63873755466415]]]}},{"type":"Feature","properties":{"height":2.8,"gml_id":"bldg_63ab14f7-cfba-4e1c-9340-e74f56ea9654"},"geometry":{"type":"Polygon","coordinates":[[[139.80466044205644,35.64100708875464],[139.80460071184817,35.64098417952489],[139.80460866717897,35.640970390341444],[139.80466828695708,35.640993299541016],[139.80466044205644,35.64100708875464]]]}},{"type":"Feature","properties":{"height":27.6,"gml_id":"bldg_d5902e33-707c-4939-86e3-75f6ee0c06ed"},"geometry":{"type":"Polygon","coordinates":[[[139.80567476922664,35.64039853531688],[139.80566602633468,35.64045541025554],[139.80563422608242,35.640452157986694],[139.8056430794179,35.640395283075705],[139.80567476922664,35.64039853531688]]]}},{"type":"Feature","properties":{"height":8.5,"gml_id":"bldg_17b9a798-8dda-49e5-8600-f3dccc981fb7"},"geometry":{"type":"Polygon","coordinates":[[[139.80613711857944,35.64100571859179],[139.80617421918421,35.641009422611745],[139.80616514372596,35.641070984670584],[139.8061280430626,35.641067370785656],[139.80613711857944,35.64100571859179]]]}},{"type":"Feature","properties":{"height":9.6,"gml_id":"bldg_c57b5fb4-338c-4eac-bafd-231f52e4c271"},"geometry":{"type":"Polygon","coordinates":[[[139.80001190757145,35.638300947236054],[139.7999408008197,35.63829434748439],[139.7999427941259,35.63828046681232],[139.79988471628374,35.63827504243008],[139.79994352299767,35.63785546716765],[139.7999997235116,35.6378607107267],[139.8000013847199,35.637848812993006],[139.8000697307479,35.63785514153348],[139.80006818019157,35.63786649847168],[139.80019935155383,35.63787879336833],[139.80016158775973,35.63814811479984],[139.80008981865882,35.638141424815785],[139.80006844451304,35.63829447293894],[139.80001356867487,35.638289319916495],[139.80001190757145,35.638300947236054]]]}},{"type":"Feature","properties":{"height":9.0,"gml_id":"bldg_1d833aca-650a-4b7c-afe7-85b903a6f5b7"},"geometry":{"type":"Polygon","coordinates":[[[139.80129037143473,35.639033663864],[139.80125305740518,35.63929054668899],[139.8012267784966,35.639288015828875],[139.80126409260907,35.63903113301196],[139.80129037143473,35.639033663864]]]}},{"type":"Feature","properties":{"height":6.6,"gml_id":"bldg_8131d887-b8bd-4e2d-9533-7a12b8d36f59"},"geometry":{"type":"Polygon","coordinates":[[[139.80382346101172,35.63795130515022],[139.8037249716939,35.637941726372375],[139.8037347129368,35.637875387324314],[139.8038330917565,35.63788496606721],[139.80382346101172,35.63795130515022]]]}},{"type":"Feature","properties":{"height":37.8,"gml_id":"bldg_ef5d7d3e-21e0-46f3-af2c-618e0d0a9578"},"geometry":{"type":"Polygon","coordinates":[[[139.80641596652657,35.63959350227611],[139.806370254902,35.63991519386741],[139.80632487345494,35.639910857086235],[139.80552313518024,35.639834778626394],[139.8054826121421,35.63983098347626],[139.8055344150546,35.63946692885531],[139.8064220538737,35.63955104873029],[139.80641596652657,35.63959350227611]]]}},{"type":"Feature","properties":{"height":2.2,"gml_id":"bldg_a8b14118-ab4b-41a4-9829-10b46fd7c31e"},"geometry":{"type":"Polygon","coordinates":[[[139.80523582874287,35.63697301638562],[139.80523704913065,35.6369564313071],[139.80527171934983,35.63695815200764],[139.805270388521,35.63697482719862],[139.80523582874287,35.63697301638562]]]}},{"type":"Feature","properties":{"height":20.8,"gml_id":"bldg_63771f55-048e-4863-8ae0-62c3fa07c836"},"geometry":{"type":"Polygon","coordinates":[[[139.80139810553047,35.638012250709416],[139.8012274059067,35.637995439697974],[139.8012323866497,35.637965605404645],[139.80140352788317,35.63798241652613],[139.80139810553047,35.638012250709416]]]}},{"type":"Feature","properties":{"height":2.2,"gml_id":"bldg_e767d809-cccd-4c6e-9f84-db083dbd5b2f"},"geometry":{"type":"Polygon","coordinates":[[[139.80583477041108,35.63814043955918],[139.80580606259429,35.6381377288675],[139.80581026865536,35.63810807448378],[139.80583897646167,35.63811078517448],[139.80583477041108,35.63814043955918]]]}},{"type":"Feature","properties":{"height":5.3,"gml_id":"bldg_9c7958fb-9388-424a-bc64-dc48cf83a9e7"},"geometry":{"type":"Polygon","coordinates":[[[139.80537163686597,35.6376195165638],[139.8053338748569,35.637617254346516],[139.80533642414255,35.63758949248622],[139.80537407572115,35.63759175467708],[139.80537163686597,35.6376195165638]]]}}]}