{"type":"FeatureCollection","crs":{"type":"name","properties":{"name":"urn:ogc:def:crs:OGC:1.3:CRS84"}},"features":[{"type":"Feature","properties":{"height":3.0,"gml_id":"bldg_d956b904-961f-4d97-837d-fe210f666492"},"geometry":{"type":"Polygon","coordinates":[[[139.80130334843693,35.59458862144981],[139.8012876699279,35.59460772663923],[139.80124364655748,35.59458355781367],[139.8012592147139,35.59456445260053],[139.80130334843693,35.59458862144981]]]}},{"type":"Feature","properties":{"height":3.8,"gml_id":"bldg_080557f3-a291-490c-aebb-34cf802ef68b"},"geometry":{"type":"Polygon","coordinates":[[[139.81198057782217,35.59272701219286],[139.81206873963464,35.59277435049657],[139.8119319634275,35.592944237370595],[139.8118436911774,35.59289680880996],[139.81198057782217,35.59272701219286]]]}},{"type":"Feature","properties":{"height":6.6,"gml_id":"bldg_a40dfe38-8324-4793-9c76-b13866238740"},"geometry":{"type":"Polygon","coordinates":[[[139.80164617805573,35.600045602899264],[139.80145351978356,35.599943245008234],[139.80151347817866,35.5998679952921],[139.80170613634698,35.59997035308851],[139.80164617805573,35.600045602899264]]]}},{"type":"Feature","properties":{"height":8.5,"gml_id":"bldg_029c0adf-8ad8-4ed0-a669-22e2ba894fee"},"geometry":{"type":"Polygon","coordinates":[[[139.81201082703856,35.59268284967914],[139.81203267433372,35.592694751825434],[139.81200198537528,35.59273260457117],[139.81198002774246,35.592720612261324],[139.81201082703856,35.59268284967914]]]}},{"type":"Feature","properties":{"height":8.8,"gml_id":"bldg_fdb91255-c217-4926-aa77-3d6f1478e9b0"},"geometry":{"type":"Polygon","coordinates":[[[139.80161080113626,35.59187614872212],[139.80157931526796,35.591894364636374],[139.8015351934197,35.59184369515634],[139.8015666517187,35.5918254053326],[139.80161080113626,35.59187614872212]]]}},{"type":"Feature","properties":{"height":5.7,"gml_id":"bldg_c8ac44de-5bde-4d4f-a72e-dcc81bdcc237"},"geometry":{"type":"Polygon","coordinates":[[[139.81208982837921,35.59273361161008],[139.8120768019314,35.59275046521428],[139.81205241659657,35.592737931658405],[139.81206533269162,35.59272107803733],[139.81208982837921,35.59273361161008]]]}},{"type":"Feature","properties":{"height":2.7,"gml_id":"bldg_f280a8e4-9293-49c7-a5b1-9ed9b20f65a9"},"geometry":{"type":"Polygon","coordinates":[[[139.802173207623,35.59170432736713],[139.80215809612372,35.59168611547801],[139.8022107465538,35.59165674392721],[139.80222596837908,35.59167504597681],[139.802173207623,35.59170432736713]]]}},{"type":"Feature","properties":{"height":5.6,"gml_id":"bldg_bfaa33a8-9942-4fb6-baef-ccaac5a11c50"},"geometry":{"type":"Polygon","coordinates":[[[139.81220133149523,35.59214746046616],[139.81216699963545,35.592190901206635],[139.81210951261284,35.5921606045556],[139.81214384449072,35.59211716383129],[139.81220133149523,35.59214746046616]]]}},{"type":"Feature","properties":{"height":2.6,"gml_id":"bldg_a1f38415-80c8-4bd3-9fac-1b17f137a27d"},"geometry":{"type":"Polygon","coordinates":[[[139.80448205496668,35.59197991479991],[139.80450159265055,35.59196630855912],[139.80453854882435,35.59200174183148],[139.80451912149303,35.592015348104574],[139.80448205496668,35.59197991479991]]]}},{"type":"Feature","properties":{"height":5.6,"gml_id":"bldg_3b5e9e5c-eb45-4740-8d06-1f9dc766bd52"},"geometry":{"type":"Polygon","coordinates":[[[139.80742819382553,35.592677715303815],[139.8074670544871,35.59262976996389],[139.80748537034876,35.59263968912932],[139.8074759864014,35.59265122484548],[139.80751184579557,35.59267061231277],[139.8074823690966,35.592707021951014],[139.80742819382553,35.592677715303815]]]}},{"type":"Feature","properties":{"height":5.0,"gml_id":"bldg_903d75a3-e434-45d6-8e7c-47487556ba18"},"geometry":{"type":"Polygon","coordinates":[[[139.80108056582486,35.59973808091455],[139.8009367911876,35.599659712080154],[139.80096285029805,35.59962771994998],[139.80110673526897,35.59970608878317],[139.80108056582486,35.59973808091455]]]}},{"type":"Feature","properties":{"height":2.5,"gml_id":"bldg_7e40d802-1d49-4fbf-b02f-dda9e1074a25"},"geometry":{"type":"Polygon","coordinates":[[[139.81017266508755,35.59371216255345],[139.8102053260754,35.59372866416968],[139.81017452469996,35.59376931071504],[139.81014186370194,35.59375280909057],[139.81017266508755,35.59371216255345]]]}},{"type":"Feature","properties":{"height":4.5,"gml_id":"bldg_27a9dee5-219d-42b0-9490-44e8cb20468a"},"geometry":{"type":"Polygon","coordinates":[[[139.8009337224148,35.59988577926322],[139.8009500627514,35.59986487064539],[139.80096396591864,35.599872085452404],[139.80082880830838,35.60004529507269],[139.80080574672493,35.60003321030531],[139.8008111574607,35.60002627110912],[139.80082020552928,35.60003105088552],[139.8009337224148,35.59988577926322]]]}},{"type":"Feature","properties":{"height":2.8,"gml_id":"bldg_592ae593-9fd4-4bb1-9fa7-7fe3cd3e3879"},"geometry":{"type":"Polygon","coordinates":[[[139.8006131158555,35.59498531573712],[139.80059193130649,35.594974583505696],[139.80062340046987,35.594933128353674],[139.80064458504881,35.59494377044116],[139.8006131158555,35.59498531573712]]]}},{"type":"Feature","properties":{"height":3.7,"gml_id":"bldg_b0a89848-a49d-4b87-af02-baf1d65cbc48"},"geometry":{"type":"Polygon","coordinates":[[[139.8000720945167,35.59561974244396],[139.80009097588382,35.59559595109946],[139.80012440756278,35.59561371759321],[139.80010552620135,35.59563750894285],[139.8000720945167,35.59561974244396]]]}},{"type":"Feature","properties":{"height":7.6,"gml_id":"bldg_0243f7c6-7f5f-42f0-a454-895da7db8c0d"},"geometry":{"type":"Polygon","coordinates":[[[139.81245830995655,35.592295692969266],[139.81237081042943,35.59224889589308],[139.81242004483636,35.59218742997855],[139.8124068040759,35.59218030673751],[139.81241773279504,35.59216660758007],[139.81251858341304,35.592220437733545],[139.81245830995655,35.592295692969266]]]}},{"type":"Feature","properties":{"height":5.1,"gml_id":"bldg_755c9479-3b73-4ff1-ab06-748418880cf5"},"geometry":{"type":"Polygon","coordinates":[[[139.81153236002532,35.59336511255226],[139.8115427371488,35.593351864069625],[139.81156910864544,35.59336575016352],[139.81157363483254,35.59335998211689],[139.81159757883,35.593372605827255],[139.81158565625503,35.59338756666717],[139.8115666776008,35.59337755786777],[139.81156347618133,35.59338152338346],[139.81153236002532,35.59336511255226]]]}},{"type":"Feature","properties":{"height":3.4,"gml_id":"bldg_be005f18-9fd1-4f95-8e97-92ef66ecb3c5"},"geometry":{"type":"Polygon","coordinates":[[[139.80174186822532,35.59301672193804],[139.80176393144026,35.59303718915901],[139.8016935040642,35.59308818908216],[139.80167133046135,35.59306781195799],[139.80174186822532,35.59301672193804]]]}},{"type":"Feature","properties":{"height":2.7,"gml_id":"bldg_0842c2be-7552-4668-adb3-3d42bdd28c6c"},"geometry":{"type":"Polygon","coordinates":[[[139.812366940385,35.59524059179794],[139.81234586458143,35.595229771513154],[139.81236485282042,35.5952050768773],[139.8123497356256,35.5951973223377],[139.81236055452308,35.59518317248091],[139.8123746786007,35.59519047615411],[139.81237799048193,35.595186240221864],[139.8124000593943,35.59519751136598],[139.812366940385,35.59524059179794]]]}},{"type":"Feature","properties":{"height":8.6,"gml_id":"bldg_7912f6d0-b664-4b62-840e-26115a9b6925"},"geometry":{"type":"Polygon","coordinates":[[[139.81143581146216,35.59331524845933],[139.81147994760994,35.593339233311006],[139.81151174097909,35.59330002882458],[139.81153204361917,35.59331102939575],[139.81149991911198,35.59335050424297],[139.8115715301018,35.59338936688731],[139.81146831199183,35.593516353348114],[139.8113657018832,35.59346062188703],[139.81134727502362,35.5934506122524],[139.81133237244546,35.59344250518061],[139.81143581146216,35.59331524845933]]]}},{"type":"Feature","properties":{"height":3.0,"gml_id":"bldg_191f2611-6252-40e4-b1e5-3e054dde1503"},"geometry":{"type":"Polygon","coordinates":[[[139.800497323558,35.599371691079625],[139.80040353434785,35.599320376735605],[139.80042528711726,35.59929379184753],[139.80051907631025,35.599345106174844],[139.800497323558,35.599371691079625]]]}},{"type":"Feature","properties":{"height":5.8,"gml_id":"bldg_79151354-36fa-45dc-858c-8ad4ec62618a"},"geometry":{"type":"Polygon","coordinates":[[[139.8011338634551,35.60003582229577],[139.80096503988597,35.599945818950225],[139.80105183098607,35.599837225460405],[139.8012206543885,35.59992731882431],[139.8011338634551,35.60003582229577]]]}},{"type":"Feature","properties":{"height":2.6,"gml_id":"bldg_dafd9878-36ae-4e91-b6c8-990003a1147e"},"geometry":{"type":"Polygon","coordinates":[[[139.80966736115352,35.594388193186354],[139.80966449083377,35.59439161788504],[139.80965831178668,35.59438819140904],[139.80963271289812,35.594373944497406],[139.80966815032164,35.594331586373926],[139.80969992822185,35.5943493498908],[139.80966736115352,35.594388193186354]]]}},{"type":"Feature","properties":{"height":8.7,"gml_id":"bldg_c59587f3-3a8d-49a0-9045-43c10c472700"},"geometry":{"type":"Polygon","coordinates":[[[139.8019639612155,35.592872648483215],[139.80191605563311,35.592900939494974],[139.80189719309482,35.59287957175125],[139.8017588848904,35.59296120108021],[139.80157875365026,35.59275762101384],[139.80176474649383,35.59264770089716],[139.8019639612155,35.592872648483215]]]}},{"type":"Feature","properties":{"height":3.9,"gml_id":"bldg_a8b4ecc1-daa5-49de-a131-e4e0ebd54611"},"geometry":{"type":"Polygon","coordinates":[[[139.80061061590754,35.599500619813625],[139.80057696162817,35.599483213958905],[139.80060611335847,35.59944554402602],[139.80063976766505,35.5994628597343],[139.80061061590754,35.599500619813625]]]}},{"type":"Feature","properties":{"height":11.4,"gml_id":"bldg_87372a0d-5493-4ef4-89c7-abd7cc289097"},"geometry":{"type":"Polygon","coordinates":[[[139.80081586706157,35.59220261507588],[139.8006544914031,35.59202076204467],[139.80116610747723,35.59171785397968],[139.80132748365006,35.59189979647382],[139.80081586706157,35.59220261507588]]]}},{"type":"Feature","properties":{"height":3.7,"gml_id":"bldg_b5fed0ac-65fa-47a5-ab52-f1d1023d6ccf"},"geometry":{"type":"Polygon","coordinates":[[[139.80140294307705,35.59195822624819],[139.80146475629883,35.59192155623193],[139.80155487608044,35.59202289572037],[139.8014930628218,35.59205956578219],[139.80140294307705,35.59195822624819]]]}},{"type":"Feature","properties":{"height":14.1,"gml_id":"bldg_5c090299-75b6-42be-891e-359974f629a9"},"geometry":{"type":"Polygon","coordinates":[[[139.80200800094903,35.591719878505856],[139.80205256423523,35.591771088759586],[139.80184582314425,35.59189118957082],[139.80184163153672,35.59188641113421],[139.8016942743306,35.59197200413293],[139.80161080113626,35.59187614872212],[139.8015666517187,35.5918254053326],[139.80171257382895,35.5917407134965],[139.8017027566759,35.59172953374394],[139.80189614166227,35.59161718160474],[139.80191104287715,35.59160853219245],[139.80193729541298,35.5916387354389],[139.80200800094903,35.591719878505856]]]}},{"type":"Feature","properties":{"height":5.3,"gml_id":"bldg_386b320b-f255-4bcb-89ff-e8e9fc92b3ef"},"geometry":{"type":"Polygon","coordinates":[[[139.8058740640659,35.59943162608792],[139.80593618896114,35.5994628281157],[139.80588606049503,35.59952933885229],[139.80582404593298,35.59949813682422],[139.8058740640659,35.59943162608792]]]}},{"type":"Feature","properties":{"height":11.3,"gml_id":"bldg_587add86-db66-4838-b988-3876c0f59e7e"},"geometry":{"type":"Polygon","coordinates":[[[139.80200800094903,35.591719878505856],[139.80193729541298,35.5916387354389],[139.80196279236714,35.59162567199234],[139.80203327854187,35.59170338972374],[139.80200800094903,35.591719878505856]]]}},{"type":"Feature","properties":{"height":2.3,"gml_id":"bldg_6c513f35-2666-4b82-b3c0-d28ca783f9f2"},"geometry":{"type":"Polygon","coordinates":[[[139.81130160418044,35.59980834727769],[139.81127400534166,35.599835473887886],[139.8112602122391,35.59982600683019],[139.81124046053773,35.599812392312224],[139.81126022122362,35.599793286591996],[139.8112683904518,35.59978535590862],[139.81130160418044,35.59980834727769]]]}},{"type":"Feature","properties":{"height":3.2,"gml_id":"bldg_ad77ec53-7bdc-46fd-9651-69230a2c0ad5"},"geometry":{"type":"Polygon","coordinates":[[[139.80164185299807,35.59309908227005],[139.80165784913018,35.59311314808118],[139.80162616732468,35.593137296868356],[139.8016100608725,35.59312314088554],[139.80164185299807,35.59309908227005]]]}},{"type":"Feature","properties":{"height":7.1,"gml_id":"bldg_68625fb5-b2fc-4e12-8ad9-af5ba652a5aa"},"geometry":{"type":"Polygon","coordinates":[[[139.80886239354723,35.595526391218925],[139.80880788451978,35.59549798652208],[139.8088472983171,35.59544742685671],[139.80890191765644,35.59547592169681],[139.80886239354723,35.595526391218925]]]}},{"type":"Feature","properties":{"height":3.9,"gml_id":"bldg_dbe5d262-32d3-4fcf-bb54-7430ab63e715"},"geometry":{"type":"Polygon","coordinates":[[[139.8116024430773,35.59334096809142],[139.81151924628213,35.59329615422778],[139.8116825181613,35.593094093149645],[139.81176571483851,35.59313890690205],[139.8116024430773,35.59334096809142]]]}},{"type":"Feature","properties":{"height":8.7,"gml_id":"bldg_ee092df7-21cb-4c89-88f6-c560466dd040"},"geometry":{"type":"Polygon","coordinates":[[[139.81201082703856,35.59268284967914],[139.81196889787242,35.592660127349646],[139.81212863445657,35.5924637437449],[139.8121728806994,35.592487728365555],[139.8122018032041,35.59245212872784],[139.81223413277027,35.59246962126323],[139.8122017881619,35.592509366680176],[139.812260268291,35.59254110567531],[139.81210395397733,35.59273343382201],[139.81203267433372,35.592694751825434],[139.81201082703856,35.59268284967914]]]}},{"type":"Feature","properties":{"height":2.1,"gml_id":"bldg_f1a93d80-72ec-4de3-b021-c6b4a33446e8"},"geometry":{"type":"Polygon","coordinates":[[[139.8022182629201,35.59561752134977],[139.80221936156485,35.595630321295054],[139.8022045729986,35.59563121886086],[139.8022034743911,35.595618328776986],[139.8022182629201,35.59561752134977]]]}},{"type":"Feature","properties":{"height":2.9,"gml_id":"bldg_b6920dd4-70a8-4458-8a73-0dafd90511bb"},"geometry":{"type":"Polygon","coordinates":[[[139.80221716127554,35.59561247331145],[139.80218769241392,35.59561967677643],[139.80217082521511,35.595573611661806],[139.80220029402642,35.59556649833935],[139.80221716127554,35.59561247331145]]]}},{"type":"Feature","properties":{"height":5.2,"gml_id":"bldg_9511c8dc-09cb-4726-801e-1a07a09b92e7"},"geometry":{"type":"Polygon","coordinates":[[[139.8113657018832,35.59346062188703],[139.8113280509153,35.5935068632783],[139.81130962404958,35.59349685453936],[139.81134727502362,35.5934506122524],[139.8113657018832,35.59346062188703]]]}},{"type":"Feature","properties":{"height":16.3,"gml_id":"bldg_1a59df60-c436-4ac0-a940-421f072c7a0a"},"geometry":{"type":"Polygon","coordinates":[[[139.8006909656945,35.59976267393816],[139.80078906015333,35.599813268110395],[139.80069299167207,35.599937452841694],[139.80059489712227,35.59988685859225],[139.8006909656945,35.59976267393816]]]}},{"type":"Feature","properties":{"height":1.1,"gml_id":"bldg_1d94380a-e5d2-4691-8346-188e50aa55a0"},"geometry":{"type":"Polygon","coordinates":[[[139.81101371013276,35.59167843594088],[139.8109996896144,35.5916982638188],[139.81097938705332,35.59168870537147],[139.8109934076001,35.591668787357364],[139.81101371013276,35.59167843594088]]]}},{"type":"Feature","properties":{"height":2.5,"gml_id":"bldg_f07b5752-0863-47ae-aaac-618f7b8fc46a"},"geometry":{"type":"Polygon","coordinates":[[[139.81083003515832,35.591840020157136],[139.81085166131513,35.59185201261635],[139.8108132449962,35.59189806622837],[139.81079161883272,35.59188607376235],[139.81083003515832,35.591840020157136]]]}},{"type":"Feature","properties":{"height":2.4,"gml_id":"bldg_9d68cbd0-99b5-441e-bb14-b5478eeefc15"},"geometry":{"type":"Polygon","coordinates":[[[139.81243685351137,35.59502634479215],[139.8124471202243,35.59501354690855],[139.81248585087852,35.595034195324864],[139.81247558416905,35.595046993211724],[139.81243685351137,35.59502634479215]]]}},{"type":"Feature","properties":{"height":2.6,"gml_id":"bldg_1d4d9e96-01f9-4e4b-b27e-08232d1e1d7b"},"geometry":{"type":"Polygon","coordinates":[[[139.81242228201938,35.595042116497645],[139.81243332167156,35.595027696256835],[139.8124739284093,35.59504843514074],[139.81246299914403,35.59506276526585],[139.81242228201938,35.595042116497645]]]}},{"type":"Feature","properties":{"height":15.1,"gml_id":"bldg_670c4f9c-a2c5-47c3-b41b-ccc569fff810"},"geometry":{"type":"Polygon","coordinates":[[[139.80021099816526,35.593036411828415],[139.80020294590886,35.59302730562664],[139.80006220707114,35.593110915384855],[139.79993502548234,35.59296810082367],[139.80007609534485,35.5928843110263],[139.80004951188485,35.592854467843395],[139.8002498570497,35.59273545004059],[139.8002986118589,35.59279017748623],[139.80032830481886,35.5927726086129],[139.80039537037814,35.59284789261087],[139.80037605338444,35.592859334920064],[139.80041510151983,35.59290306276548],[139.80040792663954,35.59290729731521],[139.80041509653807,35.592915231461944],[139.80021099816526,35.593036411828415]]]}},{"type":"Feature","properties":{"height":3.6,"gml_id":"bldg_88b525c1-540c-4e09-80af-72cc3e935f0a"},"geometry":{"type":"Polygon","coordinates":[[[139.8014720965998,35.593170517342955],[139.80151599867236,35.59322055580759],[139.8014445814512,35.5932622710571],[139.80140078979267,35.59321214245757],[139.8014720965998,35.593170517342955]]]}},{"type":"Feature","properties":{"height":27.1,"gml_id":"bldg_bc3f9eab-e6fc-4cc9-a188-f4199f750b08"},"geometry":{"type":"Polygon","coordinates":[[[139.80118430581695,35.59284729439219],[139.8010020642631,35.592956132953496],[139.8009599271546,35.59290906934429],[139.8009802375721,35.592896906100236],[139.80091659078766,35.59282576971895],[139.801031388563,35.592757205139264],[139.80102259754437,35.592663999567975],[139.801099533936,35.592618049530685],[139.80120126859498,35.592651337805606],[139.80131429975754,35.59258385414543],[139.80137971164237,35.59265688369623],[139.8014027814703,35.59264309861887],[139.80144569083194,35.59269106366476],[139.80126058001218,35.5928017046309],[139.80118430581695,35.59284729439219]]]}},{"type":"Feature","properties":{"height":18.8,"gml_id":"bldg_accc9a4f-494f-41bb-8e8a-01f937e17417"},"geometry":{"type":"Polygon","coordinates":[[[139.80118430581695,35.59284729439219],[139.80126058001218,35.5928017046309],[139.80131882186097,35.592867250808084],[139.80124320988105,35.59291257036655],[139.80118430581695,35.59284729439219]]]}},{"type":"Feature","properties":{"height":3.1,"gml_id":"bldg_4f285c42-1532-4fc2-ab7c-c2b7ed8e2a86"},"geometry":{"type":"Polygon","coordinates":[[[139.81244486466235,35.595199772601745],[139.8124613129873,35.59518129706484],[139.81252740806178,35.595220338451284],[139.8125110701033,35.595238814016156],[139.81244486466235,35.595199772601745]]]}},{"type":"Feature","properties":{"height":5.6,"gml_id":"bldg_2c449925-e5f6-4e19-b544-0927b6c8be20"},"geometry":{"type":"Polygon","coordinates":[[[139.80457052494887,35.59392764871799],[139.8045960298048,35.59389331203795],[139.80463630313147,35.59391333237855],[139.80464060909952,35.59390765467898],[139.80467139337074,35.59392298554697],[139.80464158259946,35.59396290980405],[139.80457052494887,35.59392764871799]]]}},{"type":"Feature","properties":{"height":2.9,"gml_id":"bldg_46cdec7f-7ed6-4608-a2ea-224e380dd851"},"geometry":{"type":"Polygon","coordinates":[[[139.8085840473438,35.592720052882775],[139.80859751652415,35.59270130683833],[139.80862940470251,35.59271645664803],[139.80861593552706,35.59273520269599],[139.8085840473438,35.592720052882775]]]}},{"type":"Feature","properties":{"height":2.4,"gml_id":"bldg_08791fc3-bb34-4387-a5ac-4cb026377032"},"geometry":{"type":"Polygon","coordinates":[[[139.81121486085723,35.59979372896729],[139.81123384849028,35.5997764258775],[139.8112581240058,35.59979427773028],[139.8112391363985,35.599811490685454],[139.81121486085723,35.59979372896729]]]}},{"type":"Feature","properties":{"height":2.9,"gml_id":"bldg_339ea29f-36a5-423f-9827-3089a229fcb2"},"geometry":{"type":"Polygon","coordinates":[[[139.8124203403614,35.595294143327145],[139.81240587840279,35.59531288961845],[139.81235412682804,35.59528610949553],[139.81236858877043,35.595267453348825],[139.8124203403614,35.595294143327145]]]}},{"type":"Feature","properties":{"height":2.7,"gml_id":"bldg_8c9395e6-11f6-4200-9917-1b2c3031946c"},"geometry":{"type":"Polygon","coordinates":[[[139.81247553305184,35.59524403590244],[139.81249682973544,35.59525431537189],[139.81246812597198,35.59529415160962],[139.81244682925808,35.59528396227362],[139.81247553305184,35.59524403590244]]]}},{"type":"Feature","properties":{"height":3.9,"gml_id":"bldg_c559c0ab-a3af-4f11-bfe3-24f9c1c7173c"},"geometry":{"type":"Polygon","coordinates":[[[139.80012152465437,35.59564652719882],[139.80014029539288,35.595623366785446],[139.80017328569193,35.59564104300553],[139.8001545149588,35.59566420342397],[139.80012152465437,35.59564652719882]]]}}]}