{"type":"FeatureCollection","crs":{"type":"name","properties":{"name":"urn:ogc:def:crs:OGC:1.3:CRS84"}},"features":[{"type":"Feature","properties":{"height":9.7,"gml_id":"bldg_6bd16774-03dd-4539-8aaa-665bc945996f"},"geometry":{"type":"Polygon","coordinates":[[[139.7876793853445,35.61517957450444],[139.78854551932062,35.61411762120512],[139.78817043463516,35.61391358863274],[139.78730529195226,35.614974548129716],[139.78727075290266,35.614953803152275],[139.7881573217888,35.61387275111988],[139.78860137659095,35.61411340546015],[139.7877125990352,35.61520194134918],[139.7876793853445,35.61517957450444]]]}},{"type":"Feature","properties":{"height":10.4,"gml_id":"bldg_3ce8e35c-2c42-498e-9ede-ededdad63f2e"},"geometry":{"type":"Polygon","coordinates":[[[139.78863461747312,35.612499223041105],[139.7887014444372,35.61241776287493],[139.78878266038777,35.61246439438266],[139.78871947705844,35.61254414331651],[139.78863461747312,35.612499223041105]]]}},{"type":"Feature","properties":{"height":27.7,"gml_id":"bldg_2d677c6d-4846-4e8d-8314-769b24e3e3c5"},"geometry":{"type":"Polygon","coordinates":[[[139.78780905570656,35.61329140900465],[139.7877544877822,35.61335872160524],[139.78736605550026,35.613148912610995],[139.787902895957,35.61248614975541],[139.7882913264405,35.61269595704085],[139.78823675922368,35.612763450143454],[139.78780905570656,35.61329140900465]]]}},{"type":"Feature","properties":{"height":20.1,"gml_id":"bldg_ffa6a0c4-4349-4074-aead-e299110966f3"},"geometry":{"type":"Polygon","coordinates":[[[139.78863461747312,35.612499223041105],[139.78847434261968,35.61269467324195],[139.7879686122912,35.61241803003148],[139.78828805793998,35.6120285725365],[139.78879378696996,35.61230512428496],[139.7887014444372,35.61241776287493],[139.78863461747312,35.612499223041105]]]}},{"type":"Feature","properties":{"height":10.3,"gml_id":"bldg_342a4c28-9405-472e-9969-2600fd50eaec"},"geometry":{"type":"Polygon","coordinates":[[[139.7876793853445,35.61517957450444],[139.78761929304832,35.61525328473843],[139.7874312523589,35.61515108670988],[139.78749255982552,35.615075934820126],[139.78730529195226,35.614974548129716],[139.78817043463516,35.61391358863274],[139.78854551932062,35.61411762120512],[139.7876793853445,35.61517957450444]]]}},{"type":"Feature","properties":{"height":9.5,"gml_id":"bldg_0a4223db-402c-4300-b52d-23b445ea1c72"},"geometry":{"type":"Polygon","coordinates":[[[139.7888319203257,35.61221247629613],[139.78834506140097,35.611946117368504],[139.7885136193509,35.611740574915935],[139.7890005879728,35.612006933211724],[139.7888319203257,35.61221247629613]]]}},{"type":"Feature","properties":{"height":9.2,"gml_id":"bldg_98915239-682a-4195-9993-2b738090d2bb"},"geometry":{"type":"Polygon","coordinates":[[[139.7902395743418,35.611286637496875],[139.78967426326207,35.61198491504853],[139.78964491015432,35.6119691302222],[139.78963651600523,35.61197850155257],[139.7896144470072,35.61196479253901],[139.78970148303623,35.611863869286786],[139.78971516806874,35.6118682008757],[139.79020779560173,35.61126598447427],[139.7902395743418,35.611286637496875]]]}},{"type":"Feature","properties":{"height":9.7,"gml_id":"bldg_c0c86339-921b-404b-a843-009da87fe874"},"geometry":{"type":"Polygon","coordinates":[[[139.79014104388003,35.612238822337076],[139.79071099173638,35.61153486555656],[139.79074950389938,35.61155570110186],[139.7901796666149,35.61225965810175],[139.79014104388003,35.612238822337076]]]}},{"type":"Feature","properties":{"height":10.7,"gml_id":"bldg_07afeafc-ebfa-49f2-a644-6769b4df9123"},"geometry":{"type":"Polygon","coordinates":[[[139.7905449199521,35.611436015208746],[139.79046877863016,35.611394885117704],[139.79048788721587,35.61137127569949],[139.79056402857324,35.61141231564042],[139.7905449199521,35.611436015208746]]]}},{"type":"Feature","properties":{"height":10.8,"gml_id":"bldg_140f97c6-82a7-4f2b-bd1f-17bb1c36b281"},"geometry":{"type":"Polygon","coordinates":[[[139.79214381182592,35.60946822369136],[139.79207539602524,35.60943106332603],[139.79209538716404,35.60940655256454],[139.79216380295316,35.609443712918655],[139.79214381182592,35.60946822369136]]]}},{"type":"Feature","properties":{"height":8.3,"gml_id":"bldg_8d60eb66-43e9-422d-ba70-eabc0993e7cc"},"geometry":{"type":"Polygon","coordinates":[[[139.7906019874024,35.6093599715839],[139.79072248896344,35.60921209738132],[139.79090025769477,35.60930869818271],[139.79077335023956,35.60946432218799],[139.79059558131692,35.60936772120172],[139.7906019874024,35.6093599715839]]]}},{"type":"Feature","properties":{"height":41.3,"gml_id":"bldg_0aac9c48-fdd5-4e9e-88ee-60192283abe3"},"geometry":{"type":"Polygon","coordinates":[[[139.79002077574916,35.60948586748743],[139.79008444551712,35.60952086399734],[139.78998227798857,35.60964512793005],[139.78992081506522,35.60961139409742],[139.79002077574916,35.60948586748743]]]}},{"type":"Feature","properties":{"height":10.5,"gml_id":"bldg_cf3115fb-efcb-4d1f-84a0-d3ed20e745f4"},"geometry":{"type":"Polygon","coordinates":[[[139.79096569343164,35.609344325817744],[139.79138065184088,35.608835279989194],[139.791399521155,35.60884547218061],[139.79134937734875,35.60890710929018],[139.79138170894058,35.608924697511256],[139.791017004883,35.60937210642982],[139.79096569343164,35.609344325817744]]]}},{"type":"Feature","properties":{"height":8.9,"gml_id":"bldg_d6b1e829-3250-4f5c-8090-f1090b69db3c"},"geometry":{"type":"Polygon","coordinates":[[[139.7918397986539,35.609312270350074],[139.7911798616981,35.61012184331159],[139.7911508401135,35.61010605896332],[139.79181077723172,35.60929648615873],[139.7918397986539,35.609312270350074]]]}},{"type":"Feature","properties":{"height":2.5,"gml_id":"bldg_db66d3a9-c270-4ed4-8a8a-aaf497d96739"},"geometry":{"type":"Polygon","coordinates":[[[139.78782516815835,35.609594756538165],[139.78779813353012,35.60958023406717],[139.78783546785294,35.609533917109836],[139.78786250242138,35.60954852971077],[139.78782516815835,35.609594756538165]]]}},{"type":"Feature","properties":{"height":4.4,"gml_id":"bldg_b18e40a6-04c3-43b0-b081-4cd52d693c5e"},"geometry":{"type":"Polygon","coordinates":[[[139.78784428805088,35.60935679877806],[139.787811516363,35.60933776723105],[139.78784001257424,35.60930505780734],[139.78787267387693,35.60932408930507],[139.78784428805088,35.60935679877806]]]}},{"type":"Feature","properties":{"height":11.3,"gml_id":"bldg_4ebbc17b-e1d8-4155-9d3f-b4378314ae9f"},"geometry":{"type":"Polygon","coordinates":[[[139.7889822327341,35.61366429753854],[139.78891860811567,35.61374224363447],[139.78868466326006,35.61361497219139],[139.78862335802415,35.613690124707595],[139.78843708536002,35.61358883026097],[139.7885002684844,35.61351142508231],[139.78918003207636,35.61267789777661],[139.78918334580186,35.6126738427717],[139.78935842071314,35.61245919759091],[139.7894209393207,35.61238260291565],[139.78960930711963,35.61248497827986],[139.78955452053398,35.61255220148782],[139.78957239733546,35.61256185276945],[139.7895928318438,35.61253680176823],[139.7896373030679,35.6125609749422],[139.78961521174182,35.61258800839023],[139.7897848206393,35.61268019105232],[139.78972186031964,35.61275732658197],[139.78975242750724,35.61277392307053],[139.7896930017037,35.61284673322857],[139.7896625448352,35.61283022690332],[139.78948437711597,35.61304865719156],[139.7895160479078,35.61306579497009],[139.78945860981403,35.61313635227678],[139.78943002886737,35.613120838096734],[139.78927693397262,35.6133084499383],[139.7893062873982,35.613324415127394],[139.78924918043404,35.613394341484735],[139.78922093053924,35.61337891751507],[139.7891829327715,35.613425505043196],[139.7891796190149,35.613429560047535],[139.78904419634418,35.61359563503087],[139.78907377054767,35.613611690495226],[139.78901588993767,35.61368260797439],[139.7889822327341,35.61366429753854]]]}},{"type":"Feature","properties":{"height":8.7,"gml_id":"bldg_740704e1-31f8-45c5-9c32-dd8e070cc088"},"geometry":{"type":"Polygon","coordinates":[[[139.78918003207636,35.61267789777661],[139.7885002684844,35.61351142508231],[139.7884559094753,35.61348364600665],[139.78918007868663,35.612593077744684],[139.78918339240863,35.612589022739726],[139.78931185452734,35.61243105746726],[139.78935842071314,35.61245919759091],[139.78918334580186,35.6126738427717],[139.78918003207636,35.61267789777661]]]}},{"type":"Feature","properties":{"height":10.5,"gml_id":"bldg_4750bcf2-639c-4d32-8939-a87583c2e0b5"},"geometry":{"type":"Polygon","coordinates":[[[139.7914029793545,35.61025631727402],[139.79147393358068,35.61029483097159],[139.79145504653567,35.61031798993636],[139.79138409229813,35.61027947622781],[139.7914029793545,35.61025631727402]]]}},{"type":"Feature","properties":{"height":9.8,"gml_id":"bldg_c17ca5a5-df68-4a5c-a107-3f9e28bf33d2"},"geometry":{"type":"Polygon","coordinates":[[[139.7916564558812,35.610383860680365],[139.79231705288046,35.60957347412351],[139.7923488331953,35.609590791480905],[139.7916882363738,35.61040117820978],[139.7916564558812,35.610383860680365]]]}},{"type":"Feature","properties":{"height":10.7,"gml_id":"bldg_85016204-50e4-474f-aad5-1417d3041adc"},"geometry":{"type":"Polygon","coordinates":[[[139.78989474169637,35.61210587007497],[139.79001590638384,35.61217126389668],[139.7899944779281,35.6121976666869],[139.78987331321827,35.61213227284392],[139.78989474169637,35.61210587007497]]]}},{"type":"Feature","properties":{"height":45.8,"gml_id":"bldg_a82a4cce-c551-41c9-a243-d8768f7ae68f"},"geometry":{"type":"Polygon","coordinates":[[[139.79093071478465,35.609741102090695],[139.79085273699368,35.60983580992253],[139.79086730287233,35.60984374722232],[139.79082963925208,35.60988961430982],[139.7908154044593,35.6098817672606],[139.7907939770683,35.60990780965077],[139.79076230734307,35.60989049192335],[139.79066069267236,35.610014035513196],[139.7906932451741,35.610031894408834],[139.79055385586665,35.61020139503513],[139.78978319210006,35.60977873116224],[139.78992081506522,35.60961139409742],[139.78998227798857,35.60964512793005],[139.79008444551712,35.60952086399734],[139.79002077574916,35.60948586748743],[139.79015894994967,35.609317899372506],[139.79093071478465,35.609741102090695]]]}},{"type":"Feature","properties":{"height":37.2,"gml_id":"bldg_bfd8e8fc-4939-4f69-bd47-8514aeaed43b"},"geometry":{"type":"Polygon","coordinates":[[[139.78768997400206,35.612279833073224],[139.7876378369322,35.61234390157786],[139.78698468611938,35.611988687845084],[139.78861879800962,35.6099829185202],[139.7891813449643,35.610288604453636],[139.78918465542162,35.61029031829311],[139.78927050546434,35.610336951185644],[139.78922002775587,35.610398947823796],[139.78918457172702,35.61044265188296],[139.78918125809372,35.61044670688944],[139.78870243308415,35.61103531341607],[139.7885585080891,35.61121220135817],[139.78830070073025,35.61152903127202],[139.78820438136438,35.61164752699349],[139.78768997400206,35.612279833073224]]]}},{"type":"Feature","properties":{"height":11.3,"gml_id":"bldg_804b55dc-2952-454b-a33e-6ff9a698d126"},"geometry":{"type":"Polygon","coordinates":[[[139.79014104388003,35.612238822337076],[139.79001590638384,35.61217126389668],[139.78989474169637,35.61210587007497],[139.78983493298762,35.61207357901942],[139.7897774945358,35.612144587181014],[139.78964077072249,35.61207080462484],[139.78969931269557,35.61199844485399],[139.78967426326207,35.61198491504853],[139.7902395743418,35.611286637496875],[139.79024830021712,35.61127591416862],[139.79046877863016,35.611394885117704],[139.7905449199521,35.611436015208746],[139.79071618311636,35.611528377440905],[139.79071099173638,35.61153486555656],[139.79014104388003,35.612238822337076]]]}},{"type":"Feature","properties":{"height":13.5,"gml_id":"bldg_1bc017a3-fdaa-402a-9ef1-35b70a45510f"},"geometry":{"type":"Polygon","coordinates":[[[139.7906019874024,35.6093599715839],[139.79022129198177,35.60915296868778],[139.79092784008222,35.60828608931942],[139.79128057385282,35.608768723068216],[139.79138749969638,35.60882680937661],[139.79138065184088,35.608835279989194],[139.79096569343164,35.609344325817744],[139.79090025769477,35.60930869818271],[139.79072248896344,35.60921209738132],[139.7906019874024,35.6093599715839]]]}},{"type":"Feature","properties":{"height":11.7,"gml_id":"bldg_de335ae8-5891-4010-8cdc-63d5cedd4ccc"},"geometry":{"type":"Polygon","coordinates":[[[139.7916564558812,35.610383860680365],[139.79165071242343,35.61039097961451],[139.79147393358068,35.61029483097159],[139.7914029793545,35.61025631727402],[139.7911724614333,35.61013103482317],[139.7911798616981,35.61012184331159],[139.7918397986539,35.609312270350074],[139.79184510013107,35.60930587235947],[139.79207539602524,35.60943106332603],[139.79214381182592,35.60946822369136],[139.7923233483915,35.609565814514994],[139.79231705288046,35.60957347412351],[139.7916564558812,35.610383860680365]]]}},{"type":"Feature","properties":{"height":29.5,"gml_id":"bldg_e9fd4643-81a0-4cc7-a5b8-9d55ce8ebd76"},"geometry":{"type":"Polygon","coordinates":[[[139.78827985957486,35.61168847798899],[139.7877654525436,35.61232078438689],[139.78768997400206,35.612279833073224],[139.78820438136438,35.61164752699349],[139.78827985957486,35.61168847798899]]]}},{"type":"Feature","properties":{"height":37.4,"gml_id":"bldg_b6fa9f0d-490b-46cf-864b-bd1a07718427"},"geometry":{"type":"Polygon","coordinates":[[[139.78891128490102,35.61181409468308],[139.7888590387249,35.611878163681304],[139.7885339515888,35.611701192076424],[139.7890940761691,35.6110147260481],[139.7891809199655,35.61106208046974],[139.78918423045465,35.61106379430905],[139.78941927219532,35.611191606062945],[139.78941573763274,35.611195931409526],[139.78918400179484,35.61147996240276],[139.78918068811865,35.611484017408515],[139.78891128490102,35.61181409468308]]]}},{"type":"Feature","properties":{"height":15.9,"gml_id":"bldg_887d0826-251f-4eea-bad2-f42af466ff31"},"geometry":{"type":"Polygon","coordinates":[[[139.789180597231,35.611649421007066],[139.78900453032193,35.61186379517926],[139.78891128490102,35.61181409468308],[139.78918068811865,35.611484017408515],[139.78918400179484,35.61147996240276],[139.78941573763274,35.611195931409526],[139.78950555640535,35.61125374271413],[139.789183910914,35.61164536600143],[139.789180597231,35.611649421007066]]]}},{"type":"Feature","properties":{"height":29.3,"gml_id":"bldg_eedf73f9-0fc7-4fc5-934f-65aa1b03d92a"},"geometry":{"type":"Polygon","coordinates":[[[139.78863541982466,35.61125531598385],[139.78837441267052,35.6115701618254],[139.78830070073025,35.61152903127202],[139.7885585080891,35.61121220135817],[139.78863541982466,35.61125531598385]]]}},{"type":"Feature","properties":{"height":23.1,"gml_id":"bldg_b090799e-f3bb-4623-9816-90a0fa7e4e2d"},"geometry":{"type":"Polygon","coordinates":[[[139.79001866429886,35.610740951597606],[139.78959993332157,35.61125206437826],[139.7894733638456,35.611182702079795],[139.78989154511754,35.61066834455868],[139.7899536201546,35.61059201983835],[139.79007555493212,35.61065804486064],[139.79001866429886,35.610740951597606]]]}},{"type":"Feature","properties":{"height":2.9,"gml_id":"bldg_7dc89d26-88f8-4171-87f7-7e6e12e6c41f"},"geometry":{"type":"Polygon","coordinates":[[[139.78831717515988,35.61345006284889],[139.78834090061326,35.613462871333375],[139.78832190133377,35.61348639030512],[139.7882981758765,35.61347358181695],[139.78831717515988,35.61345006284889]]]}},{"type":"Feature","properties":{"height":38.4,"gml_id":"bldg_0d5241fc-befb-4804-802b-189893798d6b"},"geometry":{"type":"Polygon","coordinates":[[[139.78989154511754,35.61066834455868],[139.7894733638456,35.611182702079795],[139.7891842512552,35.61102593626139],[139.78918094076758,35.6110242224221],[139.78912367016304,35.610993103735034],[139.78918099663588,35.61092254652151],[139.78918431028887,35.610918491515356],[139.78967461842933,35.610315465104],[139.79002431046624,35.61050506187008],[139.7899536201546,35.61059201983835],[139.78989154511754,35.61066834455868]]]}},{"type":"Feature","properties":{"height":3.3,"gml_id":"bldg_1a685bda-74d4-416a-892b-20af47f1284c"},"geometry":{"type":"Polygon","coordinates":[[[139.79107718984702,35.60847813629427],[139.7910945232771,35.60847021020395],[139.7911065452775,35.608487611102724],[139.79108910146738,35.608495537156074],[139.79107718984702,35.60847813629427]]]}},{"type":"Feature","properties":{"height":3.7,"gml_id":"bldg_633bc048-4626-4bae-b805-e0884251bb8b"},"geometry":{"type":"Polygon","coordinates":[[[139.79111382370277,35.6084999625955],[139.79113568341515,35.60849050573454],[139.79114748429393,35.60850862765787],[139.79112562453068,35.60851817465919],[139.79111382370277,35.6084999625955]]]}},{"type":"Feature","properties":{"height":3.8,"gml_id":"bldg_77c66e6c-b28e-4d37-810b-9c3246b14a1b"},"geometry":{"type":"Polygon","coordinates":[[[139.79113422474668,35.60853575463301],[139.791164034628,35.60852062184012],[139.79120451534354,35.60857372743771],[139.79117470545012,35.60858886024047],[139.79113422474668,35.60853575463301]]]}},{"type":"Feature","properties":{"height":3.7,"gml_id":"bldg_190d7bc2-6759-4ef9-9053-1fe8d633af87"},"geometry":{"type":"Polygon","coordinates":[[[139.79120217175355,35.60862267169583],[139.7912290003719,35.60860961102476],[139.79127698034964,35.60867515829768],[139.79125015171712,35.60868821897926],[139.79120217175355,35.60862267169583]]]}},{"type":"Feature","properties":{"height":3.6,"gml_id":"bldg_a06757e3-7dff-45ac-acb5-e4d377982466"},"geometry":{"type":"Polygon","coordinates":[[[139.7884698592946,35.612816448282175],[139.78843907038063,35.61280201470266],[139.78845630388378,35.61277750353184],[139.78848709279146,35.61279193710702],[139.7884698592946,35.612816448282175]]]}},{"type":"Feature","properties":{"height":4.6,"gml_id":"bldg_854de448-da42-4692-a75a-7342d3876522"},"geometry":{"type":"Polygon","coordinates":[[[139.789448136139,35.61028347389607],[139.7893836922515,35.61025054995141],[139.7894320732136,35.61018729054385],[139.7894966274501,35.6102202145031],[139.789448136139,35.61028347389607]]]}},{"type":"Feature","properties":{"height":13.5,"gml_id":"bldg_843d8b70-513f-46e3-9ea2-bfa3da213783"},"geometry":{"type":"Polygon","coordinates":[[[139.7942519949629,35.61570396583413],[139.7942556398512,35.61569964038466],[139.79424361082854,35.6156930554958],[139.79430557501377,35.61561718015339],[139.7943162797335,35.61562304260066],[139.7943565950539,35.61557365993683],[139.79439455824954,35.615594313850124],[139.79438130387084,35.61561062457302],[139.79453481219758,35.61569423217529],[139.79453028365953,35.61569972914469],[139.79454584418983,35.615708207141786],[139.79446289406306,35.61580985625281],[139.79444920962985,35.61580237037034],[139.79444412883674,35.615808498125276],[139.7942519949629,35.61570396583413]]]}},{"type":"Feature","properties":{"height":2.5,"gml_id":"bldg_4ff17a48-f524-4e96-8243-48a8b0155b15"},"geometry":{"type":"Polygon","coordinates":[[[139.78839880811688,35.61275251382278],[139.78841416183022,35.61273386093984],[139.78846304673212,35.61276056006124],[139.78844780340836,35.612779212991434],[139.78839880811688,35.61275251382278]]]}},{"type":"Feature","properties":{"height":6.7,"gml_id":"bldg_3a6dffd1-1cc2-4520-a298-5d95ccb82696"},"geometry":{"type":"Polygon","coordinates":[[[139.7883293998761,35.61271165531411],[139.788343759341,35.61269444427991],[139.78840952729396,35.61273106492782],[139.78839516783657,35.61274827596976],[139.7883293998761,35.61271165531411]]]}},{"type":"Feature","properties":{"height":6.3,"gml_id":"bldg_d1acafa0-c02e-4133-8676-b9dca39b0288"},"geometry":{"type":"Polygon","coordinates":[[[139.79487137815624,35.61478277280791],[139.79481695943943,35.61477933017415],[139.79481884576896,35.614758959549995],[139.79480681403086,35.61475823459813],[139.7948088112672,35.614736782351464],[139.7948197391847,35.61473741681214],[139.79482051590549,35.61472903421026],[139.7948073803546,35.61472821876747],[139.79481137426257,35.614686486069836],[139.79482616555336,35.61468739217953],[139.79483326623742,35.614612309348935],[139.7948201307059,35.61461149300614],[139.79482212802097,35.61458986138377],[139.7948361466363,35.61459067710711],[139.79483758895137,35.61457544421621],[139.79482522608308,35.61457471916037],[139.79482755645452,35.61454912066308],[139.7948395881615,35.61454984561288],[139.79484158516792,35.61452884405572],[139.79489512067306,35.614532196258544],[139.79487137815624,35.61478277280791]]]}},{"type":"Feature","properties":{"height":2.4,"gml_id":"bldg_01a9afa3-70ee-493d-a4e5-5699d1d029ec"},"geometry":{"type":"Polygon","coordinates":[[[139.78957741240652,35.609838868962534],[139.78955092848986,35.60982578929713],[139.78957191602078,35.609797403373676],[139.78959839993152,35.60981048303451],[139.78957741240652,35.609838868962534]]]}},{"type":"Feature","properties":{"height":2.6,"gml_id":"bldg_68bffdbe-1c34-4362-b876-4bb62d6f0b8b"},"geometry":{"type":"Polygon","coordinates":[[[139.7895234138691,35.609881124179054],[139.78950090321106,35.60986876705322],[139.7895221101044,35.60984299522753],[139.78954462075845,35.60985535234947],[139.7895234138691,35.609881124179054]]]}},{"type":"Feature","properties":{"height":3.2,"gml_id":"bldg_fce992f4-5eb1-4719-9a9b-dc7a0065aea7"},"geometry":{"type":"Polygon","coordinates":[[[139.7946800882024,35.61591079072169],[139.7946921179009,35.61591611273141],[139.79469609476183,35.61591007475029],[139.79470348917556,35.61591332209482],[139.79467675610084,35.615953334862155],[139.79465744237018,35.615944765539446],[139.7946800882024,35.61591079072169]]]}},{"type":"Feature","properties":{"height":3.9,"gml_id":"bldg_6a10516d-fc42-47ac-8a49-9dec13d6146f"},"geometry":{"type":"Polygon","coordinates":[[[139.79102912297597,35.60836851129655],[139.79100825630036,35.6083786895933],[139.79099281468348,35.60835741153739],[139.79101368130804,35.60834732338151],[139.79102912297597,35.60836851129655]]]}},{"type":"Feature","properties":{"height":2.6,"gml_id":"bldg_a9092eef-5ef6-46f0-9938-a39a22c22459"},"geometry":{"type":"Polygon","coordinates":[[[139.79242658363967,35.609505096424314],[139.79238354869582,35.60947993323514],[139.7923995629019,35.609461730749416],[139.79244259779514,35.6094869840712],[139.79242658363967,35.609505096424314]]]}},{"type":"Feature","properties":{"height":2.7,"gml_id":"bldg_d40e99bb-7cb1-479c-b63a-ee5e6248fa15"},"geometry":{"type":"Polygon","coordinates":[[[139.79244690912844,35.609474095764185],[139.79246469002166,35.6094546319337],[139.7925186485906,35.60948746054588],[139.7925008677032,35.6095069243842],[139.79244690912844,35.609474095764185]]]}},{"type":"Feature","properties":{"height":4.2,"gml_id":"bldg_66cfba04-06e0-4df1-837f-845785c54553"},"geometry":{"type":"Polygon","coordinates":[[[139.79125566226037,35.61017973855551],[139.79123335142148,35.610206682096425],[139.79119461935036,35.610185215656685],[139.79121693014898,35.61015836226107],[139.79125566226037,35.61017973855551]]]}},{"type":"Feature","properties":{"height":2.4,"gml_id":"bldg_e2e6a06a-34a9-41b1-8a59-d60434b785ab"},"geometry":{"type":"Polygon","coordinates":[[[139.79015414301458,35.61025245098543],[139.79016574045733,35.61023839357538],[139.7901885822673,35.610251111247855],[139.7901769848267,35.610265168660085],[139.79015414301458,35.61025245098543]]]}},{"type":"Feature","properties":{"height":5.0,"gml_id":"bldg_7adef453-2db7-4060-be60-3202cc7b43ce"},"geometry":{"type":"Polygon","coordinates":[[[139.78946283586288,35.609843965182584],[139.78947741503552,35.609827294914254],[139.7895055528116,35.60984371031241],[139.78949108407036,35.609860290486026],[139.78946283586288,35.609843965182584]]]}},{"type":"Feature","properties":{"height":1.6,"gml_id":"bldg_a76a082d-d01a-4744-9c7d-2f6a608412df"},"geometry":{"type":"Polygon","coordinates":[[[139.78961001246444,35.6097687532409],[139.7896232540984,35.60977587896638],[139.78959829146552,35.60980696760356],[139.78958504982862,35.609799841875386],[139.78961001246444,35.6097687532409]]]}},{"type":"Feature","properties":{"height":4.2,"gml_id":"bldg_9be29c83-1fe7-4654-b246-fd9bb4b9bad9"},"geometry":{"type":"Polygon","coordinates":[[[139.78982022183482,35.61212747635817],[139.78984231330668,35.612099811902986],[139.78987254936558,35.61211595755223],[139.78985045789966,35.612143622012894],[139.78982022183482,35.61212747635817]]]}},{"type":"Feature","properties":{"height":2.6,"gml_id":"bldg_23c93d15-5581-4a90-989b-cd43892c1aa9"},"geometry":{"type":"Polygon","coordinates":[[[139.78939787534642,35.612169688059836],[139.78941422324291,35.61214905236941],[139.7894358520076,35.61216041766538],[139.7894196144969,35.612181053398935],[139.78939787534642,35.612169688059836]]]}},{"type":"Feature","properties":{"height":2.8,"gml_id":"bldg_70f34895-e022-4f68-8f66-a325bba195c3"},"geometry":{"type":"Polygon","coordinates":[[[139.79464186829608,35.615276656494544],[139.79469285347258,35.615304795963404],[139.7946525387976,35.61535354777512],[139.7946015536043,35.61532540828943],[139.79464186829608,35.615276656494544]]]}},{"type":"Feature","properties":{"height":2.6,"gml_id":"bldg_8f008212-92da-441d-9f57-0f8e04da8146"},"geometry":{"type":"Polygon","coordinates":[[[139.7946692556316,35.61525295894836],[139.79468184718203,35.61523745922365],[139.7947311771522,35.615264336211176],[139.7947185856504,35.61527974580284],[139.7946692556316,35.61525295894836]]]}},{"type":"Feature","properties":{"height":3.8,"gml_id":"bldg_e5219ced-b1ed-49c1-9357-71e6f739e44e"},"geometry":{"type":"Polygon","coordinates":[[[139.7942424840643,35.6155132304017],[139.7943366202193,35.61556283689432],[139.79425510426822,35.61566601867759],[139.79416096804277,35.61561641212208],[139.7942424840643,35.6155132304017]]]}},{"type":"Feature","properties":{"height":2.6,"gml_id":"bldg_cf5a76c2-d6a0-4101-8402-f826e7c2c7af"},"geometry":{"type":"Polygon","coordinates":[[[139.78806145412526,35.61377194064788],[139.7880410390486,35.6137611163935],[139.78805793989656,35.613739850133335],[139.78807835491932,35.61375076452305],[139.78806145412526,35.61377194064788]]]}},{"type":"Feature","properties":{"height":2.9,"gml_id":"bldg_394cb197-cc66-4bec-9b64-3f27209213ba"},"geometry":{"type":"Polygon","coordinates":[[[139.78810793055948,35.61376402594078],[139.78808034311305,35.61374851181512],[139.78811436427495,35.613708232818254],[139.78814195171407,35.613723746936216],[139.78810793055948,35.61376402594078]]]}},{"type":"Feature","properties":{"height":16.4,"gml_id":"bldg_9af3d493-4d17-4913-bc44-620e2957ccf3"},"geometry":{"type":"Polygon","coordinates":[[[139.78780905570656,35.61329140900465],[139.78823675922368,35.612763450143454],[139.7882817818288,35.612788074714054],[139.78785297514534,35.613315131934655],[139.78780905570656,35.61329140900465]]]}},{"type":"Feature","properties":{"height":17.4,"gml_id":"bldg_a0467baa-5d5d-4d5a-84d7-c7751c7fe077"},"geometry":{"type":"Polygon","coordinates":[[[139.78879378696996,35.61230512428496],[139.78828805793998,35.6120285725365],[139.78834903294037,35.61195008493263],[139.78885487017328,35.61223006172055],[139.78879378696996,35.61230512428496]]]}},{"type":"Feature","properties":{"height":25.7,"gml_id":"bldg_f583afc7-98ee-43e0-90db-be30f52679b4"},"geometry":{"type":"Polygon","coordinates":[[[139.79093071478465,35.609741102090695],[139.79015894994967,35.609317899372506],[139.79018600369545,35.60929744767922],[139.79021227665163,35.60929213892697],[139.7902353462571,35.609291245797735],[139.79026315987002,35.60929459085776],[139.7909214880802,35.6096555576465],[139.79094090352748,35.60967692724338],[139.79094641126184,35.609698201807404],[139.79094154302496,35.609720103688986],[139.79093071478465,35.609741102090695]]]}},{"type":"Feature","properties":{"height":5.1,"gml_id":"bldg_fc9cd1e7-a8b4-47f1-9cc2-4865adefd613"},"geometry":{"type":"Polygon","coordinates":[[[139.79158962927758,35.60941124588552],[139.79160397420745,35.609419543573274],[139.7916022071176,35.60942152600284],[139.79163034518626,35.60943794090615],[139.7915525920837,35.60952724097878],[139.79154795757609,35.60952453522424],[139.79154177270146,35.609531563862895],[139.79152345533723,35.60952092119512],[139.79152964021262,35.60951389255737],[139.7915101090149,35.609502618498674],[139.79158962927758,35.60941124588552]]]}},{"type":"Feature","properties":{"height":3.0,"gml_id":"bldg_c3faf244-dece-4510-b9e5-6f81004b926e"},"geometry":{"type":"Polygon","coordinates":[[[139.79111976768428,35.61000202855011],[139.7911422782976,35.61001501634106],[139.7911221770473,35.61003817482957],[139.79109966643077,35.61002518703494],[139.79111976768428,35.61000202855011]]]}},{"type":"Feature","properties":{"height":2.5,"gml_id":"bldg_45fd4669-00b0-4cbf-9711-b7da81651989"},"geometry":{"type":"Polygon","coordinates":[[[139.7910905830833,35.610086477855795],[139.79107821164965,35.61010341950758],[139.79105757591145,35.61009340692466],[139.79106994734792,35.610076465274936],[139.7910905830833,35.610086477855795]]]}},{"type":"Feature","properties":{"height":6.8,"gml_id":"bldg_0ef08064-3b8f-4712-9863-61f675914eca"},"geometry":{"type":"Polygon","coordinates":[[[139.7913697616887,35.610243506080494],[139.79135728066314,35.61025900551052],[139.7912677875698,35.61021120103491],[139.7912614918132,35.6102190408638],[139.79124493941538,35.61021029167411],[139.79126371625733,35.61018686228867],[139.7913697616887,35.610243506080494]]]}},{"type":"Feature","properties":{"height":4.9,"gml_id":"bldg_03f2b0fd-a52f-4f86-850e-f00198469f44"},"geometry":{"type":"Polygon","coordinates":[[[139.7916608567021,35.608708823098425],[139.7916190532368,35.608651570837196],[139.79166332586396,35.60863004311011],[139.79170512934965,35.60868729535621],[139.7916608567021,35.608708823098425]]]}},{"type":"Feature","properties":{"height":2.8,"gml_id":"bldg_3e956afc-579c-4751-87c2-4730d080a933"},"geometry":{"type":"Polygon","coordinates":[[[139.79642910596414,35.61607448917362],[139.79641113063235,35.61603554398404],[139.79642504148873,35.616031221614584],[139.7964431271728,35.61607025697404],[139.79642910596414,35.61607448917362]]]}},{"type":"Feature","properties":{"height":13.6,"gml_id":"bldg_f0798fd5-83ca-4be8-b249-78e73a5e805c"},"geometry":{"type":"Polygon","coordinates":[[[139.7914153486699,35.61066654069155],[139.7910004360368,35.61044258240262],[139.79113419317343,35.61027740592954],[139.79154899494714,35.61050136372544],[139.7914153486699,35.61066654069155]]]}},{"type":"Feature","properties":{"height":8.1,"gml_id":"bldg_1e96b65d-71f6-4408-b42f-3888a81f0290"},"geometry":{"type":"Polygon","coordinates":[[[139.79105341673184,35.609606839216454],[139.79095785631787,35.609554074773015],[139.79099264776713,35.609512172716634],[139.7910880978226,35.609564846955905],[139.79105341673184,35.609606839216454]]]}},{"type":"Feature","properties":{"height":26.6,"gml_id":"bldg_b6e1c606-d041-492c-ab23-b24d66c69d91"},"geometry":{"type":"Polygon","coordinates":[[[139.7901902127313,35.61070928448357],[139.78998430409538,35.61059536599547],[139.79005035258018,35.61051922293018],[139.79020561024322,35.61060752393048],[139.79021751028552,35.61064673832064],[139.79020900484844,35.610658182832566],[139.79022588817347,35.61066729283521],[139.7901902127313,35.61070928448357]]]}},{"type":"Feature","properties":{"height":3.9,"gml_id":"bldg_6b531855-d190-42a3-9701-af9c50e86c14"},"geometry":{"type":"Polygon","coordinates":[[[139.78962603713128,35.60993551480743],[139.78959249139305,35.60991783553927],[139.78965522992826,35.6098387169183],[139.78968866526796,35.60985639612923],[139.78962603713128,35.60993551480743]]]}},{"type":"Feature","properties":{"height":7.2,"gml_id":"bldg_450d9ff3-9462-4f45-a8a6-8a63e9396e74"},"geometry":{"type":"Polygon","coordinates":[[[139.79185221123856,35.60878739954883],[139.7918308145949,35.60875512268356],[139.7918738717645,35.608736118332224],[139.7918952683739,35.6087684853282],[139.79185221123856,35.60878739954883]]]}},{"type":"Feature","properties":{"height":4.8,"gml_id":"bldg_495d6181-a4e1-46d7-a882-19b61476032f"},"geometry":{"type":"Polygon","coordinates":[[[139.7892096032002,35.60968378719599],[139.7891976736914,35.609699376743855],[139.78918167322408,35.60969116830175],[139.78917041767463,35.60968548546755],[139.78918168441683,35.60967079706197],[139.7891823471866,35.60966989592235],[139.7892096032002,35.60968378719599]]]}},{"type":"Feature","properties":{"height":30.1,"gml_id":"bldg_e17ed9ea-23e6-45c1-bafb-a36bfc70c128"},"geometry":{"type":"Polygon","coordinates":[[[139.78918118345578,35.610582545181884],[139.78877548294142,35.61107563223812],[139.78870243308415,35.61103531341607],[139.78918125809372,35.61044670688944],[139.78918457172702,35.61044265188296],[139.78922002775587,35.610398947823796],[139.78929539285758,35.61044368395593],[139.7891844970947,35.61057849017549],[139.78918118345578,35.610582545181884]]]}}]}