{"type":"FeatureCollection","crs":{"type":"name","properties":{"name":"urn:ogc:def:crs:OGC:1.3:CRS84"}},"features":[{"type":"Feature","properties":{"height":23.3,"gml_id":"bldg_6f8cc3f3-3999-4885-bcf3-b95482d9c590"},"geometry":{"type":"Polygon","coordinates":[[[139.83785422589992,35.64077182182289],[139.8378501375412,35.64072296729403],[139.83790921302017,35.64071962996611],[139.83789727951572,35.640579826704155],[139.83802614111292,35.640572520591576],[139.83804227373517,35.64076117835913],[139.83785422589992,35.64077182182289]]]}},{"type":"Feature","properties":{"height":3.0,"gml_id":"bldg_e40f991c-75e9-4316-8bdc-c334fa84e5cd"},"geometry":{"type":"Polygon","coordinates":[[[139.83820590686878,35.63874334694861],[139.83817256044006,35.63874560173838],[139.8381681410053,35.638701254108206],[139.83820159784023,35.638699089453],[139.83820590686878,35.63874334694861]]]}},{"type":"Feature","properties":{"height":12.9,"gml_id":"bldg_e0e13cdc-2395-466c-a7cd-09528f81d1a3"},"geometry":{"type":"Polygon","coordinates":[[[139.8377814061575,35.63983844764893],[139.83777665330183,35.639752276083385],[139.83798037865742,35.63974496723401],[139.83798513172613,35.63983104865382],[139.8377814061575,35.63983844764893]]]}},{"type":"Feature","properties":{"height":11.7,"gml_id":"bldg_9e65e849-c1b8-46ac-a2c5-85b29a5728de"},"geometry":{"type":"Polygon","coordinates":[[[139.83794628643176,35.64022693536901],[139.8379436345437,35.64019592806798],[139.8377215784388,35.64020873592958],[139.8377166063536,35.640151318332926],[139.8380140795962,35.640134180958995],[139.83802170379437,35.64022233542954],[139.83794628643176,35.64022693536901]]]}},{"type":"Feature","properties":{"height":7.8,"gml_id":"bldg_dd983653-7fee-4df5-a8b4-832da96bb7e1"},"geometry":{"type":"Polygon","coordinates":[[[139.83776683639434,35.63994264748626],[139.83776053807705,35.63986404755393],[139.83798966017275,35.63985178017368],[139.8379959587134,35.639930380094185],[139.83776683639434,35.63994264748626]]]}},{"type":"Feature","properties":{"height":10.8,"gml_id":"bldg_4763a0a4-1097-41a5-8b73-b04230440fbb"},"geometry":{"type":"Polygon","coordinates":[[[139.83777567563558,35.64004351136035],[139.83776827247152,35.63995364424526],[139.83799739480082,35.639941016299254],[139.83800479822025,35.640030883400456],[139.83777567563558,35.64004351136035]]]}},{"type":"Feature","properties":{"height":5.1,"gml_id":"bldg_5e01d425-16cc-4574-ae6c-03cb7b0d9e48"},"geometry":{"type":"Polygon","coordinates":[[[139.8393784410817,35.638662530325036],[139.83937291631466,35.63861178300859],[139.83944435694943,35.6386065514118],[139.83944988176125,35.638657298725015],[139.8393784410817,35.638662530325036]]]}},{"type":"Feature","properties":{"height":9.8,"gml_id":"bldg_39d89026-7caa-4660-865f-ef72ce522041"},"geometry":{"type":"Polygon","coordinates":[[[139.83981201416324,35.64087530075271],[139.83963505183272,35.63862492970228],[139.83973917644013,35.63861942580291],[139.83991614167772,35.64086979670212],[139.83981201416324,35.64087530075271]]]}},{"type":"Feature","properties":{"height":5.8,"gml_id":"bldg_14da2529-6e8d-43ce-ab1b-92eb8ece9e4c"},"geometry":{"type":"Polygon","coordinates":[[[139.84042335055432,35.640078989048355],[139.840400934043,35.64006691190049],[139.84040954597594,35.64005672582345],[139.84040435233482,35.64001291915734],[139.84039507630277,35.640005167850624],[139.84042356344202,35.63998894137298],[139.84045735221517,35.63998902951718],[139.84047733932684,35.63999966459398],[139.84046872723238,35.640007867644336],[139.8404723756332,35.64005861500994],[139.84048120984275,35.64006465371866],[139.84045658724474,35.64007889694966],[139.84042335055432,35.640078989048355]]]}},{"type":"Feature","properties":{"height":5.2,"gml_id":"bldg_03f5f504-dd17-4a07-a6ca-fe5f448d217e"},"geometry":{"type":"Polygon","coordinates":[[[139.84001144728208,35.6396797021214],[139.83998734950274,35.63936440140138],[139.84005625125215,35.63936088220092],[139.8400802388883,35.63967627305133],[139.84001144728208,35.6396797021214]]]}},{"type":"Feature","properties":{"height":5.7,"gml_id":"bldg_b415ee2b-6d24-48d6-97cc-1bd11e97a569"},"geometry":{"type":"Polygon","coordinates":[[[139.83998303836836,35.639306983853736],[139.83996336242916,35.63905027244546],[139.84003226391,35.63904675325859],[139.84005182964884,35.63930346466188],[139.83998303836836,35.639306983853736]]]}},{"type":"Feature","properties":{"height":5.2,"gml_id":"bldg_fac5e22a-bdb8-4b95-b328-052a82273960"},"geometry":{"type":"Polygon","coordinates":[[[139.83995860921965,35.63898762692494],[139.83994213892956,35.63877147734216],[139.84001092975288,35.63876795817341],[139.8400275106469,35.638984107740754],[139.83995860921965,35.63898762692494]]]}},{"type":"Feature","properties":{"height":4.1,"gml_id":"bldg_c08a2408-d275-4051-ad1f-597533b0be10"},"geometry":{"type":"Polygon","coordinates":[[[139.84003775615167,35.64002474817136],[139.84001597951536,35.63973973364853],[139.84008488159327,35.63973630456971],[139.84010665846571,35.64002122894241],[139.84003775615167,35.64002474817136]]]}},{"type":"Feature","properties":{"height":8.5,"gml_id":"bldg_8e68957c-e007-4f76-a09b-3a9e758d1a37"},"geometry":{"type":"Polygon","coordinates":[[[139.84023256609794,35.640345447457655],[139.84010889589575,35.64035185426103],[139.84010447311869,35.64029470714685],[139.84015228529333,35.6402921805914],[139.8401385781219,35.64011596197127],[139.84021443700007,35.640112081736305],[139.84023256609794,35.640345447457655]]]}},{"type":"Feature","properties":{"height":2.8,"gml_id":"bldg_830ee359-408c-4df0-80c4-debcf4da1c29"},"geometry":{"type":"Polygon","coordinates":[[[139.83949451531572,35.63897377033278],[139.8394542123979,35.63897593569505],[139.83945189137114,35.63894682129816],[139.83949219427436,35.63894465593665],[139.83949451531572,35.63897377033278]]]}},{"type":"Feature","properties":{"height":7.9,"gml_id":"bldg_c58dfbd0-325f-4bef-8a9d-2ffec458b929"},"geometry":{"type":"Polygon","coordinates":[[[139.83875935316618,35.63912541749726],[139.83879358312376,35.63912361319423],[139.83894233994016,35.64101289465186],[139.83890810918027,35.64101469899667],[139.83875935316618,35.63912541749726]]]}},{"type":"Feature","properties":{"height":9.1,"gml_id":"bldg_533dcaf5-348b-4ef0-8a79-3ca988384ded"},"geometry":{"type":"Polygon","coordinates":[[[139.837559927768,35.634027899574086],[139.8375562813359,35.63397435779456],[139.83770014850802,35.633967862737116],[139.83770368462322,35.634021404516325],[139.837559927768,35.634027899574086]]]}},{"type":"Feature","properties":{"height":2.3,"gml_id":"bldg_e0b0ddd5-3af5-42c0-9b08-7a4920fc63a1"},"geometry":{"type":"Polygon","coordinates":[[[139.83783327221295,35.64124396433149],[139.8378353716111,35.641268391592064],[139.83779595088185,35.64127064650355],[139.83779385149563,35.641246219242284],[139.83783327221295,35.64124396433149]]]}},{"type":"Feature","properties":{"height":18.5,"gml_id":"bldg_7765cf02-c5f3-461b-9809-1e843e6d0be5"},"geometry":{"type":"Polygon","coordinates":[[[139.83810105314558,35.641350046199264],[139.83812448200956,35.64167264837929],[139.8378255674366,35.64168708194218],[139.8378067811451,35.641429468872026],[139.83802077989913,35.64141918502749],[139.8380161383459,35.64135410573051],[139.83810105314558,35.641350046199264]]]}},{"type":"Feature","properties":{"height":10.7,"gml_id":"bldg_e0f1997c-2c85-4729-b8b6-d216bea9bcc9"},"geometry":{"type":"Polygon","coordinates":[[[139.83776818978555,35.6404556216466],[139.83776609062824,35.640434799893306],[139.83789793329535,35.64042596146546],[139.8378945082957,35.64039188950863],[139.83801906310106,35.64038359205065],[139.83803552558695,35.64054926467504],[139.83777912763935,35.64056631045398],[139.83777283007865,35.64050249312861],[139.83776818978555,35.6404556216466]]]}},{"type":"Feature","properties":{"height":15.2,"gml_id":"bldg_3e6c55f5-e925-4d41-8c8e-8dda219880bf"},"geometry":{"type":"Polygon","coordinates":[[[139.83776652417922,35.64028751471889],[139.8377628780408,35.64024695284425],[139.837832443137,35.64024280392734],[139.83783608931037,35.64028336579991],[139.83776652417922,35.64028751471889]]]}},{"type":"Feature","properties":{"height":7.0,"gml_id":"bldg_c7e4c440-376e-4b7a-95d7-db7b78a40246"},"geometry":{"type":"Polygon","coordinates":[[[139.83772234796598,35.640146180269305],[139.8377171549487,35.6400870500619],[139.83776043981663,35.640084524620434],[139.8377580090158,35.64005658199168],[139.8380002716411,35.64004251135221],[139.8380078957524,35.640129584171376],[139.83772234796598,35.640146180269305]]]}},{"type":"Feature","properties":{"height":19.5,"gml_id":"bldg_f9562d3f-1a2d-4795-91a2-14fc056e79ed"},"geometry":{"type":"Polygon","coordinates":[[[139.83776652417922,35.64028751471889],[139.83783608931037,35.64028336579991],[139.837832443137,35.64024280392734],[139.83801264982455,35.64023198052596],[139.8380250250107,35.64036916977128],[139.83784581180882,35.64037999315372],[139.8378423865801,35.64034141430535],[139.837771717191,35.640345653406435],[139.83776652417922,35.64028751471889]]]}},{"type":"Feature","properties":{"height":3.2,"gml_id":"bldg_9e22b3df-3eb3-4957-b370-bfbc4a9aeca3"},"geometry":{"type":"Polygon","coordinates":[[[139.83809144277677,35.641289383852325],[139.83806869577631,35.641290286126534],[139.83806560095704,35.6412396288145],[139.8380883479432,35.641238726540884],[139.83809144277677,35.641289383852325]]]}},{"type":"Feature","properties":{"height":13.7,"gml_id":"bldg_24690c37-c191-4405-8eb0-e2d658de3dae"},"geometry":{"type":"Polygon","coordinates":[[[139.8378902339179,35.64095651279434],[139.83791463713717,35.640955249939644],[139.8379182836677,35.64100076938316],[139.83789354916294,35.64100194211331],[139.8378902339179,35.64095651279434]]]}},{"type":"Feature","properties":{"height":13.2,"gml_id":"bldg_046000c6-1ce3-4e94-bc31-b682a9bb63ac"},"geometry":{"type":"Polygon","coordinates":[[[139.83766765877647,35.639576060643215],[139.83766102961633,35.63950286898131],[139.83775002795088,35.63949754762024],[139.8377440616385,35.63943156696243],[139.83764015671937,35.639437790231135],[139.8376335275909,35.63936450842822],[139.8379477816646,35.63934565799725],[139.837966896569,35.63955802194267],[139.83766765877647,35.639576060643215]]]}},{"type":"Feature","properties":{"height":18.5,"gml_id":"bldg_1357de52-faaa-4e74-9859-ababbfafd7d8"},"geometry":{"type":"Polygon","coordinates":[[[139.83848168246092,35.6379436326845],[139.83851030523968,35.638323832821534],[139.83851759283812,35.63832347195681],[139.83851980314768,35.63835348775779],[139.8384358853119,35.63835763768172],[139.83843533272068,35.63834979571427],[139.83833385839068,35.63835484768771],[139.83830368921676,35.6379525638057],[139.83848168246092,35.6379436326845]]]}},{"type":"Feature","properties":{"height":29.6,"gml_id":"bldg_72941da0-b55d-4400-83e6-fe4e6205f774"},"geometry":{"type":"Polygon","coordinates":[[[139.83809767610558,35.638405424580824],[139.83806054953374,35.637965373164825],[139.83828646401426,35.63795265465305],[139.8383223772196,35.63839279618838],[139.83809767610558,35.638405424580824]]]}},{"type":"Feature","properties":{"height":24.3,"gml_id":"bldg_3b21c393-4571-4c4f-a169-e870cbd5d9d9"},"geometry":{"type":"Polygon","coordinates":[[[139.83773384792272,35.63842698136162],[139.837695287935,35.63798756085173],[139.83804740974725,35.63796465257711],[139.83808575098502,35.63840695739492],[139.83773384792272,35.63842698136162]]]}},{"type":"Feature","properties":{"height":25.6,"gml_id":"bldg_ccd27133-db33-4313-a278-d141cd42d551"},"geometry":{"type":"Polygon","coordinates":[[[139.83762964907075,35.63910626373305],[139.8375953972895,35.63869739980843],[139.83787762742432,35.638681615373216],[139.83791188063637,35.63909047921855],[139.83762964907075,35.63910626373305]]]}},{"type":"Feature","properties":{"height":32.4,"gml_id":"bldg_f8eba48b-87f4-4a7e-b392-0f8b164abffc"},"geometry":{"type":"Polygon","coordinates":[[[139.83762259537596,35.63935252048914],[139.83760337060906,35.63913258490928],[139.83791784464685,35.639114185236984],[139.83793707027615,35.639334210905076],[139.83762259537596,35.63935252048914]]]}},{"type":"Feature","properties":{"height":14.0,"gml_id":"bldg_480cd7fe-46d3-476e-b63a-dbacddf0c438"},"geometry":{"type":"Polygon","coordinates":[[[139.8378902339179,35.64095651279434],[139.8378212202916,35.640960211034674],[139.83782265679272,35.64097832867628],[139.83776556870384,35.640981395475166],[139.8377642426526,35.64096354824217],[139.83776104042042,35.64096372863552],[139.83774755963915,35.64079499119095],[139.8380633653204,35.64077830371281],[139.8380946380594,35.64117184405727],[139.83793253842444,35.64118041344509],[139.8379182836677,35.64100076938316],[139.83791463713717,35.640955249939644],[139.8378902339179,35.64095651279434]]]}},{"type":"Feature","properties":{"height":9.0,"gml_id":"bldg_ca68b753-92fa-45d5-b0c3-2baf4d5e477c"},"geometry":{"type":"Polygon","coordinates":[[[139.83767683831778,35.63984701455626],[139.8376704294224,35.639763727456085],[139.83776605329948,35.63975885653369],[139.8377705851485,35.63984223383579],[139.83767683831778,35.63984701455626]]]}},{"type":"Feature","properties":{"height":10.8,"gml_id":"bldg_3cf30ea9-d1a4-485e-a9a5-51b8fc289713"},"geometry":{"type":"Polygon","coordinates":[[[139.83885254436373,35.63908241752581],[139.8388453613797,35.63899922065089],[139.83886391177109,35.63899813814682],[139.83885473967877,35.63889231677035],[139.83901539909272,35.63888302510384],[139.83901716723088,35.63890321589162],[139.8392595365801,35.63888923284975],[139.83927423484727,35.63905815039407],[139.83885254436373,35.63908241752581]]]}},{"type":"Feature","properties":{"height":14.3,"gml_id":"bldg_71733f76-81ab-4ea0-b411-4f23f23e10e7"},"geometry":{"type":"Polygon","coordinates":[[[139.83810105314558,35.641350046199264],[139.8380161383459,35.64135410573051],[139.83801227038362,35.64129975279865],[139.838097185126,35.6412956932701],[139.83810105314558,35.641350046199264]]]}},{"type":"Feature","properties":{"height":11.7,"gml_id":"bldg_d58d9c4f-e152-4210-a1f7-d3ff861ce67b"},"geometry":{"type":"Polygon","coordinates":[[[139.83853941425534,35.63938691699747],[139.83821985988402,35.639403876292924],[139.8381723432262,35.6388057236728],[139.83845876959057,35.63879047853452],[139.838465068536,35.63886952913344],[139.83849808378503,35.63886781510384],[139.83853941425534,35.63938691699747]]]}},{"type":"Feature","properties":{"height":2.7,"gml_id":"bldg_b8eb0b1e-8dd6-4dcf-8f13-44b619b62d66"},"geometry":{"type":"Polygon","coordinates":[[[139.83842696517962,35.63873225085198],[139.83839361876167,35.63873450570294],[139.8383891992054,35.6386901580808],[139.83842254560506,35.63868790323104],[139.83842696517962,35.63873225085198]]]}},{"type":"Feature","properties":{"height":2.7,"gml_id":"bldg_66516ea1-f323-42a3-82d7-2cce699c7725"},"geometry":{"type":"Polygon","coordinates":[[[139.83831555261486,35.638736762402615],[139.83828220619193,35.63873901722273],[139.83827778669695,35.638694669596525],[139.8383111331016,35.638692414777616],[139.83831555261486,35.638736762402615]]]}},{"type":"Feature","properties":{"height":9.5,"gml_id":"bldg_cb6f52d8-6c96-472e-b7ff-402f717fde83"},"geometry":{"type":"Polygon","coordinates":[[[139.8381444483746,35.63396595291626],[139.83813726721928,35.63389339219955],[139.83824889486868,35.6339047450708],[139.83825419796372,35.63395855717598],[139.8381444483746,35.63396595291626]]]}},{"type":"Feature","properties":{"height":1.5,"gml_id":"bldg_8ff8ae8f-f1ea-4e81-badc-e2549e9cc1a6"},"geometry":{"type":"Polygon","coordinates":[[[139.8388445730833,35.63877549862285],[139.83884313648997,35.63875882319192],[139.83890629598267,35.63875539504927],[139.83890773258906,35.638772070479455],[139.8388445730833,35.63877549862285]]]}},{"type":"Feature","properties":{"height":7.3,"gml_id":"bldg_f7f39ffb-9cfa-4a49-9f2d-4cc0f66290db"},"geometry":{"type":"Polygon","coordinates":[[[139.83833427698124,35.64152896023487],[139.83831119574546,35.64148308106159],[139.8382797207817,35.64141088199676],[139.83825321481135,35.64133733065328],[139.8382300212418,35.64125846103929],[139.83821179666734,35.64117859970304],[139.838198209561,35.64109369045981],[139.83819743633708,35.64108927373957],[139.83818329468278,35.64096353209848],[139.83815787839964,35.64064426506973],[139.83815456304686,35.6405992864443],[139.83811909357465,35.640194659295545],[139.83811699423643,35.640172215067096],[139.83809710886567,35.64001077905552],[139.8381293516623,35.64000933557126],[139.83818257434973,35.640006809581976],[139.83820454800662,35.64000536649056],[139.83822410818368,35.64026288939046],[139.83825924972166,35.64071267555034],[139.8382723990396,35.640860951675585],[139.8382868717982,35.64098209626761],[139.8383033307179,35.64107926412273],[139.83832199711213,35.64116011694378],[139.83833569254733,35.641209151330024],[139.83835932726467,35.64127792547433],[139.83838771016894,35.64134624872515],[139.83842062036908,35.641413219710664],[139.8384579474347,35.6414785680186],[139.8385226616591,35.641578077355284],[139.83839645191986,35.64163730324606],[139.83838043890844,35.64161080341167],[139.83833427698124,35.64152896023487]]]}},{"type":"Feature","properties":{"height":6.9,"gml_id":"bldg_49c4e472-afed-4669-9344-98b25ea22a94"},"geometry":{"type":"Polygon","coordinates":[[[139.83810614242824,35.639658520160836],[139.83808251254862,35.6396597830241],[139.8380323447627,35.63902864003815],[139.83805586403784,35.63902737718895],[139.83810614242824,35.639658520160836]]]}},{"type":"Feature","properties":{"height":7.4,"gml_id":"bldg_3156ee31-a9d3-42ea-aa85-61edf45a3d35"},"geometry":{"type":"Polygon","coordinates":[[[139.83813948918953,35.639655454149526],[139.83811596973172,35.63965671701493],[139.83806580168465,35.63902557404262],[139.83808932095832,35.639024311186894],[139.83813948918953,35.639655454149526]]]}},{"type":"Feature","properties":{"height":3.0,"gml_id":"bldg_b99046b6-08d8-4ba2-8ede-648b9726fae6"},"geometry":{"type":"Polygon","coordinates":[[[139.83795685968798,35.63400381817656],[139.8379535450389,35.633964337907244],[139.83803889364887,35.63395982770902],[139.83804220833974,35.633999307976005],[139.83795685968798,35.63400381817656]]]}},{"type":"Feature","properties":{"height":4.0,"gml_id":"bldg_40735aff-f931-4e6c-a5d1-74190e2095c4"},"geometry":{"type":"Polygon","coordinates":[[[139.83794978761858,35.63390529773189],[139.83794680463373,35.633873118618396],[139.83802873125413,35.63388384186225],[139.83803027798226,35.633900156760554],[139.83794978761858,35.63390529773189]]]}},{"type":"Feature","properties":{"height":9.9,"gml_id":"bldg_4ea9415a-c91e-4988-ac98-0d8a18f3b3b2"},"geometry":{"type":"Polygon","coordinates":[[[139.83776818978555,35.6404556216466],[139.83777283007865,35.64050249312861],[139.83772833037372,35.640505469307655],[139.83772369010646,35.64045859782396],[139.83776818978555,35.6404556216466]]]}},{"type":"Feature","properties":{"height":3.9,"gml_id":"bldg_e9af42d8-71b6-4c4f-a5b8-b9ce984642fa"},"geometry":{"type":"Polygon","coordinates":[[[139.8376268323919,35.63392667235581],[139.83762440048008,35.63387358122362],[139.83767066320343,35.633872317636325],[139.83767298473333,35.63392540877155],[139.8376268323919,35.63392667235581]]]}},{"type":"Feature","properties":{"height":12.5,"gml_id":"bldg_d3d1e7d6-fc6e-4152-9008-1c10804ce503"},"geometry":{"type":"Polygon","coordinates":[[[139.83784980617432,35.640721164550655],[139.83783765214233,35.64058514707839],[139.83789518161262,35.640581719677265],[139.83790678364284,35.640717917440334],[139.83784980617432,35.640721164550655]]]}}]}