{"type":"FeatureCollection","crs":{"type":"name","properties":{"name":"urn:ogc:def:crs:OGC:1.3:CRS84"}},"features":[{"type":"Feature","properties":{"height":2.3,"gml_id":"bldg_a1aa227e-4212-49b5-889a-e840917dbc1e"},"geometry":{"type":"Polygon","coordinates":[[[139.82612357216098,35.5975608313468],[139.8261305258058,35.597551817918834],[139.8261549147959,35.59756434861683],[139.8261479611527,35.59757336204616],[139.82612357216098,35.5975608313468]]]}},{"type":"Feature","properties":{"height":2.1,"gml_id":"bldg_f9876d51-9de7-447d-9e97-ddd7987265e0"},"geometry":{"type":"Polygon","coordinates":[[[139.8260939961404,35.59754830033099],[139.82610591671428,35.59753243668142],[139.82612434641203,35.59754172204434],[139.8261124258485,35.597557495557275],[139.8260939961404,35.59754830033099]]]}},{"type":"Feature","properties":{"height":2.7,"gml_id":"bldg_72cdc6d6-9630-4519-af21-bb4e9be95b20"},"geometry":{"type":"Polygon","coordinates":[[[139.82609741951904,35.59752450398903],[139.8260488624931,35.59749745953239],[139.82609411596692,35.59744319891905],[139.82614278332963,35.59747033350272],[139.82609741951904,35.59752450398903]]]}},{"type":"Feature","properties":{"height":6.3,"gml_id":"bldg_a3a9a36d-8dcf-4060-92fd-9cfbe7b72a4a"},"geometry":{"type":"Polygon","coordinates":[[[139.82653605484268,35.59687445107714],[139.82647712459422,35.59684136692861],[139.82651310607042,35.59679864334562],[139.82657203630237,35.59683172747678],[139.82653605484268,35.59687445107714]]]}},{"type":"Feature","properties":{"height":1.5,"gml_id":"bldg_667b37bc-a56b-4462-8b76-6f50f62d5ac2"},"geometry":{"type":"Polygon","coordinates":[[[139.82694700887566,35.59172468155388],[139.82699324540084,35.591750103058956],[139.82696123951848,35.5917888609365],[139.8269151133429,35.59176334928666],[139.82694700887566,35.59172468155388]]]}},{"type":"Feature","properties":{"height":3.2,"gml_id":"bldg_6d377361-f101-44ff-b39b-039cc85a2b33"},"geometry":{"type":"Polygon","coordinates":[[[139.82636081101467,35.59675545831367],[139.82633918113888,35.596744460169475],[139.82635805508465,35.59671967318963],[139.82637968494856,35.59673076146894],[139.82636081101467,35.59675545831367]]]}}]}