{"type":"FeatureCollection","crs":{"type":"name","properties":{"name":"urn:ogc:def:crs:OGC:1.3:CRS84"}},"features":[{"type":"Feature","properties":{"height":3.1,"gml_id":"bldg_6c15c32b-c7e6-4e89-8aee-7be8ca492105"},"geometry":{"type":"Polygon","coordinates":[[[139.78411687259157,35.63518196036102],[139.78416301052405,35.63520676711459],[139.7841390324744,35.63523641268156],[139.7840930048912,35.63521169610189],[139.78411687259157,35.63518196036102]]]}},{"type":"Feature","properties":{"height":6.9,"gml_id":"bldg_0b7649a7-1114-4c4c-a3fc-44614c407abc"},"geometry":{"type":"Polygon","coordinates":[[[139.7849442077888,35.63669945079023],[139.7848900111539,35.636670035057385],[139.7849839675566,35.63655466031272],[139.78503816415358,35.636584066990046],[139.7849442077888,35.63669945079023]]]}},{"type":"Feature","properties":{"height":3.2,"gml_id":"bldg_e25bdf50-7cd4-4cf2-96ce-a1f2fb65dcd9"},"geometry":{"type":"Polygon","coordinates":[[[139.78649479621873,35.63427399418599],[139.78637177236166,35.63423927024783],[139.78639973439215,35.63417321909414],[139.7865227692014,35.63420794300835],[139.78649479621873,35.63427399418599]]]}},{"type":"Feature","properties":{"height":6.0,"gml_id":"bldg_8510ce46-f550-4e91-b9bf-ae92bca4b5c6"},"geometry":{"type":"Polygon","coordinates":[[[139.78098181495258,35.634744317354595],[139.78099747718713,35.63475267994051],[139.78097809534896,35.63477613440539],[139.7809877091046,35.63478115024872],[139.78090031281047,35.634888574604794],[139.78087588693705,35.63487526863544],[139.78098181495258,35.634744317354595]]]}},{"type":"Feature","properties":{"height":27.1,"gml_id":"bldg_79a555b6-049f-4183-acad-336b89e4d4f2"},"geometry":{"type":"Polygon","coordinates":[[[139.78404233949178,35.63401876375089],[139.78362225783744,35.633814410802344],[139.78346980084527,35.63372503016387],[139.7832666944808,35.63355306198761],[139.78306396083616,35.63338676329312],[139.78326251743982,35.633222245183724],[139.7834654282325,35.63338775040851],[139.78366096718912,35.6335665034186],[139.78381935570607,35.633651856190745],[139.78427673023094,35.63388094756967],[139.78424467332712,35.63392391315448],[139.78416829165732,35.633885140743466],[139.784165229194,35.63389173758654],[139.78414980358878,35.63391138134782],[139.7841301014243,35.6339368823227],[139.78411087594958,35.63395923767697],[139.78404233949178,35.63401876375089]]]}},{"type":"Feature","properties":{"height":3.7,"gml_id":"bldg_2c858c10-186b-4a79-a442-7c0070e36d08"},"geometry":{"type":"Polygon","coordinates":[[[139.77766606816013,35.633382253585616],[139.77765733613708,35.63339595141039],[139.77773062240192,35.63343510420042],[139.77771773665498,35.63345204417465],[139.7774281940053,35.63329169907249],[139.7774385825796,35.63327749816196],[139.77750171602955,35.63330907569949],[139.77750956277114,35.633298262789395],[139.77766606816013,35.633382253585616]]]}},{"type":"Feature","properties":{"height":6.2,"gml_id":"bldg_e1b1eb76-159e-4449-8926-627e79116dcc"},"geometry":{"type":"Polygon","coordinates":[[[139.780697215419,35.64009554997634],[139.78064302236484,35.640059561305826],[139.78067385006528,35.6400286584266],[139.78072804305395,35.64006473631982],[139.780697215419,35.64009554997634]]]}},{"type":"Feature","properties":{"height":3.4,"gml_id":"bldg_a99543f3-fe4c-4e18-bfb7-f8d83f651f7f"},"geometry":{"type":"Polygon","coordinates":[[[139.78371341862317,35.63518287740543],[139.78372587849006,35.63521028444733],[139.78369893241333,35.635218384853935],[139.78368659401002,35.63519097785936],[139.78371341862317,35.63518287740543]]]}},{"type":"Feature","properties":{"height":5.4,"gml_id":"bldg_60a33d94-4fb1-4fac-b7b7-1c8f63214255"},"geometry":{"type":"Polygon","coordinates":[[[139.77638928293632,35.634761226018455],[139.77645467911682,35.63479492340669],[139.77642674093028,35.63483106541093],[139.77636134473275,35.63479736710634],[139.77638928293632,35.634761226018455]]]}},{"type":"Feature","properties":{"height":3.1,"gml_id":"bldg_1f4fc981-5a84-4995-a1e5-53b864aa750e"},"geometry":{"type":"Polygon","coordinates":[[[139.78397698309988,35.63535298478748],[139.7840269846503,35.63537932642043],[139.7840099676499,35.635400771363265],[139.78395996609117,35.63537443062472],[139.78397698309988,35.63535298478748]]]}},{"type":"Feature","properties":{"height":4.6,"gml_id":"bldg_204bc995-3fe7-4c4c-b952-4f16e124f21f"},"geometry":{"type":"Polygon","coordinates":[[[139.7766490777104,35.63602417089661],[139.77661757923073,35.636066791271965],[139.77657122090696,35.63604396456151],[139.77660260898702,35.636001344146145],[139.7766490777104,35.63602417089661]]]}},{"type":"Feature","properties":{"height":7.2,"gml_id":"bldg_a35f86e9-6b32-40c4-9af6-02acc3facd8e"},"geometry":{"type":"Polygon","coordinates":[[[139.78142792157345,35.634347408008],[139.78128015693582,35.63453301023889],[139.78109113292297,35.634425782424984],[139.78124571875222,35.63424413141132],[139.78142792157345,35.634347408008]]]}},{"type":"Feature","properties":{"height":7.2,"gml_id":"bldg_0837d0d4-9f32-4492-979f-fb4b2861ac65"},"geometry":{"type":"Polygon","coordinates":[[[139.77583701284428,35.635814305676945],[139.7753489487154,35.63554960728053],[139.77554123915507,35.63531498071137],[139.7755783709828,35.63526965917753],[139.77585407988735,35.63541770727115],[139.77592836007202,35.63545794417479],[139.7758900125042,35.63550506799249],[139.77612035876086,35.63563001944264],[139.77602421357076,35.63574814356237],[139.7759316112928,35.635697982826684],[139.77583701284428,35.635814305676945]]]}},{"type":"Feature","properties":{"height":9.7,"gml_id":"bldg_b920b976-fa61-4170-aabf-96de98e2b38a"},"geometry":{"type":"Polygon","coordinates":[[[139.78143789506828,35.63683626271591],[139.7815547298304,35.63669448110467],[139.7816412545795,35.63674193076839],[139.7816277179596,35.63675842018318],[139.78188268998383,35.6368984232789],[139.78177942523854,35.63702376085722],[139.78143789506828,35.63683626271591]]]}},{"type":"Feature","properties":{"height":114.8,"gml_id":"bldg_7adea01b-c23d-45f8-9e66-9c738452b264"},"geometry":{"type":"Polygon","coordinates":[[[139.7864481658694,35.63688812715872],[139.7862587404247,35.63678520600805],[139.78630658513524,35.63672645482391],[139.7862481272747,35.636694720594505],[139.78624913279674,35.63669346897292],[139.78567058266978,35.636380796641156],[139.7857121294565,35.636329488583286],[139.7855579172921,35.63624599592973],[139.78585571320045,35.63588293925568],[139.78683381778097,35.63641136633516],[139.78656206731802,35.63674378864601],[139.7864481658694,35.63688812715872]]]}},{"type":"Feature","properties":{"height":5.8,"gml_id":"bldg_768c72e6-9d9d-441a-88b5-aa426c43945a"},"geometry":{"type":"Polygon","coordinates":[[[139.78396702712215,35.63520380344875],[139.78388995535548,35.635226034990254],[139.78384772671893,35.6351286687585],[139.7836918935496,35.63517367357373],[139.78364514456652,35.6350660296908],[139.78387817065928,35.634998701558864],[139.78396702712215,35.63520380344875]]]}},{"type":"Feature","properties":{"height":8.1,"gml_id":"bldg_57dde3ba-f61a-42f2-905e-99c36abe3121"},"geometry":{"type":"Polygon","coordinates":[[[139.77902428591764,35.63983022588074],[139.7790664839173,35.63978824068812],[139.77923099142555,35.639898417999504],[139.77918744571346,35.63994130402109],[139.779235412911,35.63997342363981],[139.7791069955831,35.64010119029477],[139.77896090540258,35.64022013335853],[139.7789014476958,35.64027928196077],[139.77894112609974,35.64030586258777],[139.77887506065792,35.6403715891517],[139.77880261312532,35.64032299013872],[139.7787644809543,35.640360938904315],[139.77862113121492,35.64026493122198],[139.77865956174136,35.640226694195704],[139.7785910987875,35.64018085507918],[139.77865745159468,35.64011484125984],[139.77872768045052,35.640161879972226],[139.77878661887684,35.64010323599107],[139.77875053870258,35.6400790717342],[139.7788774317289,35.639952819084776],[139.77885944132643,35.63994076944308],[139.7789921680956,35.63980871443403],[139.77902428591764,35.63983022588074]]]}},{"type":"Feature","properties":{"height":3.2,"gml_id":"bldg_a97346ab-03b4-4498-8404-db36baa98486"},"geometry":{"type":"Polygon","coordinates":[[[139.78385033118073,35.636438481008256],[139.7840193989674,35.63653005827779],[139.78398064676094,35.636577725325814],[139.7838115899654,35.636486138993355],[139.78385033118073,35.636438481008256]]]}},{"type":"Feature","properties":{"height":6.5,"gml_id":"bldg_7f96082f-cad6-4962-a3fe-b628e20e78cd"},"geometry":{"type":"Polygon","coordinates":[[[139.78009171460954,35.641022621350984],[139.78019624326896,35.64091801755195],[139.7803154466696,35.64099739131963],[139.78021102854382,35.64110190513171],[139.78009171460954,35.641022621350984]]]}},{"type":"Feature","properties":{"height":10.6,"gml_id":"bldg_bc4e505d-8be1-44fb-8469-cdc98dc23425"},"geometry":{"type":"Polygon","coordinates":[[[139.78027400632672,35.641379917772895],[139.7802035879289,35.64133265544409],[139.7803204537693,35.64129079197035],[139.78034638054072,35.64130819996765],[139.78027400632672,35.641379917772895]]]}},{"type":"Feature","properties":{"height":4.8,"gml_id":"bldg_4813fb51-dc3d-4a7f-8c26-844827eb297e"},"geometry":{"type":"Polygon","coordinates":[[[139.7786285594153,35.64164667455696],[139.77865187419312,35.641623907330384],[139.77871521656016,35.64166713008502],[139.77869190178774,35.64168989732369],[139.7786285594153,35.64164667455696]]]}},{"type":"Feature","properties":{"height":3.6,"gml_id":"bldg_d4781290-a829-4799-9e7e-398c47b88023"},"geometry":{"type":"Polygon","coordinates":[[[139.7839560270703,35.635495583306444],[139.78393421405488,35.63552349005795],[139.78390165217104,35.63550653979712],[139.78392347624015,35.6354786240422],[139.7839560270703,35.635495583306444]]]}},{"type":"Feature","properties":{"height":3.9,"gml_id":"bldg_e289b504-33d7-40c2-9cf1-6e368c4e1e3e"},"geometry":{"type":"Polygon","coordinates":[[[139.78634007985596,35.63683030668681],[139.78643169646733,35.636880008341976],[139.78640839261666,35.63690910477424],[139.78631677603934,35.63685931296374],[139.78634007985596,35.63683030668681]]]}},{"type":"Feature","properties":{"height":9.2,"gml_id":"bldg_a1ddce03-f390-4357-83e9-a23acd8684c6"},"geometry":{"type":"Polygon","coordinates":[[[139.77701684000877,35.63417978924858],[139.77702640990864,35.63416816593627],[139.7770852592232,35.634200679118976],[139.77707575565776,35.63421218528765],[139.77701684000877,35.63417978924858]]]}},{"type":"Feature","properties":{"height":3.5,"gml_id":"bldg_20732e96-9f4e-4791-b776-df12af73c2c9"},"geometry":{"type":"Polygon","coordinates":[[[139.7811628453856,35.634512075447255],[139.78118284598835,35.6344877459807],[139.78125657574654,35.63452824978117],[139.78123657515658,35.63455257835842],[139.7811628453856,35.634512075447255]]]}},{"type":"Feature","properties":{"height":6.1,"gml_id":"bldg_a95a6529-6b84-481b-9ea0-9c6790d340fb"},"geometry":{"type":"Polygon","coordinates":[[[139.7762576601283,35.634914794703256],[139.77625338448306,35.63488743583585],[139.77637705764482,35.63487370328014],[139.77638155422292,35.63490097210984],[139.7762576601283,35.634914794703256]]]}},{"type":"Feature","properties":{"height":7.3,"gml_id":"bldg_d879794e-8d2e-4e9f-ad2f-278fa9a268e0"},"geometry":{"type":"Polygon","coordinates":[[[139.78199134413546,35.641328445198205],[139.78205002729555,35.641269438971115],[139.78170446689694,35.64103543791704],[139.78163818225335,35.64110119203517],[139.78140253405277,35.64094130344002],[139.7814343445953,35.64084203038977],[139.78146130443943,35.640815902047315],[139.7823619604976,35.641425077052695],[139.78232638209462,35.641460125583905],[139.78221214371607,35.641382829087256],[139.78215575957512,35.64143840212006],[139.78199134413546,35.641328445198205]]]}},{"type":"Feature","properties":{"height":6.3,"gml_id":"bldg_ff89d57b-1eb3-40bf-86ef-eb2152e119ff"},"geometry":{"type":"Polygon","coordinates":[[[139.78076763201938,35.64014434526892],[139.78071752270213,35.640111062547845],[139.78074603002045,35.64008250131794],[139.7807961393317,35.64011578402732],[139.78076763201938,35.64014434526892]]]}},{"type":"Feature","properties":{"height":6.8,"gml_id":"bldg_c836c386-7660-4211-bef3-88cc098e57c0"},"geometry":{"type":"Polygon","coordinates":[[[139.78250199977236,35.635791108423895],[139.7827542230225,35.6359277644226],[139.78272582425916,35.63596275302273],[139.78247342402602,35.635826503412325],[139.78250199977236,35.635791108423895]]]}},{"type":"Feature","properties":{"height":3.2,"gml_id":"bldg_1b2f3711-5d7b-4fce-8b3d-d7e9196ac1ba"},"geometry":{"type":"Polygon","coordinates":[[[139.77751270419677,35.64140421482824],[139.77759761162082,35.64131983111327],[139.7778086528205,35.641461327694714],[139.777723745462,35.641545720570306],[139.77751270419677,35.64140421482824]]]}},{"type":"Feature","properties":{"height":7.8,"gml_id":"bldg_e5112af5-bb4c-472a-b008-b145f129b453"},"geometry":{"type":"Polygon","coordinates":[[[139.78611393373197,35.63555755295466],[139.78614376587933,35.63552322212068],[139.78624851398817,35.63558356533597],[139.78621868181025,35.63561798633339],[139.78611393373197,35.63555755295466]]]}},{"type":"Feature","properties":{"height":41.5,"gml_id":"bldg_9b11962a-91a8-4586-a258-85069ad45ce7"},"geometry":{"type":"Polygon","coordinates":[[[139.7831156399056,35.63450628831474],[139.78309889590042,35.63449720354837],[139.78327821194029,35.63427675678288],[139.78326873074892,35.63427149780471],[139.78328564806108,35.63425049369535],[139.78331223753506,35.63426492679942],[139.7831156399056,35.63450628831474]]]}},{"type":"Feature","properties":{"height":44.2,"gml_id":"bldg_0a14387a-5061-43fa-8ced-337ff3057ccf"},"geometry":{"type":"Polygon","coordinates":[[[139.77699782583178,35.63441737477684],[139.77700441801153,35.63441663872897],[139.77704309782501,35.634649862406164],[139.77703685898157,35.63465055265091],[139.77699782583178,35.63441737477684]]]}},{"type":"Feature","properties":{"height":5.2,"gml_id":"bldg_fd900b73-c167-47d2-bf99-4422862ee3de"},"geometry":{"type":"Polygon","coordinates":[[[139.77846962552195,35.64051874438838],[139.77841488169202,35.6404818530896],[139.77849830603103,35.6403996854392],[139.7787320708307,35.64055789329706],[139.77839616282762,35.640888725580844],[139.77854483264295,35.64098929781395],[139.77850516449993,35.641028219282354],[139.77852006460074,35.64103832059275],[139.77846282732904,35.641094721679785],[139.77844814794688,35.64108479983713],[139.77822317598074,35.641306436032465],[139.77799901227658,35.64115472243799],[139.7783246468756,35.640833980214474],[139.77822078800662,35.64076380555034],[139.77846962552195,35.64051874438838]]]}},{"type":"Feature","properties":{"height":120.5,"gml_id":"bldg_852b4cdf-bda1-4cfa-8896-ff810c8725d1"},"geometry":{"type":"Polygon","coordinates":[[[139.78791669813478,35.637116099434714],[139.78749697435074,35.63763166315765],[139.78670578433662,35.637201528243],[139.78712606307,35.63668589444221],[139.78791669813478,35.637116099434714]]]}},{"type":"Feature","properties":{"height":29.7,"gml_id":"bldg_0e9072c6-e636-4b1e-93e4-4dedee6f4c1d"},"geometry":{"type":"Polygon","coordinates":[[[139.7827902060142,35.63429882608779],[139.7828605712907,35.63421244942231],[139.78287993109905,35.63422295859486],[139.78280806472858,35.634308523401074],[139.7827902060142,35.63429882608779]]]}},{"type":"Feature","properties":{"height":15.7,"gml_id":"bldg_cf933dd7-ce6b-4307-b421-a1a44d4cc4eb"},"geometry":{"type":"Polygon","coordinates":[[[139.77661070662418,35.63422950803927],[139.77664933660316,35.634250077657796],[139.77661938829485,35.63428747077931],[139.77658075830556,35.63426690115128],[139.77632503677802,35.63458523840324],[139.77633519102793,35.63459056044105],[139.77636728760072,35.63460695367407],[139.77634918511333,35.6346305882749],[139.77630665851927,35.634608493386835],[139.77619378171477,35.63454812865124],[139.7765010015147,35.6341655485801],[139.77661369031767,35.634225903929206],[139.77661070662418,35.63422950803927]]]}},{"type":"Feature","properties":{"height":35.9,"gml_id":"bldg_41a8f173-d56d-4838-8999-956d6bcba068"},"geometry":{"type":"Polygon","coordinates":[[[139.78051980589674,35.63540732304002],[139.78054507049532,35.63542143167489],[139.78047462399792,35.63550838381567],[139.78044935938442,35.635494275166195],[139.78051980589674,35.63540732304002]]]}},{"type":"Feature","properties":{"height":6.6,"gml_id":"bldg_39c09066-d3da-4c14-aa08-8b453ca8e7f0"},"geometry":{"type":"Polygon","coordinates":[[[139.78075667356953,35.63516133227053],[139.7807718678325,35.63514251811564],[139.78090088539082,35.63521219682487],[139.78088569114485,35.63523101099581],[139.78075667356953,35.63516133227053]]]}},{"type":"Feature","properties":{"height":109.4,"gml_id":"bldg_a17f2d51-1d97-4783-906e-07fd69f92eea"},"geometry":{"type":"Polygon","coordinates":[[[139.7832776267069,35.63427682865],[139.78309836595594,35.634497141132236],[139.78279264835098,35.634330393396425],[139.78299962057903,35.63407896833558],[139.78323067996553,35.63420471685969],[139.78322138718784,35.634216025297896],[139.7832849634957,35.63425050242473],[139.7832682890692,35.63427154269009],[139.7832776267069,35.63427682865]]]}},{"type":"Feature","properties":{"height":6.1,"gml_id":"bldg_11e2c785-a3af-4096-a96d-adce087a9fb0"},"geometry":{"type":"Polygon","coordinates":[[[139.78444163791264,35.635447179045215],[139.7843517135505,35.63556028355388],[139.78424340974215,35.635502893762336],[139.78433334523385,35.635389789338],[139.78444163791264,35.635447179045215]]]}},{"type":"Feature","properties":{"height":46.0,"gml_id":"bldg_cc2ec661-a073-4110-8d64-7859deae6406"},"geometry":{"type":"Polygon","coordinates":[[[139.77663061822955,35.63445810705645],[139.7766468613199,35.63445624884713],[139.7766860128758,35.63469232932796],[139.77666970348986,35.634694188412674],[139.77663061822955,35.63445810705645]]]}},{"type":"Feature","properties":{"height":51.0,"gml_id":"bldg_c1227aa3-1389-4bf0-8f0d-56c7d9a8460c"},"geometry":{"type":"Polygon","coordinates":[[[139.78329450995952,35.634239608721266],[139.78328564806108,35.63425049369535],[139.78322213800067,35.63421601659644],[139.78323101094517,35.63420513163158],[139.78329450995952,35.634239608721266]]]}},{"type":"Feature","properties":{"height":11.1,"gml_id":"bldg_1eca4c95-2767-4e93-a0e9-5bd0ac5baebb"},"geometry":{"type":"Polygon","coordinates":[[[139.78055839928572,35.64075961540559],[139.78051137318232,35.640806060817035],[139.78049296300176,35.64079361372915],[139.78038076764332,35.64090421759383],[139.77996333900336,35.64062217343851],[139.78021427031956,35.64037476510813],[139.78069372798993,35.64069884063468],[139.7806021621419,35.64078915469356],[139.78055839928572,35.64075961540559]]]}},{"type":"Feature","properties":{"height":3.8,"gml_id":"bldg_4ffa7ef7-aa3a-4d0f-9602-2bd66e7713a9"},"geometry":{"type":"Polygon","coordinates":[[[139.78171165476056,35.63519848458287],[139.781774734662,35.635232449404015],[139.78178002649864,35.63524498083151],[139.78177891413682,35.63525777993168],[139.78177206144852,35.63526868367986],[139.78174720543825,35.63528859440677],[139.78172103244196,35.635296063736796],[139.78169177218808,35.63529677229956],[139.7816683675463,35.63529180468156],[139.78164437018197,35.635281382562766],[139.78171165476056,35.63519848458287]]]}},{"type":"Feature","properties":{"height":3.0,"gml_id":"bldg_4d46f764-1328-4308-8d77-3c3d276dcae9"},"geometry":{"type":"Polygon","coordinates":[[[139.78717877481822,35.63413324558793],[139.78715564684376,35.63412717134654],[139.78714054391074,35.634105325147814],[139.78715045136346,35.63408016154889],[139.7871812290133,35.63407034921667],[139.7872056154904,35.634076749332856],[139.78721737208863,35.6341000625886],[139.7872079954277,35.634123847286645],[139.78717877481822,35.63413324558793]]]}},{"type":"Feature","properties":{"height":9.5,"gml_id":"bldg_b970be0c-a20b-4c08-82f9-f8cdc07b3a5c"},"geometry":{"type":"Polygon","coordinates":[[[139.78363915652648,35.63582102192536],[139.7836340730269,35.63582814071854],[139.78362832737093,35.63583471841117],[139.78361275014117,35.63584877258634],[139.78359507552136,35.63586201555417],[139.78357552450885,35.635874176991464],[139.78355420779985,35.63588480354973],[139.78353134622287,35.63589389892476],[139.78350714984884,35.635901009809224],[139.78348220382355,35.635906226582335],[139.78345658566147,35.63590919142844],[139.78343095774528,35.63591008219309],[139.7834055740312,35.63590889988292],[139.78338084305722,35.63590564466749],[139.7833571069999,35.635900496964865],[139.78333469693763,35.6358937273266],[139.78331648287826,35.63588659887501],[139.78329385446517,35.63587586307299],[139.7833384413185,35.63582070820643],[139.78328401393804,35.6357913817893],[139.78324603503572,35.63583828275638],[139.78302497046454,35.63571900135271],[139.78318806867222,35.63551761124879],[139.78347274365336,35.63567123418441],[139.78343893078053,35.63571295401098],[139.78363915652648,35.63582102192536]]]}},{"type":"Feature","properties":{"height":3.2,"gml_id":"bldg_9e6f44dc-c849-4b4e-87af-0c16fea324ad"},"geometry":{"type":"Polygon","coordinates":[[[139.78423667501914,35.63510476109907],[139.7841918917209,35.63515781601269],[139.78417145006424,35.63514631509445],[139.78421624440543,35.63509326920662],[139.78423667501914,35.63510476109907]]]}},{"type":"Feature","properties":{"height":6.9,"gml_id":"bldg_13a6d544-65d3-4ebc-bfe5-5c3210f01fa3"},"geometry":{"type":"Polygon","coordinates":[[[139.78488355350368,35.63666722015962],[139.78482826452264,35.63663659611243],[139.78492440740715,35.636520897797766],[139.78497970738692,35.63655152180581],[139.78488355350368,35.63666722015962]]]}},{"type":"Feature","properties":{"height":8.0,"gml_id":"bldg_8d839ee4-dbc0-4d5c-9758-1fdf97f20854"},"geometry":{"type":"Polygon","coordinates":[[[139.78292313932684,35.63543042840506],[139.7828362870904,35.63553603269644],[139.78282524942654,35.6355299888326],[139.7827839228003,35.63558008814616],[139.78256283878136,35.63545884989018],[139.78282858692032,35.63531465088753],[139.78294878677232,35.63538059199768],[139.78291254321618,35.63542456410822],[139.78292313932684,35.63543042840506]]]}},{"type":"Feature","properties":{"height":3.9,"gml_id":"bldg_47e8f925-6a47-489a-913c-fa443328a05d"},"geometry":{"type":"Polygon","coordinates":[[[139.77792163960743,35.63358806606903],[139.77785986850898,35.6336615901524],[139.77770380639384,35.633574174576644],[139.77775253823944,35.633516148273074],[139.77778509713679,35.63353437114357],[139.7777980260499,35.633518873388404],[139.77792163960743,35.63358806606903]]]}},{"type":"Feature","properties":{"height":3.1,"gml_id":"bldg_d56c3a85-8b5b-49da-a7d8-37774bc58b95"},"geometry":{"type":"Polygon","coordinates":[[[139.78397100020874,35.635350431434574],[139.78395583997892,35.635368922411644],[139.7839370537646,35.63535864710608],[139.7839522139962,35.635340157032715],[139.78397100020874,35.635350431434574]]]}},{"type":"Feature","properties":{"height":4.1,"gml_id":"bldg_7384a036-21e4-48c8-b419-3dff6ce9bc94"},"geometry":{"type":"Polygon","coordinates":[[[139.78555687203988,35.63503381260575],[139.78559090333562,35.63499380488547],[139.78565281360997,35.63502898317386],[139.78561890378552,35.635068990959496],[139.78555687203988,35.63503381260575]]]}},{"type":"Feature","properties":{"height":12.1,"gml_id":"bldg_8137b208-f40a-43a6-937d-048500cc1eae"},"geometry":{"type":"Polygon","coordinates":[[[139.78088832274472,35.63490414520857],[139.78110722778976,35.63463463795019],[139.78184630243692,35.635030121413934],[139.78162507811746,35.63530269278854],[139.78088832274472,35.63490414520857]]]}},{"type":"Feature","properties":{"height":44.1,"gml_id":"bldg_2eff289b-68a9-4112-b1ef-13f6b69ead07"},"geometry":{"type":"Polygon","coordinates":[[[139.78146152071025,35.63554293000052],[139.78138227902517,35.63564078556355],[139.78137245555223,35.635635463193196],[139.77997136891213,35.63736321675614],[139.77998053024,35.63736817839469],[139.77990073140194,35.63746822305433],[139.77919814803568,35.63708861838726],[139.780756098997,35.63516197199858],[139.78146152071025,35.63554293000052]]]}},{"type":"Feature","properties":{"height":4.8,"gml_id":"bldg_77f3a3b9-6ee8-4471-879f-4286fd20af2c"},"geometry":{"type":"Polygon","coordinates":[[[139.78155412035113,35.640720576212225],[139.7815624128553,35.64070372401195],[139.7815678339262,35.64068759167934],[139.78156960782434,35.64067650459343],[139.7815698307017,35.64067335076831],[139.78157889103483,35.64066443102132],[139.7816806555712,35.640733249827626],[139.78162253683936,35.64079046238063],[139.7815425158303,35.640736434570954],[139.78154914619614,35.64072859633621],[139.78155412035113,35.640720576212225]]]}},{"type":"Feature","properties":{"height":3.8,"gml_id":"bldg_228e7611-4d6b-483d-8f6f-6c706467ba2a"},"geometry":{"type":"Polygon","coordinates":[[[139.78255774202992,35.64124740805837],[139.78245575535877,35.64117840962902],[139.7824823837738,35.64115219078162],[139.7825843704346,35.64122118918873],[139.78255774202992,35.64124740805837]]]}},{"type":"Feature","properties":{"height":5.1,"gml_id":"bldg_2252e149-6d66-4d1b-91ab-0f50f3050a43"},"geometry":{"type":"Polygon","coordinates":[[[139.78627085561376,35.63438888678117],[139.78629140559488,35.63436644957535],[139.786319219702,35.63438349739363],[139.7862986697248,35.63440593370275],[139.78627085561376,35.63438888678117]]]}},{"type":"Feature","properties":{"height":35.7,"gml_id":"bldg_497cd053-bf54-4783-8173-ee442036be43"},"geometry":{"type":"Polygon","coordinates":[[[139.77940406089613,35.636830736268166],[139.77937410474007,35.63681457015307],[139.77944069684787,35.636732385243036],[139.77947064193907,35.63674856035062],[139.77940406089613,35.636830736268166]]]}},{"type":"Feature","properties":{"height":4.3,"gml_id":"bldg_94e693e4-dc45-4b3e-8ba7-9c7c6b8af341"},"geometry":{"type":"Polygon","coordinates":[[[139.7772889955923,35.64167762498181],[139.77726671141212,35.64166295821129],[139.77726978334513,35.641659849888306],[139.77724928720133,35.64164636475139],[139.77729006215003,35.64160506457901],[139.77733285350897,35.64163321557535],[139.7772889955923,35.64167762498181]]]}},{"type":"Feature","properties":{"height":5.5,"gml_id":"bldg_ef574a16-5d7c-4cd8-831b-729cd8d3534e"},"geometry":{"type":"Polygon","coordinates":[[[139.78476787630538,35.638409618913734],[139.78474325042822,35.63841379137733],[139.7847404855184,35.63840289260022],[139.78471853204462,35.63840661544771],[139.78470142481459,35.63833930263567],[139.7847833968738,35.638325427436854],[139.78478269186925,35.63832265992175],[139.78482930428206,35.63831477361334],[139.78483205820814,35.638325591260156],[139.784840351485,35.638324188449126],[139.78484690580132,35.63834998943181],[139.78483779533832,35.638351535233404],[139.78484609014805,35.63838415944794],[139.784823551406,35.63838798123061],[139.7848265256317,35.638399691330484],[139.78476787630538,35.638409618913734]]]}},{"type":"Feature","properties":{"height":3.6,"gml_id":"bldg_6bf09318-9336-4c02-bb54-96c5b9436a7e"},"geometry":{"type":"Polygon","coordinates":[[[139.78350389436022,35.63511545703286],[139.7836484522445,35.63507369277357],[139.78368174988748,35.6351503236867],[139.78360577136024,35.63517228598498],[139.78350389436022,35.63511545703286]]]}},{"type":"Feature","properties":{"height":3.1,"gml_id":"bldg_dd6f1b50-941f-4ebc-84ef-91a205c2cc90"},"geometry":{"type":"Polygon","coordinates":[[[139.78191235238427,35.6376325914488],[139.78190342365616,35.63764350242625],[139.781357855352,35.6373460748322],[139.7813667841217,35.63733516299331],[139.78191235238427,35.6376325914488]]]}},{"type":"Feature","properties":{"height":3.0,"gml_id":"bldg_fcc03538-183a-4d02-b2f6-5265d123632d"},"geometry":{"type":"Polygon","coordinates":[[[139.77811491209985,35.633705793766936],[139.77814414961006,35.63372131088092],[139.77812095406352,35.63375044182917],[139.778091705506,35.633734924704555],[139.77811491209985,35.633705793766936]]]}},{"type":"Feature","properties":{"height":9.2,"gml_id":"bldg_f4589a1b-e4bc-42f9-81ce-f1fd54ba6982"},"geometry":{"type":"Polygon","coordinates":[[[139.78275496278712,35.63592779177456],[139.7829771754491,35.636047714128324],[139.78294872134606,35.63608300021209],[139.78272637605684,35.635963194930014],[139.78275496278712,35.63592779177456]]]}},{"type":"Feature","properties":{"height":8.4,"gml_id":"bldg_2955becc-5621-421a-8ba7-10d2264f142b"},"geometry":{"type":"Polygon","coordinates":[[[139.78550320388297,35.63523083267977],[139.78553050763153,35.63519659112976],[139.7855850239284,35.635225637142845],[139.78555784164885,35.63525987875321],[139.78550320388297,35.63523083267977]]]}},{"type":"Feature","properties":{"height":3.8,"gml_id":"bldg_ef9c4877-8cca-4d7d-abea-ad2e269ec4bc"},"geometry":{"type":"Polygon","coordinates":[[[139.78244615492451,35.64151678276089],[139.78245955455222,35.641525793183895],[139.78244485910915,35.64154029915683],[139.78232659184064,35.64146021581049],[139.78234126512564,35.641445836035274],[139.78242860529303,35.64150478702251],[139.78244540002345,35.64148829890748],[139.78240886573965,35.64146358571902],[139.78242234572429,35.641450341165324],[139.78247642969285,35.64148695994602],[139.78244615492451,35.64151678276089]]]}},{"type":"Feature","properties":{"height":15.3,"gml_id":"bldg_d4888cea-19ae-4142-9590-ee7fb579e71a"},"geometry":{"type":"Polygon","coordinates":[[[139.78587271802346,35.63586275507747],[139.78589459603032,35.63583599275264],[139.78687113057597,35.636367555711914],[139.78684836879597,35.63639540042628],[139.78686801655223,35.636406223646695],[139.7868534313284,35.636424065313285],[139.78688720783916,35.63644264673733],[139.78662953586576,35.636755595838885],[139.7865765527966,35.636726794272676],[139.78683514282855,35.63641126769501],[139.78585571358957,35.6358822812495],[139.7856416848008,35.636142622983506],[139.78558571122977,35.63611214323084],[139.7857998515904,35.63585001690954],[139.78583627683128,35.63586986160494],[139.78585152515046,35.63585120908061],[139.78587271802346,35.63586275507747]]]}},{"type":"Feature","properties":{"height":7.3,"gml_id":"bldg_ba766d5e-8646-4b75-8d61-d76e93bc8ffe"},"geometry":{"type":"Polygon","coordinates":[[[139.78043075588945,35.641473549720885],[139.78094288399336,35.64096900203862],[139.78101418529752,35.641017166600726],[139.78050204629147,35.64152171457737],[139.78043075588945,35.641473549720885]]]}},{"type":"Feature","properties":{"height":4.4,"gml_id":"bldg_9788c461-c436-4b46-a346-1b81ed4aee07"},"geometry":{"type":"Polygon","coordinates":[[[139.78524263426488,35.63444331156],[139.78511817619648,35.63437035829726],[139.78517014995532,35.634311257655476],[139.78529460797944,35.63438421086523],[139.78524263426488,35.63444331156]]]}},{"type":"Feature","properties":{"height":4.1,"gml_id":"bldg_300ad05c-b357-439c-9312-27931983d8da"},"geometry":{"type":"Polygon","coordinates":[[[139.77666351182924,35.634659310257994],[139.77662861794258,35.634663890868985],[139.7765981527325,35.634495048297126],[139.77663558592346,35.63449064916572],[139.77666351182924,35.634659310257994]]]}},{"type":"Feature","properties":{"height":6.0,"gml_id":"bldg_fff552ae-f8a5-49b6-8c44-f2b6fabab32d"},"geometry":{"type":"Polygon","coordinates":[[[139.78171436042652,35.63664014241429],[139.7817223936727,35.63663082560371],[139.78170593670168,35.63662137210601],[139.7817539814761,35.63656560637803],[139.78175754659986,35.636567654033485],[139.78176418756104,35.63655994107745],[139.78177796240612,35.63656785206233],[139.781772094937,35.63657466397177],[139.78177894925054,35.636578596915314],[139.78178492721642,35.63657165885985],[139.78180053429531,35.63658062523889],[139.78179408118217,35.63658812194646],[139.78179916948864,35.63659104458942],[139.7818047386076,35.63658458408864],[139.78182019117233,35.6365934512474],[139.78181588174613,35.63659843402705],[139.78186198559183,35.63662490017782],[139.78180433853723,35.63669180287816],[139.78171436042652,35.63664014241429]]]}},{"type":"Feature","properties":{"height":20.2,"gml_id":"bldg_a9690cb8-7bae-4fbf-a45f-ddb6fe1ca364"},"geometry":{"type":"Polygon","coordinates":[[[139.7817037956671,35.637031795802095],[139.7821589315291,35.637277200973834],[139.78214584837636,35.63729252786001],[139.7822717027625,35.63736039196349],[139.78201026250102,35.637679900578235],[139.78136714131338,35.63732920503688],[139.7816270359307,35.63701159904473],[139.7817037956671,35.637031795802095]]]}},{"type":"Feature","properties":{"height":6.8,"gml_id":"bldg_2fe66a94-9190-4413-8de9-1dd6d6601610"},"geometry":{"type":"Polygon","coordinates":[[[139.78011094229458,35.640335058872985],[139.77998887080741,35.640253159766594],[139.7802885296313,35.63995556698797],[139.7804106009724,35.640037465794606],[139.78011094229458,35.640335058872985]]]}},{"type":"Feature","properties":{"height":5.5,"gml_id":"bldg_bcd49518-2382-4dc9-9ccc-265e31194b82"},"geometry":{"type":"Polygon","coordinates":[[[139.77669361526063,35.63440220614415],[139.7766919653922,35.63439323665023],[139.77692705358749,35.63436657600995],[139.7769281308031,35.63437345403395],[139.77669361526063,35.63440220614415]]]}},{"type":"Feature","properties":{"height":5.7,"gml_id":"bldg_0d6b95eb-bcb4-4ae4-9321-a474a2537bc0"},"geometry":{"type":"Polygon","coordinates":[[[139.7847569009172,35.63457727788035],[139.78468749792347,35.63466371012026],[139.78464534470874,35.63464114059518],[139.7847147477228,35.63455471739301],[139.7847569009172,35.63457727788035]]]}},{"type":"Feature","properties":{"height":7.2,"gml_id":"bldg_c6be5939-5ab2-4f2c-82ee-ed51246a1721"},"geometry":{"type":"Polygon","coordinates":[[[139.78153310403752,35.63767958816897],[139.78150793773284,35.63766578625715],[139.78148275389185,35.63769624200421],[139.78135162435746,35.63762425640682],[139.7813594701286,35.637614794419235],[139.78132679811387,35.63759693302861],[139.78134061115594,35.63758017335585],[139.78132444068862,35.637571386951045],[139.78130117950903,35.637599626100204],[139.78121066943226,35.637549921028665],[139.78123054920187,35.637525772691546],[139.7812096546798,35.637514235024135],[139.78119002869698,35.63753864486741],[139.78101839104866,35.63744437641931],[139.7810572886807,35.63739716108422],[139.78104204552722,35.637388771650144],[139.78109409325458,35.63732542733901],[139.78110867413343,35.63733345592816],[139.78111707251725,35.63732318385638],[139.78128958202655,35.63741790323153],[139.78125522629688,35.63745953205989],[139.78127574555612,35.637470817171405],[139.78131012342772,35.63742908919522],[139.78140073274724,35.63747888437363],[139.78137013421505,35.637515917824935],[139.78138921866818,35.63752629190603],[139.78141971781994,35.6374892584071],[139.78158055000281,35.63757757344592],[139.7815558411698,35.6376077851393],[139.7815808528975,35.63762155993349],[139.78160571629292,35.6375913744414],[139.78180726758268,35.6377020599339],[139.78180174236238,35.63770881790718],[139.781818078443,35.63771774944047],[139.7817482399363,35.63780262757993],[139.7817032053788,35.637777911423996],[139.78168077312475,35.63780503329181],[139.78154996333043,35.63773322742287],[139.78158157851817,35.637694932434464],[139.7815394469849,35.637671875098654],[139.78153310403752,35.63767958816897]]]}},{"type":"Feature","properties":{"height":3.0,"gml_id":"bldg_5d0a4ed6-979f-4bff-9177-e6eb983d4195"},"geometry":{"type":"Polygon","coordinates":[[[139.7855286989914,35.63519297588373],[139.7855116056135,35.635213628697386],[139.7854698496325,35.63519061794482],[139.78548694301625,35.63516996513702],[139.7855286989914,35.63519297588373]]]}},{"type":"Feature","properties":{"height":6.8,"gml_id":"bldg_6fab7706-74de-42e0-915d-4c56bcaee123"},"geometry":{"type":"Polygon","coordinates":[[[139.7810517181532,35.64035548056064],[139.78091140241807,35.64049594528206],[139.78044936956894,35.64018855375291],[139.78058969667458,35.640048000331205],[139.7810517181532,35.64035548056064]]]}},{"type":"Feature","properties":{"height":6.9,"gml_id":"bldg_2ee233fd-4730-413a-86e4-6004391a8ed5"},"geometry":{"type":"Polygon","coordinates":[[[139.78470643848408,35.636570070337704],[139.78465107178337,35.63654037459715],[139.7847446093202,35.63642413544555],[139.78479998701758,35.63645383024672],[139.78470643848408,35.636570070337704]]]}},{"type":"Feature","properties":{"height":6.9,"gml_id":"bldg_daad4556-a160-48d5-b692-db2d543a816c"},"geometry":{"type":"Polygon","coordinates":[[[139.78003626057108,35.63739725358588],[139.77997279345504,35.637362974015055],[139.7800304894675,35.63729188081213],[139.78009395655147,35.6373261612543],[139.78003626057108,35.63739725358588]]]}},{"type":"Feature","properties":{"height":115.9,"gml_id":"bldg_ce4277a4-7b81-4cc9-92bd-6bfa6b6fb940"},"geometry":{"type":"Polygon","coordinates":[[[139.78253356977984,35.636328307266176],[139.78209935430408,35.63609475558436],[139.78236301290804,35.635768118625606],[139.7829485666853,35.63608312634038],[139.78268490942608,35.63640976456476],[139.78253875749377,35.636331193864805],[139.78253356977984,35.636328307266176]]]}},{"type":"Feature","properties":{"height":3.5,"gml_id":"bldg_0f299003-7870-4830-b63a-8fa6d41af738"},"geometry":{"type":"Polygon","coordinates":[[[139.78525922690426,35.63719474912856],[139.78540791065507,35.637274940907844],[139.78536404277676,35.63732900614582],[139.78521535896974,35.637248814313054],[139.78525922690426,35.63719474912856]]]}},{"type":"Feature","properties":{"height":4.2,"gml_id":"bldg_82a90675-61e6-49c3-b2ae-de9443a1a5e3"},"geometry":{"type":"Polygon","coordinates":[[[139.78404587479957,35.63518436505544],[139.78405634881807,35.635209338429746],[139.78401195583317,35.635221668247766],[139.78397745694036,35.635138997697645],[139.78413426069764,35.63509534497703],[139.7840797776956,35.63517500458431],[139.78404587479957,35.63518436505544]]]}},{"type":"Feature","properties":{"height":3.2,"gml_id":"bldg_013f2b33-3c8f-4e2d-a212-fe5d6394c420"},"geometry":{"type":"Polygon","coordinates":[[[139.78700470428498,35.63356763655829],[139.7870330301066,35.63350126089345],[139.7871588017746,35.63353703081305],[139.78713047603858,35.633603416422304],[139.78700470428498,35.63356763655829]]]}},{"type":"Feature","properties":{"height":3.1,"gml_id":"bldg_7f5e5cb0-37f1-450e-aed2-0fc47feb71fc"},"geometry":{"type":"Polygon","coordinates":[[[139.7773540960519,35.64155814159377],[139.77741816328532,35.64149496675056],[139.77765658697908,35.641656081265786],[139.77759250875582,35.641719265242834],[139.7773540960519,35.64155814159377]]]}},{"type":"Feature","properties":{"height":4.6,"gml_id":"bldg_439cb7e0-23b8-4a18-851f-350e65978c98"},"geometry":{"type":"Polygon","coordinates":[[[139.77751540423682,35.63347196120388],[139.77749507129138,35.63349664956138],[139.77746792039522,35.63348167408435],[139.77744858195487,35.63350519110264],[139.77742109989188,35.63349012532358],[139.7774018719104,35.63351355224771],[139.77738355051693,35.633503538434574],[139.77736487508267,35.63352624540768],[139.77735760170685,35.63352227505994],[139.777373166314,35.63351141166234],[139.77738220620628,35.633499643853575],[139.77738782491897,35.63348559396683],[139.77737593817258,35.63347898133892],[139.7774211126047,35.63342430664544],[139.77743265719587,35.633430738834406],[139.77744544881605,35.63342220871173],[139.7774548192139,35.63341145960878],[139.77746132241867,35.63339566055229],[139.77745003163216,35.63338943670228],[139.77749786916465,35.63333148219541],[139.7775896524487,35.63338192980831],[139.77776890389606,35.63348046122031],[139.77769464476503,35.633570474692306],[139.77751540423682,35.63347196120388]]]}},{"type":"Feature","properties":{"height":3.1,"gml_id":"bldg_5c0a86e3-6157-43c9-a719-c9934cabee44"},"geometry":{"type":"Polygon","coordinates":[[[139.77926693240644,35.63983424701633],[139.77924505456227,35.63985587026432],[139.77917172449025,35.63980640575019],[139.77919360233403,35.639784792430504],[139.77926693240644,35.63983424701633]]]}},{"type":"Feature","properties":{"height":3.0,"gml_id":"bldg_a29ce552-49f3-4928-a98d-490645fa7d7b"},"geometry":{"type":"Polygon","coordinates":[[[139.7817880383947,35.63545785382846],[139.78177276689817,35.63547685736703],[139.78166070162095,35.63541681359038],[139.78167597313254,35.635397810065804],[139.7817880383947,35.63545785382846]]]}},{"type":"Feature","properties":{"height":12.3,"gml_id":"bldg_36f9e4e1-0db4-44fe-9eb4-bb56fccc8468"},"geometry":{"type":"Polygon","coordinates":[[[139.78732744786532,35.63601747319656],[139.7871761820289,35.635935156428616],[139.78717244737862,35.635939706057755],[139.78713431086413,35.635918950717866],[139.78715787903587,35.63589007057234],[139.787124831092,35.63587208441186],[139.78709697577952,35.635906217942384],[139.78665110580872,35.63566359317875],[139.78670080580795,35.63560264318195],[139.78653669298117,35.63551372163925],[139.78654154363997,35.63550779155102],[139.78653040633748,35.63550173086164],[139.78678576690652,35.63518896128812],[139.78677930974786,35.635185389333444],[139.7868172418512,35.63513893791766],[139.7868208952835,35.63514113869226],[139.7870753143816,35.634829539914136],[139.7870868821151,35.63483582696508],[139.78708916929764,35.63483301644298],[139.78772455829656,35.63517875622696],[139.78768537780886,35.63522733470886],[139.78771263052514,35.635242398056086],[139.7877508935886,35.63519554085151],[139.7877909284555,35.63521733330177],[139.78775800212864,35.63525764943061],[139.78790582342424,35.635338080296755],[139.7877700628927,35.63550435140453],[139.78775340647297,35.63549528624843],[139.78732744786532,35.63601747319656]]]}},{"type":"Feature","properties":{"height":9.0,"gml_id":"bldg_93621089-6d57-4d6d-b23f-15ec8a8d19fe"},"geometry":{"type":"Polygon","coordinates":[[[139.78458910731828,35.633265325339856],[139.78423733788182,35.633081932152564],[139.7842218780441,35.63308562240594],[139.78420086812275,35.63311950478558],[139.78419403724288,35.63311365205007],[139.78418032908667,35.63310559714366],[139.78417538551398,35.633100934997344],[139.7842370458875,35.6330177628662],[139.78505934461572,35.63343967011376],[139.78489125697456,35.633653869411695],[139.78496292398188,35.63369296396926],[139.78486821870655,35.63381064598223],[139.7847950383125,35.6337726765815],[139.78438156038496,35.634307956221754],[139.7842944730335,35.63426132042075],[139.7843041970743,35.63424870417473],[139.78411534034,35.63415127825386],[139.78407300759662,35.63420606478032],[139.78405413298196,35.63419632216984],[139.78406783500944,35.634178660750216],[139.7840574705698,35.63417324823841],[139.7840989063104,35.63412278796869],[139.78353995533163,35.63383411700759],[139.78353210856648,35.6338461922402],[139.78346346760628,35.633789016426014],[139.78338895073747,35.633752930401094],[139.78339878487796,35.63374094613932],[139.7830144233266,35.63343287518283],[139.78302679684043,35.63342107228724],[139.7830486744459,35.63339540113681],[139.78306005255624,35.633386292945126],[139.78306532754812,35.633390585709925],[139.78314017074865,35.63345140590961],[139.78321476954724,35.63351480390411],[139.78330817473955,35.633590919104925],[139.7834169289954,35.6336822107996],[139.7834670397075,35.633726372075415],[139.7834980533234,35.63374603496823],[139.78353281900684,35.63376886324391],[139.78359175913718,35.633801147944034],[139.78366968559604,35.63384093090217],[139.78404188553856,35.63402081870881],[139.78408386166103,35.63398928761905],[139.78410717096912,35.63396928743817],[139.7841276139624,35.63394207324865],[139.78415080681762,35.63391386956295],[139.78416606685974,35.63389413559611],[139.78416916243575,35.63388755679411],[139.7842449926419,35.63392535458933],[139.78425593245288,35.63391066657197],[139.78428143011712,35.63392311688613],[139.78433445829535,35.63385553505522],[139.78375786086318,35.63355486957484],[139.7837283450591,35.6335949687841],[139.78372274936135,35.63359142406083],[139.78370626951903,35.63358387273178],[139.7836741589897,35.63357042895406],[139.78363630672303,35.63353967632485],[139.78365983382,35.63350670457543],[139.78353435037104,35.63343607480083],[139.78359204282253,35.633343256610225],[139.7836853085414,35.63339520459379],[139.7837260263257,35.63341640467351],[139.78380451774106,35.63345268141562],[139.78390772894133,35.63349139296039],[139.78401094628254,35.63352027037551],[139.78408281484008,35.63353589363397],[139.78406269157716,35.633564008426006],[139.78399776332301,35.6335738158961],[139.7842761729125,35.6336727117045],[139.78434422641894,35.633589632267736],[139.78421166334815,35.63352143404307],[139.78424116107604,35.63351045825912],[139.78428423524986,35.63348829287079],[139.7842955027059,35.633479373807006],[139.78437960655032,35.63352853316287],[139.78444247849689,35.63345040914667],[139.78435351449127,35.63340467309791],[139.7843573846194,35.63339530033087],[139.78436711091166,35.63336070034878],[139.78436779971074,35.633335633281426],[139.78448822241472,35.63339545260442],[139.78458910731828,35.633265325339856]]]}},{"type":"Feature","properties":{"height":15.4,"gml_id":"bldg_959d250f-3122-4050-9d1a-7903193b4e45"},"geometry":{"type":"Polygon","coordinates":[[[139.77718530243706,35.633429713405405],[139.7771505361152,35.63341058796421],[139.77732869272356,35.63319439407329],[139.7773956648413,35.633231057228286],[139.7773797520866,35.63325042858293],[139.7774127524991,35.63326856342473],[139.77740358062138,35.63327964522564],[139.77749776983183,35.63333142806665],[139.77744989911304,35.63338947269597],[139.7774611788703,35.63339567941466],[139.77745453228147,35.63341126117234],[139.77744515074897,35.633422144575555],[139.77743265752852,35.63343026110377],[139.77742102458294,35.63342386492894],[139.77737554067127,35.63347900819563],[139.77738753784826,35.633485593833505],[139.777381897116,35.633499553572136],[139.77737300081563,35.63351124032348],[139.77735739201856,35.63352213975567],[139.77734269078556,35.63351406558296],[139.77730091969192,35.63356479378992],[139.7773137225688,35.63357182959785],[139.77728664868002,35.63360471823358],[139.7772761635703,35.633598945431736],[139.77723602791875,35.633647627345155],[139.77724543139007,35.63365283267956],[139.7772170314936,35.63368716198651],[139.7771979596156,35.633676670065036],[139.77715859739274,35.633724451834944],[139.77717691874543,35.63373455581982],[139.77715227583292,35.63376456024405],[139.777140245573,35.63375788442972],[139.7770950485404,35.63381275730746],[139.777177715543,35.63385822536312],[139.77711163292665,35.633938236976434],[139.77735268133893,35.63407076177611],[139.77741699590618,35.63399264210704],[139.7776488842973,35.63412002420203],[139.77743870185375,35.63437492690698],[139.77741596549657,35.63436238719109],[139.7773993895409,35.634382480241094],[139.77727566398087,35.634314458773595],[139.77725179451045,35.63434347205853],[139.77705621795576,35.63423602664326],[139.77708550217554,35.6342006161359],[139.7770263437432,35.6341680487261],[139.77699882750537,35.63420147701284],[139.77688536688854,35.634139228766614],[139.77689719112226,35.634124902384556],[139.77666640765503,35.63399806019026],[139.77690642824606,35.63370702840859],[139.77694097394092,35.633725972638885],[139.77718530243706,35.633429713405405]]]}},{"type":"Feature","properties":{"height":40.2,"gml_id":"bldg_92e9cbf3-09d4-4fc9-af45-d97fededcc9b"},"geometry":{"type":"Polygon","coordinates":[[[139.78142792157345,35.634347408008],[139.78140090237807,35.63433208193814],[139.7820887391153,35.63352401998849],[139.782682101083,35.633860666423445],[139.7818396824702,35.63485038277921],[139.78128015693582,35.63453301023889],[139.78142792157345,35.634347408008]]]}},{"type":"Feature","properties":{"height":3.5,"gml_id":"bldg_aba9e4ff-64a2-4cb6-a89c-f234a1bb8016"},"geometry":{"type":"Polygon","coordinates":[[[139.78209384122138,35.63504473825471],[139.78212091460557,35.63501031710331],[139.7821595465458,35.63503061544156],[139.7821324731719,35.635065035700165],[139.78209384122138,35.63504473825471]]]}},{"type":"Feature","properties":{"height":7.0,"gml_id":"bldg_dd8824ca-bf41-4ea3-92d3-5811ca78138e"},"geometry":{"type":"Polygon","coordinates":[[[139.78466330827993,35.636518205632356],[139.78460592163134,35.6364875004122],[139.78468319385942,35.63639123558288],[139.78474058046774,35.63642194256943],[139.78466330827993,35.636518205632356]]]}},{"type":"Feature","properties":{"height":3.5,"gml_id":"bldg_06d266f7-1a96-4177-9f50-9c600f66a2ce"},"geometry":{"type":"Polygon","coordinates":[[[139.7820813434478,35.63506032678855],[139.78209384122138,35.63504473825471],[139.7821324731719,35.635065035700165],[139.78212020727207,35.63508062433653],[139.7820813434478,35.63506032678855]]]}},{"type":"Feature","properties":{"height":4.7,"gml_id":"bldg_5ec4280a-4004-48de-8862-7239ca405ed4"},"geometry":{"type":"Polygon","coordinates":[[[139.77551205213652,35.63521392216704],[139.77549839811618,35.63516208634371],[139.77553384552206,35.63515588384473],[139.77554749956423,35.635207719664116],[139.77551205213652,35.63521392216704]]]}},{"type":"Feature","properties":{"height":5.8,"gml_id":"bldg_7edcd40d-db8a-4884-945d-0815c3a21312"},"geometry":{"type":"Polygon","coordinates":[[[139.78507656956452,35.634099792798],[139.7851214311523,35.63404311403424],[139.78516425771505,35.6340656656366],[139.78511940718613,35.63412234442052],[139.78507656956452,35.634099792798]]]}},{"type":"Feature","properties":{"height":3.5,"gml_id":"bldg_d936a0c0-52fb-432b-9c3c-e9dc922a3fe2"},"geometry":{"type":"Polygon","coordinates":[[[139.78413612800853,35.63512923757648],[139.78417965399873,35.63507391069616],[139.78420095706107,35.63508509558057],[139.78415732066483,35.635140423324806],[139.78413612800853,35.63512923757648]]]}},{"type":"Feature","properties":{"height":3.5,"gml_id":"bldg_9b4cf786-188a-4bc7-898e-428312ac5dbb"},"geometry":{"type":"Polygon","coordinates":[[[139.7775901086639,35.641295607623064],[139.77763163512714,35.64125287358837],[139.77768273781493,35.64128596064385],[139.77764120032012,35.64132869378946],[139.7775901086639,35.641295607623064]]]}},{"type":"Feature","properties":{"height":4.6,"gml_id":"bldg_73ff51cd-c605-4eb1-a87f-8f67a1cd42be"},"geometry":{"type":"Polygon","coordinates":[[[139.7821609453041,35.635936861153226],[139.78220592391747,35.63596133465066],[139.78210149893357,35.63609072823603],[139.7820565313212,35.6360662547048],[139.7821609453041,35.635936861153226]]]}},{"type":"Feature","properties":{"height":6.1,"gml_id":"bldg_b63bb0df-ca47-47a2-b4fe-4e9047479f53"},"geometry":{"type":"Polygon","coordinates":[[[139.78524838798782,35.6339066960251],[139.7852785560914,35.63386407284472],[139.7853133372072,35.63388049180901],[139.78528315807466,35.633923114993586],[139.78524838798782,35.6339066960251]]]}},{"type":"Feature","properties":{"height":4.9,"gml_id":"bldg_2074e50a-35fc-4de8-a747-937463ce5629"},"geometry":{"type":"Polygon","coordinates":[[[139.77833606798637,35.64124789808016],[139.77837933341914,35.64127739287709],[139.77828938915323,35.641365326270524],[139.77836720088314,35.6414182726723],[139.77841813985992,35.64136844972105],[139.7784513616072,35.641391089441896],[139.77836296419952,35.64147758138911],[139.7782086652478,35.64137250037643],[139.77833606798637,35.64124789808016]]]}},{"type":"Feature","properties":{"height":11.1,"gml_id":"bldg_d561efd1-9c7d-43c8-b479-b5f532a23540"},"geometry":{"type":"Polygon","coordinates":[[[139.78792347697328,35.637195513422824],[139.7878986407672,35.637182072619055],[139.7878538907696,35.63723703981086],[139.78787773348793,35.63725002865831],[139.7875142057594,35.6376980562228],[139.78715292122268,35.63750267972398],[139.78716805912936,35.63748402699572],[139.78699475799772,35.63739030724899],[139.7869803935615,35.63740796873727],[139.78662043626676,35.637213222108436],[139.78710585351172,35.636615074399614],[139.7877619546228,35.63696992665863],[139.7877267189524,35.63701182741778],[139.78712578731995,35.63668538956452],[139.7867049119329,35.63720171719475],[139.78749701838856,35.637631889420334],[139.78791778047508,35.63711564825222],[139.78787583494798,35.63709291769615],[139.78792224217148,35.63703605822504],[139.78795502584433,35.637053917871],[139.7879225407885,35.63709374655279],[139.78794938592063,35.63710831393029],[139.787933806181,35.63712770572171],[139.7879825733508,35.6371542516563],[139.78795859623017,35.63718371769896],[139.78794093497845,35.637174066296744],[139.78792347697328,35.637195513422824]]]}},{"type":"Feature","properties":{"height":23.4,"gml_id":"bldg_fb17d399-1a30-4770-b60e-fe4e2df9102f"},"geometry":{"type":"Polygon","coordinates":[[[139.78522518744123,35.63779928995556],[139.78521900275055,35.63780145079318],[139.78521270769582,35.63780352144856],[139.78520652305852,35.63780559214774],[139.78520022811068,35.63780748342825],[139.78519393316367,35.63780937290568],[139.785187527798,35.63781126324],[139.78518123295797,35.63781297334255],[139.78517482769988,35.63781468340061],[139.78516831207784,35.63781630327637],[139.7851619068733,35.637817923195925],[139.78515539135893,35.6378193627954],[139.78514887584433,35.6378208023945],[139.7851423603836,35.63782215185545],[139.78513584497676,35.63782341117825],[139.78512921915248,35.637824669555116],[139.78512270385247,35.63782575040437],[139.78511607813553,35.63782682940629],[139.78510945247308,35.637827817368674],[139.78510282680998,35.637828806232086],[139.78509620125504,35.637829614819516],[139.78508957569994,35.637830423406584],[139.78508283978113,35.637831141811255],[139.7850762143341,35.637831770121984],[139.78506947852347,35.63783230825029],[139.78506274271268,35.63783284637823],[139.785056006956,35.637833294368],[139.7850493816713,35.63783365226384],[139.785042646023,35.63783391997726],[139.78503591042883,35.6378340975525],[139.78502917483465,35.637834275127354],[139.78502243929466,35.63783436256403],[139.78501570380897,35.63783435986254],[139.7850089683775,35.63783426702287],[139.78500223294603,35.6378341741828],[139.78499549762316,35.63783390106678],[139.78498887271815,35.63783362799468],[139.78498213744965,35.63783326474011],[139.78496327767743,35.63779729217681],[139.78492550681742,35.63781052726422],[139.78485205340027,35.63767006299271],[139.78477083617503,35.63776972271235],[139.7845561224051,35.63765318690399],[139.7845427518998,35.63766960460105],[139.78389590994468,35.637318524441994],[139.78390928052363,35.63730210681583],[139.7835432937754,35.63710346357688],[139.78353193570746,35.63709730156626],[139.78360108714892,35.63701239415532],[139.7836016587277,35.63699874842443],[139.7834561320518,35.636994721290115],[139.78345714008233,35.63697173655944],[139.78340822636514,35.636970364229406],[139.78339510176022,35.63694629198698],[139.78338451590233,35.636923572863296],[139.7833754762182,35.636900313552815],[139.7833679828188,35.636876333780265],[139.78336225631142,35.63685199418877],[139.78335807591785,35.63682720454917],[139.7833557727175,35.636802235412496],[139.78335523623616,35.636777176870844],[139.78335635599973,35.63675211901623],[139.78335935278315,35.63672715207805],[139.78336411600006,35.63670254642381],[139.78337053528887,35.636678211869715],[139.7833786104798,35.636654418828904],[139.78338834151546,35.6366312574389],[139.7833993970903,35.63660881769983],[139.78341343507014,35.636584486300926],[139.7836133951805,35.63659006740828],[139.78361440483502,35.636564379441495],[139.78375164964726,35.6365682208976],[139.7837800240965,35.63675112225166],[139.78378816597515,35.63679799727686],[139.78379466140652,35.63682900736459],[139.78380952930917,35.63689111844809],[139.78381592190132,35.63690986974614],[139.78382033300284,35.63691888534299],[139.78382849576664,35.63693195868419],[139.78383875717049,35.636943861095205],[139.78384471627575,35.636949361951544],[139.78390243550737,35.6369958967738],[139.7839416152253,35.63702547805481],[139.7840216318852,35.63708319905131],[139.784076595043,35.637122972323354],[139.78410529202912,35.63714155244798],[139.78415783277774,35.63717041801484],[139.78422936069876,35.637206772740136],[139.78426468276726,35.637225356428395],[139.78433775392864,35.63726612757002],[139.78443477721234,35.63732079142114],[139.78448389652792,35.637347581384596],[139.78451690110873,35.63736427026289],[139.78458489940854,35.63739503480014],[139.78465135323108,35.6374236353668],[139.78468480145895,35.637437169554154],[139.78473591302307,35.63745639044408],[139.78481572837242,35.63748346306508],[139.78483979548068,35.637489873443414],[139.78485194002596,35.63749213087618],[139.7848702681596,35.63749403114571],[139.78488848701969,35.63749403757273],[139.78489754167535,35.63749332101261],[139.78494370013988,35.637486669364385],[139.78496677996665,35.63748235201778],[139.7850009034756,35.63747479413649],[139.78530426419536,35.63740073203926],[139.7853997766636,35.6375830287734],[139.78537084125895,35.637593112692535],[139.78541683293798,35.63768092523905],[139.7854166119952,35.63768110542681],[139.7854123031802,35.63768534019058],[139.7854079944186,35.63768948481637],[139.78540346482131,35.63769362935415],[139.78539904569502,35.63769768379789],[139.78539440573303,35.63770173815358],[139.7853897658244,35.637705702371285],[139.7853851259153,35.637709666588805],[139.78538037564195,35.63771354062439],[139.78537551500494,35.63771732357663],[139.78537065436635,35.63772110833143],[139.7853656833102,35.63772489214069],[139.78536071236132,35.63772849567414],[139.78535563099436,35.637732099163394],[139.7853505496269,35.637735702652435],[139.78534535789524,35.637739215959456],[139.7853400557993,35.63774263908447],[139.78533486412064,35.63774606225326],[139.78532945166003,35.63774939519599],[139.785324039199,35.63775272813847],[139.78531862684534,35.63775588080513],[139.78531310401962,35.6377591235653],[139.78530758130134,35.63776218604962],[139.78530194816543,35.637765247588284],[139.78529631508198,35.637768220791635],[139.7852906819992,35.637771192191956],[139.7852849386051,35.63777398507512],[139.78527908473947,35.6377768671504],[139.78527334139906,35.63777956899382],[139.78526737722282,35.63778227074886],[139.78526152351787,35.63778488240986],[139.7852555594488,35.6377874038887],[139.78524959537936,35.637789925367244],[139.7852435209458,35.63779235666362],[139.78523744656587,35.637794697821874],[139.78523126176785,35.63779703893573],[139.78522518744123,35.63779928995556]]]}},{"type":"Feature","properties":{"height":3.5,"gml_id":"bldg_e579d71e-59e1-434e-aa1f-5f4bdacb22fd"},"geometry":{"type":"Polygon","coordinates":[[[139.78330102886682,35.64137183879598],[139.78332729839732,35.64138960684513],[139.78334893063467,35.641406651862134],[139.78336636681732,35.641423695134655],[139.78337243518635,35.641431539637686],[139.78337607476084,35.641438571893175],[139.78337717528566,35.64144452144234],[139.78337540566014,35.6414491177346],[139.7833708764184,35.64145218144155],[139.78336380840747,35.64145370995032],[139.7833544224716,35.64145370605626],[139.78334317134525,35.64145216904535],[139.78331721499558,35.64144566835095],[139.7832895049515,35.6414359219627],[139.78325936752594,35.64142310987488],[139.7832248159025,35.64140596933035],[139.78318872051616,35.641385402897974],[139.78315550813753,35.64136330531364],[139.7831292296411,35.6413422922635],[139.78311963977998,35.64133291393808],[139.78311267724624,35.64132470759694],[139.7831081543751,35.64131758572865],[139.78310585015305,35.64131181595055],[139.78310573156494,35.641307218874815],[139.78310727962435,35.64130379428503],[139.78311059388062,35.64130127180937],[139.78311578475683,35.641299650592316],[139.7831231834627,35.6412990236136],[139.7831329001971,35.6412997487657],[139.78314504538267,35.64130182699542],[139.78315928769615,35.64130534830182],[139.78319318126572,35.641316990187505],[139.78323104486833,35.64133341101681],[139.7832682453681,35.64135253569169],[139.78330102886682,35.64137183879598]]]}},{"type":"Feature","properties":{"height":3.1,"gml_id":"bldg_27e5e6f2-be89-4ea0-b7e5-f99e3d97b562"},"geometry":{"type":"Polygon","coordinates":[[[139.777218384036,35.641561314392796],[139.7772325059882,35.64154715131434],[139.77725384082046,35.64156134893311],[139.7771814520136,35.641633867095194],[139.77715903552797,35.64161895687101],[139.77717332324247,35.64160464064273],[139.77716635879514,35.641600004314434],[139.77721032690792,35.64155595555445],[139.777218384036,35.641561314392796]]]}},{"type":"Feature","properties":{"height":12.0,"gml_id":"bldg_d1f9f36f-a6bd-40a8-a29f-9071785b1391"},"geometry":{"type":"Polygon","coordinates":[[[139.77727082756692,35.63491576624127],[139.77717569131238,35.63485794355729],[139.77724154869492,35.63478523298363],[139.77733668497436,35.634842964577054],[139.77727082756692,35.63491576624127]]]}},{"type":"Feature","properties":{"height":103.2,"gml_id":"bldg_04048596-6885-46f6-95ab-11b92075d918"},"geometry":{"type":"Polygon","coordinates":[[[139.77669526512943,35.63441117563804],[139.77669361526063,35.63440220614415],[139.7769281308031,35.63437345403395],[139.776929911534,35.63438478519819],[139.77693874527372,35.63438379781739],[139.7769434708756,35.63441534828449],[139.77698090382142,35.63441121855781],[139.7769818919709,35.63441915205408],[139.77699782583178,35.63441737477684],[139.77703685898157,35.63465055265091],[139.777027307476,35.63465161181365],[139.77702869279958,35.63466000429661],[139.777019969463,35.6346609646942],[139.77702099198956,35.63466712158854],[139.7769922712239,35.634670290025895],[139.77699665814913,35.63469675655534],[139.77698856420923,35.63469765414848],[139.77698976266163,35.63470485672458],[139.7769813816268,35.63470578122432],[139.77698277796884,35.634714200754246],[139.7769136868556,35.634721839147346],[139.77690765074837,35.63468542062202],[139.77682484522842,35.634694575869496],[139.77683088131144,35.63473097637129],[139.77676042204422,35.6347387582553],[139.77675906859577,35.6347306091566],[139.7767509525671,35.634731506723384],[139.77674984213624,35.63472477290318],[139.7767428524148,35.63472554480546],[139.77673877342679,35.634700926237876],[139.7767070822738,35.63470443573558],[139.77670597182788,35.63469772895632],[139.77669767912832,35.63469864356267],[139.77669644775622,35.63469118858217],[139.7766862116264,35.63469232040763],[139.77664706006993,35.63445623992687],[139.77665780410817,35.63445505516227],[139.776656043225,35.634446941925475],[139.7766898323123,35.63444317202767],[139.7766848854735,35.63441234254975],[139.77669526512943,35.63441117563804]]]}},{"type":"Feature","properties":{"height":8.9,"gml_id":"bldg_009d7005-204e-4bf4-b799-04b171d49720"},"geometry":{"type":"Polygon","coordinates":[[[139.78237956954428,35.6357769591396],[139.78240807907625,35.63574154701897],[139.78250049802585,35.635791270038325],[139.78247192228505,35.63582665511125],[139.78237956954428,35.6357769591396]]]}},{"type":"Feature","properties":{"height":3.6,"gml_id":"bldg_819ed888-cac1-4b64-bdb7-cb685e6c239d"},"geometry":{"type":"Polygon","coordinates":[[[139.78578320140477,35.634879946680144],[139.78571137900832,35.63497005617587],[139.78567120099225,35.63494876774925],[139.78574291305438,35.634858568095716],[139.78578320140477,35.634879946680144]]]}},{"type":"Feature","properties":{"height":103.6,"gml_id":"bldg_b99304c3-3155-4907-a1fd-e917d8881bd8"},"geometry":{"type":"Polygon","coordinates":[[[139.77665557736177,35.63526323020483],[139.7766418847857,35.63526493638099],[139.77664803622508,35.63530991806681],[139.77658973262652,35.63531674109432],[139.77659182177067,35.63532909096483],[139.77620423652897,35.63537235422391],[139.77620016672,35.6353505389325],[139.7761551136781,35.635356106103345],[139.7761485173871,35.635315991625944],[139.77611594278602,35.635319311258755],[139.7760674749775,35.63500398599577],[139.7761021475092,35.63500039695898],[139.77609577017338,35.634962986716225],[139.7761360744336,35.63495849896676],[139.77613145779713,35.634929382245],[139.77651451346557,35.63488683818249],[139.7765196810317,35.634917757906926],[139.77656396052367,35.63491273106184],[139.7765709989634,35.63495239503829],[139.77660235967298,35.63494790291825],[139.77665557736177,35.63526323020483]]]}},{"type":"Feature","properties":{"height":4.2,"gml_id":"bldg_495fc5d2-f058-42a5-b347-73f439d665c8"},"geometry":{"type":"Polygon","coordinates":[[[139.77749162733522,35.64168582157476],[139.77745270888136,35.641725221670725],[139.77738995105403,35.64168391755733],[139.77739808392738,35.64167569265796],[139.77728261234475,35.6415996979157],[139.77731339795037,35.64156852457099],[139.77749162733522,35.64168582157476]]]}},{"type":"Feature","properties":{"height":5.4,"gml_id":"bldg_572de191-da9b-4990-b65f-dd013b21e165"},"geometry":{"type":"Polygon","coordinates":[[[139.77608118971497,35.63518791881873],[139.77603439283018,35.635192619792385],[139.77602466729346,35.63512801336217],[139.77607146413473,35.635123321406],[139.77608118971497,35.63518791881873]]]}},{"type":"Feature","properties":{"height":35.7,"gml_id":"bldg_ffd32b21-574a-4bed-94c1-4d8170056db6"},"geometry":{"type":"Polygon","coordinates":[[[139.77994048473073,35.63616866941106],[139.77991180907702,35.63615318904314],[139.7799808533191,35.63606797628073],[139.78000952895576,35.63608345663242],[139.77994048473073,35.63616866941106]]]}},{"type":"Feature","properties":{"height":3.4,"gml_id":"bldg_a2e24422-f75c-4af0-b778-e1d06fe6c820"},"geometry":{"type":"Polygon","coordinates":[[[139.78647111828647,35.63570192202123],[139.786449195958,35.63572934244055],[139.78637027388825,35.63568728041581],[139.78639218519066,35.635659860006385],[139.78647111828647,35.63570192202123]]]}},{"type":"Feature","properties":{"height":4.8,"gml_id":"bldg_03dc258e-fe0a-4be3-95a6-0d6e23b4a459"},"geometry":{"type":"Polygon","coordinates":[[[139.78500750131732,35.63419999843131],[139.7850381200198,35.63416125142286],[139.78507409221004,35.634180104655655],[139.78504349554606,35.63421894181984],[139.78500750131732,35.63419999843131]]]}},{"type":"Feature","properties":{"height":4.0,"gml_id":"bldg_c4272b30-48dc-4e00-a4e7-92972dccd2c3"},"geometry":{"type":"Polygon","coordinates":[[[139.78171209594794,35.63494163783142],[139.78185414801146,35.635020479114104],[139.78184728571057,35.63502920242799],[139.78121063870296,35.6346891981222],[139.7812211476712,35.63467588029177],[139.78171209594794,35.63494163783142]]]}},{"type":"Feature","properties":{"height":4.7,"gml_id":"bldg_1cfcbf82-3085-4092-bc30-7e0f8846bf0d"},"geometry":{"type":"Polygon","coordinates":[[[139.78188286676578,35.63689824307873],[139.78168297299575,35.63678854992562],[139.78171048817262,35.636755120582386],[139.7819103818394,35.63686490382823],[139.78188286676578,35.63689824307873]]]}},{"type":"Feature","properties":{"height":3.8,"gml_id":"bldg_833cb1e1-f1a7-4d4b-b84d-952f964a309e"},"geometry":{"type":"Polygon","coordinates":[[[139.78595716629673,35.63458571507642],[139.7860288867367,35.63449893958808],[139.7860691745048,35.634521130220115],[139.7859974651304,35.634607904835086],[139.78595716629673,35.63458571507642]]]}},{"type":"Feature","properties":{"height":14.3,"gml_id":"bldg_b15807c0-62f4-4c19-b1c2-17c9d3c3c5fc"},"geometry":{"type":"Polygon","coordinates":[[[139.78136590365332,35.63705782743518],[139.78137693041683,35.637063807428675],[139.78133060687193,35.63712067342606],[139.78131885161076,35.63711429560597],[139.78129727003136,35.637140786807876],[139.78117445249592,35.637074121832505],[139.78126153026506,35.636967210965395],[139.7813850872447,35.6370342727785],[139.78136590365332,35.63705782743518]]]}},{"type":"Feature","properties":{"height":6.7,"gml_id":"bldg_83cf2ce2-3186-4789-9104-161e6f672101"},"geometry":{"type":"Polygon","coordinates":[[[139.78208679651087,35.63352300961776],[139.78140188698927,35.63432908978517],[139.78124670336874,35.634241138358206],[139.78191920606022,35.63343092455046],[139.78208679651087,35.63352300961776]]]}},{"type":"Feature","properties":{"height":9.2,"gml_id":"bldg_9a9ba669-6c25-45a0-8561-d11bbaad3e65"},"geometry":{"type":"Polygon","coordinates":[[[139.7853947914683,35.63581695607786],[139.78566253932894,35.63583150241633],[139.78514251668787,35.63647658334884],[139.78511193029289,35.6364601570074],[139.78508251564176,35.63649664204186],[139.78476576888266,35.63632646970807],[139.7847957361187,35.636289281897376],[139.784770536405,35.63627574205021],[139.78528187567701,35.63564143972681],[139.78538225364528,35.635826523727786],[139.78538562022186,35.6358283368387],[139.7853947914683,35.63581695607786]]]}}]}