{"type":"FeatureCollection","crs":{"type":"name","properties":{"name":"urn:ogc:def:crs:OGC:1.3:CRS84"}},"features":[{"type":"Feature","properties":{"height":9.9,"gml_id":"bldg_771a6023-cf14-488d-965d-635d3754b8a0"},"geometry":{"type":"Polygon","coordinates":[[[139.70105563860918,35.791950348572925],[139.70113543025442,35.79193403167294],[139.70115127623632,35.79198524602552],[139.7011315773091,35.79198928046409],[139.70114643299905,35.79203724885212],[139.70108622941933,35.79204962134466],[139.70105563860918,35.791950348572925]]]}},{"type":"Feature","properties":{"height":9.2,"gml_id":"bldg_23025e32-3b8f-4e94-9748-eca3ccbdeb73"},"geometry":{"type":"Polygon","coordinates":[[[139.70128971496413,35.79196115169532],[139.7013294457214,35.791952452180404],[139.70135685467042,35.79203594768795],[139.70132276826467,35.79204330137697],[139.70131660441447,35.79202427603124],[139.70131084954417,35.79202553160895],[139.70128971496413,35.79196115169532]]]}},{"type":"Feature","properties":{"height":9.4,"gml_id":"bldg_8927bf9e-3401-4d1f-9513-5df49d06d6b9"},"geometry":{"type":"Polygon","coordinates":[[[139.7008687358396,35.79177915587965],[139.70095737506702,35.79176447128174],[139.70096869507972,35.79180964160207],[139.70095087944065,35.79181214578174],[139.70095384746946,35.79182359625099],[139.70093946225904,35.791825563392884],[139.70093836373175,35.79182087514015],[139.7008690901048,35.791832336183134],[139.7008595293066,35.79179374767937],[139.7008719233207,35.791791688218105],[139.7008687358396,35.79177915587965]]]}},{"type":"Feature","properties":{"height":8.7,"gml_id":"bldg_d9e4bac0-0b18-403b-b6ed-d3bfc6cc6f04"},"geometry":{"type":"Polygon","coordinates":[[[139.7003255484023,35.79290335638253],[139.70033330502156,35.792962313532676],[139.700275878584,35.79296738771883],[139.7002681220067,35.792908430565134],[139.7003255484023,35.79290335638253]]]}},{"type":"Feature","properties":{"height":9.7,"gml_id":"bldg_3315db87-a4bc-49b7-82e9-e8ae57abd7e3"},"geometry":{"type":"Polygon","coordinates":[[[139.70019924817166,35.79307753852404],[139.70020538823223,35.793110715159024],[139.70015039272516,35.79311750454952],[139.70015115932787,35.79312219244075],[139.70010258181674,35.793128177699046],[139.70009556441596,35.79309040318007],[139.70019924817166,35.79307753852404]]]}},{"type":"Feature","properties":{"height":9.9,"gml_id":"bldg_8e53857f-870e-4acb-9e5f-a5164ea74b8b"},"geometry":{"type":"Polygon","coordinates":[[[139.70008428086342,35.79308984986389],[139.70009184871017,35.79312924743115],[139.70000564924126,35.79313942731999],[139.69998575521154,35.793127597518556],[139.6999800509919,35.79309847745007],[139.70002575191356,35.79309257918752],[139.70002662914064,35.79309726720221],[139.70008428086342,35.79308984986389]]]}},{"type":"Feature","properties":{"height":7.5,"gml_id":"bldg_bf4b0e97-2b63-4f31-87f0-5e332d2be4ec"},"geometry":{"type":"Polygon","coordinates":[[[139.70118715210717,35.79176571551301],[139.70119353164586,35.791788076114685],[139.70120738987396,35.79183712502601],[139.70119765128425,35.791839007169024],[139.70120810012813,35.791875884048096],[139.70112676152365,35.79189111767034],[139.701094975594,35.79177868381675],[139.70118605267078,35.791761568074165],[139.70118715210717,35.79176571551301]]]}},{"type":"Feature","properties":{"height":8.6,"gml_id":"bldg_aefcf96d-bf16-4cec-874a-5e953f4ce145"},"geometry":{"type":"Polygon","coordinates":[[[139.7008221230365,35.79226817943286],[139.70075052590764,35.79227954771022],[139.7007367919916,35.7922223866976],[139.7008833060978,35.79219902282508],[139.70089857847674,35.7922624949965],[139.70083328881492,35.79227296891561],[139.70082757536795,35.79224925699912],[139.70081794794842,35.79225077869195],[139.7008221230365,35.79226817943286]]]}},{"type":"Feature","properties":{"height":9.4,"gml_id":"bldg_b4dbe77a-c3bc-422b-9198-14b9244923f9"},"geometry":{"type":"Polygon","coordinates":[[[139.70072681324243,35.7927683260266],[139.70072379567983,35.792720100242676],[139.70079194956506,35.79271720091772],[139.70079356817467,35.792741809674865],[139.70080584916204,35.792741282398616],[139.70080595485462,35.79274425698436],[139.70081215066418,35.79274399340675],[139.7008132286941,35.79276103019147],[139.7008053732616,35.7927613820754],[139.7008055883884,35.79276507786521],[139.70072681324243,35.7927683260266]]]}},{"type":"Feature","properties":{"height":10.4,"gml_id":"bldg_b5fa4228-2f3b-4a0d-bb0d-ab31179d4caf"},"geometry":{"type":"Polygon","coordinates":[[[139.70022965193522,35.79235982374154],[139.70024379316675,35.79243789668243],[139.70013656990602,35.79245084759378],[139.70012231829665,35.792372684382826],[139.70022965193522,35.79235982374154]]]}},{"type":"Feature","properties":{"height":7.6,"gml_id":"bldg_186bde4a-1749-4909-8118-a67ffb90e5de"},"geometry":{"type":"Polygon","coordinates":[[[139.70010636035812,35.79298540737024],[139.7000920955938,35.79291508593031],[139.70020861720502,35.7928993511569],[139.70022299270104,35.792969672705865],[139.70010636035812,35.79298540737024]]]}},{"type":"Feature","properties":{"height":7.9,"gml_id":"bldg_2ae99f5b-2fac-484a-bcd6-8289547f0018"},"geometry":{"type":"Polygon","coordinates":[[[139.70101137997008,35.79222115688003],[139.7011408646321,35.792193086909364],[139.70116045778502,35.79225295838029],[139.70103097288325,35.792281118506864],[139.70101137997008,35.79222115688003]]]}},{"type":"Feature","properties":{"height":10.1,"gml_id":"bldg_9f3cb839-f7d4-495f-8885-d463bada19ec"},"geometry":{"type":"Polygon","coordinates":[[[139.70051063761153,35.792237279849836],[139.700515998823,35.79227315967652],[139.7004132057123,35.79228332152994],[139.70040784439627,35.79224753183411],[139.70051063761153,35.792237279849836]]]}},{"type":"Feature","properties":{"height":9.4,"gml_id":"bldg_9a8942ba-09fc-4170-a8af-b0e863d9cdad"},"geometry":{"type":"Polygon","coordinates":[[[139.7008438741211,35.79282740363955],[139.70086847644487,35.79286871277236],[139.70087164871086,35.79289043890566],[139.70084619924393,35.79289293465925],[139.70084838763927,35.79290753901008],[139.70081419676774,35.79291092647943],[139.70080226977194,35.79283150402021],[139.7008438741211,35.79282740363955]]]}},{"type":"Feature","properties":{"height":7.7,"gml_id":"bldg_fc5e89e2-7562-45b9-84c5-a691fa0875b0"},"geometry":{"type":"Polygon","coordinates":[[[139.70057531574088,35.792727507775915],[139.70049408573,35.7927433720349],[139.7004820945657,35.79270270770715],[139.70049205469027,35.792700735731785],[139.70048457361338,35.792675579680974],[139.7005754316304,35.792657833214584],[139.7005798583823,35.79265693674768],[139.7009836837379,35.79257797259476],[139.70098753490646,35.79259059579449],[139.70101741505022,35.79258476987531],[139.70103303638535,35.79263805710575],[139.70057974249667,35.792726611309035],[139.70057531574088,35.792727507775915]]]}},{"type":"Feature","properties":{"height":7.4,"gml_id":"bldg_2822356f-2a22-4045-ac0d-f9fa6bbf4506"},"geometry":{"type":"Polygon","coordinates":[[[139.70027697201917,35.79304148025013],[139.70033981992086,35.793036141653815],[139.70035041259533,35.793119348367945],[139.70032042697883,35.79312192912859],[139.70032097352936,35.79312589569193],[139.7002881111777,35.79312865353306],[139.70027697201917,35.79304148025013]]]}},{"type":"Feature","properties":{"height":8.3,"gml_id":"bldg_43d1c93c-1b9c-4b39-a20b-d973e4f498c5"},"geometry":{"type":"Polygon","coordinates":[[[139.69997990919498,35.7923887509092],[139.7000387791566,35.79238025331711],[139.7000598588064,35.792476992005625],[139.70000098877557,35.79248548960774],[139.69997990919498,35.7923887509092]]]}},{"type":"Feature","properties":{"height":9.0,"gml_id":"bldg_3ff74cca-068b-4dc9-9fdf-cb4e39d33ced"},"geometry":{"type":"Polygon","coordinates":[[[139.7000518772873,35.79281787536466],[139.70006351573602,35.79287088789722],[139.69996348020945,35.79288546905666],[139.69995985692867,35.79286897025424],[139.69994015968194,35.79287183273804],[139.69993214458714,35.792835318997184],[139.7000518772873,35.79281787536466]]]}},{"type":"Feature","properties":{"height":6.8,"gml_id":"bldg_73db86c0-54ef-496b-a8ec-c8e7908d3c56"},"geometry":{"type":"Polygon","coordinates":[[[139.70022197439206,35.79165648838622],[139.7002882648566,35.7916426808933],[139.70030961334552,35.79171093704633],[139.70029566900726,35.79171389608888],[139.70031030453603,35.791760872848336],[139.7002580689579,35.79177172143888],[139.70022197439206,35.79165648838622]]]}},{"type":"Feature","properties":{"height":6.5,"gml_id":"bldg_06ab6c5e-0b06-4f23-88f9-0f0e92a7dba6"},"geometry":{"type":"Polygon","coordinates":[[[139.7010870184102,35.79184050798171],[139.70101065444268,35.79185800038275],[139.70098235863398,35.79177585584977],[139.70105872252896,35.79175836346632],[139.7010870184102,35.79184050798171]]]}},{"type":"Feature","properties":{"height":8.1,"gml_id":"bldg_d6a41b96-0dad-4bf5-b639-fe5e8a8803cb"},"geometry":{"type":"Polygon","coordinates":[[[139.70034050509594,35.792956913370794],[139.70033548782902,35.79291382308653],[139.70039922007916,35.79290884597883],[139.70039954641965,35.79291218135048],[139.70044358367727,35.79290871474612],[139.70044827450945,35.79294855978977],[139.70034050509594,35.792956913370794]]]}},{"type":"Feature","properties":{"height":9.1,"gml_id":"bldg_36c371c6-dbec-475d-837f-f884565f5208"},"geometry":{"type":"Polygon","coordinates":[[[139.70057489955485,35.79297772327021],[139.700534622695,35.79298182502375],[139.70052794659597,35.79293828223838],[139.70057497301744,35.79293355699136],[139.7006088321634,35.79293007908849],[139.70061550845577,35.79297353173424],[139.70057489955485,35.79297772327021]]]}},{"type":"Feature","properties":{"height":9.6,"gml_id":"bldg_ebb32096-7a17-491c-9b65-bdf8c11a015f"},"geometry":{"type":"Polygon","coordinates":[[[139.70008401650247,35.7929831292257],[139.69998498495798,35.792992663931265],[139.69997634474444,35.792932984695824],[139.70007537621586,35.79292344999714],[139.70008401650247,35.7929831292257]]]}},{"type":"Feature","properties":{"height":3.0,"gml_id":"bldg_04b29579-e8e7-4846-9327-ee8ce4b4833b"},"geometry":{"type":"Polygon","coordinates":[[[139.70097674650498,35.79282520645095],[139.7009306747363,35.792854720149904],[139.70079317489234,35.79271215468416],[139.70083913599788,35.79268264091523],[139.70097674650498,35.79282520645095]]]}},{"type":"Feature","properties":{"height":3.8,"gml_id":"bldg_1d1b6a90-ba3d-4551-bb80-4f608da2ffeb"},"geometry":{"type":"Polygon","coordinates":[[[139.7011057295305,35.79189848565052],[139.70113682230868,35.79189509469124],[139.70114131217176,35.791922861344354],[139.70111021953227,35.79192616216949],[139.7011057295305,35.79189848565052]]]}},{"type":"Feature","properties":{"height":5.1,"gml_id":"bldg_79874aa5-1e2c-483d-88d6-a30f44f1f2bb"},"geometry":{"type":"Polygon","coordinates":[[[139.7017043931089,35.79200712475255],[139.7016628765168,35.7920253767928],[139.70160306357215,35.79193517583643],[139.70164469090992,35.791916833802375],[139.7017043931089,35.79200712475255]]]}},{"type":"Feature","properties":{"height":9.3,"gml_id":"bldg_3b827709-b24f-42b8-bf50-6d5c7386e1f9"},"geometry":{"type":"Polygon","coordinates":[[[139.7005747823142,35.79304820904519],[139.70056947123527,35.79304865385827],[139.70056870730744,35.79304234353487],[139.70054812708392,35.79304394324724],[139.70054288918575,35.79300040205136],[139.7005748661218,35.79299782343375],[139.7006160266931,35.792994533861],[139.70062202856272,35.793044385376895],[139.7005747823142,35.79304820904519]]]}},{"type":"Feature","properties":{"height":7.7,"gml_id":"bldg_717a0156-78c2-4d10-91c8-b8858ecced51"},"geometry":{"type":"Polygon","coordinates":[[[139.70125094931535,35.79218888138232],[139.7012720884233,35.79218367674538],[139.70125964278975,35.79215004255634],[139.70142410662257,35.79210984241103],[139.7014509798467,35.79218288159625],[139.70126548753908,35.79222819640318],[139.70125094931535,35.79218888138232]]]}},{"type":"Feature","properties":{"height":9.5,"gml_id":"bldg_ed6c806f-69e0-4330-b30e-ddab68485273"},"geometry":{"type":"Polygon","coordinates":[[[139.70104825975653,35.792330712017566],[139.701155612895,35.79230595269294],[139.70116827514377,35.79234238132854],[139.7010609219602,35.79236714066422],[139.70104825975653,35.792330712017566]]]}},{"type":"Feature","properties":{"height":9.2,"gml_id":"bldg_53a832f7-ee26-42b4-b923-458694dd87c9"},"geometry":{"type":"Polygon","coordinates":[[[139.70133631046698,35.791949034569456],[139.70137725933887,35.791939615292364],[139.70140533643666,35.79202049759444],[139.7013643875265,35.79202991688093],[139.70133631046698,35.791949034569456]]]}},{"type":"Feature","properties":{"height":7.1,"gml_id":"bldg_0f589bba-ead7-408d-b236-33d414dcbe38"},"geometry":{"type":"Polygon","coordinates":[[[139.7005807862027,35.79209908955134],[139.70057857314208,35.79209935751436],[139.70057638166952,35.7920866459976],[139.70056597342128,35.792025522676035],[139.7005764852622,35.79202436252154],[139.70057891958163,35.79202409480283],[139.7005770571539,35.79201309622262],[139.70058092981844,35.79201273995645],[139.7006251903805,35.792007741228545],[139.70063965274082,35.79209248450488],[139.7005807862027,35.79209908955134]]]}},{"type":"Feature","properties":{"height":7.5,"gml_id":"bldg_f191c811-dd53-4b9b-a735-6205a9304b32"},"geometry":{"type":"Polygon","coordinates":[[[139.70004994038806,35.792387746930544],[139.70009110517972,35.792381753478445],[139.70009516692716,35.79240068642089],[139.70011940082392,35.79239728812485],[139.70013422108323,35.79246616801591],[139.7000688224811,35.792475469637964],[139.70004994038806,35.792387746930544]]]}},{"type":"Feature","properties":{"height":8.0,"gml_id":"bldg_5771f2f5-ad49-471f-872a-5fc9db834294"},"geometry":{"type":"Polygon","coordinates":[[[139.70029102509693,35.79244245572314],[139.70027700556827,35.79235771290014],[139.70040657822156,35.792343524676085],[139.70042059788537,35.79242826748447],[139.70029102509693,35.79244245572314]]]}},{"type":"Feature","properties":{"height":9.6,"gml_id":"bldg_fd0980f2-569a-45cc-8014-33320d635914"},"geometry":{"type":"Polygon","coordinates":[[[139.70011584736966,35.79220637733081],[139.7000523460734,35.79187460853565],[139.70010313633216,35.7918680849347],[139.70010653713373,35.79188530457259],[139.70012092222467,35.79188342766572],[139.70012245796082,35.79189127115071],[139.70013761746424,35.79188939509977],[139.70019201601312,35.79217365239401],[139.7002010896805,35.79217249067993],[139.7002070112684,35.79220395450453],[139.70014427028244,35.792211907079015],[139.70014262571232,35.79220298184888],[139.70011584736966,35.79220637733081]]]}},{"type":"Feature","properties":{"height":8.0,"gml_id":"bldg_37ab8c54-350d-441f-ad1d-46a7e3e15e18"},"geometry":{"type":"Polygon","coordinates":[[[139.70021496991322,35.7922080194104],[139.7002026006433,35.79212886679982],[139.70029764884043,35.79211905709913],[139.70029874357837,35.792125998739266],[139.7003369177368,35.792122075008905],[139.70034819239558,35.79219428596645],[139.70021496991322,35.7922080194104]]]}},{"type":"Feature","properties":{"height":7.0,"gml_id":"bldg_d2a2e0b0-115f-4738-93a4-66430988b446"},"geometry":{"type":"Polygon","coordinates":[[[139.70133450276305,35.79183798571643],[139.70121997277218,35.791854625128174],[139.70120855451373,35.791801883346224],[139.70132308428214,35.79178533408033],[139.70133450276305,35.79183798571643]]]}},{"type":"Feature","properties":{"height":9.0,"gml_id":"bldg_1a721ff9-0744-4b48-81e1-7adfbfcc33e7"},"geometry":{"type":"Polygon","coordinates":[[[139.70088400268418,35.79231259424597],[139.7009302598326,35.792304533000504],[139.70093311859137,35.79231517213009],[139.70093743453992,35.79231436566338],[139.7009551342866,35.79238180645841],[139.70090456129245,35.792390584043645],[139.70088400268418,35.79231259424597]]]}},{"type":"Feature","properties":{"height":7.1,"gml_id":"bldg_abaf9524-6981-4a04-8616-294dad433d16"},"geometry":{"type":"Polygon","coordinates":[[[139.70074266179734,35.79241834761303],[139.700673611882,35.79242800607964],[139.7006585733482,35.79235705289824],[139.70072762335366,35.79234730430476],[139.70074266179734,35.79241834761303]]]}},{"type":"Feature","properties":{"height":7.6,"gml_id":"bldg_8d9d5979-23c2-492c-89ba-b1c78ef534e1"},"geometry":{"type":"Polygon","coordinates":[[[139.70023891360262,35.79297572940324],[139.70024011822719,35.79298312184169],[139.70026191674296,35.79298071231146],[139.70027440028895,35.793057791916546],[139.70021951680894,35.7930637702439],[139.70020582869347,35.792979298194524],[139.70023891360262,35.79297572940324]]]}},{"type":"Feature","properties":{"height":9.6,"gml_id":"bldg_c813bdef-81b6-4f0c-9c74-ff2d4f4b2d32"},"geometry":{"type":"Polygon","coordinates":[[[139.70008856812004,35.79224474480196],[139.7001004065581,35.79231046665428],[139.69993918489462,35.792329757162044],[139.6999315110864,35.7922876553994],[139.69995895309822,35.79228435083021],[139.69995467780902,35.79226082073863],[139.70008856812004,35.79224474480196]]]}},{"type":"Feature","properties":{"height":8.5,"gml_id":"bldg_579143dc-62f2-4984-9446-b9f116d3f46e"},"geometry":{"type":"Polygon","coordinates":[[[139.70071824187826,35.79260030412692],[139.70063856236115,35.79261526883971],[139.70062558370395,35.79256964598669],[139.70070537380906,35.792554681404326],[139.70071824187826,35.79260030412692]]]}},{"type":"Feature","properties":{"height":4.0,"gml_id":"bldg_ae817119-251f-4906-a7c5-232918805a5d"},"geometry":{"type":"Polygon","coordinates":[[[139.70027522931323,35.792361406487515],[139.7002880225842,35.79245173635086],[139.70026168819103,35.792454231001905],[139.70024878431857,35.7923639010134],[139.70027522931323,35.792361406487515]]]}},{"type":"Feature","properties":{"height":8.4,"gml_id":"bldg_71bd5435-4eed-4ea1-8c0d-c47cd1943540"},"geometry":{"type":"Polygon","coordinates":[[[139.70057500105315,35.7929167016971],[139.70052653597978,35.79292169576147],[139.7005198598901,35.79287815297524],[139.70057507451554,35.79287253541779],[139.7006007453974,35.792869949830575],[139.70060742168042,35.79291340247719],[139.70057500105315,35.7929167016971]]]}},{"type":"Feature","properties":{"height":9.5,"gml_id":"bldg_3b03d0e5-29fe-4be9-856d-71e8bc37618e"},"geometry":{"type":"Polygon","coordinates":[[[139.70101554434547,35.791911365947264],[139.70103956001088,35.7919727746096],[139.70093685047303,35.791999521925185],[139.70092792678994,35.79197697823839],[139.70091907247206,35.79197931200971],[139.7009038697848,35.791940537026434],[139.70101554434547,35.791911365947264]]]}},{"type":"Feature","properties":{"height":6.3,"gml_id":"bldg_0e5ae36d-c504-4728-99d6-405c6d89635f"},"geometry":{"type":"Polygon","coordinates":[[[139.7011989561945,35.79252097334859],[139.7011086446083,35.79254295725317],[139.70109520793744,35.792506527760835],[139.70118563011715,35.792484543987726],[139.7011989561945,35.79252097334859]]]}},{"type":"Feature","properties":{"height":9.3,"gml_id":"bldg_83a5b9a4-1b3a-4264-ba4a-420495d5a215"},"geometry":{"type":"Polygon","coordinates":[[[139.70103837349382,35.792288157213704],[139.70114284808798,35.792264656629314],[139.70115484788286,35.79230027331933],[139.70105037324555,35.792323773913935],[139.70103837349382,35.792288157213704]]]}},{"type":"Feature","properties":{"height":10.8,"gml_id":"bldg_92b21d68-eab6-44b3-b814-f024e7bc9c1a"},"geometry":{"type":"Polygon","coordinates":[[[139.70041801874117,35.79278123499144],[139.7004358906381,35.79287797006225],[139.7002649296174,35.792898872676794],[139.7002471684044,35.79280222783904],[139.70041801874117,35.79278123499144]]]}},{"type":"Feature","properties":{"height":7.1,"gml_id":"bldg_1e7c4506-d497-445f-8076-f8f540cad5b7"},"geometry":{"type":"Polygon","coordinates":[[[139.70010274732022,35.79302902891372],[139.70020410697518,35.79301661235523],[139.70021287874584,35.793063853030475],[139.7001114084003,35.79307626947356],[139.70010274732022,35.79302902891372]]]}},{"type":"Feature","properties":{"height":7.4,"gml_id":"bldg_e93abf2e-f79e-4826-b480-aba17b38b482"},"geometry":{"type":"Polygon","coordinates":[[[139.70063093032886,35.792947048939254],[139.70073742377932,35.79290759696776],[139.70076588231376,35.79295846472878],[139.70065927817757,35.79299791660296],[139.70063093032886,35.792947048939254]]]}},{"type":"Feature","properties":{"height":7.4,"gml_id":"bldg_48a377b4-0f4e-4b5a-93b2-8ebde2592bf0"},"geometry":{"type":"Polygon","coordinates":[[[139.7006666308927,35.79243475853528],[139.70058928572604,35.79244314590466],[139.7005803052804,35.79238824350932],[139.7005759241189,35.79236173885372],[139.7005754863927,35.792358854036436],[139.70057592891632,35.79235885452502],[139.70058035505198,35.792358318599106],[139.70063667637172,35.79235225155715],[139.70063744314564,35.79235684931066],[139.70065370873496,35.79235515468639],[139.7006666308927,35.79243475853528]]]}},{"type":"Feature","properties":{"height":8.0,"gml_id":"bldg_acde2397-9f48-455c-a1ea-afd9b4e1b028"},"geometry":{"type":"Polygon","coordinates":[[[139.70100717365176,35.79188891300997],[139.70089550196107,35.79191637151122],[139.7008685178069,35.79184387288969],[139.7009426703844,35.791825657060585],[139.7009541247964,35.79185649599399],[139.70099164383046,35.791847253342894],[139.70100717365176,35.79188891300997]]]}},{"type":"Feature","properties":{"height":12.3,"gml_id":"bldg_23dd50ca-7ec5-4afc-8b5c-38a3e92ed514"},"geometry":{"type":"Polygon","coordinates":[[[139.7000668002705,35.792493945160906],[139.70007141517337,35.79251287871687],[139.7003765956998,35.792477252514814],[139.70039218522226,35.79248294828414],[139.7003942741518,35.792490792376526],[139.7004193941627,35.79248676405173],[139.70043191875777,35.79253923671868],[139.70040569106837,35.79254407504042],[139.70043399332806,35.79268859342487],[139.70044682776643,35.79268788652614],[139.70046120579178,35.792690336071914],[139.70047226898126,35.79275677810988],[139.70042291804648,35.79276231196649],[139.70041963167384,35.79274274894522],[139.69996960944246,35.792792636362485],[139.69995546231678,35.79278441834656],[139.69994306534917,35.79272194074112],[139.69992573840221,35.79269668359752],[139.69991659336364,35.792674319863764],[139.69991419141587,35.792655208487034],[139.69991445215345,35.79263159329304],[139.69992289372746,35.792611502457845],[139.69990960543421,35.79255280954651],[139.69991084512844,35.79253920047157],[139.6999209271772,35.79253046852121],[139.7000386618906,35.792516718236456],[139.7000372387389,35.79250770311536],[139.7000359313366,35.79249562351779],[139.70004667248662,35.79248968648591],[139.70005806839123,35.79248915830489],[139.7000668002705,35.792493945160906]]]}},{"type":"Feature","properties":{"height":7.7,"gml_id":"bldg_c56d0675-735b-469a-a91c-24e62d71f9ad"},"geometry":{"type":"Polygon","coordinates":[[[139.70021183830286,35.792095707185005],[139.7001936325529,35.79200041386617],[139.70028835231273,35.79198844055816],[139.7003064475426,35.79208373374071],[139.70021183830286,35.792095707185005]]]}},{"type":"Feature","properties":{"height":7.5,"gml_id":"bldg_37452cfb-a3a0-4066-b93e-dc1695cab281"},"geometry":{"type":"Polygon","coordinates":[[[139.70110186368802,35.792095066801615],[139.70112973034708,35.79216927891169],[139.7009916059158,35.79220373897803],[139.70097332178517,35.7921551358503],[139.7009950143541,35.79214975160039],[139.70098532130532,35.792124142466626],[139.70110186368802,35.792095066801615]]]}},{"type":"Feature","properties":{"height":7.6,"gml_id":"bldg_afeed420-4ec1-4c15-93c8-a7e1a83f7bce"},"geometry":{"type":"Polygon","coordinates":[[[139.70071507937269,35.79283906939888],[139.70061903333502,35.79284968954507],[139.70060961239636,35.792793524773344],[139.70070565836767,35.79278290463444],[139.70071507937269,35.79283906939888]]]}},{"type":"Feature","properties":{"height":27.6,"gml_id":"bldg_8c745872-add9-4fb8-9612-efa93b3fa586"},"geometry":{"type":"Polygon","coordinates":[[[139.7013579252778,35.79259280560537],[139.70126429173294,35.79261658868911],[139.701272984924,35.79264481062792],[139.70117735575016,35.79267111524401],[139.70113294375238,35.792566959997],[139.70133083461556,35.792517422644266],[139.7013579252778,35.79259280560537]]]}},{"type":"Feature","properties":{"height":2.9,"gml_id":"bldg_69f404e6-34e5-4050-af1d-f65fb53d5a78"},"geometry":{"type":"Polygon","coordinates":[[[139.70244553743746,35.79178656113326],[139.70244011464007,35.79178772699112],[139.70243458431656,35.79178699988728],[139.70242983136046,35.79178447092052],[139.70242673992587,35.79178068186615],[139.70242586242418,35.791776084002976],[139.70242730785898,35.791771668939624],[139.70243085378718,35.791768157517424],[139.70243583554114,35.79176608982535],[139.70244147811923,35.7917658255614],[139.70244678570307,35.791767453776956],[139.70245076306566,35.791770702982426],[139.70245274746097,35.791774941508464],[139.7024525186631,35.79177953816729],[139.70244996737182,35.7917836816209],[139.70244553743746,35.79178656113326]]]}},{"type":"Feature","properties":{"height":5.4,"gml_id":"bldg_2c54d595-0916-4590-9f67-84638988e0b9"},"geometry":{"type":"Polygon","coordinates":[[[139.70179716794752,35.7919668455971],[139.70177480442018,35.79197664589469],[139.70171510231273,35.791886264843605],[139.70173746582205,35.791876464556935],[139.70179716794752,35.7919668455971]]]}},{"type":"Feature","properties":{"height":8.7,"gml_id":"bldg_f2591a55-ffb6-402f-98d1-f43b06cccabe"},"geometry":{"type":"Polygon","coordinates":[[[139.70021540432612,35.79314155256363],[139.70028500536898,35.79313351740949],[139.70029464738258,35.793189682447874],[139.70022515692375,35.79319771772989],[139.70021540432612,35.79314155256363]]]}},{"type":"Feature","properties":{"height":7.2,"gml_id":"bldg_104fc8d7-f314-49b2-878b-4f13a7e40698"},"geometry":{"type":"Polygon","coordinates":[[[139.70010008199247,35.792239800111126],[139.70015275245032,35.79223372925035],[139.70015724529821,35.792259512962],[139.70017395385187,35.79225754848687],[139.70017121454896,35.792241681616076],[139.70020717645485,35.792237575206215],[139.700217805717,35.79229869880109],[139.7001667951347,35.792304501122224],[139.70016843850652,35.79231414743405],[139.70011410823318,35.79232039673352],[139.70010008199247,35.792239800111126]]]}},{"type":"Feature","properties":{"height":9.8,"gml_id":"bldg_ef3dd7fc-133a-413a-8569-234c700b796c"},"geometry":{"type":"Polygon","coordinates":[[[139.70057548020492,35.792628629387856],[139.70047953288122,35.7926465505023],[139.7004508282816,35.79254430520177],[139.70046023493126,35.7925425128882],[139.70044549724517,35.792490308184696],[139.7005757506618,35.792466025362394],[139.7005822799927,35.792464770675025],[139.70059162861793,35.79249786070066],[139.70057569279263,35.79250081757664],[139.70056672882478,35.79250252025263],[139.70057563717214,35.79253425776165],[139.70060082271192,35.79262388018748],[139.70057548020492,35.792628629387856]]]}},{"type":"Feature","properties":{"height":9.4,"gml_id":"bldg_932fd848-396b-4522-a4ae-f0fb9d703d9d"},"geometry":{"type":"Polygon","coordinates":[[[139.7001147212996,35.7932124677714],[139.70010947309564,35.793175236026414],[139.70021569668515,35.793165258504104],[139.70022094478773,35.793202580379884],[139.7001147212996,35.7932124677714]]]}},{"type":"Feature","properties":{"height":6.8,"gml_id":"bldg_58ff213e-7a85-426b-bacc-bffe08029e48"},"geometry":{"type":"Polygon","coordinates":[[[139.70057547983444,35.792096740171345],[139.700520264846,35.79210289854249],[139.700508215481,35.792030776879514],[139.7005634302705,35.79202470864898],[139.70057547983444,35.792096740171345]]]}},{"type":"Feature","properties":{"height":6.6,"gml_id":"bldg_c4ad6c10-ac9b-4901-b9a4-fd37e7f3edd7"},"geometry":{"type":"Polygon","coordinates":[[[139.7006609542693,35.79198957333501],[139.70065273520134,35.79194251356462],[139.70068095147738,35.79193920968466],[139.70067843094816,35.79192478523295],[139.70072446213916,35.791919427879975],[139.70072753043726,35.791937097810795],[139.70076603727384,35.791932633498185],[139.70077370849503,35.79197653791652],[139.7006609542693,35.79198957333501]]]}},{"type":"Feature","properties":{"height":6.0,"gml_id":"bldg_7c4276e5-1a89-435a-9f21-52ac0f5e1837"},"geometry":{"type":"Polygon","coordinates":[[[139.7011047944663,35.79192867999626],[139.7010360794486,35.791936806738],[139.7010267626772,35.791884427793526],[139.7010953671698,35.79187621080001],[139.7011047944663,35.79192867999626]]]}},{"type":"Feature","properties":{"height":9.2,"gml_id":"bldg_0b4cce40-c983-4d3f-acd7-9e230295c9d5"},"geometry":{"type":"Polygon","coordinates":[[[139.70113051057857,35.79209897412518],[139.70119171359408,35.79208434932289],[139.7012238688199,35.79217433982643],[139.70116266589048,35.79218887450946],[139.70113051057857,35.79209897412518]]]}},{"type":"Feature","properties":{"height":3.6,"gml_id":"bldg_e62aff1a-50ed-45dd-8717-d02a078c04ff"},"geometry":{"type":"Polygon","coordinates":[[[139.70108328054425,35.79276105710837],[139.70102495669548,35.7927737020419],[139.70099468786685,35.792680288423846],[139.70105301150267,35.79266773363996],[139.70108328054425,35.79276105710837]]]}},{"type":"Feature","properties":{"height":8.2,"gml_id":"bldg_5b7a7105-447a-4684-b76b-3cae7bb64982"},"geometry":{"type":"Polygon","coordinates":[[[139.7005750985032,35.7928581137755],[139.7005213223986,35.79286355265102],[139.70051464616654,35.79282009999936],[139.7005751721153,35.79281385736051],[139.7005955317654,35.79281180672274],[139.70060220789094,35.79285534950532],[139.7005750985032,35.7928581137755]]]}},{"type":"Feature","properties":{"height":6.4,"gml_id":"bldg_92e802cf-4cba-45c2-a5b0-66f9a5edd8f5"},"geometry":{"type":"Polygon","coordinates":[[[139.70034262774064,35.79174937126534],[139.70031174243175,35.79162828519633],[139.7003924145907,35.791614583690446],[139.70042341064683,35.791735669861545],[139.70034262774064,35.79174937126534]]]}},{"type":"Feature","properties":{"height":2.3,"gml_id":"bldg_c2142bbc-5cf1-4ecb-b006-6cfe1cffaa8c"},"geometry":{"type":"Polygon","coordinates":[[[139.70118715210717,35.79176571551301],[139.70119711284357,35.79176329280222],[139.7012045988352,35.791785564483774],[139.70119353164586,35.791788076114685],[139.70118715210717,35.79176571551301]]]}},{"type":"Feature","properties":{"height":3.1,"gml_id":"bldg_05092d5e-9bc1-4b80-b9df-13602816a451"},"geometry":{"type":"Polygon","coordinates":[[[139.7010784730392,35.79205700392002],[139.70105390410822,35.792062385020834],[139.70102935631908,35.79198826667922],[139.70105392537826,35.79198279544801],[139.7010784730392,35.79205700392002]]]}},{"type":"Feature","properties":{"height":8.3,"gml_id":"bldg_523adef4-5024-4472-a73d-229b1efbce34"},"geometry":{"type":"Polygon","coordinates":[[[139.70047292795118,35.79182919504217],[139.70051021916777,35.79182391824918],[139.70053184594738,35.79192453329281],[139.70049455453517,35.79192990022759],[139.70047292795118,35.79182919504217]]]}},{"type":"Feature","properties":{"height":8.8,"gml_id":"bldg_70a6264c-75ef-49c4-a6dd-34987ee6ff78"},"geometry":{"type":"Polygon","coordinates":[[[139.7005010893891,35.79219121009272],[139.7005064525432,35.79222591816151],[139.70040365889173,35.79223644054807],[139.70039829578164,35.79220173247484],[139.7005010893891,35.79219121009272]]]}},{"type":"Feature","properties":{"height":5.3,"gml_id":"bldg_1bc16fcd-8daf-4605-a30f-2f7b75823b19"},"geometry":{"type":"Polygon","coordinates":[[[139.70176096418214,35.791983571180495],[139.70171535220902,35.79200308065387],[139.7016565366786,35.791911799190125],[139.7017021486138,35.7918922897387],[139.70176096418214,35.791983571180495]]]}},{"type":"Feature","properties":{"height":7.7,"gml_id":"bldg_0049c72d-6169-442a-b611-59387c5246cb"},"geometry":{"type":"Polygon","coordinates":[[[139.70106549586657,35.7924109515183],[139.70129481480748,35.79235586039298],[139.701322787746,35.792432866770646],[139.70109346845348,35.79248804808344],[139.70106549586657,35.7924109515183]]]}},{"type":"Feature","properties":{"height":7.2,"gml_id":"bldg_8ce62be2-6bfd-444e-9327-42ac54c6a3d1"},"geometry":{"type":"Polygon","coordinates":[[[139.70070356749417,35.79290936233688],[139.70062224122898,35.79291648343901],[139.70061470236647,35.79285950952667],[139.70069613905602,35.79285247868673],[139.70070356749417,35.79290936233688]]]}},{"type":"Feature","properties":{"height":5.8,"gml_id":"bldg_96734f10-afec-470e-a6ec-29a558f39458"},"geometry":{"type":"Polygon","coordinates":[[[139.70159058291392,35.79205675487691],[139.701565341455,35.79206745333658],[139.70150652783556,35.791975090177345],[139.70153165864272,35.79196439160856],[139.70159058291392,35.79205675487691]]]}},{"type":"Feature","properties":{"height":28.3,"gml_id":"bldg_3b49fec3-8f52-4a24-a8a3-34d060987238"},"geometry":{"type":"Polygon","coordinates":[[[139.701834879832,35.79184051694987],[139.70187005963905,35.79184091595918],[139.70186980274937,35.79186254818549],[139.7018345121541,35.791862239190394],[139.701834879832,35.79184051694987]]]}},{"type":"Feature","properties":{"height":7.1,"gml_id":"bldg_ab0b5d68-bc7c-432f-a86d-e74e30df53d2"},"geometry":{"type":"Polygon","coordinates":[[[139.70057529336367,35.792009308586685],[139.70050492026715,35.79201653183957],[139.7004940848622,35.79194621422403],[139.70057662933192,35.79193774251975],[139.70058105529432,35.791937296729],[139.70063593752334,35.79193158863963],[139.7006451330743,35.79199018682552],[139.70058095635278,35.79199678601237],[139.7005765303871,35.79199723180311],[139.70057343213614,35.791997588924154],[139.70057529336367,35.792009308586685]]]}},{"type":"Feature","properties":{"height":8.2,"gml_id":"bldg_d43d2c78-61b3-46aa-899a-29b2b1201d9e"},"geometry":{"type":"Polygon","coordinates":[[[139.69997346879967,35.793065120042364],[139.70000437785578,35.79303955585842],[139.70009478423583,35.79302757792337],[139.70010323217193,35.79306995093461],[139.69997774744988,35.79308666715454],[139.69997346879967,35.793065120042364]]]}},{"type":"Feature","properties":{"height":3.3,"gml_id":"bldg_9575ecaf-22e0-4d71-9aaf-6ca0a6682fd3"},"geometry":{"type":"Polygon","coordinates":[[[139.70138651924438,35.79256192053179],[139.70135981296627,35.79252169081873],[139.70137619829532,35.79251449796661],[139.7014029045793,35.79255472767611],[139.70138651924438,35.79256192053179]]]}},{"type":"Feature","properties":{"height":7.4,"gml_id":"bldg_b490e960-3aad-4178-abc8-fc19b09226fe"},"geometry":{"type":"Polygon","coordinates":[[[139.70134185927398,35.79193858494897],[139.7012008698358,35.791966462225126],[139.70118183658903,35.7919025352783],[139.7013227152906,35.79187465790246],[139.70134185927398,35.79193858494897]]]}},{"type":"Feature","properties":{"height":7.7,"gml_id":"bldg_520614d9-e372-4729-9838-efcf3c9179dd"},"geometry":{"type":"Polygon","coordinates":[[[139.7005805989616,35.79221166850983],[139.70057827511724,35.79221202648597],[139.70057618887535,35.792202559961446],[139.70056553941055,35.7921534243883],[139.70057372802535,35.79215226166883],[139.70057186169743,35.79214360660593],[139.70057628797107,35.792142980544845],[139.7005807142447,35.7921423544836],[139.7006609407598,35.79213081555779],[139.7006631359925,35.79214127369106],[139.70071282111434,35.792134117665555],[139.700724129809,35.79218604815158],[139.70069901050707,35.79218971599938],[139.70069999824486,35.792194494267214],[139.7005805989616,35.79221166850983]]]}},{"type":"Feature","properties":{"height":3.7,"gml_id":"bldg_20c520e7-a6fa-44e6-a42c-cd09ef01c6f2"},"geometry":{"type":"Polygon","coordinates":[[[139.7012205874704,35.791884280365124],[139.70121806923237,35.791868413759886],[139.70125237056894,35.791864846025085],[139.70125477818343,35.79188071250813],[139.7012205874704,35.791884280365124]]]}},{"type":"Feature","properties":{"height":6.5,"gml_id":"bldg_1f403b2c-6737-4258-8ccb-0f56cf6404a4"},"geometry":{"type":"Polygon","coordinates":[[[139.70021328891193,35.79328225161889],[139.7001525058207,35.793309765749704],[139.70012502579218,35.793269354639904],[139.70013554382012,35.79326458911429],[139.70012296259353,35.793246097414944],[139.70021729257638,35.7932033875555],[139.70025205676572,35.79325435255146],[139.7002078810146,35.79327440384984],[139.70021328891193,35.79328225161889]]]}},{"type":"Feature","properties":{"height":3.5,"gml_id":"bldg_0255ac10-b38d-4a9a-ac50-1c359e61b262"},"geometry":{"type":"Polygon","coordinates":[[[139.70077048872344,35.79284940593758],[139.70079494204558,35.79284717950827],[139.70079745469184,35.79286638112449],[139.70077311199552,35.792868607676255],[139.70077048872344,35.79284940593758]]]}},{"type":"Feature","properties":{"height":7.5,"gml_id":"bldg_5957503c-89f0-49cf-8b96-6fbd8aee48a0"},"geometry":{"type":"Polygon","coordinates":[[[139.70073959978944,35.79233028191419],[139.70082060223365,35.79231793251906],[139.70084081228057,35.79240592697689],[139.70075969926881,35.79241818612802],[139.70073959978944,35.79233028191419]]]}},{"type":"Feature","properties":{"height":2.5,"gml_id":"bldg_65c48a5c-9257-4d6d-ac44-a54bf865540f"},"geometry":{"type":"Polygon","coordinates":[[[139.70001907108403,35.79179353988344],[139.69998808697142,35.79179810243504],[139.6999836951963,35.79177808749581],[139.70001467930138,35.791773524945306],[139.70001907108403,35.79179353988344]]]}},{"type":"Feature","properties":{"height":7.3,"gml_id":"bldg_757d8ecf-1d29-40aa-8c46-3c8bfaf15acc"},"geometry":{"type":"Polygon","coordinates":[[[139.70148247802217,35.7922689954849],[139.7012997544343,35.79231242053562],[139.7012740958575,35.79224082481936],[139.7013886438247,35.792213639530864],[139.70139359941027,35.792227435691004],[139.7014618853733,35.792211286220784],[139.70148247802217,35.7922689954849]]]}},{"type":"Feature","properties":{"height":9.6,"gml_id":"bldg_780a7390-0b91-415f-b80d-df4ef6eb25d1"},"geometry":{"type":"Polygon","coordinates":[[[139.70057668075316,35.79190682611921],[139.70053839472934,35.79191156102141],[139.70052172785418,35.79182203811697],[139.7005768330674,35.79181524867533],[139.70058125917288,35.79181471274928],[139.7005915498754,35.79181346221379],[139.7006082168271,35.791902985108855],[139.7005811068637,35.79190629019318],[139.70057668075316,35.79190682611921]]]}},{"type":"Feature","properties":{"height":8.6,"gml_id":"bldg_148cd0e8-76ab-47c2-b89b-a5726d947e9f"},"geometry":{"type":"Polygon","coordinates":[[[139.70048075138504,35.793044409636806],[139.7004890240867,35.7931257209315],[139.70036576596118,35.79313405742161],[139.70035760401615,35.793052746241145],[139.70048075138504,35.793044409636806]]]}},{"type":"Feature","properties":{"height":7.6,"gml_id":"bldg_ccb7751d-2d98-4dda-8a6f-7f8b18c15b25"},"geometry":{"type":"Polygon","coordinates":[[[139.7005757827447,35.79244673641451],[139.70044299985219,35.7924620028979],[139.7004324813273,35.792400699175914],[139.70057411624418,35.79238445098786],[139.7005758693983,35.792394638227876],[139.70058463487578,35.792445754697845],[139.7005757827447,35.79244673641451]]]}},{"type":"Feature","properties":{"height":9.6,"gml_id":"bldg_4ec3e61c-ad42-4164-9f47-a5ea31abef44"},"geometry":{"type":"Polygon","coordinates":[[[139.70058886898164,35.79222808228995],[139.7006499489777,35.79222102900506],[139.70066112678674,35.79228512763603],[139.70060004674255,35.79229218092642],[139.70058886898164,35.79222808228995]]]}},{"type":"Feature","properties":{"height":7.3,"gml_id":"bldg_119d2d3f-2b7b-474a-88e7-1219826c10d2"},"geometry":{"type":"Polygon","coordinates":[[[139.70044573585562,35.791748944446994],[139.70041165353123,35.791621004576186],[139.70049830237846,35.791605687167824],[139.70051545354835,35.79167006282375],[139.70050139934483,35.7916725710916],[139.70051833062118,35.79173613528447],[139.70044573585562,35.791748944446994]]]}},{"type":"Feature","properties":{"height":9.0,"gml_id":"bldg_870fe4e9-fcc3-4be9-ad8b-6214789e540f"},"geometry":{"type":"Polygon","coordinates":[[[139.70009951576122,35.79317549539988],[139.70010597534667,35.7932160634982],[139.7000029615128,35.79322514312835],[139.69999979248183,35.79320161426868],[139.70001210079639,35.79318477259215],[139.70009951576122,35.79317549539988]]]}},{"type":"Feature","properties":{"height":1.1,"gml_id":"bldg_98136d46-8f92-4800-9fab-1e30bd0a6281"},"geometry":{"type":"Polygon","coordinates":[[[139.707083705756,35.791721575310845],[139.70709230282444,35.79174186481422],[139.70706573977114,35.79174931816606],[139.7070571427086,35.79172902866083],[139.707083705756,35.791721575310845]]]}},{"type":"Feature","properties":{"height":9.6,"gml_id":"bldg_3dbead28-2a82-4ba5-8501-4c5e6927e059"},"geometry":{"type":"Polygon","coordinates":[[[139.7003352851283,35.79296907587997],[139.7003431523928,35.79302803315121],[139.70028572590857,35.79303310734192],[139.70027785868598,35.79297415006706],[139.7003352851283,35.79296907587997]]]}},{"type":"Feature","properties":{"height":7.8,"gml_id":"bldg_1a296480-e531-4400-ae83-d9348c3d8df6"},"geometry":{"type":"Polygon","coordinates":[[[139.69999909209037,35.792230133812104],[139.69998715832574,35.79215530816389],[139.70009139087662,35.792144337050445],[139.70010332488786,35.792219072553394],[139.69999909209037,35.792230133812104]]]}},{"type":"Feature","properties":{"height":3.3,"gml_id":"bldg_28a39e59-3994-460e-836c-eb8a493a838e"},"geometry":{"type":"Polygon","coordinates":[[[139.7016227672783,35.79179413544767],[139.7015862368717,35.79180770588054],[139.7015689191244,35.79177668031099],[139.70160544951975,35.79176310988329],[139.7016227672783,35.79179413544767]]]}},{"type":"Feature","properties":{"height":7.7,"gml_id":"bldg_7503c86e-b587-47ee-865b-f4a682e59943"},"geometry":{"type":"Polygon","coordinates":[[[139.70003130001226,35.79334766858797],[139.70000988240218,35.79325444481507],[139.7000548104912,35.79324764433057],[139.70005700778182,35.793256840579275],[139.7000959602282,35.79325093481007],[139.700115180638,35.793334962320415],[139.70003130001226,35.79334766858797]]]}},{"type":"Feature","properties":{"height":3.5,"gml_id":"bldg_4ccd4699-f566-4d08-aad9-bbf9cd93daac"},"geometry":{"type":"Polygon","coordinates":[[[139.70117784976605,35.791971845053396],[139.70121016412907,35.79196566121903],[139.701227662461,35.79202120387821],[139.7012105086257,35.79202488058405],[139.70120962790904,35.79202226568846],[139.70119557291892,35.792025224713605],[139.70117784976605,35.791971845053396]]]}},{"type":"Feature","properties":{"height":13.7,"gml_id":"bldg_9b93bd18-8866-4058-91dc-faf3c65b51cf"},"geometry":{"type":"Polygon","coordinates":[[[139.70075503135777,35.79243107034877],[139.70095965774772,35.79238929267962],[139.70097517300889,35.792439785603925],[139.70096654079993,35.79244157881038],[139.70096863172805,35.79244825113443],[139.700771089623,35.792487602971825],[139.70075503135777,35.79243107034877]]]}},{"type":"Feature","properties":{"height":9.4,"gml_id":"bldg_6be042de-62d0-4187-a07c-d3d1553d23ce"},"geometry":{"type":"Polygon","coordinates":[[[139.70081044719356,35.79277049134624],[139.7008151368542,35.792811147594264],[139.70078614765072,35.79281336902774],[139.70078832899787,35.79283220973732],[139.70073378075014,35.792836295825325],[139.70072702027903,35.792776889120894],[139.70081044719356,35.79277049134624]]]}},{"type":"Feature","properties":{"height":10.1,"gml_id":"bldg_7c299ae8-8bac-406a-9a08-a9c8cca223b4"},"geometry":{"type":"Polygon","coordinates":[[[139.7004973811231,35.79209277809498],[139.70050965474866,35.792163097297234],[139.70038362183652,35.792177740224155],[139.70037134831986,35.79210742100947],[139.7004973811231,35.79209277809498]]]}},{"type":"Feature","properties":{"height":12.1,"gml_id":"bldg_bbcb9bf2-7fdc-4887-b83f-e7204e8c429c"},"geometry":{"type":"Polygon","coordinates":[[[139.70135225389873,35.792409734309516],[139.70132433089753,35.79236941311666],[139.7014788840845,35.79230153043768],[139.70148462423168,35.79230919824435],[139.70151174590652,35.79229886240518],[139.70151727313095,35.79230148239225],[139.70152247531033,35.792299955792544],[139.70161441272685,35.79243219509251],[139.70160643256727,35.792441109758755],[139.70154830395515,35.792469709133364],[139.70153185133225,35.79245067252308],[139.7015285245124,35.79245544605458],[139.70151955208507,35.79246228651229],[139.70150704839438,35.7924637149717],[139.701487284594,35.79243998768239],[139.70146658095723,35.79244942919999],[139.70149582493167,35.792493807902375],[139.7014909492725,35.79249857973461],[139.70149392618816,35.792504712208334],[139.7014345774189,35.79253520303389],[139.70142561659347,35.7925350129332],[139.70134494495068,35.79241414292327],[139.70135225389873,35.792409734309516]]]}},{"type":"Feature","properties":{"height":4.2,"gml_id":"bldg_dc6b1a54-80bb-4259-8a66-a7f7314733d5"},"geometry":{"type":"Polygon","coordinates":[[[139.705313867778,35.79267198502937],[139.7053010640357,35.792653583767425],[139.70532719225625,35.792641623572166],[139.70533988537133,35.79266002471361],[139.705313867778,35.79267198502937]]]}},{"type":"Feature","properties":{"height":9.5,"gml_id":"bldg_8786cf1b-62da-41b2-9839-bab6bd8c67db"},"geometry":{"type":"Polygon","coordinates":[[[139.7002733900264,35.793066533934976],[139.7002849124667,35.793122881326475],[139.7002173008544,35.79313209044358],[139.7002056678286,35.79307574292329],[139.7002733900264,35.793066533934976]]]}},{"type":"Feature","properties":{"height":71.0,"gml_id":"bldg_63a13f42-aa41-415f-93b7-80995c959921"},"geometry":{"type":"Polygon","coordinates":[[[139.70189684422158,35.79190079517632],[139.7018880061197,35.791893304273174],[139.70188766721603,35.79162884649841],[139.70189564132573,35.79162353722357],[139.70227266873735,35.79162349808098],[139.70227785650286,35.79163071457134],[139.70227852785013,35.791895623385805],[139.70226822902268,35.791901831506344],[139.70189684422158,35.79190079517632]]]}},{"type":"Feature","properties":{"height":7.6,"gml_id":"bldg_73fdbd59-c265-4c02-bd87-1cc25a29778d"},"geometry":{"type":"Polygon","coordinates":[[[139.70041913475654,35.792376798532835],[139.70040443165354,35.792303862710426],[139.70052504655112,35.79228759134023],[139.70053986024243,35.79236061740578],[139.70041913475654,35.792376798532835]]]}},{"type":"Feature","properties":{"height":4.7,"gml_id":"bldg_d302d72d-6936-441a-8446-b54658d91025"},"geometry":{"type":"Polygon","coordinates":[[[139.70232941723475,35.79176119675237],[139.7022878185476,35.79176223304934],[139.70228707521358,35.79174330379504],[139.7023286737429,35.79174235763358],[139.70232941723475,35.79176119675237]]]}},{"type":"Feature","properties":{"height":8.0,"gml_id":"bldg_580980dd-0aea-4b82-9ead-cf0d715d1e26"},"geometry":{"type":"Polygon","coordinates":[[[139.70087504634122,35.79217638973099],[139.7007322977605,35.79219732408929],[139.70071857225787,35.792135115498404],[139.70084737798805,35.79211614877414],[139.7008542958014,35.79214743339419],[139.7008681280685,35.79214537551809],[139.70087504634122,35.79217638973099]]]}},{"type":"Feature","properties":{"height":9.2,"gml_id":"bldg_c0ba2c33-14fe-41c2-ae06-16bc69597305"},"geometry":{"type":"Polygon","coordinates":[[[139.70082988235654,35.7923256943935],[139.70083542377483,35.792319751560875],[139.7008738235997,35.79231321398122],[139.70089437860872,35.792393367027145],[139.7008492283133,35.79240106893641],[139.70082988235654,35.7923256943935]]]}},{"type":"Feature","properties":{"height":8.4,"gml_id":"bldg_480e1581-d356-4746-91c4-6a3945b7d951"},"geometry":{"type":"Polygon","coordinates":[[[139.7003528940009,35.79302443850817],[139.70034787672316,35.792981348224885],[139.70041149839471,35.79297637098849],[139.70041193536775,35.79297970648237],[139.70045586203034,35.79297623975132],[139.70046055287253,35.79301608479407],[139.7003528940009,35.79302443850817]]]}},{"type":"Feature","properties":{"height":2.3,"gml_id":"bldg_bcec71ec-842e-42d4-85b7-853b0c4f8fc3"},"geometry":{"type":"Polygon","coordinates":[[[139.70124045539916,35.7925134475682],[139.70123472570316,35.79249947028109],[139.7012646095235,35.79249139091849],[139.70127033922418,35.792505368204175],[139.70124045539916,35.7925134475682]]]}},{"type":"Feature","properties":{"height":5.6,"gml_id":"bldg_2fb4aced-6c44-4a8e-b504-8363329d6847"},"geometry":{"type":"Polygon","coordinates":[[[139.70164881574323,35.792031851146895],[139.70160729897685,35.792050193303105],[139.7015470444481,35.79195945102287],[139.701588561181,35.79194110888713],[139.70164881574323,35.792031851146895]]]}},{"type":"Feature","properties":{"height":3.5,"gml_id":"bldg_73f7cd37-8eaf-4203-b656-c0d0c5ccc0d1"},"geometry":{"type":"Polygon","coordinates":[[[139.70132580965765,35.79187664427941],[139.70132053175564,35.79185707909332],[139.70134631634545,35.791852420355696],[139.7013515942535,35.791871985540695],[139.70132580965765,35.79187664427941]]]}},{"type":"Feature","properties":{"height":7.6,"gml_id":"bldg_32474e49-9fb2-478c-b7a8-d7d1bd203e8d"},"geometry":{"type":"Polygon","coordinates":[[[139.70141606619512,35.79208829121954],[139.70127583542268,35.79212554350094],[139.70125787661485,35.792080816597],[139.70139810746596,35.79204347420084],[139.70141606619512,35.79208829121954]]]}},{"type":"Feature","properties":{"height":8.4,"gml_id":"bldg_11984d93-d895-4219-9544-129dd4956675"},"geometry":{"type":"Polygon","coordinates":[[[139.7008443828228,35.79252094372774],[139.70086154912687,35.792576486069045],[139.70073660351946,35.792602217220626],[139.70071943729693,35.792546674861875],[139.7008443828228,35.79252094372774]]]}},{"type":"Feature","properties":{"height":9.7,"gml_id":"bldg_ef70d39f-3d84-46cc-a784-839981b5e580"},"geometry":{"type":"Polygon","coordinates":[[[139.70066079618124,35.79221779609818],[139.7007238687138,35.79221002389068],[139.70073614959432,35.79227610671103],[139.7006730770107,35.79228387892477],[139.70066079618124,35.79221779609818]]]}},{"type":"Feature","properties":{"height":9.3,"gml_id":"bldg_02a909f8-ec3e-41d1-8a2a-0a7e40de6f3e"},"geometry":{"type":"Polygon","coordinates":[[[139.70130079678535,35.79201668729756],[139.70126947748602,35.79202323279086],[139.70126716602854,35.79201610955214],[139.7012367320686,35.7920224757384],[139.70122055398417,35.7919713511679],[139.70128241798335,35.791958349483245],[139.70130079678535,35.79201668729756]]]}},{"type":"Feature","properties":{"height":9.9,"gml_id":"bldg_7bc8b054-e9a8-41ae-913c-378d4f69f429"},"geometry":{"type":"Polygon","coordinates":[[[139.700627359311,35.791900933121624],[139.70061058635426,35.791808615913354],[139.70075410269317,35.79179128796187],[139.70077087581237,35.791883605150744],[139.700627359311,35.791900933121624]]]}},{"type":"Feature","properties":{"height":7.8,"gml_id":"bldg_06052ee5-0f0a-4836-a68e-cfaace082f5a"},"geometry":{"type":"Polygon","coordinates":[[[139.7012845948773,35.79231429673284],[139.70117967519892,35.79233932925347],[139.70115335562343,35.79226611034747],[139.70119917496987,35.79225516418309],[139.70120413022676,35.792269140621435],[139.70126323062925,35.79225496414999],[139.7012845948773,35.79231429673284]]]}}]}