{"type":"FeatureCollection","crs":{"type":"name","properties":{"name":"urn:ogc:def:crs:OGC:1.3:CRS84"}},"features":[{"type":"Feature","properties":{"height":48.8,"gml_id":"bldg_fb375c04-254e-4c23-ad92-17f377a5d4f3"},"geometry":{"type":"Polygon","coordinates":[[[139.76241331109483,35.68065299339331],[139.76196181350872,35.680753499949546],[139.76185398823722,35.680431213628204],[139.76230537374525,35.68033061726667],[139.76241331109483,35.68065299339331]]]}},{"type":"Feature","properties":{"height":6.6,"gml_id":"bldg_bb692bda-58f5-441e-a2c3-6f1d4242ad52"},"geometry":{"type":"Polygon","coordinates":[[[139.75470586478752,35.67672414704498],[139.75458241591897,35.676777454643016],[139.75453801845933,35.67670900243068],[139.7546614672518,35.67665569487745],[139.75470586478752,35.67672414704498]]]}},{"type":"Feature","properties":{"height":11.9,"gml_id":"bldg_1a3f5ef0-7f96-4a76-829c-9a93d9468e65"},"geometry":{"type":"Polygon","coordinates":[[[139.7612656933933,35.683216353279626],[139.7612245876054,35.683224260734434],[139.76119242822867,35.68311220101516],[139.7611253551941,35.68312505041613],[139.76105729203573,35.68288821932664],[139.76126513881084,35.68285021591379],[139.76129158175226,35.68293054392683],[139.76131086282868,35.68298941501113],[139.7613727833912,35.68317783864339],[139.76140162389902,35.68317208710161],[139.76140624910022,35.68318876523409],[139.7612656933933,35.683216353279626]]]}},{"type":"Feature","properties":{"height":11.3,"gml_id":"bldg_1ae546f0-2c4b-4a21-99ce-28b9a3a2526a"},"geometry":{"type":"Polygon","coordinates":[[[139.7591253630005,35.6767681717481],[139.7592235255819,35.67693796060134],[139.75907798248468,35.67699402641983],[139.75903871739808,35.676926219006546],[139.7589906449612,35.67694484773927],[139.75893163736623,35.67684277595394],[139.7591253630005,35.6767681717481]]]}},{"type":"Feature","properties":{"height":5.9,"gml_id":"bldg_e94ee5bb-d94d-46af-a0e8-6ccf77c67281"},"geometry":{"type":"Polygon","coordinates":[[[139.7525519192621,35.67715991374052],[139.752599606525,35.67719627102309],[139.75254553815105,35.67724346665696],[139.7524975196507,35.67720692885644],[139.75254373989193,35.67716432497606],[139.7525519192621,35.67715991374052]]]}},{"type":"Feature","properties":{"height":8.1,"gml_id":"bldg_53b9d56a-12ac-47da-a279-a724de09f367"},"geometry":{"type":"Polygon","coordinates":[[[139.75939695676658,35.67766664635537],[139.7591153901785,35.67727825213861],[139.75912544764154,35.677273390927965],[139.75916081446056,35.677256376786055],[139.75927973548667,35.67719894244103],[139.75956130259388,35.67758733627922],[139.75939695676658,35.67766664635537]]]}},{"type":"Feature","properties":{"height":4.3,"gml_id":"bldg_75639f85-8581-4eaf-9bac-48b3e77d9126"},"geometry":{"type":"Polygon","coordinates":[[[139.75839143482258,35.67695754616689],[139.7586199679863,35.676992661435904],[139.7586006676797,35.67707656721097],[139.7583721342853,35.677041451905545],[139.75839143482258,35.67695754616689]]]}},{"type":"Feature","properties":{"height":10.2,"gml_id":"bldg_3d93a867-4168-480b-aedb-1b575769dadb"},"geometry":{"type":"Polygon","coordinates":[[[139.75358681438317,35.678498510172105],[139.7536763367058,35.6784597203012],[139.7536860435203,35.67847468949736],[139.75369444319253,35.678470999428505],[139.7537229020721,35.678514644651884],[139.75368587742486,35.678530664586056],[139.75366789761512,35.678503070708985],[139.75362711524136,35.67852071060821],[139.7536437713271,35.67854632059687],[139.7536055308996,35.67856288052471],[139.7535803811673,35.67852437528609],[139.75359850666436,35.67851654535489],[139.75358681438317,35.678498510172105]]]}},{"type":"Feature","properties":{"height":3.6,"gml_id":"bldg_9793a465-1438-476b-80f4-330c909bf483"},"geometry":{"type":"Polygon","coordinates":[[[139.7591481836722,35.67717695811467],[139.7591296460856,35.67715351101446],[139.75910272249902,35.677119422549545],[139.7592396636737,35.67704748725839],[139.75930940031915,35.67713577449162],[139.75917245905592,35.67720770986091],[139.7591481836722,35.67717695811467]]]}},{"type":"Feature","properties":{"height":15.7,"gml_id":"bldg_038f837c-2322-44cc-93ee-bd5aa5c4b734"},"geometry":{"type":"Polygon","coordinates":[[[139.76200977635793,35.679394890691555],[139.76179249539928,35.67944289503947],[139.76175371504505,35.679323214873286],[139.76197130418907,35.67927615721737],[139.76200977635793,35.679394890691555]]]}},{"type":"Feature","properties":{"height":25.7,"gml_id":"bldg_cd453f28-3766-4029-a57f-2544fe8aedc2"},"geometry":{"type":"Polygon","coordinates":[[[139.7507567383545,35.67652791567671],[139.7507578868815,35.67652827701328],[139.75076413749733,35.67653026431881],[139.75063848231508,35.67679247739704],[139.75056714117594,35.67676980393601],[139.7505650377532,35.67677412907663],[139.75040706048443,35.67672377788993],[139.75022324167762,35.676665188146586],[139.75048951754258,35.67655154636744],[139.75063548100007,35.67648925372252],[139.75069610966264,35.67650858471489],[139.75073142669643,35.6765198490606],[139.7507567383545,35.67652791567671]]]}},{"type":"Feature","properties":{"height":11.0,"gml_id":"bldg_dfaf0773-4aa7-47a1-a0c6-7984aaa79132"},"geometry":{"type":"Polygon","coordinates":[[[139.75776195673387,35.675562531437],[139.75772338745077,35.67557879502299],[139.75770602537878,35.675551373383584],[139.7576698210855,35.675566637914486],[139.7576397077984,35.67551902742455],[139.75763473470843,35.675521096553304],[139.757616865362,35.675492782223195],[139.7576217279394,35.6754907571929],[139.75763112160814,35.67548678804685],[139.75760147152928,35.67544004225415],[139.75767883105362,35.675407389093785],[139.75769161545588,35.6754275428001],[139.75773074576318,35.67541372229545],[139.75774899676122,35.67544735494605],[139.75771886214847,35.67545748457777],[139.75773993035375,35.67549087743085],[139.75776309463765,35.675527307418015],[139.7577445946522,35.67553510980307],[139.75776195673387,35.675562531437]]]}},{"type":"Feature","properties":{"height":43.3,"gml_id":"bldg_a3fb950d-77c7-4725-900f-8216ee6acadf"},"geometry":{"type":"Polygon","coordinates":[[[139.7617510981066,35.67708271786466],[139.760780738724,35.67729882693571],[139.76049065321644,35.676432073407774],[139.76146100288128,35.676215965730684],[139.7617510981066,35.67708271786466]]]}},{"type":"Feature","properties":{"height":24.6,"gml_id":"bldg_5f20c60a-ff53-4465-89c7-3ec110198702"},"geometry":{"type":"Polygon","coordinates":[[[139.75481278657298,35.67664870886813],[139.75483153836333,35.676677628103256],[139.75483694330575,35.676685951292825],[139.75489161039025,35.67677024719637],[139.75491178517538,35.67680135767999],[139.75491360520195,35.676804171146735],[139.75494107105877,35.676846643663694],[139.7547871191487,35.67691306459985],[139.75475501355908,35.67692692478323],[139.75472938434166,35.676937985918656],[139.75472290795835,35.67694078495801],[139.75470115792078,35.67695018108144],[139.75466998065218,35.676963645244534],[139.75456497693554,35.67700900575527],[139.75455681434502,35.67699647134158],[139.7545363529277,35.67696484682981],[139.75450033866895,35.6769091815495],[139.75442125055065,35.676787264218646],[139.75453470870093,35.676738258807255],[139.7545687927136,35.67679081308197],[139.75471330611364,35.676728676792756],[139.75467760077677,35.67667339935504],[139.75479568924027,35.6766224677847],[139.75481278657298,35.67664870886813]]]}},{"type":"Feature","properties":{"height":6.4,"gml_id":"bldg_779a7a2a-4ce4-4538-8ec3-d5ddb1769209"},"geometry":{"type":"Polygon","coordinates":[[[139.75385890722393,35.675271417051086],[139.75382630466288,35.67528563721187],[139.75379707456912,35.67524099997104],[139.75382967711712,35.67522677981804],[139.75385890722393,35.675271417051086]]]}},{"type":"Feature","properties":{"height":6.8,"gml_id":"bldg_04cad586-3f33-415d-99d8-ba3725890aa4"},"geometry":{"type":"Polygon","coordinates":[[[139.7624333481135,35.680569493106304],[139.7624435404668,35.68059972210113],[139.7624038051619,35.68060863129232],[139.76239362386218,35.68057841131442],[139.7624333481135,35.680569493106304]]]}},{"type":"Feature","properties":{"height":4.1,"gml_id":"bldg_14301bab-2100-4751-8d0c-d98fdc205829"},"geometry":{"type":"Polygon","coordinates":[[[139.75127893236478,35.676530616246474],[139.751250478553,35.676591890163884],[139.75114887722106,35.67656054324042],[139.75117733109929,35.67649926934678],[139.75127893236478,35.676530616246474]]]}},{"type":"Feature","properties":{"height":3.6,"gml_id":"bldg_bd3bb009-64a2-4ab4-bd93-dd398b5a33d1"},"geometry":{"type":"Polygon","coordinates":[[[139.76004862171845,35.679131053191604],[139.7601027668773,35.67911729514591],[139.7601294380096,35.6791870775503],[139.76007529280815,35.679200835607794],[139.76004862171845,35.679131053191604]]]}},{"type":"Feature","properties":{"height":42.5,"gml_id":"bldg_85148592-827c-4ef7-aadd-6f00fa4486c9"},"geometry":{"type":"Polygon","coordinates":[[[139.7626312246687,35.67595850642629],[139.76277004274542,35.67638394457936],[139.76220004528102,35.67650936864933],[139.76227162628962,35.6767259926528],[139.76228289660008,35.67672347456015],[139.7623577051666,35.676951025942515],[139.76197175192073,35.67703606762643],[139.76168496931757,35.676168506752255],[139.7626312246687,35.67595850642629]]]}},{"type":"Feature","properties":{"height":2.4,"gml_id":"bldg_38dd71f2-d5dc-4107-906f-e1cd6ad9db3a"},"geometry":{"type":"Polygon","coordinates":[[[139.75876616441943,35.6769471426309],[139.75873811159616,35.67693964386482],[139.75875195258124,35.67690522001992],[139.75877989500606,35.676912628577234],[139.75876616441943,35.6769471426309]]]}},{"type":"Feature","properties":{"height":6.9,"gml_id":"bldg_eaa315b5-eaa8-42a9-9dde-c931a046f138"},"geometry":{"type":"Polygon","coordinates":[[[139.75673379351406,35.67604719865123],[139.75670820273453,35.67600707129858],[139.7568148499348,35.67596170995412],[139.75681772594655,35.67595774574342],[139.75682237034192,35.67595288128402],[139.756827787426,35.67594864827605],[139.75683397719888,35.675945046719406],[139.75684071854806,35.67594225674801],[139.75684768006317,35.6759402781512],[139.756854640718,35.675939200925825],[139.7568614902145,35.67593884472731],[139.75686789714229,35.67593920934526],[139.75697343894555,35.67589438798113],[139.7569808294556,35.675905930234215],[139.75700359549162,35.67589629998429],[139.75702179594987,35.67592479488778],[139.75673379351406,35.67604719865123]]]}},{"type":"Feature","properties":{"height":7.2,"gml_id":"bldg_fed56fe3-5916-4a47-8fda-55d1400c22d3"},"geometry":{"type":"Polygon","coordinates":[[[139.75792632297586,35.67557608296397],[139.7578938599573,35.67552482861998],[139.75788077516884,35.67553032780666],[139.75783347638483,35.675455340025614],[139.75785663997428,35.67544561071184],[139.75788694271355,35.67543288429694],[139.75797303249038,35.67539673909235],[139.7580002006534,35.67543981465534],[139.75801722073595,35.675466821407646],[139.75802154180613,35.67546500333812],[139.75803797730134,35.67549106328066],[139.75805694996893,35.675521000708564],[139.75792632297586,35.67557608296397]]]}},{"type":"Feature","properties":{"height":6.6,"gml_id":"bldg_75f3d534-a420-48d1-a118-7de4019b36a7"},"geometry":{"type":"Polygon","coordinates":[[[139.76215663197607,35.67976680340145],[139.76217859239094,35.67983141679872],[139.76213276893472,35.67984178342735],[139.76211080855555,35.67977716821911],[139.76215663197607,35.67976680340145]]]}},{"type":"Feature","properties":{"height":5.0,"gml_id":"bldg_081b8457-cae2-4a6d-8273-f47d447495c3"},"geometry":{"type":"Polygon","coordinates":[[[139.75796446960572,35.67525733557983],[139.75793898922822,35.67526387440823],[139.75793008501583,35.67524079369703],[139.75795557643278,35.67523425577879],[139.75796446960572,35.67525733557983]]]}},{"type":"Feature","properties":{"height":5.1,"gml_id":"bldg_f71c7d3f-ec7b-4fb4-afc6-be77a03ae3f5"},"geometry":{"type":"Polygon","coordinates":[[[139.7591153901785,35.67727825213861],[139.75939695676658,35.67766664635537],[139.75942166530788,35.67770713313387],[139.75939061093663,35.677719643138936],[139.7593469309042,35.67764687557589],[139.75928216361797,35.677560123760664],[139.75925447010542,35.677522158958126],[139.7592065748521,35.67746831756357],[139.75917875834327,35.67744396338691],[139.7591364810002,35.677407702180815],[139.75908757778572,35.6773688228948],[139.75902950760477,35.67732759436424],[139.7591153901785,35.67727825213861]]]}},{"type":"Feature","properties":{"height":4.1,"gml_id":"bldg_fa6f886d-8663-4081-933a-aa3d2dd8a12d"},"geometry":{"type":"Polygon","coordinates":[[[139.75715525239494,35.675706729252404],[139.75720601886655,35.67573580357925],[139.7571752743172,35.67577147758231],[139.75712454095716,35.675742422192435],[139.7570738076348,35.675713365879744],[139.75710455220775,35.67567769100089],[139.75715525239494,35.675706729252404]]]}},{"type":"Feature","properties":{"height":4.4,"gml_id":"bldg_b68cd41a-5f03-4eb3-ac85-e44b7270aeda"},"geometry":{"type":"Polygon","coordinates":[[[139.75369663024645,35.6750465084405],[139.75367717938002,35.67505487743683],[139.75365456764337,35.675020249772565],[139.75367390803572,35.67501187980539],[139.75369663024645,35.6750465084405]]]}},{"type":"Feature","properties":{"height":148.6,"gml_id":"bldg_39bebf14-baf1-44d3-a45a-f83f590af963"},"geometry":{"type":"Polygon","coordinates":[[[139.76208075430293,35.67809256738755],[139.7611477274662,35.67830441994356],[139.7608551186126,35.67744655254973],[139.76178812519802,35.67723468418629],[139.76208075430293,35.67809256738755]]]}},{"type":"Feature","properties":{"height":2.8,"gml_id":"bldg_c92cbc6c-1cf4-4e76-a9c7-0f05191d6968"},"geometry":{"type":"Polygon","coordinates":[[[139.75495211978773,35.68068604458008],[139.75496170587965,35.68071201032351],[139.7549335275126,35.68071893253955],[139.75492394151718,35.68069287665679],[139.75495211978773,35.68068604458008]]]}},{"type":"Feature","properties":{"height":4.7,"gml_id":"bldg_147bd048-57a6-4166-9295-caff3fa09635"},"geometry":{"type":"Polygon","coordinates":[[[139.75878913372722,35.67671901953907],[139.75886559450856,35.67670329283829],[139.75888696172473,35.67677244130379],[139.75887337115233,35.67677522715391],[139.7588751334193,35.676780906888894],[139.7588122631443,35.67679384775379],[139.75878913372722,35.67671901953907]]]}},{"type":"Feature","properties":{"height":3.3,"gml_id":"bldg_adc432a9-c4fc-45e8-bff2-f6bdd4526984"},"geometry":{"type":"Polygon","coordinates":[[[139.75699047881722,35.675865554870455],[139.75694063687283,35.67588643509704],[139.7568670649872,35.675769300123704],[139.75691679640784,35.67574841985701],[139.75699047881722,35.675865554870455]]]}},{"type":"Feature","properties":{"height":47.9,"gml_id":"bldg_d1b75a9e-40c0-4df9-a628-4929b74205ae"},"geometry":{"type":"Polygon","coordinates":[[[139.76198922198492,35.67540504470196],[139.761931711146,35.675231856955975],[139.76229379002,35.67515175883543],[139.76251094676917,35.67580601276312],[139.76214511013046,35.67588502765786],[139.7620860560391,35.67570733222445],[139.76194926733842,35.675737537318874],[139.7620086517571,35.67591613438642],[139.7616411554557,35.675996950410955],[139.76142279288027,35.67533962865108],[139.7617897343607,35.675258453305304],[139.76184878754637,35.675436058759004],[139.76198922198492,35.67540504470196]]]}},{"type":"Feature","properties":{"height":6.2,"gml_id":"bldg_96562cc2-3768-4ced-86c9-d1f1aafd560d"},"geometry":{"type":"Polygon","coordinates":[[[139.7586286820917,35.678073592309545],[139.7586750144887,35.67814482943996],[139.75859223649115,35.678180742827514],[139.75854579358983,35.67810959573427],[139.7586286820917,35.678073592309545]]]}},{"type":"Feature","properties":{"height":3.2,"gml_id":"bldg_53e80d6b-e54d-476a-bb65-1a09cff12484"},"geometry":{"type":"Polygon","coordinates":[[[139.75133562599524,35.67647674379549],[139.7512737139754,35.67650230058807],[139.75123106526766,35.676433523852886],[139.75129298829498,35.676407967089425],[139.75133562599524,35.67647674379549]]]}},{"type":"Feature","properties":{"height":2.7,"gml_id":"bldg_2a788854-5aa1-4ec2-b5c2-a8039c536e98"},"geometry":{"type":"Polygon","coordinates":[[[139.75911402976868,35.67707715516368],[139.75909789521285,35.67708327454795],[139.75906591034064,35.67702718947174],[139.75908204599233,35.677021070092366],[139.75911402976868,35.67707715516368]]]}},{"type":"Feature","properties":{"height":8.5,"gml_id":"bldg_d6615c84-12c1-4426-86c5-412be3408ed5"},"geometry":{"type":"Polygon","coordinates":[[[139.75157666019962,35.67656582807432],[139.75155705404637,35.67657423357647],[139.7515698484066,35.676594127438236],[139.75153459269515,35.676609227616446],[139.75145114269142,35.676479518413416],[139.75150601553494,35.676456019986915],[139.75157666019962,35.67656582807432]]]}},{"type":"Feature","properties":{"height":9.0,"gml_id":"bldg_4da531c5-5ff5-4f30-817f-c4c4f7bd2e22"},"geometry":{"type":"Polygon","coordinates":[[[139.76194986373963,35.67573769090576],[139.7620851165002,35.67570794460174],[139.76214434788648,35.675885027207194],[139.76200942545742,35.6759156751448],[139.76194986373963,35.67573769090576]]]}},{"type":"Feature","properties":{"height":24.6,"gml_id":"bldg_6307f533-f738-458e-8b46-bde2930f8ecf"},"geometry":{"type":"Polygon","coordinates":[[[139.75168810177152,35.676914571589506],[139.75167445262406,35.67694205508617],[139.75162772670924,35.67703607255945],[139.75157781023276,35.67701963370259],[139.7516231968813,35.676928175236576],[139.75163548457923,35.676903305702595],[139.7516380860432,35.67689802542674],[139.75168810177152,35.676914571589506]]]}},{"type":"Feature","properties":{"height":49.5,"gml_id":"bldg_84da57c0-cf68-488d-a650-a45277dc6c57"},"geometry":{"type":"Polygon","coordinates":[[[139.76185232386206,35.68042693112438],[139.7616703894102,35.67987295706441],[139.7621009968407,35.67977883896621],[139.76229295617273,35.68033065500904],[139.76185232386206,35.68042693112438]]]}},{"type":"Feature","properties":{"height":148.4,"gml_id":"bldg_5448beba-2eae-42b0-b161-bdffe8bf244f"},"geometry":{"type":"Polygon","coordinates":[[[139.76204599719082,35.67938688993307],[139.76177903348375,35.67858342889941],[139.76215029905737,35.678500993155666],[139.76216737695086,35.678552291318525],[139.7622084812892,35.678543211749805],[139.7624918654769,35.67939697805285],[139.76244810885433,35.67940659697843],[139.762477637744,35.67949530935222],[139.76162250122155,35.679684361566814],[139.7615593689023,35.67949440490011],[139.76204599719082,35.67938688993307]]]}},{"type":"Feature","properties":{"height":4.8,"gml_id":"bldg_c85b96e3-0215-4a84-88c9-c2912c7764cc"},"geometry":{"type":"Polygon","coordinates":[[[139.75814019037747,35.676873742182465],[139.75817570193996,35.67693803219428],[139.7580293869274,35.676991842832415],[139.75799387545857,35.676927552778125],[139.75814019037747,35.676873742182465]]]}},{"type":"Feature","properties":{"height":4.9,"gml_id":"bldg_2670d6ad-c539-4836-abcf-12615394abc5"},"geometry":{"type":"Polygon","coordinates":[[[139.7507567383545,35.67652791567671],[139.75073142669643,35.6765198490606],[139.75075503108286,35.67646941544761],[139.7510249350968,35.676554239109116],[139.75104510180566,35.67655941775624],[139.75105699680805,35.676572847317566],[139.7510599319337,35.67657616637301],[139.75128470778407,35.67665150321162],[139.7512665874236,35.67668687873545],[139.7512412981181,35.676678460706746],[139.75124829395608,35.676664737577504],[139.75105244031965,35.67659931840755],[139.75103963390825,35.676591287442534],[139.75101430812452,35.676575414091445],[139.75077057712357,35.67649890098093],[139.7507567383545,35.67652791567671]]]}},{"type":"Feature","properties":{"height":6.6,"gml_id":"bldg_65eb73f6-4028-4cbf-ae48-64a3df048250"},"geometry":{"type":"Polygon","coordinates":[[[139.7612656933933,35.683216353279626],[139.76140624910022,35.68318876523409],[139.76144237688155,35.683311102897406],[139.76130182097234,35.68333869098431],[139.7612656933933,35.683216353279626]]]}},{"type":"Feature","properties":{"height":3.8,"gml_id":"bldg_7ce665ad-782f-4590-817e-0fe2c9013080"},"geometry":{"type":"Polygon","coordinates":[[[139.75958375648221,35.678157287608805],[139.75954608025464,35.67804251986226],[139.75960873110864,35.678028857385364],[139.75964640750246,35.67814353497553],[139.75958375648221,35.678157287608805]]]}},{"type":"Feature","properties":{"height":5.0,"gml_id":"bldg_be2612bb-fec9-4e5f-8855-30f080c0ad44"},"geometry":{"type":"Polygon","coordinates":[[[139.75819404123658,35.67693696199383],[139.75816227935087,35.6768794346202],[139.75824582459853,35.676848749957244],[139.75827758653207,35.67690627730918],[139.75819404123658,35.67693696199383]]]}},{"type":"Feature","properties":{"height":6.7,"gml_id":"bldg_6d5ec2ed-d036-4a2f-9f37-746e0b82f82e"},"geometry":{"type":"Polygon","coordinates":[[[139.7587961257745,35.676921832622874],[139.75886791210928,35.67694360011218],[139.7588506431125,35.67698171747578],[139.75885682784963,35.67698352404598],[139.75888494499384,35.67692179743725],[139.75906087683256,35.6769751771898],[139.75899313017584,35.67712395193267],[139.7586371797263,35.677016107792575],[139.75867138541497,35.676941044702275],[139.7587733220166,35.67697193479962],[139.7587961257745,35.676921832622874]]]}},{"type":"Feature","properties":{"height":32.9,"gml_id":"bldg_940ab637-3ddd-4fc6-9d61-890e2e34238d"},"geometry":{"type":"Polygon","coordinates":[[[139.76173687095556,35.67854031825324],[139.76197130418907,35.67927615721737],[139.76170069892726,35.679334675834454],[139.76172097049727,35.679397152964796],[139.76153412097068,35.679437603418926],[139.76151462068012,35.67937756042176],[139.76150158213147,35.679380346896416],[139.76128234281,35.67870626010688],[139.7612863206042,35.67870545125244],[139.76126582924758,35.67864225281287],[139.76173687095556,35.67854031825324]]]}},{"type":"Feature","properties":{"height":120.4,"gml_id":"bldg_3f05b6e1-b162-42ca-b776-0d9b3d16b896"},"geometry":{"type":"Polygon","coordinates":[[[139.7525519192621,35.67715991374052],[139.75254373989193,35.67716432497606],[139.7524975196507,35.67720692885644],[139.75247351205132,35.677241795837844],[139.75250342378217,35.67726777543957],[139.7524963479369,35.67727335919642],[139.75251444880934,35.677289776320485],[139.75250681133178,35.67730455369665],[139.75237857293698,35.67726310357518],[139.7523538022301,35.67730967884317],[139.75169285093955,35.677089207555106],[139.7517520741572,35.67697053698308],[139.7517532807471,35.67696813113692],[139.75167445262406,35.67694205508617],[139.75168810177152,35.676914571589506],[139.75176736137976,35.67693999082339],[139.75181273525394,35.67684997357003],[139.7519941799908,35.6769090739657],[139.75201829076974,35.6768597220966],[139.75198027213844,35.676799710094976],[139.75168428696747,35.67671197658768],[139.75160528053004,35.67659018455485],[139.75157891049977,35.67660156901122],[139.7515609099095,35.676573821564006],[139.75158727993315,35.67656243711151],[139.7515138879541,35.676449274058626],[139.75152881916696,35.67644282136497],[139.7514967115953,35.67639333223705],[139.75182234608988,35.67625264159656],[139.75203386456087,35.67616527938132],[139.75212269735653,35.676303672934765],[139.75264492224088,35.677108373447766],[139.7526732254518,35.6771519728542],[139.75264957784995,35.677158537026735],[139.75262970443848,35.677147076281365],[139.75262064157036,35.67715121741969],[139.75259491642637,35.67713650690459],[139.7525519192621,35.67715991374052]]]}},{"type":"Feature","properties":{"height":16.6,"gml_id":"bldg_306c8db9-087d-4334-aa0c-a9dcd033f26c"},"geometry":{"type":"Polygon","coordinates":[[[139.75109370033533,35.67692328985008],[139.75118515122583,35.676953205725546],[139.75115980028568,35.67700483705188],[139.75106836032822,35.676974984260916],[139.75109370033533,35.67692328985008]]]}},{"type":"Feature","properties":{"height":10.0,"gml_id":"bldg_d40a9656-4e03-4995-94ab-62f079aa7240"},"geometry":{"type":"Polygon","coordinates":[[[139.7619314018321,35.67523185677255],[139.76198891297523,35.67540470199733],[139.76184896460305,35.67543571634257],[139.76178991111152,35.67525845341032],[139.7619314018321,35.67523185677255]]]}},{"type":"Feature","properties":{"height":3.6,"gml_id":"bldg_7b8cd8b5-5721-4d01-acb0-784d697a2fbc"},"geometry":{"type":"Polygon","coordinates":[[[139.7601115180342,35.68211454159274],[139.76004808865858,35.68213045727491],[139.7600096244354,35.68202893942882],[139.76007316429923,35.68201293369668],[139.7601115180342,35.68211454159274]]]}},{"type":"Feature","properties":{"height":93.1,"gml_id":"bldg_4a7711b4-f815-46eb-a8a1-51bd242d11af"},"geometry":{"type":"Polygon","coordinates":[[[139.75268458437574,35.67574412713212],[139.75251726012752,35.67548748436057],[139.75208378740194,35.674823512101234],[139.75225232630766,35.67475025398997],[139.7522234282351,35.67470606727364],[139.752640408495,35.67452490115126],[139.75267170015798,35.674572803027324],[139.75283364007967,35.6745024961797],[139.75342947960408,35.67541562284129],[139.75333639074415,35.67545606870605],[139.75326292972258,35.67548798344366],[139.75329513715963,35.675537759712704],[139.75288124761576,35.675717578076146],[139.75285168732375,35.67567210211231],[139.75268458437574,35.67574412713212]]]}},{"type":"Feature","properties":{"height":5.1,"gml_id":"bldg_3ec997d2-a7db-4729-aeed-56515ba1ab03"},"geometry":{"type":"Polygon","coordinates":[[[139.75848993356308,35.68327279818022],[139.75845180861043,35.68316442964568],[139.758564081099,35.683138089243876],[139.75860220619106,35.68324645774352],[139.75848993356308,35.68327279818022]]]}},{"type":"Feature","properties":{"height":2.5,"gml_id":"bldg_258f0b22-7276-4f6b-a927-b1862fd73452"},"geometry":{"type":"Polygon","coordinates":[[[139.75919099632884,35.67699265386899],[139.75921608356376,35.676981672573476],[139.75923505785667,35.677010708437564],[139.75920997069863,35.6770215995998],[139.75919099632884,35.67699265386899]]]}},{"type":"Feature","properties":{"height":38.7,"gml_id":"bldg_a403794e-4b29-4250-9c1f-dd3f8575814e"},"geometry":{"type":"Polygon","coordinates":[[[139.76113841522294,35.675249502402586],[139.76090295579021,35.67530407340112],[139.76079508664276,35.6749942067329],[139.76103065570766,35.67493963510647],[139.76113841522294,35.675249502402586]]]}},{"type":"Feature","properties":{"height":9.1,"gml_id":"bldg_d2099cac-28c7-4471-a144-ba6a53a0198d"},"geometry":{"type":"Polygon","coordinates":[[[139.75836564440363,35.67689344254635],[139.7583433962793,35.676821679461824],[139.7587645940932,35.67673513890715],[139.75878673209948,35.67680690184689],[139.75836564440363,35.67689344254635]]]}},{"type":"Feature","properties":{"height":16.8,"gml_id":"bldg_56f96a47-05e2-4efb-9296-f9211ef3bf0c"},"geometry":{"type":"Polygon","coordinates":[[[139.7541107335174,35.67866903506693],[139.75397634364018,35.678723028881045],[139.75376755926294,35.678377395220686],[139.75390205926317,35.67832331157168],[139.7541107335174,35.67866903506693]]]}},{"type":"Feature","properties":{"height":3.0,"gml_id":"bldg_a444acd6-6b79-45f8-964d-ffde748f9b1d"},"geometry":{"type":"Polygon","coordinates":[[[139.751637176675,35.67665215841549],[139.75158725452937,35.67667400894832],[139.751575088411,35.67665551444494],[139.75158276958746,35.67665215664069],[139.75155666155976,35.67661244157731],[139.75159891354457,35.67659395698256],[139.751637176675,35.67665215841549]]]}},{"type":"Feature","properties":{"height":50.6,"gml_id":"bldg_f600ea77-d1b2-434d-b475-0ef6c322a539"},"geometry":{"type":"Polygon","coordinates":[[[139.76087588477358,35.6753107272699],[139.76051049009772,35.67539036843166],[139.76044959147845,35.6752045677289],[139.7604997323759,35.67519361935242],[139.76049345302036,35.67517447941568],[139.76051577221077,35.675169626405456],[139.76048018864896,35.67506179982676],[139.760773321004,35.67499779910849],[139.76087588477358,35.6753107272699]]]}},{"type":"Feature","properties":{"height":4.3,"gml_id":"bldg_93f7595b-4ea9-4c8f-a55e-16d5abeae7c1"},"geometry":{"type":"Polygon","coordinates":[[[139.75628045421612,35.67612956523529],[139.756286970414,35.676131191875335],[139.75629469840885,35.67613633464246],[139.7562982263609,35.67614372815278],[139.7562985507568,35.676151028574836],[139.75629688936732,35.676155535274894],[139.75629357066106,35.676160310424834],[139.75628760222156,35.676163461409004],[139.75625643913733,35.67617425793199],[139.75625080340706,35.67617605706881],[139.75624605334775,35.676175873753294],[139.75624130415534,35.67617478906583],[139.75623589318022,35.67617262230763],[139.75623048480637,35.67616775143388],[139.7562281686537,35.67616387404968],[139.75622750895192,35.67616062868685],[139.75622773405465,35.676156302243825],[139.7562295053116,35.67615242657572],[139.75623503473068,35.67614630168601],[139.75626310853346,35.676131447015614],[139.75626609244927,35.67613018700429],[139.75627084354576,35.67612928867289],[139.75627570441856,35.676129112410784],[139.75628045421612,35.67612956523529]]]}},{"type":"Feature","properties":{"height":82.8,"gml_id":"bldg_9f3020a1-7680-40f3-ac8f-1e6784e5cde7"},"geometry":{"type":"Polygon","coordinates":[[[139.76047881512983,35.67539406292474],[139.76018228794067,35.67545996275428],[139.76012594792556,35.67529117355858],[139.76028453673558,35.67525593607512],[139.76027455553427,35.675225959383916],[139.7603296466635,35.675213725119185],[139.76033041783018,35.675216051127805],[139.76037389627695,35.6752063967405],[139.76039840886924,35.67527983739443],[139.7604378321278,35.67527127118842],[139.76047881512983,35.67539406292474]]]}},{"type":"Feature","properties":{"height":2.6,"gml_id":"bldg_cdecd10f-8296-42c6-9579-d86f168ffdb4"},"geometry":{"type":"Polygon","coordinates":[[[139.75914364763415,35.6770648246178],[139.75912718091675,35.677071755036316],[139.75910478786778,35.677036407442465],[139.75912125457987,35.67702947702695],[139.75914364763415,35.6770648246178]]]}},{"type":"Feature","properties":{"height":6.2,"gml_id":"bldg_e0f5dff9-af1c-46a9-8c2c-61f3c0c159c3"},"geometry":{"type":"Polygon","coordinates":[[[139.76204554806935,35.68262434618],[139.7620182535543,35.68263118043812],[139.76201020732648,35.68261008358111],[139.76203761247484,35.68260306911603],[139.76204554806935,35.68262434618]]]}},{"type":"Feature","properties":{"height":113.3,"gml_id":"bldg_c18c40a7-fd39-40f9-a503-09e3a56215ff"},"geometry":{"type":"Polygon","coordinates":[[[139.76122654767798,35.67545824908309],[139.76125970979368,35.675557501032],[139.7612703833128,35.675555118783585],[139.76138595563705,35.675900999429246],[139.76137561355858,35.6759033007623],[139.76141002101642,35.67600627607485],[139.7614290367562,35.67600205098208],[139.76143378533308,35.676016205364185],[139.7614253789164,35.676028097558095],[139.7604362483908,35.67624752866467],[139.76023970605553,35.67565818238335],[139.76123424406333,35.67543740494679],[139.76124019344715,35.6754551664481],[139.76122654767798,35.67545824908309]]]}},{"type":"Feature","properties":{"height":2.4,"gml_id":"bldg_4d25ad5e-ccf3-443c-8fce-c9657f8263ad"},"geometry":{"type":"Polygon","coordinates":[[[139.75917540039487,35.67701364623705],[139.75918499709056,35.6770291557495],[139.7591465381695,35.6770450863474],[139.75913683100765,35.677029576763836],[139.75917540039487,35.67701364623705]]]}},{"type":"Feature","properties":{"height":4.5,"gml_id":"bldg_47bbcd96-1f65-4ecc-a5f1-425ce5419010"},"geometry":{"type":"Polygon","coordinates":[[[139.75554543396834,35.67789875664642],[139.75551511220198,35.67783870567323],[139.75559732967815,35.67781225844469],[139.75562776196907,35.67787230946882],[139.75554543396834,35.67789875664642]]]}},{"type":"Feature","properties":{"height":5.3,"gml_id":"bldg_1adb9284-26aa-4b48-9451-c438fd390c33"},"geometry":{"type":"Polygon","coordinates":[[[139.75916081446056,35.677256376786055],[139.75912544764154,35.677273390927965],[139.75905914272494,35.67717753418085],[139.75909495090232,35.67716106115358],[139.75909936385122,35.67716746361703],[139.7591296460856,35.67715351101446],[139.7591481836722,35.67717695811467],[139.7591161331301,35.67719172086683],[139.75916081446056,35.677256376786055]]]}},{"type":"Feature","properties":{"height":6.3,"gml_id":"bldg_0e7cc842-260b-4768-8271-d3cdbc3a5c86"},"geometry":{"type":"Polygon","coordinates":[[[139.76182518509066,35.68195638939611],[139.76179866526044,35.681961962145365],[139.76179326726168,35.681944652605296],[139.7618197870061,35.6819391699943],[139.76182518509066,35.68195638939611]]]}},{"type":"Feature","properties":{"height":4.1,"gml_id":"bldg_09dd8c9a-80aa-49e9-adb7-62dcdcf86572"},"geometry":{"type":"Polygon","coordinates":[[[139.75535768127506,35.681820413615874],[139.75540961659513,35.68180963078309],[139.755426467113,35.68186381411328],[139.7553745317601,35.681874596953186],[139.75535768127506,35.681820413615874]]]}},{"type":"Feature","properties":{"height":7.0,"gml_id":"bldg_04f8d162-871b-4257-9e4e-85aa798c4558"},"geometry":{"type":"Polygon","coordinates":[[[139.75884985465382,35.676879140828376],[139.75890433585235,35.676858983780676],[139.75892793725674,35.67690154313739],[139.7588735665067,35.67692170026393],[139.75884985465382,35.676879140828376]]]}},{"type":"Feature","properties":{"height":3.2,"gml_id":"bldg_732ffb1c-dccd-4e6e-85a4-735e7d872ed1"},"geometry":{"type":"Polygon","coordinates":[[[139.7563872031807,35.682653041805104],[139.75635305853544,35.68265978026327],[139.75634325738295,35.68262696407876],[139.75637740201503,35.68262022562332],[139.7563872031807,35.682653041805104]]]}},{"type":"Feature","properties":{"height":52.9,"gml_id":"bldg_cf08bc26-0818-4ef1-ae88-f458061846a1"},"geometry":{"type":"Polygon","coordinates":[[[139.7602654000109,35.67524758676809],[139.76014866446243,35.67527465619678],[139.76014156885574,35.675254262838116],[139.7600913720029,35.67526590508807],[139.7600526988818,35.675154742328786],[139.7604533445994,35.675061873718775],[139.76048915406062,35.6751642011684],[139.7602552523498,35.675218448250654],[139.7602654000109,35.67524758676809]]]}},{"type":"Feature","properties":{"height":7.6,"gml_id":"bldg_41a35909-0a99-4ade-abfc-88b87a2550a9"},"geometry":{"type":"Polygon","coordinates":[[[139.7566512524155,35.67606778843994],[139.75658848047408,35.67609361693102],[139.75655974745936,35.676047105828076],[139.75657744075346,35.67603981599249],[139.75657307296402,35.676032674339034],[139.75659860170566,35.67602214455482],[139.75660312408627,35.676029358415676],[139.75662246406944,35.676021349426286],[139.7566512524155,35.67606778843994]]]}},{"type":"Feature","properties":{"height":7.5,"gml_id":"bldg_0f725c13-427f-4000-8918-917a604d3acf"},"geometry":{"type":"Polygon","coordinates":[[[139.75472290795835,35.67694078495801],[139.75472938434166,35.676937985918656],[139.75475501355908,35.67692692478323],[139.7547871191487,35.67691306459985],[139.75481204810222,35.67695147931558],[139.7547478368897,35.67697919968683],[139.75472290795835,35.67694078495801]]]}},{"type":"Feature","properties":{"height":3.3,"gml_id":"bldg_a55b008e-1331-452c-8c3c-5b62c271203a"},"geometry":{"type":"Polygon","coordinates":[[[139.75671994015326,35.67597823485225],[139.75667319278898,35.67599749356506],[139.7566028218057,35.67588351617521],[139.75664956903495,35.67586434672509],[139.75671994015326,35.67597823485225]]]}},{"type":"Feature","properties":{"height":3.0,"gml_id":"bldg_be5cce4e-fcf6-4704-9e6d-0ba64946c756"},"geometry":{"type":"Polygon","coordinates":[[[139.75644709691846,35.68252346286669],[139.75645457544113,35.68255898167433],[139.7564206537034,35.68256373727712],[139.75641317519532,35.68252821846742],[139.75644709691846,35.68252346286669]]]}},{"type":"Feature","properties":{"height":6.4,"gml_id":"bldg_dd8c13be-547e-4d34-a795-83eb3a8b8ebc"},"geometry":{"type":"Polygon","coordinates":[[[139.75968359065743,35.68324333835976],[139.7597969677389,35.68321690734702],[139.75980567219105,35.68324251160795],[139.7596913024928,35.68326704914192],[139.75968359065743,35.68324333835976]]]}},{"type":"Feature","properties":{"height":41.7,"gml_id":"bldg_13ef93ed-f2bf-466f-89a2-48ed8e9fced0"},"geometry":{"type":"Polygon","coordinates":[[[139.7516380860432,35.67689802542674],[139.75163548457923,35.676903305702595],[139.7516231968813,35.676928175236576],[139.75157781023276,35.67701963370259],[139.7515514636232,35.67707288690479],[139.75118515122583,35.676953205725546],[139.75109370033533,35.67692328985008],[139.7510482123555,35.67690840415832],[139.7506678763422,35.676784114820194],[139.750779576424,35.67655650483721],[139.75120629189232,35.67669795244409],[139.7512467106111,35.676711409551224],[139.75166205303015,35.676849061121494],[139.7516380860432,35.67689802542674]]]}},{"type":"Feature","properties":{"height":9.5,"gml_id":"bldg_f361d0ab-bd48-42ba-a33e-7f889f4044b3"},"geometry":{"type":"Polygon","coordinates":[[[139.75950776855794,35.67921752488809],[139.75952243480248,35.67924673832919],[139.75953293305923,35.67924331955145],[139.75957075622284,35.67931905796746],[139.7595084293024,35.67933975132029],[139.75946994458522,35.67926266042131],[139.75947701713125,35.67926032119308],[139.75946312306098,35.67923237014091],[139.75950776855794,35.67921752488809]]]}},{"type":"Feature","properties":{"height":7.7,"gml_id":"bldg_4e63a9fb-b95c-45f6-a35e-a9ace187fc67"},"geometry":{"type":"Polygon","coordinates":[[[139.75580043139465,35.67547359882183],[139.7557711466706,35.67548421615563],[139.75575758281383,35.67545950981291],[139.7557868675315,35.675448891581006],[139.75580043139465,35.67547359882183]]]}},{"type":"Feature","properties":{"height":2.0,"gml_id":"bldg_1675f573-bd7e-4b1d-9279-ad28c78a4582"},"geometry":{"type":"Polygon","coordinates":[[[139.75535513117867,35.681716213421225],[139.7553817622018,35.681710281614684],[139.75539035433883,35.68173615653904],[139.75536372330774,35.68174208834745],[139.75535513117867,35.681716213421225]]]}}]}