{"type":"FeatureCollection","crs":{"type":"name","properties":{"name":"urn:ogc:def:crs:OGC:1.3:CRS84"}},"features":[{"type":"Feature","properties":{"height":35.0,"gml_id":"bldg_a4b7a84e-a0b5-42c4-8ac2-5cd2a533a99c"},"geometry":{"type":"Polygon","coordinates":[[[139.7596993840093,35.691424729077745],[139.7596926828492,35.69150269258705],[139.75958639534207,35.691496679381316],[139.7595894444457,35.69146117628285],[139.7595924376537,35.69142637621847],[139.75959309660593,35.69141871497661],[139.7596993840093,35.691424729077745]]]}},{"type":"Feature","properties":{"height":21.0,"gml_id":"bldg_417f47a4-010d-4465-8ee7-9c7e929973f1"},"geometry":{"type":"Polygon","coordinates":[[[139.75371098546378,35.69006426509515],[139.75416161968363,35.69023014400712],[139.7540238132289,35.69047910188083],[139.7535733989658,35.69031313246793],[139.75371098546378,35.69006426509515]]]}},{"type":"Feature","properties":{"height":6.7,"gml_id":"bldg_9b84d8f4-7de3-4473-9348-ae33c5420c55"},"geometry":{"type":"Polygon","coordinates":[[[139.76244180542474,35.683535415884656],[139.76245097683656,35.68353370867928],[139.76246969917267,35.6836008718592],[139.76246152224002,35.68360239937714],[139.76246813131945,35.68362475727448],[139.76243177683295,35.6836318567033],[139.7624251680821,35.6836091382557],[139.76241765419203,35.68361048588694],[139.762399042378,35.68354332276415],[139.76240545129556,35.68354215475737],[139.76239851207498,35.683518354467765],[139.76243475603226,35.683511254983735],[139.76244180542474,35.683535415884656]]]}},{"type":"Feature","properties":{"height":5.8,"gml_id":"bldg_3649fb9d-6033-43ae-8811-4d1ac28f3fc7"},"geometry":{"type":"Polygon","coordinates":[[[139.75197966854066,35.690007853568005],[139.75199478932518,35.69002390817519],[139.75197190333117,35.69003831463356],[139.75195678254852,35.69002226002353],[139.75197966854066,35.690007853568005]]]}},{"type":"Feature","properties":{"height":3.5,"gml_id":"bldg_537f875b-a0b8-43f7-9a47-11f35f97a727"},"geometry":{"type":"Polygon","coordinates":[[[139.7621481043233,35.691344492761054],[139.76212013563537,35.691348189864144],[139.76211136502113,35.691295760991046],[139.76210989533342,35.691295931381866],[139.76210926831314,35.69129280325666],[139.7621369939092,35.691289096998595],[139.7621481043233,35.691344492761054]]]}},{"type":"Feature","properties":{"height":18.1,"gml_id":"bldg_dd4ebd31-9b89-4333-8bb3-e0e210798546"},"geometry":{"type":"Polygon","coordinates":[[[139.75850162775401,35.69145373571049],[139.75843157582975,35.69145396255612],[139.75843128289623,35.69136546586195],[139.75860167238656,35.69136494079764],[139.75860186608054,35.691429731397605],[139.7586018635573,35.691432436407545],[139.75860195445998,35.69145343658341],[139.7585933360306,35.691453522271345],[139.75857156918633,35.691453508755465],[139.75850162775401,35.69145373571049]]]}},{"type":"Feature","properties":{"height":33.9,"gml_id":"bldg_c84322e9-2e15-40e0-a0df-29d69dc43b02"},"geometry":{"type":"Polygon","coordinates":[[[139.7595819477464,35.69140699033614],[139.7595780454585,35.69146910135604],[139.75957634109912,35.691496132399635],[139.75942406721938,35.69148983758174],[139.75938608162198,35.69148826389809],[139.75939157798885,35.69139912177571],[139.7595819477464,35.69140699033614]]]}},{"type":"Feature","properties":{"height":4.0,"gml_id":"bldg_528b6f7a-cd7a-49d6-9430-82d8efcdda96"},"geometry":{"type":"Polygon","coordinates":[[[139.76138298761484,35.68928553362169],[139.7612608891928,35.689294915961774],[139.76124817096277,35.689185481980715],[139.76145424635337,35.68916956981851],[139.76146685494786,35.6892783637398],[139.76144663415872,35.689279883996704],[139.76144882637388,35.68929945405693],[139.7613851804702,35.68930437357342],[139.76138298761484,35.68928553362169]]]}},{"type":"Feature","properties":{"height":3.5,"gml_id":"bldg_bea65a08-8d28-493f-871f-a7305d1f1bd1"},"geometry":{"type":"Polygon","coordinates":[[[139.76143739263142,35.689051146722655],[139.7615013703613,35.68904559641693],[139.76150833839466,35.689099114936504],[139.76144436062253,35.689104665245814],[139.76143739263142,35.689051146722655]]]}},{"type":"Feature","properties":{"height":32.1,"gml_id":"bldg_af618842-5d5c-43ee-b8fd-aef8d207b1a6"},"geometry":{"type":"Polygon","coordinates":[[[139.7547237659157,35.69127087379293],[139.75485026321687,35.6912865500299],[139.75485226168576,35.69127672639924],[139.7549175543051,35.691284701003774],[139.75495444157409,35.69130194119371],[139.7549442280368,35.69135132962183],[139.75495019325203,35.69135268556106],[139.7549010091366,35.69159413055522],[139.7548936065404,35.69159376518404],[139.75488183642122,35.69165297752312],[139.7546529266761,35.691622902645605],[139.75466646580134,35.691562699977716],[139.7546586220388,35.6915615230708],[139.75470824936065,35.69131953764224],[139.75471609292333,35.69132089481983],[139.7547237659157,35.69127087379293]]]}},{"type":"Feature","properties":{"height":17.1,"gml_id":"bldg_fc0f540b-016c-4f0a-b2af-bae6acb77c30"},"geometry":{"type":"Polygon","coordinates":[[[139.75757775662314,35.69139015211127],[139.7575909027262,35.69139268421933],[139.75760327377066,35.6913969284415],[139.75761475943605,35.69140270443459],[139.75762491784187,35.691409921783944],[139.7576336387522,35.69141831000959],[139.75764059086276,35.69142768862952],[139.75764566393696,35.69143778716366],[139.75764874756786,35.691448515405895],[139.75764984218046,35.69145942267158],[139.75764872687589,35.691470418684894],[139.7576455125706,35.69148105283049],[139.75764030992585,35.69149114490377],[139.7576332296029,35.691500514700074],[139.75762438243376,35.69150880174076],[139.75761421047008,35.69151591616645],[139.75760271396763,35.691521587566015],[139.757590224487,35.691525726010646],[139.75757707350382,35.691528331708675],[139.75756370324052,35.69152913542854],[139.75755033459868,35.69152822474214],[139.7575371885608,35.69152560159136],[139.75752481749916,35.69152135826386],[139.7575133318233,35.69151558226229],[139.75750317332887,35.69150845504057],[139.75749445242238,35.6915000668056],[139.7574875003227,35.69149068817739],[139.75748242735128,35.69148049859834],[139.7574793437406,35.69146977125331],[139.75747824915106,35.691458863986114],[139.75747936439353,35.691447958111354],[139.75748257880488,35.69143723383322],[139.75748778146598,35.69142714176666],[139.7574948617994,35.69141777197882],[139.75750370897185,35.69140948494754],[139.75751388093096,35.691402371432396],[139.7575253774234,35.691396699139844],[139.75753786688728,35.691392560701814],[139.75755101776411,35.691390045144956],[139.75756438800346,35.691389242327816],[139.75757775662314,35.69139015211127]]]}},{"type":"Feature","properties":{"height":3.1,"gml_id":"bldg_4ba37d6c-7028-4a4a-b50a-e19f97416791"},"geometry":{"type":"Polygon","coordinates":[[[139.76080002644568,35.69065337375386],[139.76082212503462,35.69065284624441],[139.76082352723077,35.69069061359817],[139.76080153904772,35.69069122319909],[139.76080002644568,35.69065337375386]]]}},{"type":"Feature","properties":{"height":4.3,"gml_id":"bldg_9707ed61-6c01-442f-8f6f-a735dab1b687"},"geometry":{"type":"Polygon","coordinates":[[[139.7573840941627,35.691592387659554],[139.75735326327913,35.691596244095656],[139.7573487556852,35.69157244508207],[139.75737958655978,35.6915685886471],[139.7573840941627,35.691592387659554]]]}},{"type":"Feature","properties":{"height":50.2,"gml_id":"bldg_4a698f9f-c433-4014-8924-54ea0022fd48"},"geometry":{"type":"Polygon","coordinates":[[[139.75992646079357,35.69143083482733],[139.7601478995868,35.69144017263971],[139.76014745114847,35.691447257135756],[139.76017147110662,35.69144827225679],[139.76016649340676,35.69152696785093],[139.7598876782289,35.69151520554926],[139.75989159092254,35.6914535370987],[139.75989311570274,35.69142943539352],[139.75992646079357,35.69143083482733]]]}},{"type":"Feature","properties":{"height":4.9,"gml_id":"bldg_4b82d4cb-109a-4ba3-a747-6d2f485ad958"},"geometry":{"type":"Polygon","coordinates":[[[139.76196310655018,35.68476000634067],[139.76190342513766,35.6847710578103],[139.76189062809976,35.684725044237354],[139.7619353255969,35.68471676912545],[139.76193974178807,35.68473265390277],[139.76195472567372,35.684729877550716],[139.76196310655018,35.68476000634067]]]}},{"type":"Feature","properties":{"height":120.1,"gml_id":"bldg_768ebcc0-2ca0-4148-a614-00d29b3449db"},"geometry":{"type":"Polygon","coordinates":[[[139.76181023424763,35.68645332121648],[139.76177122662529,35.686460599139686],[139.76161825746135,35.68590841756294],[139.7616567121662,35.68590141067194],[139.76164602981802,35.68586273459844],[139.76220903766438,35.685758961086265],[139.76222060150212,35.68580061125398],[139.76225408361316,35.68579441156713],[139.76240639603174,35.686344337633436],[139.76237324523612,35.686350447420146],[139.76238293683244,35.68638551555626],[139.7618202562589,35.686489291865655],[139.76181023424763,35.68645332121648]]]}},{"type":"Feature","properties":{"height":3.5,"gml_id":"bldg_73647eea-fc82-4729-8b66-fac9b58a6535"},"geometry":{"type":"Polygon","coordinates":[[[139.7573839089829,35.691554620138795],[139.75736467795136,35.69156037677265],[139.75734560306233,35.691518000342526],[139.75736483408505,35.691512243711685],[139.7573839089829,35.691554620138795]]]}},{"type":"Feature","properties":{"height":7.3,"gml_id":"bldg_e1e534f8-8b54-4f88-9ac9-8216f684caf9"},"geometry":{"type":"Polygon","coordinates":[[[139.75175313255838,35.690256478442436],[139.75182174047524,35.690262744369925],[139.75181439412088,35.690315830098946],[139.75174578615918,35.69030956416725],[139.75175313255838,35.690256478442436]]]}},{"type":"Feature","properties":{"height":11.7,"gml_id":"bldg_5af0d0c2-39ba-4d18-99b7-c24acbbaf70d"},"geometry":{"type":"Polygon","coordinates":[[[139.76158118370319,35.69017214962874],[139.76130405420025,35.690195338638304],[139.76128057668896,35.69000927275174],[139.76130079774634,35.69000766238616],[139.76127477843497,35.68979769964478],[139.76147356278634,35.689782134622085],[139.76149958366355,35.689990926442256],[139.76155781603646,35.689986092874314],[139.76158118370319,35.69017214962874]]]}},{"type":"Feature","properties":{"height":7.4,"gml_id":"bldg_a92fff2b-5526-4f35-9c4d-9fa16733f1cb"},"geometry":{"type":"Polygon","coordinates":[[[139.75673773312553,35.690419656182414],[139.75674270389044,35.69042101140026],[139.75674701059438,35.690423537976706],[139.75675010104507,35.690426965149456],[139.75675164403037,35.69043102229689],[139.7567516398948,35.690435348871155],[139.75675008915496,35.690439404050515],[139.75674699206922,35.690442917424],[139.75674268053882,35.690445438517536],[139.7567377071872,35.690446787408604],[139.75673240365748,35.69044678403408],[139.75672743289118,35.6904454288158],[139.7567231261867,35.69044290223868],[139.75672003582272,35.69043938492826],[139.75671838234865,35.69043532771011],[139.75671838648606,35.69043100113585],[139.75672004771747,35.69042694602721],[139.7567231447176,35.6904235227914],[139.75672745624743,35.69042100169853],[139.75673242959763,35.690419652807904],[139.75673773312553,35.690419656182414]]]}},{"type":"Feature","properties":{"height":4.9,"gml_id":"bldg_587b0903-6e91-4022-8f98-fa6132b0dda6"},"geometry":{"type":"Polygon","coordinates":[[[139.76198173267477,35.68530732987252],[139.7619714863201,35.68527523499209],[139.76207778019696,35.68525258340105],[139.76208802659133,35.68528467827263],[139.76198173267477,35.68530732987252]]]}},{"type":"Feature","properties":{"height":22.8,"gml_id":"bldg_85342bfb-6e90-45f2-8d90-5020dbf30d87"},"geometry":{"type":"Polygon","coordinates":[[[139.76184807959922,35.68849188269282],[139.7618508751498,35.68849164188408],[139.76186136483025,35.688573402417134],[139.76185563006382,35.68857391279356],[139.76185823024758,35.68859451065327],[139.76184002036905,35.68859619441708],[139.76184107425453,35.68860381162363],[139.76158495527872,35.68862554543176],[139.76158415384478,35.688619820350105],[139.76149902703753,35.688627674604945],[139.76149552695878,35.68860037000419],[139.76148193591675,35.6886015426887],[139.76147403601817,35.68853997436839],[139.76148767122874,35.68853881973852],[139.76148378721564,35.688508432220736],[139.7615677089619,35.6885012713134],[139.76156691855417,35.688495574180585],[139.76182304811897,35.68847389540002],[139.76182362994584,35.68847810514595],[139.7618459946827,35.68847580190617],[139.76184807959922,35.68849188269282]]]}},{"type":"Feature","properties":{"height":5.4,"gml_id":"bldg_64876450-510a-48d9-ba40-10289c0813df"},"geometry":{"type":"Polygon","coordinates":[[[139.7612617884745,35.68940065625962],[139.76129615356191,35.68939725162059],[139.76130131452447,35.689432858838394],[139.7612669495031,35.689436173341896],[139.7612617884745,35.68940065625962]]]}},{"type":"Feature","properties":{"height":37.0,"gml_id":"bldg_2f641e5f-9790-41a3-859b-09cb68edd46d"},"geometry":{"type":"Polygon","coordinates":[[[139.75938508827795,35.69148709240822],[139.75926233689643,35.69148178809527],[139.75926323516327,35.691466285083095],[139.75922003460965,35.69146445575462],[139.75922362562235,35.69140469713068],[139.75926620752455,35.69140638185801],[139.7592699199067,35.69140652836123],[139.75927048019716,35.691398055827364],[139.75939013785538,35.691403177056436],[139.75938508827795,35.69148709240822]]]}},{"type":"Feature","properties":{"height":6.0,"gml_id":"bldg_022303c3-af14-48bb-8f5a-90fb08eb0261"},"geometry":{"type":"Polygon","coordinates":[[[139.76177702460924,35.68872742357414],[139.7617755983299,35.68871615559539],[139.76187805121347,35.68870660783997],[139.76185951939732,35.688573725814905],[139.76187454684074,35.68857247281701],[139.76189252937687,35.688701839168964],[139.76189705969847,35.68870148130909],[139.7618990354604,35.68871608468326],[139.76177702460924,35.68872742357414]]]}},{"type":"Feature","properties":{"height":2.9,"gml_id":"bldg_461ba889-44d9-4fab-8b87-623db659fcf2"},"geometry":{"type":"Polygon","coordinates":[[[139.75331623313858,35.69025797822932],[139.75335963687763,35.69027684570786],[139.7533375052263,35.69031054224842],[139.75329421196417,35.69029167483544],[139.75331623313858,35.69025797822932]]]}},{"type":"Feature","properties":{"height":37.2,"gml_id":"bldg_651b87a4-2be2-4940-9c53-b05f84c1a83f"},"geometry":{"type":"Polygon","coordinates":[[[139.75426973459034,35.69106939066066],[139.75443984599013,35.69111502145174],[139.754286218261,35.69149656074959],[139.75421971982666,35.69147876007729],[139.7541862692556,35.69156184440438],[139.75406542322744,35.6915294958464],[139.754098541544,35.691447312703836],[139.75411577368428,35.69145192103164],[139.75426973459034,35.69106939066066]]]}},{"type":"Feature","properties":{"height":10.2,"gml_id":"bldg_d4f98d24-9c7d-4596-9940-927c7ae1d6e0"},"geometry":{"type":"Polygon","coordinates":[[[139.75791541263453,35.69069252338342],[139.75790555547866,35.690694003567145],[139.75789007356244,35.690696320302244],[139.75787395070756,35.690698734882936],[139.7578665246896,35.69069984792693],[139.75784917520983,35.69070245102309],[139.75783768256105,35.69070417444707],[139.75782110663224,35.69070665183245],[139.75780681817156,35.69070879714372],[139.75779739199203,35.69071020638075],[139.75778616564162,35.69066386891006],[139.757795956545,35.69066234272464],[139.7578102340166,35.69066012529813],[139.7578267768824,35.69065754874276],[139.75783826958417,35.690655762223926],[139.75785557494294,35.69065306896465],[139.75786300099915,35.69065191085282],[139.75787911288074,35.69064940612968],[139.75789457277415,35.69064700014652],[139.75790385534089,35.69064555475709],[139.75791541263453,35.69069252338342]]]}},{"type":"Feature","properties":{"height":2.6,"gml_id":"bldg_d669c293-3c32-46e3-a917-b1a4aec954e5"},"geometry":{"type":"Polygon","coordinates":[[[139.75307190309744,35.690735722037054],[139.75309597740818,35.69074835726683],[139.75306511124492,35.69078754629025],[139.75304092652698,35.69077482084372],[139.75307190309744,35.690735722037054]]]}},{"type":"Feature","properties":{"height":4.6,"gml_id":"bldg_0c3ef383-5547-47f6-8536-ee3a3bb00f1a"},"geometry":{"type":"Polygon","coordinates":[[[139.76144385349792,35.68856158924075],[139.7614572913862,35.68866955440837],[139.76139066232807,35.688675012969725],[139.76137722444773,35.68856713793189],[139.76144385349792,35.68856158924075]]]}},{"type":"Feature","properties":{"height":57.2,"gml_id":"bldg_b9cd8027-fdd3-44dc-b34a-d5b20aa29f47"},"geometry":{"type":"Polygon","coordinates":[[[139.75652478415705,35.691146926203345],[139.75673177478416,35.69111607800166],[139.7567252748907,35.691084561967244],[139.75673507678545,35.69108317108077],[139.75672986302763,35.69108168140395],[139.7567228933428,35.69107926940925],[139.75671612286908,35.69107651592167],[139.75670958476326,35.69107341104726],[139.75670329004862,35.69106998183419],[139.75669727186394,35.6910662373173],[139.7566915633471,35.69106218743279],[139.75668616447393,35.69105785741907],[139.75668111943227,35.69105325631798],[139.7566764392436,35.691048412980464],[139.75667213494833,35.69104333642726],[139.75666822863005,35.69103804199581],[139.7566647423506,35.69103256755769],[139.75666168714875,35.69102692393644],[139.75665906301055,35.691021125554016],[139.7566569030453,35.6910152120918],[139.75665519618912,35.691009198866055],[139.7566539534643,35.691003113826305],[139.75665317485345,35.69099697499997],[139.75665288243744,35.69099080042849],[139.75665306512388,35.69098463517332],[139.75665371186363,35.69097847922745],[139.75665484471156,35.6909723776734],[139.75665643051087,35.690966340405105],[139.75665849132767,35.690960400787304],[139.75666099399388,35.69095458043173],[139.75666394954476,35.69094889376729],[139.75666732480357,35.69094337141943],[139.75667113079697,35.69093803683076],[139.7566753343664,35.69093290169793],[139.75667992442908,35.69092800116727],[139.75668488993594,35.690923335231716],[139.75669019770515,35.69091893992486],[139.75669583668767,35.69091481523967],[139.75670177370174,35.69091099720977],[139.75670799769833,35.6909074858281],[139.7567144865534,35.690904308121596],[139.7567211960793,35.69090145504842],[139.7567281151926,35.690898962656284],[139.7567352217951,35.690896830931095],[139.75674247169064,35.6908950598447],[139.75674984276387,35.69089366741041],[139.75675730186765,35.690892653607115],[139.7567648379444,35.690892027441464],[139.75677239575742,35.69089177986462],[139.75677995319143,35.69089192888989],[139.75678749920695,35.69089246459524],[139.75679497856467,35.690893380635906],[139.75680238020962,35.69089468331448],[139.75680965996276,35.69089635457552],[139.75681679572347,35.69089839710907],[139.75682376539626,35.690900808197036],[139.75683053585027,35.69090357069233],[139.7568370739547,35.69090666744791],[139.7568433686631,35.6909100957527],[139.7568493879392,35.690913849276775],[139.75685509535634,35.69091789104086],[139.75686049422922,35.69092222104712],[139.7568655392738,35.69092682123942],[139.75687021946686,35.69093166456969],[139.75687452375922,35.69093675103097],[139.75687843009487,35.69094203644216],[139.7568819163781,35.69094751808512],[139.7568849715916,35.69095316260223],[139.75688758470434,35.69095895105773],[139.7568897557333,35.69096486542429],[139.75689146260615,35.690970878646766],[139.75689270533994,35.69097697269782],[139.75689348396807,35.69098311242402],[139.75689377641208,35.69098927707987],[139.75689359373553,35.69099545134911],[139.75689294702272,35.69100159828259],[139.75689181419247,35.691007699838885],[139.75689022840925,35.69101373801163],[139.7568881676091,35.691019676732],[139.75688566495646,35.69102549799361],[139.75688270941933,35.69103118376205],[139.75687932312167,35.691036707010234],[139.75687552817877,35.69104204972475],[139.75687132462502,35.691047175850805],[139.75686673455857,35.69105208540236],[139.7568617690629,35.69105674233165],[139.75685646128537,35.69106114665965],[139.75685082230942,35.69106526233854],[139.75684488529097,35.6910690803757],[139.75683866128782,35.69107259176437],[139.75683217241627,35.69107577758977],[139.75682545183832,35.6910786225497],[139.75681853271254,35.691081114947316],[139.75681143713638,35.69108325569807],[139.75693650724122,35.69105465443857],[139.75692579982143,35.690997599027966],[139.75691284830316,35.69099966395822],[139.75691245225525,35.69099786096662],[139.75690308974328,35.690955643860654],[139.75689231872897,35.69090737766583],[139.756902662159,35.69090582486289],[139.75688914032966,35.69084555968449],[139.75779739199203,35.69071020638075],[139.75780681817156,35.69070879714372],[139.75782110663224,35.69070665183245],[139.75783768256105,35.69070417444707],[139.75784917520983,35.69070245102309],[139.7578665246896,35.69069984792693],[139.75787395070756,35.690698734882936],[139.75789007356244,35.690696320302244],[139.75790555547866,35.690694003567145],[139.75791541263453,35.69069252338342],[139.75854706485285,35.69059836370947],[139.7585642569131,35.690657837778645],[139.7586057960335,35.690651707212545],[139.75862596473024,35.690742028006916],[139.75858085617918,35.69074873324039],[139.75859570174828,35.690812649601384],[139.75797642532947,35.69090420330037],[139.7579836918687,35.690931699637574],[139.75798225366466,35.69093363668315],[139.75795612423448,35.690931853639924],[139.75796339316878,35.69093330939694],[139.75797054021575,35.690935134639],[139.7579775322367,35.690937320331614],[139.7579843360853,35.69093986555273],[139.75799094072687,35.69094275497218],[139.75799730198472,35.690945967830835],[139.7580034088089,35.69094950502318],[139.75800922806826,35.69095334940249],[139.75801473767572,35.690957489237185],[139.7580199266135,35.69096189116973],[139.75802476172674,35.69096656329172],[139.75802922095022,35.69097147043599],[139.75803330430347,35.69097659187108],[139.75803697865354,35.690981912252994],[139.75804024401816,35.690987412653044],[139.75804306727537,35.69099306600938],[139.75804545949117,35.69099885430164],[139.7580473985935,35.691004749573494],[139.75804887353829,35.691010746409866],[139.75804989542195,35.691016794340996],[139.75805044215124,35.69102288794484],[139.7580505248015,35.69102899928588],[139.7580501323488,35.691035101316075],[139.75804927586765,35.69104116700129],[139.75804794432574,35.69104717830719],[139.75804615984657,35.69105310820649],[139.75804392244703,35.691058938671794],[139.75804124320155,35.69106464266891],[139.75803812212692,35.69107020217037],[139.75803458135525,35.69107558113524],[139.7580306429931,35.69108077056355],[139.75802630705743,35.69108575242791],[139.75802159567178,35.69109049970101],[139.75801651989372,35.69109500337602],[139.7580111129045,35.691099227418846],[139.75800539680233,35.69110317184327],[139.75799939370236,35.691106818635696],[139.75799310363013,35.69111014075498],[139.75798658183115,35.69111313823567],[139.7579798393631,35.691115802070954],[139.75797290939883,35.691118105240434],[139.75796581402815,35.691120056771624],[139.7579585864155,35.691121638657876],[139.75795123761,35.691122850906055],[139.75794382287347,35.69112367642471],[139.75793635323987,35.69112413144543],[139.75792886188208,35.691124188947875],[139.7579213819289,35.691123868782924],[139.7579139465286,35.69112317006999],[139.75790657777955,35.69112209282289],[139.75789930882917,35.691120637062454],[139.75789216177574,35.691118802802535],[139.75788516974134,35.691116617104996],[139.75787835483266,35.69111407097004],[139.75787176122162,35.69111119056511],[139.75786539996338,35.691107969587584],[139.75785929313324,35.69110443238832],[139.75785347386926,35.691100588903225],[139.7578479532036,35.69109645716664],[139.75784277532415,35.69109204622002],[139.75783794020552,35.6910873831045],[139.75783346993734,35.69108247684769],[139.7578293976406,35.69107735541285],[139.7578257233008,35.691072034123316],[139.7578224579475,35.69106653371757],[139.7578196236627,35.69106087133548],[139.75781724251047,35.691055083045775],[139.7578153034247,35.691049186868895],[139.75781381743744,35.69104320083923],[139.75781280662972,35.69103714299801],[139.75781224886927,35.69103104938619],[139.75781217727783,35.69102494706566],[139.75781256974858,35.691018845036226],[139.7578134262559,35.69101277033901],[139.75781474676572,35.691006759028745],[139.75781653126094,35.69100082913285],[139.7578187686754,35.69099499867173],[139.7578214589835,35.69098929468647],[139.75782456901237,35.69098374419731],[139.7578281098026,35.690978356224875],[139.75783205922187,35.69097316681002],[139.7578363951635,35.69096818495257],[139.75784110655292,35.69096343768664],[139.75784617127488,35.690958943025684],[139.75785157827178,35.69095470997648],[139.7578537674184,35.69095319704727],[139.7577571844327,35.69096790990832],[139.7577696855499,35.691021621387044],[139.75778779757425,35.691018928644034],[139.7578090695272,35.69111012459059],[139.7578112594383,35.6911195272545],[139.75780065075992,35.69112114306493],[139.75781341394816,35.691178207798906],[139.75643196483642,35.69138410844786],[139.75641777201034,35.69132100257581],[139.75637224305657,35.69132773375326],[139.75637151694772,35.69132447032947],[139.75635114138998,35.691233445966645],[139.75635034923928,35.69122992110313],[139.75640560275602,35.69122175395629],[139.75639328079743,35.69116649209622],[139.75652478415705,35.691146926203345]]]}},{"type":"Feature","properties":{"height":39.0,"gml_id":"bldg_24b4f076-1f17-434a-8d5c-1370ede499f0"},"geometry":{"type":"Polygon","coordinates":[[[139.76162001401622,35.69137719742034],[139.76163026313026,35.69136988259757],[139.76164711905736,35.69137556315531],[139.76165611861435,35.691381715857986],[139.7616611836347,35.69138902898495],[139.76166541730862,35.69139931613804],[139.76167326262637,35.69139885209587],[139.76167876046537,35.691416396030085],[139.76169992356296,35.691436688550155],[139.76168989711536,35.69144211874647],[139.76169649818533,35.69144919842981],[139.76168964352368,35.69145387155989],[139.76172300580768,35.69158441970971],[139.7614877405103,35.69161582658201],[139.76147061250572,35.691617791260455],[139.7614468582183,35.69161615461194],[139.76142752675997,35.69161100525744],[139.7614153793758,35.69160351662975],[139.761402131688,35.691590890435485],[139.76139628744056,35.69157772603925],[139.76139375850533,35.69156394257997],[139.76139631253076,35.69154978358268],[139.7613831872061,35.69153625518793],[139.76161536529435,35.69137387670771],[139.76162001401622,35.69137719742034]]]}},{"type":"Feature","properties":{"height":63.7,"gml_id":"bldg_2df4444d-a4e4-421e-9bdb-2a7eb2b98dde"},"geometry":{"type":"Polygon","coordinates":[[[139.76071009319423,35.69089047002467],[139.76034524526872,35.69089818143049],[139.76031946718314,35.69008648192997],[139.76068431141448,35.6900787705969],[139.76071009319423,35.69089047002467]]]}},{"type":"Feature","properties":{"height":3.5,"gml_id":"bldg_82cfb954-ca8c-48c4-872b-ffb9a24fb721"},"geometry":{"type":"Polygon","coordinates":[[[139.76149571369893,35.68987085169453],[139.761583887719,35.689867037399544],[139.7615859590169,35.68989830716985],[139.76149767454578,35.68990204027708],[139.76149571369893,35.68987085169453]]]}},{"type":"Feature","properties":{"height":12.4,"gml_id":"bldg_63597348-5580-4a68-83a5-61703a748055"},"geometry":{"type":"Polygon","coordinates":[[[139.76126166888974,35.69162163237866],[139.76136526483901,35.69154922420363],[139.76140729267624,35.69162667700852],[139.76127523611748,35.69164750982051],[139.76126166888974,35.69162163237866]]]}},{"type":"Feature","properties":{"height":3.8,"gml_id":"bldg_d260df83-a093-4958-b666-3ee823d54e9a"},"geometry":{"type":"Polygon","coordinates":[[[139.76074729365877,35.69080710670764],[139.76070852167635,35.69080795765283],[139.76070143341465,35.690582791106486],[139.7607387689783,35.690581867187696],[139.76074729365877,35.69080710670764]]]}},{"type":"Feature","properties":{"height":7.1,"gml_id":"bldg_613ee54e-75d0-4650-b2af-409abf8cb5f9"},"geometry":{"type":"Polygon","coordinates":[[[139.7575178798383,35.69161347391132],[139.75745030488162,35.69168148477067],[139.75740936867737,35.691622058676046],[139.75743016573523,35.69159611233413],[139.75742854251766,35.691560057411145],[139.75751508117943,35.691535143093716],[139.7575178798383,35.69161347391132]]]}},{"type":"Feature","properties":{"height":4.5,"gml_id":"bldg_32691763-6592-4a97-8690-7827cc3096d7"},"geometry":{"type":"Polygon","coordinates":[[[139.76029052908015,35.69080243174783],[139.7602844064922,35.690610075638176],[139.76033453707907,35.69060892525181],[139.76034065970603,35.69080137059468],[139.76029052908015,35.69080243174783]]]}},{"type":"Feature","properties":{"height":26.5,"gml_id":"bldg_06382e39-fcf6-4d40-a6e3-3f0de6f66d37"},"geometry":{"type":"Polygon","coordinates":[[[139.7623863356009,35.69155600467825],[139.76253630125848,35.69153650619446],[139.7625580031557,35.69164758577325],[139.76254454369177,35.69164933643241],[139.76255184732787,35.691686719641204],[139.76248119063507,35.69169589909211],[139.76247652686308,35.691672055109606],[139.76244097766866,35.691676495962035],[139.76244548655816,35.691700547169816],[139.76242368397624,35.69170338265867],[139.76241919730322,35.691679205271384],[139.762410622173,35.69168028186377],[139.7623863356009,35.69155600467825]]]}},{"type":"Feature","properties":{"height":13.7,"gml_id":"bldg_098b9343-28e3-4207-9015-cacf7a68a185"},"geometry":{"type":"Polygon","coordinates":[[[139.7579269388819,35.69135945434686],[139.7578402355176,35.69144223591381],[139.7577644867577,35.691390810294834],[139.75782362030057,35.691333835744274],[139.75788033099585,35.69132697582126],[139.7579269388819,35.69135945434686]]]}},{"type":"Feature","properties":{"height":3.0,"gml_id":"bldg_1a6d0b7c-994b-499e-9035-84a94aec76d1"},"geometry":{"type":"Polygon","coordinates":[[[139.7573888965032,35.69165494486691],[139.7573619334089,35.69165817368749],[139.75735588755686,35.69162526986649],[139.75738296113124,35.69162204201832],[139.7573888965032,35.69165494486691]]]}},{"type":"Feature","properties":{"height":3.6,"gml_id":"bldg_b7a14db4-2ddb-4373-b77c-bd520c650b2d"},"geometry":{"type":"Polygon","coordinates":[[[139.75115746531435,35.69059489834915],[139.75111151759225,35.69057900286178],[139.7511462800848,35.6905122350724],[139.7511922277756,35.690528130546625],[139.75115746531435,35.69059489834915]]]}},{"type":"Feature","properties":{"height":8.8,"gml_id":"bldg_0de9c5c2-79b2-4543-9c8d-8dd643060072"},"geometry":{"type":"Polygon","coordinates":[[[139.75459146589014,35.690301634174915],[139.75445793087098,35.690253413589424],[139.75446136218147,35.69024719638316],[139.75447020279475,35.69024575998255],[139.75459677915399,35.69029172257796],[139.75459146589014,35.690301634174915]]]}},{"type":"Feature","properties":{"height":6.8,"gml_id":"bldg_50eab135-5bcb-4918-8e28-0c2ed4e69f84"},"geometry":{"type":"Polygon","coordinates":[[[139.7618590606506,35.69005405514881],[139.76185335845216,35.690005558041975],[139.76172407658976,35.690015576557585],[139.76170949355574,35.689890187274365],[139.76221987967764,35.689850649280274],[139.7622400554401,35.69002453642879],[139.7618590606506,35.69005405514881]]]}},{"type":"Feature","properties":{"height":7.6,"gml_id":"bldg_79cc46c4-8e99-4215-bade-c925c446602c"},"geometry":{"type":"Polygon","coordinates":[[[139.75143833802503,35.6894000531138],[139.75155167205963,35.68942699099302],[139.75154978841394,35.68943221766116],[139.75154570124886,35.689431313514184],[139.7515283049042,35.68947988555341],[139.7515327233541,35.68948097020011],[139.75152917767934,35.68949079272705],[139.75152431736555,35.68948961764292],[139.75151656096196,35.68951133539582],[139.751524403741,35.68951323360327],[139.7515206362576,35.689523867212436],[139.7513962558819,35.68949430781267],[139.75141243352286,35.68944907003351],[139.7514188403073,35.68945060672256],[139.75142415906706,35.68943564759449],[139.75141664767224,35.68943383974302],[139.75142861473907,35.68940031691007],[139.7514375622083,35.689402396148836],[139.75143833802503,35.6894000531138]]]}},{"type":"Feature","properties":{"height":6.7,"gml_id":"bldg_f698d320-6e5d-410e-839f-8302487b5ba3"},"geometry":{"type":"Polygon","coordinates":[[[139.75503664913967,35.690734672354424],[139.75512077818092,35.69057473384081],[139.75520085645243,35.690602728314886],[139.7551167275414,35.690762666883884],[139.75503664913967,35.690734672354424]]]}},{"type":"Feature","properties":{"height":4.9,"gml_id":"bldg_7ba47240-3111-434a-b89b-da28fda580ec"},"geometry":{"type":"Polygon","coordinates":[[[139.76032066056118,35.69018337995644],[139.76032582090173,35.69034050093232],[139.76027581203817,35.69034163336169],[139.7602707622781,35.69018452056319],[139.76032066056118,35.69018337995644]]]}},{"type":"Feature","properties":{"height":4.4,"gml_id":"bldg_6752d50f-c951-401e-b599-025d4434bf24"},"geometry":{"type":"Polygon","coordinates":[[[139.76060130503973,35.68986680832273],[139.76060807227475,35.69008009464755],[139.76053768893965,35.69008158443766],[139.76053092189187,35.68986829810915],[139.76060130503973,35.68986680832273]]]}},{"type":"Feature","properties":{"height":2.2,"gml_id":"bldg_c6678d31-6b45-458c-a155-53b369939bb0"},"geometry":{"type":"Polygon","coordinates":[[[139.7542582638752,35.69149654239073],[139.7542771526095,35.691501963016584],[139.75423008410039,35.691612890744764],[139.75421108476235,35.69160756017593],[139.7542582638752,35.69149654239073]]]}},{"type":"Feature","properties":{"height":3.7,"gml_id":"bldg_df38262e-2fd2-4b5b-a32f-608631b0995b"},"geometry":{"type":"Polygon","coordinates":[[[139.76033932008608,35.689470290183245],[139.76029619768755,35.68950508396587],[139.76027182005694,35.68948497762857],[139.7603149424552,35.68945018385457],[139.76033932008608,35.689470290183245]]]}},{"type":"Feature","properties":{"height":11.8,"gml_id":"bldg_0f5d7dbe-2a20-4dfb-be36-17250130b34d"},"geometry":{"type":"Polygon","coordinates":[[[139.75198105588785,35.69027375871447],[139.7520496384151,35.69030508258585],[139.75198667635078,35.69039688967776],[139.75191809376972,35.69036556577092],[139.75198105588785,35.69027375871447]]]}},{"type":"Feature","properties":{"height":6.4,"gml_id":"bldg_e3a01f5e-dc31-481e-813a-6b776524cc48"},"geometry":{"type":"Polygon","coordinates":[[[139.7618356709632,35.69004056577411],[139.76183284996435,35.690007357617404],[139.76185318150795,35.690005738210964],[139.76185710699355,35.69003941573552],[139.7618356709632,35.69004056577411]]]}},{"type":"Feature","properties":{"height":3.4,"gml_id":"bldg_c80bdf5a-da28-4ee4-85fe-4be2f897f911"},"geometry":{"type":"Polygon","coordinates":[[[139.75171087113566,35.690309720773605],[139.75180551355334,35.690356475879774],[139.75176048224188,35.69041719772389],[139.75166583977887,35.69037044258275],[139.75171087113566,35.690309720773605]]]}},{"type":"Feature","properties":{"height":5.0,"gml_id":"bldg_81d76a94-3b1c-4ea0-8101-1285d9e94a34"},"geometry":{"type":"Polygon","coordinates":[[[139.760106295407,35.69030829684838],[139.7601206816359,35.69030783688575],[139.76012194974166,35.69033478862678],[139.76012042492943,35.69033484178166],[139.76012373066496,35.690405114614464],[139.76006609731124,35.690406927361124],[139.76001564602973,35.69040851009821],[139.76001106127836,35.69031127740144],[139.76001700581566,35.690311090832765],[139.760106295407,35.69030829684838]]]}},{"type":"Feature","properties":{"height":8.3,"gml_id":"bldg_ec701fd8-354b-4ce0-9389-14a037c62317"},"geometry":{"type":"Polygon","coordinates":[[[139.7519353676337,35.69043750679061],[139.75199401083032,35.69046422698428],[139.75190316323548,35.69059711766368],[139.7518444094817,35.69057039735148],[139.7519353676337,35.69043750679061]]]}},{"type":"Feature","properties":{"height":2.0,"gml_id":"bldg_3cddd947-8662-49ba-be20-1f6934fe0f90"},"geometry":{"type":"Polygon","coordinates":[[[139.75301998926855,35.69049853693174],[139.75303688696155,35.690505849301886],[139.75302537835464,35.69052341834306],[139.75300848074937,35.690516015834376],[139.75301998926855,35.69049853693174]]]}},{"type":"Feature","properties":{"height":9.5,"gml_id":"bldg_f1316d66-aeef-4798-8a64-69cc8fffc50e"},"geometry":{"type":"Polygon","coordinates":[[[139.7624225366731,35.690827493614215],[139.76239997393685,35.69072823856426],[139.76249368248153,35.69071414313248],[139.76251613484007,35.69081339719885],[139.7624225366731,35.690827493614215]]]}},{"type":"Feature","properties":{"height":7.4,"gml_id":"bldg_3c8a29de-862a-4653-af8f-0cfaa803ffd5"},"geometry":{"type":"Polygon","coordinates":[[[139.75671274217706,35.69044073234163],[139.75671318129315,35.690443707142734],[139.75671240363786,35.690448123361705],[139.7567107423194,35.69045226860717],[139.7567075347412,35.69045578190931],[139.75670322312268,35.69045839313838],[139.75669813927937,35.69045974195747],[139.7566928357488,35.69045973858121],[139.75668764400191,35.6904583832206],[139.75668333738423,35.69045576650511],[139.75668024702154,35.690452249193676],[139.75667749132066,35.690445397025584],[139.75667440535713,35.69043728272885],[139.75670590454405,35.69042738771074],[139.75671274217706,35.69044073234163]]]}},{"type":"Feature","properties":{"height":4.2,"gml_id":"bldg_8957377c-0783-4a50-9ea2-cc386a317173"},"geometry":{"type":"Polygon","coordinates":[[[139.7547580623514,35.690324637830386],[139.7548454308243,35.69035444004025],[139.75480458188835,35.69043409452497],[139.75471721343231,35.69040420214881],[139.7547580623514,35.690324637830386]]]}},{"type":"Feature","properties":{"height":7.7,"gml_id":"bldg_716667ba-f1c5-4cb0-bb5b-30b101d35873"},"geometry":{"type":"Polygon","coordinates":[[[139.75664289045935,35.69046358266606],[139.75664432519295,35.690465296183376],[139.75664730601338,35.690467821918745],[139.7566516127168,35.69047034849857],[139.7566566939736,35.69047170379036],[139.75666210799523,35.69047170723858],[139.75666719183988,35.69047035842102],[139.756671503374,35.69046783733019],[139.756674600464,35.69046432395868],[139.75667626187084,35.690460088576735],[139.7566762660105,35.69045576200251],[139.7566726280269,35.69044719666912],[139.75667749132066,35.690445397025584],[139.75668024702154,35.690452249193676],[139.75668333738423,35.69045576650511],[139.75668764400191,35.6904583832206],[139.7566928357488,35.69045973858121],[139.75669813927937,35.69045974195747],[139.75670322312268,35.69045839313838],[139.7567075347412,35.69045578190931],[139.7567107423194,35.69045226860717],[139.75671240363786,35.690448123361705],[139.75671318129315,35.690443707142734],[139.75671274217706,35.69044073234163],[139.75672829242254,35.690470938139],[139.75665149075255,35.690482336644315],[139.75664289045935,35.69046358266606]]]}},{"type":"Feature","properties":{"height":120.2,"gml_id":"bldg_a2708565-6f73-4e20-a44e-8d766386f30e"},"geometry":{"type":"Polygon","coordinates":[[[139.76273321600164,35.68510806513941],[139.76274524225238,35.685151752631015],[139.76208556246812,35.685272644412954],[139.76196301326885,35.68482752799215],[139.76268539844065,35.68469514604849],[139.76279591412182,35.685096573354826],[139.76273321600164,35.68510806513941]]]}},{"type":"Feature","properties":{"height":3.8,"gml_id":"bldg_564fa0e8-a4c6-45ce-96be-8b6f6c699462"},"geometry":{"type":"Polygon","coordinates":[[[139.7604413582087,35.689432097850755],[139.7603834101353,35.68947696902157],[139.7603683401998,35.68946400719675],[139.76042627721517,35.6894191450401],[139.7604413582087,35.689432097850755]]]}},{"type":"Feature","properties":{"height":5.3,"gml_id":"bldg_4ab5e110-0e85-41f0-95b9-e897725c8a73"},"geometry":{"type":"Polygon","coordinates":[[[139.75638442444688,35.69118424342609],[139.756392263611,35.691190196577715],[139.75639678604657,35.69119822256307],[139.75639721961525,35.691206966129855],[139.7563934549489,35.691215256328476],[139.75638615637905,35.691221651391096],[139.75637631910612,35.69122534072017],[139.75636560119267,35.69122560427914],[139.75635543885335,35.69122262326017],[139.75634759977632,35.69121657906786],[139.75634307725716,35.691208644119],[139.75634264369435,35.69119990055204],[139.75634640836523,35.69119161035499],[139.7563537069355,35.69118521529476],[139.75636354420453,35.6911815259675],[139.7563742621987,35.69118117227175],[139.75638442444688,35.69118424342609]]]}},{"type":"Feature","properties":{"height":9.7,"gml_id":"bldg_9d11c087-166d-466c-8cf1-bd8e7762dc84"},"geometry":{"type":"Polygon","coordinates":[[[139.75157003391712,35.69027284929897],[139.75162237930968,35.69029920484867],[139.75157458315658,35.69036235844655],[139.75152223764653,35.690336093013265],[139.75157003391712,35.69027284929897]]]}},{"type":"Feature","properties":{"height":35.3,"gml_id":"bldg_051c4801-8160-43b5-bec1-b08f027cc43c"},"geometry":{"type":"Polygon","coordinates":[[[139.7528973331927,35.69117060672605],[139.75299461546217,35.69123097334325],[139.75301796797638,35.691192230013385],[139.75337388270881,35.691280620929746],[139.7535719786582,35.69151781265877],[139.75357701195114,35.69167834998921],[139.75337226744722,35.6919026552884],[139.753352267189,35.69190381378305],[139.75335325118039,35.691914270328155],[139.75317918211022,35.69195796113327],[139.7531726803823,35.69194065050128],[139.7531717963541,35.69194074004961],[139.75316074108517,35.691946771866114],[139.75313787342782,35.69194252019584],[139.75308226494363,35.69197330999008],[139.75302846992201,35.69195858178667],[139.75303245740156,35.69194884965126],[139.75289614714396,35.69191171234449],[139.7528795806442,35.69190440017749],[139.75285831214816,35.69184814047693],[139.7528310061016,35.691862544139155],[139.7527324613989,35.69173844969421],[139.752753576517,35.691727376979095],[139.75265293547946,35.691600576953256],[139.7526687528664,35.69158364179721],[139.7525701450604,35.69152273320883],[139.7528973331927,35.69117060672605]]]}},{"type":"Feature","properties":{"height":4.6,"gml_id":"bldg_5b1fd9a4-e4b0-432d-8de3-7eec3760f679"},"geometry":{"type":"Polygon","coordinates":[[[139.75153798508413,35.69038766208719],[139.75152559021996,35.69040721339733],[139.75149057865917,35.69039366904775],[139.75150584931,35.6903711451744],[139.75153798508413,35.69038766208719]]]}},{"type":"Feature","properties":{"height":19.6,"gml_id":"bldg_4cea8d0a-d046-4070-b9bc-e5dac095523c"},"geometry":{"type":"Polygon","coordinates":[[[139.75022277292453,35.6894748450352],[139.75031586748207,35.68952078901591],[139.75028267418662,35.6895657444983],[139.7504208254634,35.68963389318059],[139.75043476648406,35.689615154279714],[139.75049694021962,35.68964575443021],[139.75048399482273,35.68966332134066],[139.75061772919778,35.689729213330686],[139.75064627513194,35.689690744430955],[139.75073296506207,35.68973352889271],[139.75061114670092,35.68989785517947],[139.75009719194642,35.689644306021364],[139.75022277292453,35.6894748450352]]]}},{"type":"Feature","properties":{"height":12.9,"gml_id":"bldg_55de8e17-686c-4737-ab3d-ff2be7400f16"},"geometry":{"type":"Polygon","coordinates":[[[139.75465302007842,35.69040271801866],[139.75438263802113,35.69030330014353],[139.75437688170402,35.690314293084626],[139.75427427374976,35.69027645833285],[139.75431589122704,35.690202212751956],[139.75445793087098,35.690253413589424],[139.75459146589014,35.690301634174915],[139.75463189097346,35.69031617266959],[139.75462214943286,35.690334914800665],[139.7546781478855,35.69035532236724],[139.75465302007842,35.69040271801866]]]}},{"type":"Feature","properties":{"height":10.3,"gml_id":"bldg_ea50e6d6-03e9-4063-b813-a73cb6f3bdeb"},"geometry":{"type":"Polygon","coordinates":[[[139.7566726280269,35.69044719666912],[139.7566762660105,35.69045576200251],[139.75667626187084,35.690460088576735],[139.756674600464,35.69046432395868],[139.756671503374,35.69046783733019],[139.75666719183988,35.69047035842102],[139.75666210799523,35.69047170723858],[139.7566566939736,35.69047170379036],[139.7566516127168,35.69047034849857],[139.75664730601338,35.690467821918745],[139.75664432519295,35.690465296183376],[139.75664289045935,35.69046358266606],[139.7566366053734,35.69045014824626],[139.7566693203934,35.69043980332726],[139.7566726280269,35.69044719666912]]]}},{"type":"Feature","properties":{"height":8.0,"gml_id":"bldg_988a632d-31cd-41d7-babe-ad3ab54626c8"},"geometry":{"type":"Polygon","coordinates":[[[139.75652478415705,35.691146926203345],[139.75653419517462,35.691126831654636],[139.75651330718594,35.69112067999704],[139.7565006634201,35.69111288409055],[139.75648623328877,35.69110134635655],[139.75647662185284,35.69108847766955],[139.75646905754965,35.69107243656477],[139.756468904833,35.691070382244824],[139.75646744269898,35.69105115508716],[139.75647130230536,35.69103602444893],[139.7564736813133,35.691032428599804],[139.7564833965345,35.6910177244421],[139.7564965251191,35.691003860736465],[139.75649896809244,35.691002691415925],[139.75651795915311,35.69099361682333],[139.75653919027172,35.690987573161614],[139.7565618519305,35.69098762367034],[139.75658377051096,35.690990585126514],[139.7566026129985,35.69099818667412],[139.7566200935249,35.69100884299554],[139.75662991783273,35.69101865616224],[139.7566388100321,35.69103263306417],[139.7566430446346,35.691052799410954],[139.75666916854559,35.691048813967036],[139.75668551911667,35.691062570272415],[139.75669545503385,35.691071229751024],[139.7567123517185,35.691080073933364],[139.7567252748907,35.691084561967244],[139.75673177478416,35.69111607800166],[139.75652478415705,35.691146926203345]]]}},{"type":"Feature","properties":{"height":18.9,"gml_id":"bldg_e6a5e7ce-2584-4bd2-a5b1-a9560a5eedbb"},"geometry":{"type":"Polygon","coordinates":[[[139.76238138721394,35.69125471881257],[139.7624090463279,35.69137600544357],[139.76234949647798,35.691382721606864],[139.76232887251666,35.69129002155788],[139.7623515505617,35.69125920807424],[139.76238138721394,35.69125471881257]]]}},{"type":"Feature","properties":{"height":5.0,"gml_id":"bldg_ef5b220d-2485-4a24-92e2-f939fc270af6"},"geometry":{"type":"Polygon","coordinates":[[[139.75015681218449,35.69000588682943],[139.7502343851081,35.69010355879359],[139.75017734218156,35.690133715306196],[139.75012525806304,35.69006805956792],[139.75014615212055,35.690056987154236],[139.7501207727358,35.6900249709721],[139.75015681218449,35.69000588682943]]]}},{"type":"Feature","properties":{"height":3.7,"gml_id":"bldg_79698198-37a1-4d75-9ced-49af440273d8"},"geometry":{"type":"Polygon","coordinates":[[[139.76211119905165,35.6912960222902],[139.76213845609388,35.691459006124035],[139.76208972439562,35.691464484665374],[139.76206246745073,35.69130150082075],[139.76211119905165,35.6912960222902]]]}},{"type":"Feature","properties":{"height":18.4,"gml_id":"bldg_cd86697c-4518-4982-b5c6-62eb687ce149"},"geometry":{"type":"Polygon","coordinates":[[[139.7597320001651,35.69142578559892],[139.75976081566034,35.69142656937753],[139.75975775995627,35.69150543738974],[139.759703841264,35.69150405236877],[139.7597057999883,35.69145267457241],[139.75970689710394,35.69142509422101],[139.7597320001651,35.69142578559892]]]}},{"type":"Feature","properties":{"height":70.2,"gml_id":"bldg_8421632b-1f63-4767-8eb0-8cca2c22da56"},"geometry":{"type":"Polygon","coordinates":[[[139.7620011497492,35.691047629665846],[139.76199620277347,35.691019413849304],[139.76211057298357,35.69100596101627],[139.76211519076918,35.69103165279708],[139.76212469395847,35.69103057677455],[139.76214866054832,35.69116615701543],[139.7620212838784,35.69118119760531],[139.76202012953743,35.6911746619882],[139.76195987232384,35.691181756115476],[139.7619375002409,35.69105507330637],[139.7620011497492,35.691047629665846]]]}},{"type":"Feature","properties":{"height":10.0,"gml_id":"bldg_7ae30fcf-c707-4881-a59c-8030a93c1452"},"geometry":{"type":"Polygon","coordinates":[[[139.7578105310419,35.69142337864836],[139.75776562998183,35.691467337329435],[139.7577498397158,35.69145669124996],[139.75779474077856,35.69141273257472],[139.7578105310419,35.69142337864836]]]}},{"type":"Feature","properties":{"height":4.5,"gml_id":"bldg_66c483cb-022b-4300-86c1-219ba63a6b0e"},"geometry":{"type":"Polygon","coordinates":[[[139.75310560226538,35.69062586748138],[139.7530574532704,35.69060104770518],[139.75305258537014,35.69060735405001],[139.7530103998107,35.69058560289007],[139.75305741909608,35.69052488190521],[139.753147753702,35.690571362671456],[139.75310560226538,35.69062586748138]]]}},{"type":"Feature","properties":{"height":3.2,"gml_id":"bldg_4aaba148-ce2b-4468-addf-f6b0b526caf0"},"geometry":{"type":"Polygon","coordinates":[[[139.760106295407,35.69030829684838],[139.76001700581566,35.690311090832765],[139.7600149572632,35.69026769762216],[139.76003772360585,35.69024972013549],[139.76010343389214,35.69024765993206],[139.760106295407,35.69030829684838]]]}},{"type":"Feature","properties":{"height":1.9,"gml_id":"bldg_9f7719b9-f831-437a-8c9d-42a6438443a5"},"geometry":{"type":"Polygon","coordinates":[[[139.75120949640262,35.69060457851519],[139.75121735368967,35.69059349702245],[139.75123336630193,35.69060071890478],[139.75122539972324,35.69061171018701],[139.75120949640262,35.69060457851519]]]}},{"type":"Feature","properties":{"height":3.6,"gml_id":"bldg_cb8ec4e2-a94c-4367-a455-11b6d077545e"},"geometry":{"type":"Polygon","coordinates":[[[139.7611919532793,35.68989844126788],[139.76127814283817,35.689889839731386],[139.761283305121,35.68992400475537],[139.7611970050364,35.689932606229284],[139.7611919532793,35.68989844126788]]]}},{"type":"Feature","properties":{"height":24.1,"gml_id":"bldg_3dc2d170-d2c1-4e44-8463-388d66647ebd"},"geometry":{"type":"Polygon","coordinates":[[[139.75512077818092,35.69057473384081],[139.75503664913967,35.690734672354424],[139.75499137422486,35.690820813883676],[139.75480990061902,35.69075678850862],[139.75479396036786,35.69078697400938],[139.75413091560478,35.69055317488219],[139.75426961831675,35.690291508157706],[139.75437012937599,35.69032690783848],[139.75437688170402,35.690314293084626],[139.75438263802113,35.69030330014353],[139.75465302007842,35.69040271801866],[139.75512077818092,35.69057473384081]]]}},{"type":"Feature","properties":{"height":25.3,"gml_id":"bldg_bb33d3ff-186c-4ae6-baa6-26f885ad87b7"},"geometry":{"type":"Polygon","coordinates":[[[139.76169802074153,35.69135283386096],[139.76205869896341,35.691314739716304],[139.7620919917464,35.69152405755479],[139.76173142308943,35.691562151862506],[139.76169802074153,35.69135283386096]]]}},{"type":"Feature","properties":{"height":160.4,"gml_id":"bldg_d07a05ac-f485-44bf-95d4-235212a0c7d9"},"geometry":{"type":"Polygon","coordinates":[[[139.76208412986054,35.68847428455567],[139.76256007968095,35.688433832362605],[139.76257832762133,35.68857666434572],[139.76246927911993,35.68858593029174],[139.76247239537392,35.68861035025293],[139.76258145496416,35.688601076198324],[139.76262826560398,35.68896758290755],[139.762517293947,35.68897700009828],[139.76251971895863,35.688995984386274],[139.7620791505581,35.68903046324734],[139.76201993096865,35.68853025770737],[139.76209051580784,35.688524251302496],[139.76208412986054,35.68847428455567]]]}},{"type":"Feature","properties":{"height":111.9,"gml_id":"bldg_1a80f7fe-422c-4890-97bc-318e0d3b402e"},"geometry":{"type":"Polygon","coordinates":[[[139.76265400279124,35.68457851724224],[139.76195188279274,35.68470898208354],[139.76186179606339,35.684386246795],[139.7625638029053,35.68425577339035],[139.76265400279124,35.68457851724224]]]}},{"type":"Feature","properties":{"height":34.0,"gml_id":"bldg_a64e5470-33a5-4b6b-83f2-2383a687ab89"},"geometry":{"type":"Polygon","coordinates":[[[139.7622414829798,35.69078159722633],[139.76225763660904,35.69075681908479],[139.7623926699035,35.69074139516634],[139.76243059436936,35.69096153210257],[139.76257402616048,35.690945121420405],[139.76260355693657,35.69111173901697],[139.76233816058,35.69114521291423],[139.76232979638175,35.69114522600862],[139.76232284851582,35.69114293243044],[139.76231458733227,35.69113891555875],[139.76230699042145,35.69113340460677],[139.76230047885122,35.69112504506374],[139.7622414829798,35.69078159722633]]]}},{"type":"Feature","properties":{"height":3.1,"gml_id":"bldg_64c66955-295a-4cec-b03a-33c17cd873d9"},"geometry":{"type":"Polygon","coordinates":[[[139.76039100399757,35.68942482934759],[139.7603395905733,35.68946445757967],[139.76032380306856,35.689450838215166],[139.76037521657483,35.68941111895137],[139.76039100399757,35.68942482934759]]]}},{"type":"Feature","properties":{"height":7.2,"gml_id":"bldg_a2c35d5b-6156-4989-a6d6-03df747c687f"},"geometry":{"type":"Polygon","coordinates":[[[139.75159474306588,35.69042096119669],[139.75175432167168,35.69049930837004],[139.7516992215676,35.69057381432921],[139.7515397544627,35.690495467159494],[139.75159474306588,35.69042096119669]]]}},{"type":"Feature","properties":{"height":68.5,"gml_id":"bldg_1fda494e-17bb-4360-87cc-d88e620530c0"},"geometry":{"type":"Polygon","coordinates":[[[139.76115828118057,35.68950028581108],[139.7621784970887,35.689420040214394],[139.7622143578535,35.68972319225481],[139.7611940277119,35.68980334794369],[139.76115828118057,35.68950028581108]]]}},{"type":"Feature","properties":{"height":37.2,"gml_id":"bldg_c779496c-df40-4d0e-92cb-1fea06c55752"},"geometry":{"type":"Polygon","coordinates":[[[139.759882131428,35.69143097003485],[139.75987697608895,35.69151028655268],[139.75976118528084,35.69150534934615],[139.75976634081778,35.69142594179505],[139.759882131428,35.69143097003485]]]}},{"type":"Feature","properties":{"height":121.7,"gml_id":"bldg_70f3937a-6456-4e18-a5dd-75f41784a0a3"},"geometry":{"type":"Polygon","coordinates":[[[139.7613960059149,35.68524595759359],[139.76129434862222,35.68526023942327],[139.76121271878623,35.68487286240827],[139.76176840537516,35.68479486395987],[139.7618844737671,35.68534512977338],[139.76143033047458,35.685408856736984],[139.7613960059149,35.68524595759359]]]}},{"type":"Feature","properties":{"height":33.2,"gml_id":"bldg_9a1d886e-e0ba-47a3-94e9-dc62069697f2"},"geometry":{"type":"Polygon","coordinates":[[[139.76192212559437,35.69107345213783],[139.76194498894128,35.6912067873521],[139.76181094743623,35.69122418535648],[139.76179979280607,35.69121859023413],[139.76179449485954,35.691212276593824],[139.7617887618697,35.691198212714525],[139.76192212559437,35.69107345213783]]]}},{"type":"Feature","properties":{"height":10.1,"gml_id":"bldg_e92c8bb8-da2c-4063-a79a-fee9a87f974a"},"geometry":{"type":"Polygon","coordinates":[[[139.76100992826053,35.68370961053824],[139.7610333491591,35.68371079638796],[139.76105953086218,35.68371333594734],[139.7610789718485,35.68371740378686],[139.76076481301004,35.6837851782254],[139.76077388020747,35.683776620663835],[139.76078526693286,35.683768695459186],[139.7608030632668,35.68375888123545],[139.76082329115656,35.68374798682806],[139.7608407548153,35.683739524455184],[139.7608615323283,35.68373169503443],[139.76087910442303,35.68372548614929],[139.7609001004464,35.683720360967044],[139.760916786489,35.68371658524562],[139.76094120652067,35.683712453624004],[139.7609641881815,35.683710664698026],[139.76098694855398,35.68370923618317],[139.76100992826053,35.68370961053824]]]}},{"type":"Feature","properties":{"height":4.0,"gml_id":"bldg_2446e809-043c-485e-9ca7-a52955888d08"},"geometry":{"type":"Polygon","coordinates":[[[139.75106697979243,35.690588887506],[139.75115059327436,35.690615985718935],[139.75111804045792,35.69068284515449],[139.7510344268247,35.69065583705612],[139.75106697979243,35.690588887506]]]}},{"type":"Feature","properties":{"height":117.0,"gml_id":"bldg_94b304c9-867e-4a83-8f39-11bd5dbf993e"},"geometry":{"type":"Polygon","coordinates":[[[139.76107952867793,35.684754044036644],[139.76105509540997,35.68474800821179],[139.7610367986081,35.68473677515605],[139.76076145277256,35.68456774663616],[139.76073915645026,35.684422522308836],[139.76170178416,35.68430078283749],[139.76172456028647,35.68440553571239],[139.76174831598513,35.68440320627476],[139.7617910856609,35.68463596571813],[139.76173661100935,35.684643685126254],[139.76176653530445,35.68478575900045],[139.7616379175713,35.684803800034246],[139.76162779641805,35.68475548141861],[139.76117166725757,35.68481956587879],[139.76112830475708,35.68479294943383],[139.76111612229852,35.68477651914603],[139.76109170007734,35.684770474321546],[139.76107952867793,35.684754044036644]]]}},{"type":"Feature","properties":{"height":34.4,"gml_id":"bldg_6704536e-e331-4a46-bcc6-57980a2ddcfd"},"geometry":{"type":"Polygon","coordinates":[[[139.76036058677394,35.69146243038681],[139.76053400688156,35.69147081897453],[139.76070060998615,35.69147887870641],[139.76069546313548,35.691549723287174],[139.76018026265618,35.69152480391702],[139.76018540996074,35.691453959358554],[139.76036058677394,35.69146243038681]]]}},{"type":"Feature","properties":{"height":25.2,"gml_id":"bldg_b9d2395a-9fe5-4a8a-aff9-a216eeb373e4"},"geometry":{"type":"Polygon","coordinates":[[[139.76199048130115,35.691612782389726],[139.7622634269709,35.69157815095219],[139.76228047317477,35.69166838815614],[139.76211482706591,35.6916893823331],[139.7621458423428,35.69185083604897],[139.76208926386022,35.69185811268927],[139.7620729861528,35.69177363567057],[139.76202270649543,35.69178009576138],[139.76199048130115,35.691612782389726]]]}},{"type":"Feature","properties":{"height":110.0,"gml_id":"bldg_93f8ae30-4575-4159-865c-ca4dbcc3e18e"},"geometry":{"type":"Polygon","coordinates":[[[139.76133966806634,35.6886796074171],[139.76176629261434,35.68864488771321],[139.7618123680587,35.68901393616251],[139.7618129169589,35.68901790341989],[139.761385625088,35.68905532519547],[139.76133966806634,35.6886796074171]]]}},{"type":"Feature","properties":{"height":43.4,"gml_id":"bldg_181880a8-a0f8-411b-bd75-bd7d8bb831ed"},"geometry":{"type":"Polygon","coordinates":[[[139.7625946972717,35.68458954223457],[139.76261204339232,35.68465166590774],[139.76199168218542,35.68476693679334],[139.76197433652115,35.684704813032525],[139.7625946972717,35.68458954223457]]]}},{"type":"Feature","properties":{"height":27.2,"gml_id":"bldg_92543287-667c-443c-adcf-f5326b954850"},"geometry":{"type":"Polygon","coordinates":[[[139.7615624077914,35.68862212391],[139.76156703576908,35.68866075940815],[139.76154071565642,35.68866289799059],[139.76153607656985,35.688624343608176],[139.7615624077914,35.68862212391]]]}},{"type":"Feature","properties":{"height":111.7,"gml_id":"bldg_ca6c0db9-47da-4dda-89c1-bc278635abb4"},"geometry":{"type":"Polygon","coordinates":[[[139.76011598869798,35.690872921029886],[139.75924843911866,35.690894059201725],[139.75923322241266,35.69047822073683],[139.76010075643546,35.690457091674816],[139.76011598869798,35.690872921029886]]]}}]}