{"type":"FeatureCollection","crs":{"type":"name","properties":{"name":"urn:ogc:def:crs:OGC:1.3:CRS84"}},"features":[{"type":"Feature","properties":{"height":3.2,"gml_id":"bldg_76e3887c-9347-4c5c-b062-f53af235722d"},"geometry":{"type":"Polygon","coordinates":[[[139.77248021769935,35.64752568003135],[139.7725760486675,35.64748348989699],[139.7726145671037,35.6475417743124],[139.77251873608682,35.64758396357557],[139.77248021769935,35.64752568003135]]]}},{"type":"Feature","properties":{"height":12.7,"gml_id":"bldg_88e1031e-18bc-4271-87bf-aa2b00467684"},"geometry":{"type":"Polygon","coordinates":[[[139.77377090887208,35.64957203540688],[139.77377116121076,35.64957427094519],[139.77372046926385,35.64957797756433],[139.77371369073924,35.649515671070674],[139.77361402982544,35.649522886790834],[139.7736066152132,35.64945474806969],[139.7736095529057,35.64945454220985],[139.7736248266468,35.64945354024104],[139.77362583556797,35.64946304124884],[139.77368182856918,35.64945893167561],[139.77368724677024,35.649509014833605],[139.77376335055143,35.64950390563857],[139.77377090887208,35.64957203540688]]]}},{"type":"Feature","properties":{"height":7.2,"gml_id":"bldg_92d61a7a-e77a-4499-a2cf-c1ccebd7748b"},"geometry":{"type":"Polygon","coordinates":[[[139.77326459602835,35.64915255376919],[139.77320016552605,35.649216384141766],[139.77295411168802,35.649050966624706],[139.7730126178403,35.648994046972916],[139.77321278781767,35.64912828990607],[139.7732191092561,35.64912208257733],[139.77326459602835,35.64915255376919]]]}},{"type":"Feature","properties":{"height":3.1,"gml_id":"bldg_b29a595a-0cf2-4698-96de-d09e03e3354b"},"geometry":{"type":"Polygon","coordinates":[[[139.77051820737597,35.6486005739492],[139.7705815400678,35.64864347643099],[139.77051130603132,35.64871253032982],[139.7704479843659,35.64866962781736],[139.77051820737597,35.6486005739492]]]}},{"type":"Feature","properties":{"height":59.6,"gml_id":"bldg_a06b41f4-28f3-415c-8c0d-c61a409852b7"},"geometry":{"type":"Polygon","coordinates":[[[139.7732198700673,35.6498017298023],[139.77322932376518,35.64980103144675],[139.77323487426818,35.649851060605535],[139.77331907407273,35.64984483802449],[139.773322880492,35.64987913729217],[139.77332866138016,35.64993129380904],[139.77341446265496,35.649924945766564],[139.77342995177577,35.65006454962745],[139.77330594889577,35.650073717982856],[139.77330413891693,35.650057420196454],[139.77324870870214,35.6500615208605],[139.77314050988534,35.65006951612567],[139.77313268878277,35.64999902458627],[139.77278578344314,35.650024675124946],[139.7727886682836,35.650050636213926],[139.7727413664962,35.65005412779432],[139.77273592205734,35.65005414308273],[139.7727305665516,35.650053383232],[139.7727254435169,35.6500518843694],[139.77272072962828,35.65004967362518],[139.77271655734603,35.65004683218992],[139.77271303704347,35.65004344124309],[139.77271031221068,35.65003960000837],[139.77270842692596,35.65003543470071],[139.7727074694477,35.650031063444864],[139.77269650064324,35.64993227518712],[139.7726920254038,35.649891936341675],[139.77269201771884,35.64988749255232],[139.77269301520448,35.649882760828596],[139.77269501747907,35.649878245941075],[139.7726979360996,35.64987407403788],[139.77270170469643,35.64987038930573],[139.77270620171683,35.64986729083476],[139.77271129456466,35.64986487770958],[139.77271688361083,35.64986346536168],[139.77272278139625,35.64986268413235],[139.77313881073354,35.649831929593994],[139.77313614519542,35.649807915595005],[139.7732198700673,35.6498017298023]]]}},{"type":"Feature","properties":{"height":5.4,"gml_id":"bldg_8904c00b-c33d-4b1e-aa6d-2716ff4a902f"},"geometry":{"type":"Polygon","coordinates":[[[139.77464288905682,35.648297475395665],[139.7746334404065,35.64830662877755],[139.77464602335388,35.64831527911107],[139.7746028137391,35.64835709995139],[139.7745677139591,35.64833294396548],[139.7745641113131,35.648336431436526],[139.77454579983225,35.648323829367655],[139.77460206075227,35.64826936859839],[139.77464288905682,35.648297475395665]]]}},{"type":"Feature","properties":{"height":7.5,"gml_id":"bldg_d5c2deae-85bc-452a-9695-4c37c218e361"},"geometry":{"type":"Polygon","coordinates":[[[139.77361827751642,35.648341139215745],[139.77359520184498,35.64836452841084],[139.7735788328893,35.64835357667771],[139.77355819987207,35.6483741268398],[139.77351768032707,35.64834708255171],[139.773561366937,35.64830314500393],[139.77361827751642,35.648341139215745]]]}},{"type":"Feature","properties":{"height":59.3,"gml_id":"bldg_2ad33426-74f6-4198-87c0-8d008ba9a72d"},"geometry":{"type":"Polygon","coordinates":[[[139.77221701997107,35.6494344820803],[139.77220974786883,35.649441780440476],[139.77201903701035,35.64931530962715],[139.77204337811193,35.64929884485458],[139.77207585717846,35.64926919707872],[139.77206847291376,35.64926429884869],[139.77209132284884,35.649248211885876],[139.77214887576108,35.64919688971906],[139.77214231932982,35.64919254175366],[139.7721790365603,35.649166041906454],[139.7722059487894,35.64913901427373],[139.7728396950944,35.64955927742103],[139.7727227009322,35.649676811267405],[139.77267683855257,35.64964639376694],[139.77267225205074,35.649651007405595],[139.77248989560513,35.64953008501403],[139.77245634229254,35.64956379756492],[139.77243372575364,35.64954880525537],[139.77246961100127,35.649512750310436],[139.7722959308941,35.64939757467615],[139.77224242899757,35.649451332682695],[139.77221701997107,35.6494344820803]]]}},{"type":"Feature","properties":{"height":4.3,"gml_id":"bldg_f579e9af-7e5b-4592-9da4-4b91c789a611"},"geometry":{"type":"Polygon","coordinates":[[[139.77367866595776,35.64812769611549],[139.77389482711945,35.648274619208394],[139.77382104624877,35.64826125141526],[139.7736565081983,35.648149408315895],[139.77367866595776,35.64812769611549]]]}},{"type":"Feature","properties":{"height":4.5,"gml_id":"bldg_8e2f25ae-d6f3-47a8-8267-8608d2a63dc7"},"geometry":{"type":"Polygon","coordinates":[[[139.7744195698807,35.648948538828186],[139.77434803355698,35.64890041537823],[139.77437318642868,35.6488754956191],[139.77438168557623,35.6488812045914],[139.77439681466828,35.64886648440435],[139.7744598739145,35.64890890698263],[139.7744195698807,35.648948538828186]]]}},{"type":"Feature","properties":{"height":4.1,"gml_id":"bldg_914011ef-b012-4a0a-b77a-ae5459639c81"},"geometry":{"type":"Polygon","coordinates":[[[139.77270834060513,35.649725811874596],[139.77267848403332,35.64970481280005],[139.7727021780795,35.64968236243027],[139.77273203465666,35.64970335158386],[139.77270834060513,35.649725811874596]]]}},{"type":"Feature","properties":{"height":45.3,"gml_id":"bldg_65062f6d-3503-4f6f-bb32-88f12f3ca832"},"geometry":{"type":"Polygon","coordinates":[[[139.77495296589132,35.64924649616876],[139.7749399717288,35.64913496255724],[139.77506994808363,35.64912487600305],[139.7750776963671,35.64919141936342],[139.7751303319097,35.64918733543517],[139.77516769092023,35.64950811640905],[139.77515156667,35.64950936243568],[139.77515307024206,35.64952228799869],[139.77500061868213,35.6495341214426],[139.7749949336354,35.64948539027893],[139.7749649049773,35.64948771930904],[139.7749599553567,35.64944518095595],[139.7749867591499,35.649443102750254],[139.77497437958726,35.649336725317156],[139.77489788892566,35.64934265534253],[139.77489141387514,35.64928700121788],[139.77496799283756,35.649281062225576],[139.77496666843305,35.64926478272467],[139.77473577197338,35.64928264405775],[139.77473648528232,35.649288818833604],[139.77468826724487,35.64929256311896],[139.77468569922777,35.64927049617257],[139.7746494197481,35.64927330882356],[139.77463487861877,35.649148479122864],[139.77492838296072,35.649125708815376],[139.7749425403802,35.64924730235374],[139.77495296589132,35.64924649616876]]]}},{"type":"Feature","properties":{"height":5.4,"gml_id":"bldg_b1e87f46-4b8a-424e-9309-0e0eec38eda6"},"geometry":{"type":"Polygon","coordinates":[[[139.77409267959524,35.648032337409006],[139.77404353532532,35.6480800131783],[139.77396669167197,35.64802723577915],[139.77400482905753,35.64799023503157],[139.77402371435667,35.648003197115166],[139.77403471020435,35.64799253022963],[139.77409267959524,35.648032337409006]]]}},{"type":"Feature","properties":{"height":6.6,"gml_id":"bldg_40350017-3419-4a28-b3a8-44e81af04ab3"},"geometry":{"type":"Polygon","coordinates":[[[139.77447727014984,35.64813692159617],[139.77448389930566,35.64813250899121],[139.77453708860384,35.64818562605175],[139.77453244821382,35.64818868756558],[139.77453708292387,35.64819337788801],[139.77448526504887,35.64822778516863],[139.77448294762786,35.64822553059478],[139.77447410876414,35.64823138522376],[139.7744212508396,35.64817817816023],[139.7744276590062,35.64817394482427],[139.77442357606662,35.64816979559346],[139.77447561485994,35.64813529921071],[139.77447727014984,35.64813692159617]]]}},{"type":"Feature","properties":{"height":60.0,"gml_id":"bldg_607b7da6-1a1b-4b71-ae3b-6b4d1df76d99"},"geometry":{"type":"Polygon","coordinates":[[[139.7737514013025,35.649206869145374],[139.77375058959694,35.64919945942919],[139.77358571459118,35.64921141112922],[139.77357110484007,35.649077161881195],[139.77357105183214,35.64907419632623],[139.77357151782684,35.649071276097615],[139.7735724917406,35.64906845527241],[139.77357395141948,35.649065823977296],[139.77357583056332,35.64906343626192],[139.77357809599508,35.64906135520619],[139.77358065934138,35.649059616821276],[139.77358344325864,35.64905827515138],[139.77358637043028,35.64905734818568],[139.77358934145303,35.64905685390237],[139.77359128527297,35.64905659256598],[139.77411481109027,35.64901866068549],[139.7741187866843,35.64901866264012],[139.77412270664936,35.649019223420694],[139.77412643847902,35.64902032493456],[139.77412989384013,35.649021949110775],[139.77413294025948,35.64902403278793],[139.77413550048044,35.6490265128317],[139.77413749724624,35.64902932610778],[139.77413886437014,35.64903237343226],[139.77413955773866,35.649035573659624],[139.77415268757488,35.64915627442436],[139.77414154424412,35.649157089201076],[139.77414275077277,35.64916825784865],[139.7739392989905,35.649183589257774],[139.77394881978097,35.64927118971807],[139.77387810538133,35.6492763107049],[139.7738686284801,35.649189197004084],[139.77377317572672,35.64919610756472],[139.77378402357164,35.64929585113633],[139.77384452233719,35.64929147330201],[139.77385096089907,35.649350678887764],[139.77379029642537,35.649355074670865],[139.7737971846607,35.64941841779904],[139.7738834601486,35.64941215979369],[139.77388458992917,35.64942253519422],[139.77389221027005,35.64942198010188],[139.77389898887208,35.64948435869667],[139.77391299263988,35.64948333803709],[139.77392170181184,35.649563393574084],[139.77377163607665,35.649574271180015],[139.77376391425247,35.64950324791258],[139.77368750093555,35.64950878961535],[139.77368204960425,35.649458706440974],[139.77362610081695,35.64946276195365],[139.77362506983584,35.64945322487984],[139.77360659326064,35.649454567783515],[139.77358099326415,35.64921922372107],[139.7737514013025,35.649206869145374]]]}},{"type":"Feature","properties":{"height":6.1,"gml_id":"bldg_9e663cd9-8ce3-4e17-b29f-8247604c0796"},"geometry":{"type":"Polygon","coordinates":[[[139.7699777635967,35.648639410620895],[139.76996054535982,35.64862768366755],[139.76995989472377,35.64861254019929],[139.76997050529283,35.64860109829962],[139.76998994299376,35.64859912459402],[139.77000121586755,35.64858804359056],[139.77001677875046,35.64859832836688],[139.77000705250276,35.64860868908372],[139.7700092477105,35.64862572625456],[139.76999664836023,35.64863842903895],[139.7699777635967,35.648639410620895]]]}},{"type":"Feature","properties":{"height":28.1,"gml_id":"bldg_058548ad-fffb-44f0-9f53-3f8b08720a4c"},"geometry":{"type":"Polygon","coordinates":[[[139.77290568665873,35.64891905292902],[139.77294076454066,35.64894263340624],[139.77290186285256,35.64898145330626],[139.77286678496444,35.64895787371923],[139.77290568665873,35.64891905292902]]]}},{"type":"Feature","properties":{"height":11.1,"gml_id":"bldg_3e204c69-c9e1-40f7-bf7b-cc5a20f8b729"},"geometry":{"type":"Polygon","coordinates":[[[139.77383269458915,35.64704304654807],[139.7735827176797,35.64687374338575],[139.77361509459394,35.64684572662351],[139.77301399864658,35.64643728365513],[139.77298349763603,35.64646710395136],[139.77294216313217,35.646438644792966],[139.7730162712216,35.64636685120286],[139.77332089003912,35.6465750772034],[139.77334826605266,35.646589241555766],[139.77338027884844,35.646605122628785],[139.7734125118442,35.64662190427827],[139.77345180786,35.646644728655716],[139.77349032947637,35.6466694464283],[139.77352686263947,35.646695152912905],[139.77356979687272,35.64672609054834],[139.77360754179733,35.64675585560805],[139.77364042936867,35.646783544180515],[139.77366272076424,35.64680437703093],[139.77390722363887,35.64696914340311],[139.77386228962695,35.64701369430822],[139.77383269458915,35.64704304654807]]]}},{"type":"Feature","properties":{"height":45.3,"gml_id":"bldg_196aa70c-8135-46a4-8837-452050c10d83"},"geometry":{"type":"Polygon","coordinates":[[[139.7717138202794,35.64921504699346],[139.77178760411746,35.64915324127971],[139.77191868729645,35.649241453795824],[139.77191379137489,35.64924630971839],[139.77193107635938,35.64925794628788],[139.7718233660946,35.649364578245205],[139.77186168891134,35.64939036816291],[139.7718430777547,35.649408791810814],[139.77180541719153,35.64938345291381],[139.77173268549274,35.64945545374151],[139.7718003796127,35.649501007854205],[139.7717760767441,35.649525071199804],[139.77178320709302,35.6495298701664],[139.77175664964346,35.649556167769255],[139.77169678121749,35.64951588167574],[139.7717006161937,35.64951207982975],[139.77168586985022,35.64950215714226],[139.77163048927437,35.64955698655213],[139.77166737722783,35.64958180230924],[139.77164739555462,35.649601586302964],[139.77161001091602,35.649576418748474],[139.7715927590295,35.649593500002815],[139.77158873027102,35.64959079380832],[139.77150352066312,35.64967514596792],[139.77148623564403,35.6496635183516],[139.7714780793859,35.64967158959421],[139.7714463949288,35.649644136321854],[139.77135269615607,35.64958108192968],[139.77144286809695,35.649491810910284],[139.77143773558072,35.649488365014854],[139.7717138202794,35.64921504699346]]]}},{"type":"Feature","properties":{"height":6.7,"gml_id":"bldg_52c34674-f950-44e7-b0cf-ef741e4c9062"},"geometry":{"type":"Polygon","coordinates":[[[139.77220501449946,35.64745021262204],[139.77225246035536,35.6474295591101],[139.77226223300144,35.64744472522229],[139.77227120291352,35.647440898919],[139.7722918620848,35.64747318769148],[139.77228302471482,35.64747697800843],[139.77229463939773,35.64749500241575],[139.7722460451198,35.647515538182645],[139.77225057838993,35.64752269741288],[139.7722232157091,35.64753436537533],[139.77221863833006,35.64752712499779],[139.77213154633878,35.647563929055465],[139.77209063620182,35.647499991637844],[139.77217540916646,35.64746308728039],[139.77217031392425,35.647454332325054],[139.7721991795732,35.647441186879504],[139.77220501449946,35.64745021262204]]]}},{"type":"Feature","properties":{"height":43.4,"gml_id":"bldg_c78988f7-14d5-4673-b842-128d21caada8"},"geometry":{"type":"Polygon","coordinates":[[[139.77349243155496,35.64817468263348],[139.7734836124346,35.64816878324836],[139.77338540943845,35.64826661489793],[139.7734343837438,35.648299368248395],[139.77341364018315,35.64832003641126],[139.7733652619049,35.64828768806732],[139.77330326323167,35.64834945556295],[139.77328104433107,35.648334598814245],[139.7732744245024,35.648341193590205],[139.77314584644577,35.64825520117471],[139.7733793634069,35.64802256416522],[139.77338974985403,35.64802950993507],[139.77341113432715,35.648008203018094],[139.7734431656574,35.64802961763139],[139.77345148736072,35.64802132910381],[139.7735607383714,35.64809438586552],[139.77354546533968,35.648109603437895],[139.77355295994047,35.6481146088969],[139.77356773565828,35.64809988773533],[139.77405952223327,35.64842878168866],[139.77394055404352,35.64854729015833],[139.77390212046066,35.648521590981325],[139.77389760043383,35.64852609563381],[139.77385395705477,35.64849689743058],[139.7738151444841,35.64853556443877],[139.7737891615623,35.64851818206969],[139.77382801834412,35.64847946912141],[139.77356136842755,35.6483011439486],[139.77350027612488,35.64836199259121],[139.77344082695774,35.64832223937708],[139.7735028586606,35.648260435771654],[139.77344510937357,35.64822181913793],[139.77349243155496,35.64817468263348]]]}},{"type":"Feature","properties":{"height":4.9,"gml_id":"bldg_1b071d4d-eaa4-4f3f-9185-d994ed68903b"},"geometry":{"type":"Polygon","coordinates":[[[139.77032795986509,35.649296373288706],[139.77041714361204,35.649355793575026],[139.77031503375886,35.64945789318264],[139.77022584997425,35.6493984728217],[139.77032795986509,35.649296373288706]]]}},{"type":"Feature","properties":{"height":11.3,"gml_id":"bldg_326f5765-bbb9-418d-968b-5a8e6454f269"},"geometry":{"type":"Polygon","coordinates":[[[139.77393139199467,35.6485420846972],[139.77391689258963,35.64855647343063],[139.7739114619931,35.64855284631632],[139.77390451065423,35.6485597735711],[139.77385677222648,35.648527851191176],[139.7738737139975,35.648511030855275],[139.7738975775328,35.64852719530192],[139.77390208651642,35.64852269064401],[139.77393139199467,35.6485420846972]]]}},{"type":"Feature","properties":{"height":8.7,"gml_id":"bldg_f1ee6fd8-de08-4b89-8419-1a9fc9a310e7"},"geometry":{"type":"Polygon","coordinates":[[[139.77044383838128,35.648915232726644],[139.77053021762276,35.64897358784416],[139.7703536640368,35.64914767764469],[139.7702672847367,35.64908932240218],[139.77044383838128,35.648915232726644]]]}},{"type":"Feature","properties":{"height":52.4,"gml_id":"bldg_c10cab14-1d44-4ac4-8c3a-6bdcf192fa71"},"geometry":{"type":"Polygon","coordinates":[[[139.77436347091603,35.64884191458696],[139.7742988205448,35.64890591670497],[139.77424194257156,35.648867652420975],[139.77430547678952,35.648804731437934],[139.77418409390404,35.648723079283805],[139.77417575013018,35.64873134982265],[139.77416006541037,35.648720796012235],[139.77416986767454,35.64871147158034],[139.77410084831277,35.64866506183364],[139.77410671657933,35.648659250840616],[139.77404345903065,35.648616701785514],[139.77416002853408,35.648501247703734],[139.7747466670457,35.64889585968874],[139.77462971101184,35.64901170173436],[139.77459070313597,35.648985452659275],[139.77458475752454,35.64899133574795],[139.77451625647953,35.64894525098961],[139.77448258305768,35.64897859358437],[139.77445700831723,35.64896139273663],[139.77449102433016,35.64892771590561],[139.77436347091603,35.64884191458696]]]}},{"type":"Feature","properties":{"height":59.8,"gml_id":"bldg_9a8738b7-c28a-4650-ba32-48cec3956ea5"},"geometry":{"type":"Polygon","coordinates":[[[139.77294941847907,35.649006670630776],[139.77292589707062,35.648990857706],[139.77296170412384,35.6489553614251],[139.7728447815752,35.64887675681206],[139.77280065269093,35.64892047844413],[139.77257063830675,35.6487658486598],[139.7727381246489,35.64859986342332],[139.7733840850962,35.64903411834941],[139.77326464024893,35.6491524906949],[139.77321908733154,35.64912186623603],[139.7732127658526,35.64912812764734],[139.77298283838425,35.64897355278083],[139.77294941847907,35.649006670630776]]]}},{"type":"Feature","properties":{"height":4.2,"gml_id":"bldg_6598edd6-5ff9-4b29-8823-04f6b199967d"},"geometry":{"type":"Polygon","coordinates":[[[139.77461935147767,35.64880163989932],[139.77459235956366,35.64874418201105],[139.77480941840264,35.64889132923097],[139.77478583507965,35.64891451018745],[139.77461935147767,35.64880163989932]]]}},{"type":"Feature","properties":{"height":3.3,"gml_id":"bldg_ba3892eb-3764-4c96-828f-047e5b0a9803"},"geometry":{"type":"Polygon","coordinates":[[[139.77478883821288,35.64809804473575],[139.77473082025605,35.648154442698825],[139.7746800358683,35.64811971497821],[139.77473805390147,35.64806322690166],[139.77478883821288,35.64809804473575]]]}},{"type":"Feature","properties":{"height":5.9,"gml_id":"bldg_a253ded3-9712-43c7-9c38-bbb880765ecf"},"geometry":{"type":"Polygon","coordinates":[[[139.77047409066938,35.64926169256735],[139.77042864510582,35.64930671062171],[139.77037813734393,35.6492727383951],[139.77042358291658,35.64922772035957],[139.77047409066938,35.64926169256735]]]}},{"type":"Feature","properties":{"height":5.1,"gml_id":"bldg_9dfd362a-acda-4f5e-97ca-2a23aab2366c"},"geometry":{"type":"Polygon","coordinates":[[[139.77487667279712,35.648193091594],[139.77483986147257,35.64822930996424],[139.77473754154852,35.64815994436639],[139.77477435288668,35.64812372692838],[139.77487667279712,35.648193091594]]]}},{"type":"Feature","properties":{"height":22.6,"gml_id":"bldg_043037f2-3072-4dd9-b06f-b85a7f694f88"},"geometry":{"type":"Polygon","coordinates":[[[139.77083739192298,35.64922301427382],[139.77108479892343,35.64939014942314],[139.7708778529325,35.6495942401028],[139.77084890132443,35.64957468324605],[139.77081270638027,35.64961038600981],[139.77086441752573,35.649645314135576],[139.77080750023774,35.64970144936412],[139.77075616436693,35.649666764780825],[139.7707438304347,35.64967892695323],[139.77065763792535,35.649620689271416],[139.77066432433497,35.649614094675464],[139.77043793298685,35.64946115730986],[139.77072825496313,35.64917484211952],[139.77077992163203,35.6492097522333],[139.77079017774366,35.64919963510184],[139.7708322638725,35.64922806833477],[139.77083739192298,35.64922301427382]]]}},{"type":"Feature","properties":{"height":3.1,"gml_id":"bldg_59d6745c-3337-42a4-8b4b-b8d579f57d5b"},"geometry":{"type":"Polygon","coordinates":[[[139.77057097415258,35.64923327762356],[139.77052378975958,35.649200153581866],[139.77062580654368,35.64910333671165],[139.7706729798723,35.64913646882053],[139.77057097415258,35.64923327762356]]]}},{"type":"Feature","properties":{"height":8.5,"gml_id":"bldg_2230bd7d-4204-44ed-b0c7-b3439a5a1841"},"geometry":{"type":"Polygon","coordinates":[[[139.77254894405314,35.64878734455738],[139.77256948868603,35.64876732633733],[139.77270333158464,35.64885730609549],[139.77269265601038,35.648867558385874],[139.77280361803668,35.64894214902577],[139.77279376002912,35.648951924006276],[139.77254894405314,35.64878734455738]]]}},{"type":"Feature","properties":{"height":3.3,"gml_id":"bldg_d5cafda9-808e-417c-a848-1aa1c6f0bc30"},"geometry":{"type":"Polygon","coordinates":[[[139.77247879475397,35.6497077767506],[139.77246431069395,35.64968675834776],[139.77252618638235,35.649658342163356],[139.7725406814969,35.64967936056445],[139.77247879475397,35.6497077767506]]]}},{"type":"Feature","properties":{"height":29.9,"gml_id":"bldg_0599abb7-448f-476d-8956-858c17ae8ef1"},"geometry":{"type":"Polygon","coordinates":[[[139.77314934029533,35.647307270128806],[139.77321613932537,35.647352282188244],[139.77322856095756,35.64734000262241],[139.77329713710694,35.64738620534086],[139.77324535081408,35.64743741377081],[139.77317482101003,35.64738989403746],[139.77319932170244,35.647365677265284],[139.77273808760182,35.64705489476683],[139.77272409748568,35.647067624181794],[139.77267045495626,35.647032299261376],[139.7723679451421,35.646998722568924],[139.77236850877372,35.64696907657122],[139.77274536899898,35.646961804233946],[139.7727573702657,35.64695050700517],[139.77280993836635,35.64690227371721],[139.77282336443022,35.646890625660724],[139.77291273885004,35.64697438139212],[139.7729465675598,35.6469545500399],[139.77300830033292,35.64701038521234],[139.77298841199513,35.647024824319786],[139.77301496325438,35.64704918380665],[139.77314885640993,35.64717207238571],[139.7731202999331,35.647200316275104],[139.77315767287683,35.647225510405924],[139.7731205295514,35.64726223196009],[139.773164756822,35.64729203555011],[139.77314934029533,35.647307270128806]]]}},{"type":"Feature","properties":{"height":15.0,"gml_id":"bldg_c2c65d57-effd-463d-8d89-753bf714c752"},"geometry":{"type":"Polygon","coordinates":[[[139.772722744602,35.64967747830792],[139.7728410425043,35.649559123962426],[139.7722058158449,35.64913812184354],[139.77217805395063,35.649165716912],[139.77214133672686,35.649192207745145],[139.7721385444116,35.649190043022934],[139.77220481101685,35.64912347396578],[139.77262779044375,35.649403979922084],[139.7726370739311,35.649394655354634],[139.772875039094,35.64955246183315],[139.7727943501112,35.64963352715244],[139.7727836102487,35.649626409893834],[139.77272568781302,35.64968460066256],[139.7726735443613,35.649650700687104],[139.772677025684,35.649647196086185],[139.772722744602,35.64967747830792]]]}},{"type":"Feature","properties":{"height":8.1,"gml_id":"bldg_476f7c38-1735-495f-a8e4-e2e9f5a6f644"},"geometry":{"type":"Polygon","coordinates":[[[139.77402052487207,35.64959907369067],[139.77405104462,35.64961972122267],[139.7740356831105,35.64963484777067],[139.77406836631127,35.6496569475793],[139.7739519170267,35.64977165256481],[139.77388872509084,35.64972890606686],[139.77402052487207,35.64959907369067]]]}},{"type":"Feature","properties":{"height":12.5,"gml_id":"bldg_cdf9a767-5a00-4e27-bed3-7e3028d7116e"},"geometry":{"type":"Polygon","coordinates":[[[139.77443410443618,35.64935262400229],[139.7746808714146,35.64933348200909],[139.7746861501523,35.64937879677412],[139.77471219189854,35.64937677234102],[139.77471612075703,35.649410539815094],[139.77416352285528,35.64945339956993],[139.77416040627793,35.64942662805985],[139.77417195831055,35.6494257323583],[139.77416985132183,35.649407640698065],[139.7741943248388,35.649405741799306],[139.7741888488656,35.64935870528717],[139.7744326119543,35.64933979668543],[139.77443410443618,35.64935262400229]]]}},{"type":"Feature","properties":{"height":3.0,"gml_id":"bldg_5696e792-7a66-40fc-8502-d1e03fc81e61"},"geometry":{"type":"Polygon","coordinates":[[[139.77032545655746,35.648799641428276],[139.77034694154463,35.64877819990466],[139.77038158827102,35.648801338326024],[139.77036009224364,35.64882277984996],[139.77032545655746,35.648799641428276]]]}},{"type":"Feature","properties":{"height":43.7,"gml_id":"bldg_8d91f796-071e-4e61-b2af-4007222c1836"},"geometry":{"type":"Polygon","coordinates":[[[139.77288794761148,35.64842525192573],[139.77286410943515,35.6484490182744],[139.77279627187178,35.64840368101003],[139.77277802575477,35.64842188054636],[139.7728130041438,35.648445260906996],[139.77279430491578,35.648463900991125],[139.77275928236543,35.64844050167401],[139.77268437484145,35.64851517006891],[139.7726758096084,35.648509442014394],[139.77264095291358,35.64854419054931],[139.77262492620767,35.64853348313243],[139.7726210471013,35.64853734808263],[139.7724893898857,35.64844935236116],[139.7725458619233,35.648380560773056],[139.77277722764205,35.64816245404236],[139.7727837398441,35.64816681096543],[139.77288365646868,35.648067222980714],[139.7730080948582,35.64815040131014],[139.7729951867179,35.64816327641773],[139.7730106725476,35.64817363107685],[139.77298026989087,35.64820394716975],[139.77298804040228,35.64820914299252],[139.77293106991405,35.64826592820371],[139.77293410527784,35.648267948809526],[139.77292661235478,35.64827541656255],[139.77296342297453,35.648300024572514],[139.7729439502058,35.6483194403779],[139.7729070955121,35.64829469713343],[139.77284108543242,35.64835959015514],[139.7728602578831,35.64837238130299],[139.77286645779327,35.64836620097225],[139.7729234342794,35.648404285682616],[139.77289660115588,35.648431034092134],[139.77288794761148,35.64842525192573]]]}},{"type":"Feature","properties":{"height":5.0,"gml_id":"bldg_5c098c0b-851c-4c07-81e4-6e6a791b8655"},"geometry":{"type":"Polygon","coordinates":[[[139.7700013892572,35.649151900656065],[139.76992325188183,35.64922905342394],[139.76986862749854,35.649192194411356],[139.76994675384717,35.64911504167266],[139.7700013892572,35.649151900656065]]]}},{"type":"Feature","properties":{"height":41.3,"gml_id":"bldg_2fec78da-ec48-4a89-a8c9-31452b21fe7f"},"geometry":{"type":"Polygon","coordinates":[[[139.77301548390088,35.64694418268362],[139.77299705300757,35.646944272603704],[139.77297887807669,35.64694173964272],[139.77297095068585,35.6469397346136],[139.77291283851562,35.64697401187763],[139.77279012716173,35.64685837572327],[139.77276699073195,35.64687472408067],[139.77266082306454,35.646772508597984],[139.7726852837604,35.64671349876165],[139.772718135493,35.64667123171101],[139.7727594752477,35.64663426901602],[139.7728080543277,35.646603718734106],[139.77286239226981,35.64658051844663],[139.77291163114424,35.646568237560246],[139.77294237269533,35.646556373731975],[139.77302592175118,35.64663269911772],[139.77300658626285,35.64664633628051],[139.77316493093855,35.6467947100033],[139.77310764233866,35.64683544163174],[139.77311094413625,35.646850243890135],[139.77311105431957,35.64686528792443],[139.77310795114582,35.64688011402154],[139.77310174537496,35.64689428056198],[139.77309262506176,35.64690735497847],[139.77308085554242,35.64691893178352],[139.7730668014936,35.64692866863559],[139.7730508938238,35.64693625928151],[139.77303361858978,35.64694148763342],[139.77301548390088,35.64694418268362]]]}},{"type":"Feature","properties":{"height":6.7,"gml_id":"bldg_cdc04bbc-4e44-449f-91dc-5d6199e8aaf7"},"geometry":{"type":"Polygon","coordinates":[[[139.7728480360222,35.646273330107306],[139.77286703001255,35.646273159368704],[139.77288083171672,35.64627578028962],[139.77290047918808,35.646287688324286],[139.7730010397755,35.64635643267118],[139.77292697588786,35.64642818120535],[139.772820808745,35.64635507131665],[139.77280458791435,35.64633874824435],[139.77279963286648,35.64631981683923],[139.7728076000351,35.64629827793505],[139.77282494928002,35.646282602693745],[139.7728480360222,35.646273330107306]]]}},{"type":"Feature","properties":{"height":23.6,"gml_id":"bldg_703ac44a-627d-4eab-901c-1f0b28048056"},"geometry":{"type":"Polygon","coordinates":[[[139.77411118443732,35.64918927144487],[139.7739998173827,35.64919734704976],[139.7739978208661,35.649179263552654],[139.77410908871798,35.64917090036169],[139.77411118443732,35.64918927144487]]]}}]}