{"type":"FeatureCollection","crs":{"type":"name","properties":{"name":"urn:ogc:def:crs:OGC:1.3:CRS84"}},"features":[{"type":"Feature","properties":{"height":11.6,"gml_id":"bldg_e335d218-252a-4b50-8005-e20a11857d9f"},"geometry":{"type":"Polygon","coordinates":[[[139.76363105340434,35.60288519465779],[139.763281775181,35.60271021389276],[139.76325750450354,35.6026980311061],[139.76370568004222,35.60210148491463],[139.76389896228991,35.60219840501861],[139.7639307844559,35.60215677943323],[139.76403172754218,35.60220821638273],[139.76400034750543,35.60224912114206],[139.76407911685004,35.60228864703025],[139.76363105340434,35.60288519465779]]]}},{"type":"Feature","properties":{"height":11.4,"gml_id":"bldg_21f79916-0fab-4610-82af-29e7bf7ab3d2"},"geometry":{"type":"Polygon","coordinates":[[[139.76456066437413,35.601634608516775],[139.76436552933444,35.60189688974603],[139.7641228224567,35.60177650603875],[139.76431795807216,35.6015141350595],[139.76433862099807,35.60148602372373],[139.7643538695461,35.60146530063061],[139.76459337315725,35.60158802564858],[139.76456066437413,35.601634608516775]]]}},{"type":"Feature","properties":{"height":9.3,"gml_id":"bldg_091afb16-ba6b-4706-9fa9-ae7e3a7b1add"},"geometry":{"type":"Polygon","coordinates":[[[139.76298703194453,35.60138762249107],[139.7629170891654,35.60135296851308],[139.7637866960055,35.60018185499326],[139.76385663814227,35.60021650847254],[139.76298703194453,35.60138762249107]]]}},{"type":"Feature","properties":{"height":4.9,"gml_id":"bldg_6ecb89b3-0408-4b60-9d2c-84ae24e83e62"},"geometry":{"type":"Polygon","coordinates":[[[139.76351715428504,35.601992849269635],[139.76340981874182,35.60193185351355],[139.7634463880701,35.60188887873338],[139.76355372358378,35.60194987445731],[139.76351715428504,35.601992849269635]]]}},{"type":"Feature","properties":{"height":9.8,"gml_id":"bldg_7a0ef1fa-3753-49bd-b22c-0278a670ab6c"},"geometry":{"type":"Polygon","coordinates":[[[139.76322782300238,35.59990494156226],[139.7623578798881,35.60107609597146],[139.76227591288685,35.60103548540559],[139.7631457464276,35.5998642864476],[139.76322782300238,35.59990494156226]]]}},{"type":"Feature","properties":{"height":24.9,"gml_id":"bldg_b2fd8173-3dd0-4469-939f-ef6d7c7bb32d"},"geometry":{"type":"Polygon","coordinates":[[[139.76409615861698,35.60223646672041],[139.76385566075194,35.602113469738576],[139.76392692878642,35.60202057816842],[139.76388611049495,35.601999642555555],[139.76395461614933,35.60191026477097],[139.76399322805588,35.60193002729286],[139.76403024320808,35.601881644290756],[139.7642730573799,35.60200581405466],[139.76409615861698,35.60223646672041]]]}},{"type":"Feature","properties":{"height":9.6,"gml_id":"bldg_be0f065d-45ed-473f-9819-a0d5f1d65c4f"},"geometry":{"type":"Polygon","coordinates":[[[139.76358705617253,35.60296593315031],[139.76340473922764,35.60320343213921],[139.7631978875144,35.603097489527826],[139.76338020482916,35.60285999084811],[139.76358705617253,35.60296593315031]]]}},{"type":"Feature","properties":{"height":11.4,"gml_id":"bldg_9804ee28-179a-43ef-ac35-f28a42944f39"},"geometry":{"type":"Polygon","coordinates":[[[139.76322782300238,35.59990494156226],[139.76378636506345,35.600181674525516],[139.7629157653067,35.60135233677102],[139.76235931402547,35.60107681792299],[139.76322782300238,35.59990494156226]]]}}]}