{"type":"FeatureCollection","crs":{"type":"name","properties":{"name":"urn:ogc:def:crs:OGC:1.3:CRS84"}},"features":[{"type":"Feature","properties":{"height":6.8,"gml_id":"bldg_d5f41a32-44a9-4401-b1a0-1b0df5a686b0"},"geometry":{"type":"Polygon","coordinates":[[[139.77488584543622,35.628302385871294],[139.77488120417524,35.62830824258699],[139.77487579040886,35.62831364823784],[139.77486960426756,35.628318423449294],[139.77486264581904,35.62832247537912],[139.7748551358051,35.62832589697647],[139.7748530375906,35.62832661706167],[139.77484497634012,35.62832895673526],[139.774836584466,35.62833048500612],[139.77482808284356,35.62833111184349],[139.77481958187784,35.62833083730096],[139.7748110815027,35.62832975241786],[139.77480291299952,35.6283277654144],[139.77478933644124,35.62832334115612],[139.7748410521948,35.628259728875484],[139.77486124869054,35.62827010544668],[139.77496876882935,35.628137473601186],[139.77500452919773,35.62815218340857],[139.77490949682522,35.628268325193915],[139.7748921478832,35.62828949920026],[139.77488949338255,35.62829607798374],[139.77488584543622,35.628302385871294]]]}},{"type":"Feature","properties":{"height":15.4,"gml_id":"bldg_e082be79-8ebf-40fe-ab05-efaf1f8e3dff"},"geometry":{"type":"Polygon","coordinates":[[[139.7753867233721,35.62704101171681],[139.77534223728756,35.62701697755326],[139.77535739804304,35.626998317274115],[139.77409229963243,35.62631313988067],[139.7740781663821,35.62633053857617],[139.7739714944963,35.626272788734845],[139.77396927340627,35.62627550980777],[139.77374511511613,35.62615408242181],[139.77347743499206,35.62600598821025],[139.77352396674948,35.62595004463806],[139.77539688550215,35.626972791166224],[139.77537411056053,35.627001759572615],[139.7754055966181,35.627018251939155],[139.775427984792,35.6269897700861],[139.77544941660247,35.62700147128147],[139.77542917297282,35.6270261773878],[139.77543303542424,35.62702846874889],[139.77541122266297,35.627055112064554],[139.7753867233721,35.62704101171681]]]}},{"type":"Feature","properties":{"height":20.3,"gml_id":"bldg_b9ce4356-3b48-4753-91ab-9c0fe510fdf3"},"geometry":{"type":"Polygon","coordinates":[[[139.7742937038897,35.62865859276372],[139.77427668598284,35.628679676704216],[139.7742410389697,35.62866082039166],[139.77425684063496,35.62864216958454],[139.7739697036398,35.628486342157935],[139.7737309497219,35.628356759122795],[139.7734307922991,35.62819386616044],[139.77341204895507,35.62815978468934],[139.77338566376565,35.628157789429075],[139.77334560781486,35.62814460844644],[139.7733070774791,35.62812872497312],[139.77326580321306,35.6281059896341],[139.7732408628136,35.62809128470819],[139.77322678449846,35.62807887470119],[139.77321703119037,35.628070270672886],[139.7731856998499,35.62803888702278],[139.77313690270114,35.62803678857574],[139.77306497050824,35.627997669691865],[139.77274563566687,35.62782402097299],[139.772480300546,35.627679729586895],[139.77230071457538,35.627582073402316],[139.77234436428049,35.62752909438042],[139.77213965275968,35.62741460458409],[139.77249957546448,35.62696770340187],[139.7725045416802,35.62697022977291],[139.77251150361946,35.62696157102795],[139.77257874389673,35.626998831941435],[139.77232062343916,35.62731646490777],[139.77244732548763,35.62738510597905],[139.77239695559987,35.627448357369616],[139.77247518359172,35.62749727873504],[139.7725653063513,35.627540653550675],[139.77259563007232,35.62750236921811],[139.77273374446332,35.62757621670029],[139.77270160897496,35.62761606855606],[139.7729280552853,35.627737282671376],[139.77295675404002,35.62770156636647],[139.77336124443752,35.62791837895354],[139.77340313845536,35.62790944008742],[139.773424963939,35.627926143592695],[139.77344572240872,35.627937620364314],[139.77347834946247,35.627948930866076],[139.77348597297024,35.62798583713668],[139.7736497806507,35.628073811929724],[139.7739239491814,35.628221295972516],[139.77389288639722,35.628259192677156],[139.77411265712456,35.628380004653685],[139.77450735390912,35.6285915985827],[139.77450977380656,35.62858883343039],[139.77455352091687,35.628612704385105],[139.77460296004378,35.628552723658785],[139.77464948820938,35.628578183263976],[139.7744978729978,35.628768480677124],[139.7742937038897,35.62865859276372]]]}},{"type":"Feature","properties":{"height":3.3,"gml_id":"bldg_5ca0feb3-8b6f-4317-9117-0418e3572907"},"geometry":{"type":"Polygon","coordinates":[[[139.76921644210992,35.62624210269396],[139.7691855414059,35.62622730361443],[139.76921273054944,35.62618936999461],[139.76924374164562,35.626204169126005],[139.76921644210992,35.62624210269396]]]}},{"type":"Feature","properties":{"height":3.6,"gml_id":"bldg_63848ad4-bb4d-4f8f-b4ff-84e1c122449d"},"geometry":{"type":"Polygon","coordinates":[[[139.76937802128677,35.62561068179055],[139.76931611178327,35.62557874005806],[139.76937578979772,35.62550152258686],[139.7694376992648,35.625533465190436],[139.76937802128677,35.62561068179055]]]}},{"type":"Feature","properties":{"height":20.5,"gml_id":"bldg_84e6e4b7-9a44-470e-a0f6-bfd5f405f9ca"},"geometry":{"type":"Polygon","coordinates":[[[139.77090658921512,35.6264361948021],[139.77090324510215,35.626457538646],[139.77088249447053,35.626455397930634],[139.77083730948922,35.62644492930961],[139.77080885748833,35.62643675705903],[139.77076421438707,35.62642231270518],[139.770727642556,35.62640676473345],[139.7706829967351,35.62638452521482],[139.7706490152447,35.6263615520973],[139.77061643570383,35.626337389878486],[139.7705676243814,35.62628985723133],[139.77056433854892,35.62628596606518],[139.77057742072583,35.62627948114241],[139.77056551297468,35.62626368636877],[139.77061430451707,35.62623898332315],[139.77055789677496,35.626143087684106],[139.77050097710557,35.626159821875554],[139.77049184866428,35.62613919985161],[139.77047854858253,35.6261420016132],[139.77047818053367,35.62614111626609],[139.77046961745944,35.62610908036146],[139.77046658358157,35.626092206748964],[139.77046360028947,35.626068537659506],[139.77046202772326,35.626046544971366],[139.77046199594324,35.626002526065726],[139.77046551810741,35.625973866725836],[139.77047186574998,35.62594340429736],[139.77048076345903,35.62593012710613],[139.77049174810304,35.62593615405439],[139.7705633230862,35.62584920369501],[139.77055133647013,35.62584258132027],[139.77061022738224,35.62577108839591],[139.77055903504055,35.625739109615594],[139.7704777364712,35.62570133185597],[139.7704242226206,35.62568328263452],[139.77032742190343,35.62566207485816],[139.7702805216054,35.62565608318589],[139.77022279049174,35.6256535101648],[139.77017513634357,35.62565431356034],[139.77012211353198,35.625659145091625],[139.77002318209514,35.62567866300472],[139.7700021469363,35.62568621723113],[139.76993357765795,35.62571170914896],[139.76993540146714,35.62571452872389],[139.76985066854635,35.62575787293166],[139.76980330513223,35.62579160915175],[139.7697807784924,35.62581160520181],[139.76976140581922,35.62579697099245],[139.76979057209934,35.62576846491427],[139.76981235149853,35.62575102027495],[139.76989067195305,35.62570396624297],[139.76987506552612,35.62568036890956],[139.76992316741376,35.62565923434147],[139.76997506694894,35.62564105467218],[139.7700201166902,35.62562629842764],[139.7701594145309,35.62560608238923],[139.77024791844852,35.625604866833335],[139.7703025056851,35.625606958663454],[139.7703483735192,35.62561178159894],[139.77034410754965,35.62564002861758],[139.77038295810019,35.625647941406946],[139.77043978664287,35.62566255271123],[139.77052794170928,35.625695271921245],[139.77067373776316,35.62577550485518],[139.7706888241698,35.62575700556707],[139.77141123097073,35.62614672739923],[139.77139821605343,35.62616489072553],[139.7716013520878,35.626276802148254],[139.7715863511944,35.62629622821146],[139.77161836598805,35.62631577391254],[139.7716941815415,35.62635421060821],[139.77170697042595,35.62636439463109],[139.77171776799872,35.62638133257505],[139.77172084550313,35.62639782038707],[139.7717219334867,35.62641728534067],[139.77171826919758,35.62644612041178],[139.7717109686192,35.62646729009108],[139.7716796144196,35.62651471817897],[139.77164045448743,35.62657397106927],[139.7715732031495,35.62665548264478],[139.77143040550192,35.62682854369032],[139.7713420372977,35.62677808317728],[139.77135142003885,35.626767128127575],[139.77132327651313,35.62675100598748],[139.77131259211143,35.62676340617816],[139.77132647569607,35.626771391437515],[139.7713155017276,35.62678419259342],[139.77132792974558,35.62679134873521],[139.77131083068292,35.62681266567873],[139.7713428217267,35.626835983713725],[139.7713434757481,35.626845428707945],[139.77134358065823,35.62685254425419],[139.77133948746524,35.626866146673514],[139.77143139365694,35.62691011726829],[139.77138314251087,35.6269697133319],[139.77136062932448,35.62697807917693],[139.77133500571472,35.626989783029224],[139.77130972547997,35.62699716042982],[139.771288085244,35.62700165528447],[139.77127338353455,35.62701938957047],[139.7712643764652,35.6270156180642],[139.77125505474126,35.627026137771644],[139.77109751968797,35.626942053305214],[139.77090933553185,35.62684161073884],[139.77095516027356,35.62682895656716],[139.77098882807925,35.62682545861334],[139.7710229403693,35.626823944817005],[139.77106069600117,35.62682378406262],[139.77106651245083,35.62679616698855],[139.77097467339854,35.62674577832513],[139.7709383233737,35.626745751392164],[139.77090675462912,35.62674321207615],[139.77086734921937,35.62673679185416],[139.77082329958577,35.6267312696881],[139.77079272282657,35.626728009753045],[139.7707399616126,35.626717886898085],[139.7706669273756,35.62670046221501],[139.7706653959326,35.62668651977652],[139.7706405338356,35.62667592464205],[139.77058766309096,35.6266576892448],[139.77054363263898,35.62663901044629],[139.7704774050409,35.626598740117764],[139.77044675096292,35.626580101612916],[139.77040835297322,35.62655340162123],[139.77038507050386,35.62653896918346],[139.77036444355187,35.62652129406305],[139.77034674450354,35.626528921301116],[139.77029657785792,35.62648232076525],[139.77024837575402,35.62643236269545],[139.77020140314383,35.62636050081784],[139.77016982978355,35.62634018970046],[139.77012421037315,35.626337632896714],[139.7700946317468,35.62633167006976],[139.77006615604168,35.62632570601197],[139.77004485931263,35.6263189362798],[139.77002422460455,35.62631126641325],[139.77000403552643,35.62629990111984],[139.76998174792502,35.626285468225184],[139.7699522904374,35.62626733769976],[139.7699414845034,35.62625588899659],[139.76992742437795,35.62625505322949],[139.7699097622904,35.62625504393269],[139.76988493109727,35.62625034458381],[139.76985993545105,35.6262749246663],[139.7698020881715,35.62624699466464],[139.76984194938245,35.62619874227782],[139.76957752022577,35.6260627700872],[139.7696992147382,35.625905449884364],[139.76975626486936,35.62593587633863],[139.7697707312175,35.62594368271115],[139.76976237098353,35.62595424788121],[139.76973006188,35.62593626542488],[139.7696498774592,35.626034917859336],[139.77006150518733,35.626256558718055],[139.77010065005058,35.62620791106503],[139.7702358655834,35.626279842667955],[139.77032491248437,35.62632766240644],[139.770373393801,35.626305914921126],[139.77039511446125,35.62633667954934],[139.7704305528576,35.62638120098527],[139.77044350171573,35.626372997977526],[139.77040881251722,35.6263304320296],[139.7704162774699,35.62632675379149],[139.77042206169804,35.62633627718647],[139.7704273630496,35.626333653333695],[139.77044606252903,35.62635673661843],[139.77048253336903,35.626395427551465],[139.77051179447375,35.6264206580138],[139.77052750815156,35.62643317916205],[139.7705698280442,35.62646214722851],[139.77061563605213,35.6264905023548],[139.77069922111386,35.626527892710875],[139.77075545929935,35.62654866539025],[139.77084727234367,35.626569581791756],[139.7708869287729,35.626575372086045],[139.77094349737948,35.626581629929035],[139.77097576379253,35.626581341066604],[139.77102231886914,35.62658196907892],[139.77108935486578,35.626576666661926],[139.77115811697237,35.62656497521666],[139.77119552161452,35.62655597981483],[139.7712734325039,35.62653171787159],[139.77133833244648,35.62650459000635],[139.77138003040102,35.62648295039677],[139.77142030559327,35.62645800017464],[139.771473430571,35.62642001357068],[139.77146596016547,35.62641362435958],[139.7714894583362,35.62639618030144],[139.7714596864218,35.62636867292838],[139.77141120448064,35.62632856185282],[139.77140890122098,35.62633034900667],[139.7713937362985,35.626317601107516],[139.7713544307205,35.62634941582808],[139.77132286549914,35.626371093996255],[139.77129195230142,35.626389048891554],[139.77126396833418,35.62640378916464],[139.7712405024958,35.62641361923957],[139.77121659753098,35.626423087630144],[139.7711162146985,35.626452626329716],[139.77107752108864,35.626458140813334],[139.7710680357986,35.62639773624867],[139.7709371837835,35.62640076569054],[139.77093684550277,35.62640418715336],[139.77091254847727,35.62640242138314],[139.77090658921512,35.6264361948021]]]}},{"type":"Feature","properties":{"height":122.3,"gml_id":"bldg_fd1573b3-1981-4526-958f-b6e64f09f390"},"geometry":{"type":"Polygon","coordinates":[[[139.77476446710688,35.62733274884825],[139.77426112006148,35.62705710543028],[139.7742019458293,35.62702470695077],[139.7742370832082,35.62698497334235],[139.77418224762982,35.62695290237908],[139.77414058034563,35.62699952831908],[139.77384726076326,35.62683707238135],[139.7739099063429,35.626758295658135],[139.77388297786365,35.626745122227106],[139.77394000786705,35.62667584325943],[139.77334891549637,35.62636213160831],[139.77353069318607,35.626138769896706],[139.77363336994867,35.62619394020314],[139.77368542798342,35.62612966244567],[139.77372825663352,35.62615426337208],[139.77373329549462,35.62614814459382],[139.77374476152968,35.62615448786789],[139.77396926194632,35.62627607767146],[139.773971483043,35.62627334758475],[139.7740780887017,35.62633107936591],[139.77409222195212,35.62631368067042],[139.774118829245,35.62632808878818],[139.77463202848992,35.62660602803883],[139.7753567244488,35.62699850623973],[139.77534156369248,35.62701716742016],[139.7753863697835,35.62704142618146],[139.7754112554003,35.62705564389438],[139.7754330571214,35.627029000573415],[139.7755036859579,35.62706935321586],[139.77548237129517,35.6270942300789],[139.77553924964818,35.627126716064616],[139.77550646550816,35.62716496390509],[139.77546468324618,35.62714224709947],[139.77544082519964,35.6271727833982],[139.77545458711563,35.62718021738002],[139.77536702660078,35.62728695273052],[139.7753994834209,35.6273046885677],[139.77533517193194,35.62738325884086],[139.77529801375425,35.62736296891581],[139.77527337204023,35.627393054112815],[139.77531126966173,35.62741371396719],[139.77524585311,35.62749346356502],[139.77520933499065,35.62747352455831],[139.77512048096906,35.627581828402135],[139.77473405634467,35.627370781299675],[139.77476446710688,35.62733274884825]]]}},{"type":"Feature","properties":{"height":24.7,"gml_id":"bldg_99b90aec-88eb-44f9-ad17-f668dd8aaed3"},"geometry":{"type":"Polygon","coordinates":[[[139.773733967326,35.62684951041363],[139.77376645525746,35.62680969360509],[139.77458046190694,35.62725167929475],[139.77454797419372,35.62729150443251],[139.773733967326,35.62684951041363]]]}},{"type":"Feature","properties":{"height":10.2,"gml_id":"bldg_83d4b0a0-4663-465c-8aa9-456b6b6368e6"},"geometry":{"type":"Polygon","coordinates":[[[139.77329194277513,35.62738807176844],[139.7732306173866,35.627368337028436],[139.77332710392042,35.62724347191887],[139.7728212994975,35.6269690101797],[139.7728930596416,35.62695663420216],[139.7746993143911,35.62792750157549],[139.77466424114726,35.627969867372286],[139.773382503569,35.62727399317724],[139.77329194277513,35.62738807176844]]]}},{"type":"Feature","properties":{"height":6.9,"gml_id":"bldg_4c590c23-5f18-47af-a399-2c731b366126"},"geometry":{"type":"Polygon","coordinates":[[[139.77245480313093,35.62879333516136],[139.77254927073525,35.628845392460654],[139.77230935980666,35.62913578578715],[139.7722148920854,35.62908363816414],[139.77245480313093,35.62879333516136]]]}},{"type":"Feature","properties":{"height":15.6,"gml_id":"bldg_d0e5dca5-d42e-4ea9-8bef-40290d2eb7fc"},"geometry":{"type":"Polygon","coordinates":[[[139.77422540194945,35.62785580861055],[139.7742014228305,35.62788491140682],[139.7741609540071,35.62786269055526],[139.7741849331407,35.627833578753155],[139.77422540194945,35.62785580861055]]]}},{"type":"Feature","properties":{"height":15.6,"gml_id":"bldg_11e0f299-cff2-4b99-bda2-918dc0f701c2"},"geometry":{"type":"Polygon","coordinates":[[[139.77308695147457,35.62754217657423],[139.7731793346338,35.6274277745535],[139.7732111298401,35.6274586085982],[139.7731264710831,35.62756344275205],[139.77308695147457,35.62754217657423]]]}},{"type":"Feature","properties":{"height":8.9,"gml_id":"bldg_7402a31e-cce7-4dc0-8e7f-444489f1c850"},"geometry":{"type":"Polygon","coordinates":[[[139.7725180659847,35.62616845921259],[139.77235219617495,35.62608409634511],[139.77250105825183,35.625884696219536],[139.77268581375483,35.62566701596314],[139.77281824569855,35.62573252274396],[139.77292012938906,35.62560782288498],[139.77310201885612,35.62570578579737],[139.77300066503204,35.62583077541654],[139.77311058062855,35.62588959858199],[139.77307234841572,35.6259340183983],[139.7727706705325,35.62630784965758],[139.77269342341967,35.626262471391584],[139.7725180659847,35.62616845921259]]]}},{"type":"Feature","properties":{"height":8.9,"gml_id":"bldg_5e590bda-7601-49d6-bb98-678d1126b5c6"},"geometry":{"type":"Polygon","coordinates":[[[139.7731782158869,35.626091452245014],[139.773194677137,35.62607622714224],[139.77321599409464,35.62606361756072],[139.7732428473771,35.626029289282954],[139.77328107954045,35.625984870314596],[139.77331941990747,35.625943335803534],[139.77364219347336,35.626116416887314],[139.77364788439104,35.62610937992949],[139.77368526246858,35.62612954428295],[139.77363320446662,35.626193777872736],[139.77356039071617,35.62615432442456],[139.77358640197986,35.62612382561628],[139.77348596578634,35.626069602831215],[139.77341770661664,35.62615548843907],[139.77348708916728,35.626191767411704],[139.7733944873156,35.62630583607347],[139.77332284221765,35.62626855538947],[139.77323891204742,35.6263753532121],[139.77314469766748,35.626327506905376],[139.7730487824331,35.62644247502303],[139.7730147490647,35.62648175815113],[139.77297513026897,35.62646100657133],[139.77298286512462,35.626452086785406],[139.77295086131764,35.62643503466947],[139.77296644258146,35.62641566281025],[139.77294889603917,35.62640582897609],[139.77314106466258,35.626166518637554],[139.77314327979073,35.626157055255014],[139.7731548964221,35.62612443110468],[139.7731782158869,35.626091452245014]]]}},{"type":"Feature","properties":{"height":9.2,"gml_id":"bldg_b5f41021-caab-4c0f-8a24-3d4a4207b677"},"geometry":{"type":"Polygon","coordinates":[[[139.7735607547644,35.62921023615279],[139.77355053518943,35.62920484083259],[139.77353828494594,35.629198371862074],[139.77352659754624,35.62919220963874],[139.77351716154877,35.62918722933925],[139.77367695739105,35.62898684177582],[139.77350711031158,35.62889661959818],[139.77351694586724,35.628883915030876],[139.77350601982235,35.62887841119032],[139.77352491661142,35.628854984705534],[139.77376403345832,35.628982061581844],[139.77374466687527,35.62900482175185],[139.77373080990552,35.62902112085221],[139.77372098721463,35.62901651895664],[139.7735607547644,35.62921023615279]]]}},{"type":"Feature","properties":{"height":7.7,"gml_id":"bldg_b0337df5-bc0d-472c-bd62-0a54df60bc0e"},"geometry":{"type":"Polygon","coordinates":[[[139.7735592466297,35.62871483722592],[139.77369068744844,35.62878466914725],[139.77366836521108,35.62881206003187],[139.77387485210085,35.628922310697796],[139.77380832623706,35.629005565312575],[139.77348640036612,35.628834504262656],[139.7735209895508,35.62879116508511],[139.7735050974944,35.62878268422628],[139.7735592466297,35.62871483722592]]]}},{"type":"Feature","properties":{"height":10.2,"gml_id":"bldg_f3ca4624-f531-4502-b6f1-a4c31711e546"},"geometry":{"type":"Polygon","coordinates":[[[139.77225991856673,35.625072998685695],[139.77222297908963,35.62507240307105],[139.7722248371827,35.62500993837326],[139.77223002337644,35.625013375261844],[139.77224040681836,35.62500571879684],[139.7722918230342,35.6250455407897],[139.77225991856673,35.625072998685695]]]}},{"type":"Feature","properties":{"height":5.2,"gml_id":"bldg_fa6e842c-80f8-4be4-8db7-430f8a29eed7"},"geometry":{"type":"Polygon","coordinates":[[[139.7695101025979,35.62555820138034],[139.76938628526648,35.625492244845454],[139.7694608800022,35.625398991584596],[139.76958469725136,35.62546494804373],[139.7695101025979,35.62555820138034]]]}},{"type":"Feature","properties":{"height":3.6,"gml_id":"bldg_da8f9512-ee1f-4e71-b709-a0c49531a097"},"geometry":{"type":"Polygon","coordinates":[[[139.76809178980423,35.62554833773274],[139.76806794255663,35.62554913605838],[139.7680646844464,35.62548279272562],[139.76808853160037,35.625482085439934],[139.76809178980423,35.62554833773274]]]}},{"type":"Feature","properties":{"height":7.7,"gml_id":"bldg_4cd5807b-1102-4432-b1ed-c51c5c679df3"},"geometry":{"type":"Polygon","coordinates":[[[139.77194514267015,35.62666519041116],[139.77207078945045,35.62650895420045],[139.7723968955418,35.62668362672721],[139.77227478536545,35.62683544740361],[139.77232566030742,35.626862694847695],[139.77229261859313,35.62690387116856],[139.77229846754082,35.626907028961234],[139.77228255446954,35.62692685125412],[139.77227339474004,35.626921979161075],[139.7720492850978,35.62720075227344],[139.7720567894171,35.62720481229952],[139.77201910608446,35.627251755012395],[139.7720093945932,35.62724652206683],[139.7719510461641,35.62731914356014],[139.77151623626128,35.627086184982204],[139.77151811484745,35.62708393159529],[139.77152826769014,35.62708943612232],[139.7718921712415,35.62663676002746],[139.77194514267015,35.62666519041116]]]}},{"type":"Feature","properties":{"height":3.1,"gml_id":"bldg_dba5abd9-ce4a-4c59-ae28-454963c3edc4"},"geometry":{"type":"Polygon","coordinates":[[[139.76993209222633,35.62551101160506],[139.77017378571907,35.62547796777037],[139.77018917591832,35.62556180417837],[139.7699497983932,35.62559764444116],[139.76993209222633,35.62551101160506]]]}},{"type":"Feature","properties":{"height":15.6,"gml_id":"bldg_f89a7192-04c7-4ad5-8025-3f3a5a7691ea"},"geometry":{"type":"Polygon","coordinates":[[[139.7741458852647,35.627890725074764],[139.77412101158697,35.62792016092582],[139.77408163574228,35.627897976640135],[139.7741065204679,35.627868540802524],[139.7741458852647,35.627890725074764]]]}},{"type":"Feature","properties":{"height":3.6,"gml_id":"bldg_d0164b42-1eda-4ada-971b-69be28c19d25"},"geometry":{"type":"Polygon","coordinates":[[[139.76940826051379,35.62520796124658],[139.76940619452614,35.625306931679006],[139.76928773596572,35.62530533641848],[139.7692899125716,35.62520627590892],[139.76940826051379,35.62520796124658]]]}},{"type":"Feature","properties":{"height":35.8,"gml_id":"bldg_e7dd446f-63b8-4c5e-9359-0cf188549dc7"},"geometry":{"type":"Polygon","coordinates":[[[139.7741292039824,35.62768001036206],[139.7748087466304,35.62804924104068],[139.7747570200124,35.62811276316648],[139.77483143637363,35.62815306395479],[139.77485852079397,35.62811972605732],[139.77492470618537,35.62815294696241],[139.77489901402595,35.62818470813555],[139.7745532783747,35.628612227436975],[139.77450970775564,35.62858857109669],[139.77450728785757,35.628591337150375],[139.77389306307128,35.62825915670915],[139.77392434671785,35.628221188002996],[139.77379512543942,35.62815177206197],[139.77348610550234,35.627985774105944],[139.77347853720332,35.62794885884899],[139.77344604277573,35.62793735912346],[139.77342528431208,35.62792587423949],[139.7734031938189,35.62790922378384],[139.77336125557218,35.627918252765916],[139.77325304764088,35.62786028520718],[139.77295675404002,35.62770156636647],[139.77292805529208,35.62773727365758],[139.77270177459414,35.62761605061182],[139.77273379967195,35.62757620771428],[139.77259561917512,35.62750217992286],[139.77256526225807,35.62754056339046],[139.77247521673328,35.62749725171039],[139.7723969776806,35.62744835738079],[139.772447369649,35.62738510600138],[139.7723206786545,35.62731644690814],[139.7726190010561,35.62694939442777],[139.77268620894733,35.62698573495625],[139.7727143658114,35.62695101896333],[139.77264715794325,35.62691466943658],[139.7726694358944,35.62688720569839],[139.7733259335925,35.627243543446305],[139.7732923821749,35.62728766729686],[139.77322779154568,35.62736768662523],[139.77329197579505,35.62738820699187],[139.77338249232005,35.627274272599365],[139.77358868648892,35.627386308368166],[139.7741292039824,35.62768001036206]]]}},{"type":"Feature","properties":{"height":42.7,"gml_id":"bldg_cb1a751a-0ce9-4045-8654-39919e227b44"},"geometry":{"type":"Polygon","coordinates":[[[139.77359000090726,35.62655442559461],[139.77362550679115,35.62650920294079],[139.77368476941015,35.62654068955323],[139.77364882180174,35.626586093182816],[139.77359000090726,35.62655442559461]]]}},{"type":"Feature","properties":{"height":3.5,"gml_id":"bldg_de02543a-f4c2-4772-937f-ea9affd991e3"},"geometry":{"type":"Polygon","coordinates":[[[139.76809040631596,35.62534877054879],[139.76805204748413,35.625410045413716],[139.76802787794477,35.6253999359573],[139.76806623671544,35.62533875304071],[139.76809040631596,35.62534877054879]]]}},{"type":"Feature","properties":{"height":6.8,"gml_id":"bldg_48974f2b-3ee9-46a5-8844-4c5e82613dd4"},"geometry":{"type":"Polygon","coordinates":[[[139.77336511300402,35.629509126488344],[139.77326821420806,35.62945833055298],[139.77342492562738,35.62925018993215],[139.7735249156409,35.629300987277844],[139.77336511300402,35.629509126488344]]]}},{"type":"Feature","properties":{"height":3.3,"gml_id":"bldg_ecbf1547-2a14-4f13-a646-9751e3cd2f5c"},"geometry":{"type":"Polygon","coordinates":[[[139.76956385884594,35.625986655743965],[139.76956575442287,35.62596304059299],[139.7695720672718,35.625937895433886],[139.76958025522282,35.6259149145785],[139.76960093111106,35.625876076042175],[139.76964650648728,35.62590178857032],[139.76961965378388,35.6259335038477],[139.76964028962462,35.625945142560454],[139.7695799539198,35.62601631966199],[139.7695630700744,35.62600675609895],[139.76956385884594,35.625986655743965]]]}},{"type":"Feature","properties":{"height":13.3,"gml_id":"bldg_c492b648-8970-4032-a78a-646cbf6688c0"},"geometry":{"type":"Polygon","coordinates":[[[139.77317272048936,35.627591183282625],[139.7731811852651,35.62758070356192],[139.77322590283387,35.62760477559311],[139.7732174380621,35.62761525441556],[139.77317272048936,35.627591183282625]]]}},{"type":"Feature","properties":{"height":9.9,"gml_id":"bldg_1f2371ef-1d32-4ece-9292-94761a4fd347"},"geometry":{"type":"Polygon","coordinates":[[[139.77243995616465,35.62565959077008],[139.77233260924447,35.625795608787975],[139.77229497032047,35.62584330878018],[139.77224067469257,35.625814617376314],[139.7721842445563,35.62583441910716],[139.77215028953788,35.625843100184795],[139.7721469292698,35.62583394857017],[139.77210957342,35.62584324174885],[139.77205537408622,35.625847594900186],[139.77199395788207,35.625847518577295],[139.7719337628596,35.625838591294155],[139.77185372900556,35.625814889254784],[139.77181645242896,35.625792723320615],[139.77180460191275,35.625784136131614],[139.77176475813718,35.62575528964456],[139.7717673981975,35.62565256071642],[139.77176916340125,35.62562533994251],[139.77177371897622,35.62561613918054],[139.77185116353374,35.625618432177376],[139.77185108493504,35.62562015377307],[139.7718956638566,35.62562147540319],[139.77189445065338,35.62564875865573],[139.77178818099588,35.62564562169529],[139.77178350764748,35.62575087254783],[139.771822312791,35.62575201999301],[139.77182152634757,35.62576982184609],[139.7718889910218,35.62577180325357],[139.77188791262571,35.62579604081117],[139.77207226754015,35.625801488892165],[139.77207206525625,35.62580615793758],[139.77215259013855,35.62580853343116],[139.7721538369064,35.6257805552298],[139.77231402551377,35.62578528759008],[139.77231951807423,35.625661639064994],[139.7721539422665,35.625656741728086],[139.77215436925437,35.62564694394433],[139.77216249458377,35.625647191442766],[139.77216328095034,35.62562938958703],[139.77241756194297,35.62563691875588],[139.7724457796022,35.625652599004525],[139.77243995616465,35.62565959077008]]]}},{"type":"Feature","properties":{"height":6.4,"gml_id":"bldg_485a2450-7584-4121-9ddc-59da5c5d7f2c"},"geometry":{"type":"Polygon","coordinates":[[[139.77265279308904,35.628603424241746],[139.77269803977467,35.6286291363409],[139.7726341690653,35.62870391867952],[139.77258892235804,35.62867820655668],[139.77265279308904,35.628603424241746]]]}},{"type":"Feature","properties":{"height":3.2,"gml_id":"bldg_da25a9f7-f0a9-4b69-be31-82d055692e4b"},"geometry":{"type":"Polygon","coordinates":[[[139.7689944366704,35.62539937435592],[139.76897433074717,35.62541558755587],[139.76894586615725,35.62539213736756],[139.76896608248168,35.625375923329884],[139.7689944366704,35.62539937435592]]]}},{"type":"Feature","properties":{"height":9.7,"gml_id":"bldg_676d5de6-fece-4a68-a18c-f5f42806bca9"},"geometry":{"type":"Polygon","coordinates":[[[139.77175113413526,35.62577752873922],[139.7717548673616,35.625792635973056],[139.77174968858432,35.62579820475557],[139.77191997863233,35.62589282210362],[139.77196702562065,35.62589934322369],[139.77197759067116,35.625876698729],[139.77198571124845,35.625865853855096],[139.77195591293983,35.625862804632845],[139.77190144620852,35.62585010617385],[139.77185261148537,35.625833975405385],[139.77180907050985,35.6258135396257],[139.7717876577145,35.62579974118072],[139.77177924291718,35.62579255558745],[139.77176274653573,35.62578420939314],[139.77175714055846,35.6257753117104],[139.7717406644747,35.62576066037048],[139.77174763177422,35.62562836839113],[139.77175442348673,35.62561561733577],[139.77177317354844,35.62561620019567],[139.77176860489593,35.625625178310074],[139.77176676896903,35.62565248558031],[139.7717643495499,35.625755423741374],[139.77181591903434,35.62579292766152],[139.77185357540915,35.625815070353774],[139.77193354507483,35.62583897607243],[139.77199395869073,35.6258479052697],[139.77205531874804,35.62584777514804],[139.77210957887135,35.62584333188963],[139.7721467822617,35.62583417744602],[139.77215010947666,35.625843240708626],[139.77211632019294,35.625851737979325],[139.77204035357877,35.62586693177482],[139.77198608849184,35.62593710272478],[139.7719500504682,35.625917901200324],[139.77193655556022,35.625921497139515],[139.7714395805548,35.625656002775536],[139.77144681436246,35.625646979170995],[139.7716920873536,35.62578012336106],[139.771697547515,35.625773300905436],[139.77172078723942,35.6257859068737],[139.7717342065136,35.62576863157738],[139.77175113413526,35.62577752873922]]]}},{"type":"Feature","properties":{"height":20.6,"gml_id":"bldg_5a83bbe5-c7a2-4f47-a923-a9918956f914"},"geometry":{"type":"Polygon","coordinates":[[[139.7717262801619,35.62496784961041],[139.77174691120248,35.62496854701014],[139.77174973303292,35.624916711885646],[139.77178521467238,35.624917936063916],[139.77178938519776,35.62490691792124],[139.771792398205,35.624895143830614],[139.7717954180976,35.62487582338909],[139.7718860635138,35.624909940020636],[139.7719087846094,35.62492770338681],[139.77194508182794,35.624958186731966],[139.77197816864427,35.624988661220115],[139.7719967720875,35.62505382424863],[139.77199671323254,35.62513088680736],[139.77216894759144,35.62514554337744],[139.77185006700745,35.625135653370755],[139.77184666246274,35.62521325775302],[139.77175032968893,35.62520977609478],[139.7717414825056,35.62542818316836],[139.77173303700724,35.62561508901049],[139.77175399609328,35.6256158019002],[139.77174727309682,35.625628204156634],[139.77174419508572,35.62569158582165],[139.77174037735142,35.62576076478376],[139.77175693624505,35.62577540444812],[139.7717625885528,35.625784351730445],[139.77177904735157,35.62579275829801],[139.7717874930695,35.625799933090555],[139.7718088605051,35.62581385590283],[139.77185237276467,35.625834306991386],[139.77190121955215,35.625850542326184],[139.7719557978965,35.62586310022686],[139.7719852067041,35.6258658671189],[139.77197714911887,35.625876629097874],[139.77193218347395,35.625869761109854],[139.77188847986187,35.6258598272541],[139.77185085240532,35.625844575637494],[139.77178441970048,35.625811193361855],[139.77178199535896,35.6258096606787],[139.77175515337402,35.62579254057297],[139.77175148089867,35.62577739370946],[139.77173420784646,35.62576833322129],[139.7717206574722,35.62578524699719],[139.77169725444418,35.62577252376595],[139.77169001701458,35.625769028117],[139.77170035183767,35.625755866947166],[139.7717050437402,35.62569563643259],[139.77154121943593,35.62568712371443],[139.77154210323877,35.62567630760782],[139.77158234283144,35.625678398709496],[139.77162929747902,35.625664088121255],[139.7716741506531,35.62563895717507],[139.77170940493411,35.62560597659245],[139.77172422361787,35.62558208858741],[139.77173273895292,35.62542793893094],[139.77166642300193,35.625365228445546],[139.77164464338932,35.62536348935],[139.77160005750386,35.6253541841004],[139.77154929945124,35.625332979255425],[139.77150373476005,35.62530592078819],[139.7714778170435,35.62527878225444],[139.77143954659527,35.6252330671376],[139.7714116592996,35.62518312266183],[139.77139304848046,35.62512380589196],[139.77131845386518,35.62505857971064],[139.77080645124863,35.62503793126328],[139.77081241572762,35.62488675939609],[139.7708147744985,35.62488737265723],[139.77085681820535,35.62488870236991],[139.7708555725169,35.624918988095395],[139.77085149885323,35.62491886159233],[139.7708505077974,35.62494113327923],[139.77087370003488,35.624941921393386],[139.77087395726235,35.62493766881544],[139.77091332594404,35.62493907373885],[139.77091295539415,35.624951350343785],[139.7709092460419,35.624951233045245],[139.7709081008626,35.624972962923195],[139.77093122689715,35.62497371583815],[139.77093147307468,35.6249694722682],[139.7709553740442,35.624970319323424],[139.77095517423462,35.62497456472021],[139.77097767223353,35.62497513702507],[139.77097793962955,35.62497057798295],[139.77100323162,35.62497145279003],[139.771003065345,35.62497516729137],[139.77102497704303,35.62497583843588],[139.77102521200842,35.62497181028974],[139.7710501507545,35.6249726398353],[139.7710499621996,35.624976614824035],[139.7710730551445,35.62497733163948],[139.77107331237548,35.6249730610335],[139.77109816280307,35.62497388962209],[139.77109792929355,35.62497889306236],[139.771120205216,35.62497969057091],[139.77112121761348,35.624958276105396],[139.77111844888384,35.624958140370005],[139.77111920520198,35.624945214068596],[139.77114719091938,35.62494612629166],[139.77114700235538,35.62495011930816],[139.77116950028608,35.62495077270137],[139.77116974513692,35.62494680044562],[139.77119272981744,35.62494760101059],[139.77119254126268,35.62495158501337],[139.77121413279576,35.62495225595833],[139.77121630514714,35.62491270632231],[139.77138919866232,35.62491789444784],[139.7713882394547,35.62493628301014],[139.7713855434997,35.62493626359635],[139.77138456709196,35.624956911909614],[139.771406269049,35.62495755583551],[139.77140648150444,35.62495406039272],[139.77142980844982,35.624954834948355],[139.77142963087735,35.62495890909516],[139.77145389396415,35.62495975263204],[139.7714542268995,35.62495606796119],[139.77148162843466,35.62495720515157],[139.7714810053289,35.62496925628357],[139.771478399948,35.624969175624514],[139.7714772441671,35.624990535936625],[139.77150014930788,35.62499142383598],[139.7715004513987,35.624986214915445],[139.77152500389192,35.624986864789825],[139.7715247256662,35.62499262536727],[139.77154696855374,35.62499332272677],[139.77154723709154,35.624988672644584],[139.77157301495095,35.6249894222894],[139.77157281500757,35.62499388401836],[139.7715953559755,35.62499458242312],[139.77159562451675,35.62498992422839],[139.77161979056373,35.624990636080646],[139.77161956836287,35.62499533215712],[139.7716425619029,35.62499612092288],[139.77164288625005,35.62499067044353],[139.77166742757575,35.62499148974261],[139.77166724959997,35.6249961047176],[139.77168669932448,35.62499685560578],[139.77168697013764,35.62499210727402],[139.77168844850704,35.62496175766121],[139.77172651363847,35.624962838056454],[139.7717262801619,35.62496784961041]]]}},{"type":"Feature","properties":{"height":6.3,"gml_id":"bldg_8a291079-a812-4ecc-ae6d-e89a29817669"},"geometry":{"type":"Polygon","coordinates":[[[139.77249861698039,35.62619260637517],[139.77233175592278,35.62610508814958],[139.77234512739105,35.62608814897659],[139.77251209869266,35.62617584841693],[139.77249861698039,35.62619260637517]]]}},{"type":"Feature","properties":{"height":18.8,"gml_id":"bldg_00cf569f-d4f8-4b0f-9bbd-7ff173a850b9"},"geometry":{"type":"Polygon","coordinates":[[[139.77162497026853,35.62609733688749],[139.7711268232631,35.625831173619616],[139.77112220519265,35.62580692411392],[139.7711212306509,35.62578230692365],[139.7711289770199,35.62575870378195],[139.771143012068,35.625740503152166],[139.77116013408363,35.62572780343306],[139.77118443021484,35.62571762857237],[139.7712192133963,35.625708813888146],[139.771723762682,35.62597570115736],[139.77172539795967,35.62600274339198],[139.77172538240134,35.626023024432705],[139.7717200668766,35.62604420414294],[139.77170459633956,35.62606285479474],[139.77168636838428,35.62607807878981],[139.77166980101373,35.626087355425895],[139.77164705274168,35.626094553918456],[139.77162497026853,35.62609733688749]]]}},{"type":"Feature","properties":{"height":7.6,"gml_id":"bldg_e8d75a8d-5611-447b-935f-84b7ef12cf7b"},"geometry":{"type":"Polygon","coordinates":[[[139.77183560582418,35.62784152436579],[139.7718607763566,35.627843610385156],[139.771870254753,35.62786497791932],[139.7718550061567,35.62788173580056],[139.77182586161777,35.62787892664742],[139.77181848132284,35.62785701935333],[139.77183560582418,35.62784152436579]]]}},{"type":"Feature","properties":{"height":3.0,"gml_id":"bldg_3d1bb46a-5774-419f-b483-db5c9610b61b"},"geometry":{"type":"Polygon","coordinates":[[[139.77388481897424,35.62665916755309],[139.77387116985366,35.62667863963581],[139.77380189421808,35.626646263914644],[139.773815532303,35.62662680084802],[139.77388481897424,35.62665916755309]]]}},{"type":"Feature","properties":{"height":3.5,"gml_id":"bldg_2f1acfba-9c17-495b-8102-82afc053501e"},"geometry":{"type":"Polygon","coordinates":[[[139.76805809930192,35.625434925879695],[139.76805804633304,35.625500095625206],[139.76802912132197,35.625500079949894],[139.76802917431434,35.62543491020442],[139.76805809930192,35.625434925879695]]]}},{"type":"Feature","properties":{"height":4.8,"gml_id":"bldg_0f7dc0dd-d3a9-42a3-942d-12e2f83351d5"},"geometry":{"type":"Polygon","coordinates":[[[139.77160827771124,35.62786385155986],[139.77165216720445,35.62788757221156],[139.7716240205791,35.62792230598327],[139.77158012003412,35.627898586217135],[139.7715362195151,35.62787486643496],[139.77156437720214,35.62784013268917],[139.77160827771124,35.62786385155986]]]}},{"type":"Feature","properties":{"height":78.7,"gml_id":"bldg_47420a04-982c-4178-8430-87ae1a039d63"},"geometry":{"type":"Polygon","coordinates":[[[139.770373652219,35.62630440794901],[139.77032484591072,35.62632667896616],[139.77009985882853,35.626206052905765],[139.77006096929935,35.6262543130993],[139.7696516439382,35.626034850288214],[139.76973005659303,35.62593736510562],[139.76976235628027,35.62595469135238],[139.76977128434075,35.625943667679515],[139.76975654652423,35.62593571063336],[139.76969990436697,35.625904536249344],[139.76970168695502,35.625902247685794],[139.76969093647523,35.625896158593996],[139.7697178347697,35.62586537354869],[139.76972741337434,35.62587071838099],[139.76978771863347,35.625816786389116],[139.769781136059,35.62581177394849],[139.76980365607045,35.62579178330313],[139.76985100623,35.62575805518834],[139.76993573697973,35.62571466410745],[139.76993390985285,35.6257118517418],[139.77002396309726,35.625679471952985],[139.77005391515405,35.62567356562236],[139.77012287907024,35.62565996484769],[139.77017541748268,35.6256548013543],[139.77022306169576,35.62565399705206],[139.7702807839784,35.62565656916702],[139.7703276721333,35.62566255993145],[139.77042395192265,35.62568355741406],[139.77045070277117,35.6256925842781],[139.7704774536335,35.62570160122102],[139.7705587500006,35.62573937176864],[139.77060946559084,35.62577111774483],[139.77055063870867,35.62584261340635],[139.77056262642867,35.62584923578172],[139.77049160947053,35.62593554915613],[139.770480620412,35.62592952040278],[139.77047111410818,35.62594315872982],[139.77046502245,35.62597380877887],[139.77046156648703,35.62600251863057],[139.77046136531953,35.62604653741464],[139.7704631697183,35.62606854374446],[139.77046615411078,35.62609221734142],[139.77046912166008,35.626109202690415],[139.77047768693652,35.62614124580729],[139.77047807363937,35.626142277187675],[139.77049154151695,35.626139494442626],[139.77050063786837,35.62616021019336],[139.77055774076052,35.62614353288449],[139.7706138508092,35.626238927201406],[139.77056496652776,35.62626363200129],[139.77057687427808,35.626279427676344],[139.77056397645046,35.62628594063788],[139.77056714716625,35.626290213929146],[139.77061626446323,35.626337540319774],[139.77064880866982,35.6263617097313],[139.7706827305607,35.62638466028339],[139.77072738840852,35.62640705033879],[139.77076397790188,35.62642260102393],[139.7708086176884,35.626437048981664],[139.7708372407909,35.62644524926383],[139.77088243460315,35.6264557196922],[139.77090347335778,35.626457894809334],[139.7709068794451,35.626436359003634],[139.77093414670162,35.62643902679194],[139.7709374695364,35.62640100830973],[139.77106756852749,35.62639808484118],[139.77107709794524,35.626458531793546],[139.77110921644336,35.626453872929275],[139.7711162388215,35.626452839969204],[139.77120916094694,35.62642580866701],[139.77121673623807,35.626423604192325],[139.77124065114202,35.626414132201326],[139.7712640320274,35.62640422907084],[139.77127138117757,35.62640035421929],[139.77129203476593,35.626389485201884],[139.77132311809774,35.62637138166646],[139.77135470209024,35.62634969990236],[139.771393442028,35.626318380649835],[139.7714087385367,35.62633085910408],[139.7714110417964,35.62632907195023],[139.7714589641725,35.626368958294876],[139.7714885266894,35.62639598963205],[139.77146525804304,35.62641357893002],[139.7714726744626,35.62641982389267],[139.77141998352343,35.626457605204735],[139.7713796485931,35.626482712236154],[139.77134844963288,35.626498965193456],[139.77133814717047,35.626504331214996],[139.77127320424432,35.6265313644131],[139.77119535624547,35.6265556768659],[139.77115909580436,35.62656411310129],[139.77115775086114,35.62656442698877],[139.77108934072865,35.626576389029616],[139.77105964406357,35.626578644258885],[139.77102246057572,35.626581464379484],[139.77100980078612,35.62658140374826],[139.77094351876136,35.62658110804118],[139.77093067342793,35.62657971416474],[139.77088694784828,35.62657497729156],[139.77084768573707,35.626568953744425],[139.77078718850984,35.62655486172734],[139.77075625167296,35.626547652650856],[139.7706995371862,35.626527480043215],[139.77061596536876,35.62649009510254],[139.7705706268208,35.626461419329694],[139.77052831354888,35.62643245577388],[139.77051260429138,35.62641992921976],[139.77048334648748,35.62639471318142],[139.77044642927964,35.62635646098763],[139.77042737111384,35.626333224281076],[139.77042207859378,35.62633584903985],[139.7704164830668,35.62632643571175],[139.77039551442928,35.626336280446985],[139.770373652219,35.62630440794901]]]}},{"type":"Feature","properties":{"height":23.6,"gml_id":"bldg_a8643686-a74b-4198-a36f-468aeb3f05bc"},"geometry":{"type":"Polygon","coordinates":[[[139.77207244428527,35.62580135377505],[139.77188871908564,35.6257953471599],[139.77188977503573,35.62577158732225],[139.77182213385785,35.62576942554907],[139.77182252271885,35.62575180376899],[139.77178368437154,35.62575076537389],[139.77178857828756,35.62564582020185],[139.7718945940161,35.62564896604623],[139.77189610555706,35.625621349435235],[139.77185122852532,35.62562006370835],[139.7718513071723,35.625618279016074],[139.7717335231158,35.62561464037181],[139.77175117666556,35.625210948321794],[139.7718473443288,35.625213791718004],[139.77185077056168,35.62513669842932],[139.77217062633628,35.62514612742261],[139.77222064543935,35.62515047041604],[139.7722230231194,35.62507257435559],[139.77225998476575,35.62507305280205],[139.77229190026637,35.62504560392543],[139.77241440568338,35.62514047308944],[139.77251182889012,35.625220114172166],[139.77255121496538,35.62525564842383],[139.7725729401962,35.62528693727053],[139.77259256435633,35.62532282209215],[139.7725956402342,35.625343104693975],[139.77260180153735,35.6253710505814],[139.772601761185,35.62542441225937],[139.7725924567791,35.62546505980817],[139.77251664417474,35.62556759860811],[139.77244586803235,35.62565245482841],[139.77241763936655,35.6256367304066],[139.77216312643017,35.62562933542577],[139.77216243943818,35.625647119304375],[139.7721542920011,35.6256469078499],[139.77215386496516,35.62565676873024],[139.77231908719585,35.625662052580196],[139.77231387104112,35.62578517033244],[139.77215343960629,35.62578036573825],[139.77215244669935,35.625808425192716],[139.7720722420014,35.62580602282046],[139.77207244428527,35.62580135377505]]]}}]}