{"type":"FeatureCollection","crs":{"type":"name","properties":{"name":"urn:ogc:def:crs:OGC:1.3:CRS84"}},"features":[{"type":"Feature","properties":{"height":3.4,"gml_id":"bldg_cd18785f-b0bf-4e30-987b-dd17a8b9023b"},"geometry":{"type":"Polygon","coordinates":[[[139.7559250445954,35.587172063628564],[139.75592419269643,35.58713997375168],[139.75599183625138,35.587139836898615],[139.75599191574034,35.58717192627942],[139.7559250445954,35.587172063628564]]]}},{"type":"Feature","properties":{"height":6.8,"gml_id":"bldg_f768cdee-88c1-473e-a6ae-6c8983ff1a6f"},"geometry":{"type":"Polygon","coordinates":[[[139.76167769583915,35.587567813769695],[139.76167703631725,35.587441078554676],[139.76183075244901,35.58744044873357],[139.76183152256183,35.5875671840135],[139.76167769583915,35.587567813769695]]]}},{"type":"Feature","properties":{"height":8.2,"gml_id":"bldg_c4871eb2-f4c7-49ab-97d4-2eb2db857788"},"geometry":{"type":"Polygon","coordinates":[[[139.76041550303606,35.58369920977388],[139.76038721786733,35.583618608731285],[139.7605166780275,35.583588310292704],[139.76054496331537,35.58366891130548],[139.76041550303606,35.58369920977388]]]}},{"type":"Feature","properties":{"height":3.4,"gml_id":"bldg_9611d6db-e246-4318-a77f-2c332815c76b"},"geometry":{"type":"Polygon","coordinates":[[[139.75691506478597,35.59102945302049],[139.75691473267528,35.590914436070804],[139.7569781854665,35.590914836840064],[139.75697829730345,35.59102949309605],[139.75691506478597,35.59102945302049]]]}},{"type":"Feature","properties":{"height":3.8,"gml_id":"bldg_de33a1ea-cf2d-457a-85db-e3700b15187b"},"geometry":{"type":"Polygon","coordinates":[[[139.75697533767948,35.590892300408065],[139.75689963552452,35.59089207214678],[139.7569004187903,35.59076461678692],[139.75697424516542,35.59076448330522],[139.75697533767948,35.590892300408065]]]}},{"type":"Feature","properties":{"height":10.0,"gml_id":"bldg_abed7456-7069-446b-89d3-028678e74a84"},"geometry":{"type":"Polygon","coordinates":[[[139.75690480221573,35.59044859393042],[139.7569009289844,35.590227842239344],[139.75696471340362,35.590227071424934],[139.75696858681,35.590447823114225],[139.75690480221573,35.59044859393042]]]}},{"type":"Feature","properties":{"height":3.4,"gml_id":"bldg_fb5a5053-070b-488e-92f6-c6bfeeea211d"},"geometry":{"type":"Polygon","coordinates":[[[139.75704021297693,35.58718323073607],[139.75700302633274,35.587182486083535],[139.7570033868062,35.58715147864465],[139.75704101551253,35.587151502468345],[139.75704021297693,35.58718323073607]]]}},{"type":"Feature","properties":{"height":9.5,"gml_id":"bldg_b5af3ae7-93cb-47d8-994c-bf5039476f52"},"geometry":{"type":"Polygon","coordinates":[[[139.7571020916592,35.58907401617598],[139.75710127934573,35.5889996513672],[139.75715137854021,35.588999683043674],[139.75715130835016,35.58907377687874],[139.7571020916592,35.58907401617598]]]}},{"type":"Feature","properties":{"height":11.1,"gml_id":"bldg_f2b9ab2c-977f-4efd-9f83-cae7f4632fca"},"geometry":{"type":"Polygon","coordinates":[[[139.75743809906461,35.587565399029714],[139.75716410414353,35.587564324804134],[139.75716558279194,35.587284715914244],[139.75722417799287,35.58728448251277],[139.75722389190238,35.58723697930778],[139.7574384085225,35.58723747512822],[139.75743809906461,35.587565399029714]]]}},{"type":"Feature","properties":{"height":9.9,"gml_id":"bldg_64dfb4c8-fde8-49a0-82eb-e17f1b3d91bb"},"geometry":{"type":"Polygon","coordinates":[[[139.7579842112013,35.584035914541815],[139.7579305845174,35.58403543031366],[139.757931534107,35.58396413126288],[139.75798527100267,35.58396470569811],[139.7579842112013,35.584035914541815]]]}},{"type":"Feature","properties":{"height":2.8,"gml_id":"bldg_594223bf-f7cf-4003-8a4e-b02afd5cf8f7"},"geometry":{"type":"Polygon","coordinates":[[[139.75630540150397,35.59052708354807],[139.7562687654301,35.590525978466275],[139.75627023119947,35.590493439398934],[139.75630686725856,35.59049454448027],[139.75630540150397,35.59052708354807]]]}},{"type":"Feature","properties":{"height":3.1,"gml_id":"bldg_2ea31071-1e6a-41f3-ac55-071315c48c47"},"geometry":{"type":"Polygon","coordinates":[[[139.75594045702655,35.589388490330506],[139.75594209717903,35.58917486305586],[139.75601128614463,35.58917598912479],[139.75600931659577,35.589388083834066],[139.75594045702655,35.589388490330506]]]}},{"type":"Feature","properties":{"height":9.0,"gml_id":"bldg_8ef006ce-224c-4888-bdad-48989c0e6ad5"},"geometry":{"type":"Polygon","coordinates":[[[139.75593794088755,35.58913637123178],[139.7559367030777,35.58893193623128],[139.7560104174203,35.58893180326695],[139.7560125387442,35.58913569800238],[139.75593794088755,35.58913637123178]]]}},{"type":"Feature","properties":{"height":3.0,"gml_id":"bldg_e3c20e1e-a35d-4e55-b709-d5158c2e13b8"},"geometry":{"type":"Polygon","coordinates":[[[139.75595459565218,35.58891554250524],[139.75595484098457,35.58888994331721],[139.75600063687344,35.5888895220165],[139.7560007222605,35.588915481970986],[139.75595459565218,35.58891554250524]]]}},{"type":"Feature","properties":{"height":3.1,"gml_id":"bldg_97350e92-e9a3-46e7-b80f-81f400a4a558"},"geometry":{"type":"Polygon","coordinates":[[[139.7559411903129,35.58885586218427],[139.75593966325894,35.588607980209986],[139.75600929599725,35.58860613199284],[139.75601016003645,35.58885518534214],[139.7559411903129,35.58885586218427]]]}},{"type":"Feature","properties":{"height":10.8,"gml_id":"bldg_fd8892b3-a969-460c-8a7b-f0c45738b280"},"geometry":{"type":"Polygon","coordinates":[[[139.75588536160447,35.587471839001246],[139.75588524261912,35.587251630413746],[139.7560286947339,35.58725235347479],[139.75602660922053,35.58747039732295],[139.75588536160447,35.587471839001246]]]}},{"type":"Feature","properties":{"height":7.1,"gml_id":"bldg_8625ef78-2ed6-470b-9deb-a5fa00bd82cc"},"geometry":{"type":"Polygon","coordinates":[[[139.75476247988888,35.58405675272176],[139.75472688647895,35.58400796452545],[139.75480173318965,35.58397358036276],[139.75483545140082,35.58402173634577],[139.75476247988888,35.58405675272176]]]}},{"type":"Feature","properties":{"height":11.4,"gml_id":"bldg_e12cb74e-e5dc-4037-aec4-01bad8b5e48d"},"geometry":{"type":"Polygon","coordinates":[[[139.75136688793063,35.5890159889424],[139.75133974506977,35.58901263535475],[139.7513140500078,35.58899630279706],[139.75131131036457,35.58897755211719],[139.75131254251596,35.58895961538696],[139.75133209855727,35.58893610253541],[139.7513670844577,35.58893143912902],[139.75140668019117,35.58895120638947],[139.7514148251984,35.588971763511914],[139.7514087303881,35.588996817882425],[139.7513917205938,35.58901231014759],[139.75136688793063,35.5890159889424]]]}},{"type":"Feature","properties":{"height":6.4,"gml_id":"bldg_1902e16d-f292-4e6a-b825-9c4940ca78e9"},"geometry":{"type":"Polygon","coordinates":[[[139.75203653510084,35.584283356226216],[139.75189368230374,35.584240894646676],[139.75189434573736,35.584239543015805],[139.7519420131357,35.58413176943695],[139.7520849760177,35.58417432117269],[139.75203653510084,35.584283356226216]]]}},{"type":"Feature","properties":{"height":5.9,"gml_id":"bldg_41b1a947-a63b-4145-95b7-384510d9c3fe"},"geometry":{"type":"Polygon","coordinates":[[[139.75193848943505,35.584451668973294],[139.7518739559481,35.58443386807266],[139.7518937573308,35.58438475591337],[139.75191427571403,35.58439035836846],[139.7519365070064,35.58433890423934],[139.75195834905594,35.58434495827384],[139.75193644908248,35.584396142214864],[139.75196027688946,35.58440264828296],[139.75193848943505,35.584451668973294]]]}},{"type":"Feature","properties":{"height":4.4,"gml_id":"bldg_6b591b9f-9d56-4a64-9a4d-4dc7853e0cb8"},"geometry":{"type":"Polygon","coordinates":[[[139.75215363371302,35.58447885564557],[139.75211292581054,35.584469724223034],[139.7521188983345,35.58445593704091],[139.75204465577423,35.58443686774894],[139.75205903387882,35.58440388671524],[139.75207712661538,35.58440759459629],[139.75208243907812,35.584391823921536],[139.75206578082086,35.584388117008444],[139.7520965279134,35.58431746906783],[139.7522270314851,35.58435090823698],[139.7522200637074,35.58436685808152],[139.75220417804067,35.584362971430245],[139.75215363371302,35.58447885564557]]]}},{"type":"Feature","properties":{"height":3.5,"gml_id":"bldg_9efe5f54-f852-4c3b-9f9e-57aaa411b85a"},"geometry":{"type":"Polygon","coordinates":[[[139.76249175869938,35.58892298732382],[139.76233561576552,35.58891938004508],[139.7623378783203,35.58885646467335],[139.76249391078164,35.588860071884206],[139.76249175869938,35.58892298732382]]]}},{"type":"Feature","properties":{"height":12.3,"gml_id":"bldg_207c12e7-9f1f-4bec-b6c3-1b74fa72a89c"},"geometry":{"type":"Polygon","coordinates":[[[139.75320513666793,35.58677457782635],[139.75316277550502,35.586762200673405],[139.75314176147327,35.586810320690816],[139.75295621089379,35.586756023817266],[139.75297246900197,35.58671898770532],[139.7529805220286,35.58672133667703],[139.75299589526796,35.58668637315894],[139.75298508436833,35.58668321110269],[139.75299780322806,35.58665428509901],[139.75322836236106,35.58672168192318],[139.75320513666793,35.58677457782635]]]}},{"type":"Feature","properties":{"height":1.5,"gml_id":"bldg_eccab2f3-2020-42dd-81ab-55a640784c1f"},"geometry":{"type":"Polygon","coordinates":[[[139.75637519248232,35.59093815975269],[139.75639891809834,35.590938535453716],[139.75639889541756,35.590962241867445],[139.75637516970826,35.590961956304845],[139.75637519248232,35.59093815975269]]]}},{"type":"Feature","properties":{"height":1.7,"gml_id":"bldg_9fa02ef6-5d23-4e22-9833-a47b94c51580"},"geometry":{"type":"Polygon","coordinates":[[[139.75639804130867,35.59093222519831],[139.75637586012311,35.59093239131432],[139.75637543863715,35.590911569049226],[139.75639783991983,35.59091203404336],[139.75639804130867,35.59093222519831]]]}},{"type":"Feature","properties":{"height":4.9,"gml_id":"bldg_406f2228-ba65-4292-9cb8-fdbfe1ecb33c"},"geometry":{"type":"Polygon","coordinates":[[[139.75641550589265,35.59113405646694],[139.75641518701573,35.59100479764228],[139.75650015930484,35.59100467156381],[139.75650022711227,35.59104920003057],[139.75652560840797,35.5910492162081],[139.75652568595845,35.59108355902931],[139.75653396247148,35.591083564303425],[139.75653402478798,35.59113386163058],[139.75641550589265,35.59113405646694]]]}},{"type":"Feature","properties":{"height":14.6,"gml_id":"bldg_4b347f28-402f-498a-8b38-8f77ce2a6a48"},"geometry":{"type":"Polygon","coordinates":[[[139.75322310193826,35.58890086813414],[139.75318823073022,35.58890129564434],[139.75318592330612,35.58878059860547],[139.75323855179892,35.588789286890034],[139.75323895845787,35.58882417077531],[139.7533009917973,35.58880771662932],[139.75333829703845,35.58880089086561],[139.75337890866163,35.58879821365658],[139.75342404151206,35.5887986942804],[139.75345957047935,35.588802593787776],[139.75349343873572,35.588811990635584],[139.75353370785956,35.58882085088066],[139.7535332992839,35.58878776976583],[139.7535810909965,35.58877770588193],[139.75358097389497,35.58889578729178],[139.75355084776223,35.58889621804657],[139.75322310193826,35.58890086813414]]]}},{"type":"Feature","properties":{"height":5.0,"gml_id":"bldg_ada7c8ee-e141-438c-abc4-17daf040f55d"},"geometry":{"type":"Polygon","coordinates":[[[139.7613511289708,35.5898371275245],[139.76133137583568,35.5898372960028],[139.76133108271247,35.58979493071835],[139.7613405732051,35.58979466597194],[139.76134036266933,35.589783308391276],[139.7613922294913,35.589782888668445],[139.76139200187836,35.5897893785068],[139.76142256947236,35.589789216471345],[139.76142307875296,35.58983671978084],[139.76138831793347,35.589836699036425],[139.7613511289708,35.5898371275245]]]}},{"type":"Feature","properties":{"height":14.2,"gml_id":"bldg_2a2c4ebd-3bf6-4117-9d3d-40fd81205c5c"},"geometry":{"type":"Polygon","coordinates":[[[139.75289680709022,35.58591012378248],[139.75293839569898,35.58592213996073],[139.75282293426744,35.58618157186802],[139.75257472789042,35.586107852740234],[139.7525664291701,35.586130471963244],[139.7524683594115,35.586102102694156],[139.75247333661096,35.586090568294985],[139.75257309999685,35.58586087193492],[139.75251884081868,35.58571994895946],[139.7526084295418,35.5855124198263],[139.75270233148987,35.58529470784356],[139.75285252908458,35.58494669297052],[139.75285772747858,35.58493452773068],[139.75320543561207,35.58503463294554],[139.75319891015792,35.585049771891626],[139.75326057545706,35.58506757017622],[139.7529378401206,35.58581559578392],[139.75290805510073,35.58580710288662],[139.75286724273246,35.58590163102248],[139.75289680709022,35.58591012378248]]]}},{"type":"Feature","properties":{"height":16.0,"gml_id":"bldg_7394263a-eb41-48ab-9257-a0bf9987ea18"},"geometry":{"type":"Polygon","coordinates":[[[139.7514111613135,35.58520207611147],[139.7513821724286,35.58517068817495],[139.75139931489562,35.58513248106525],[139.75145151337435,35.58512746877513],[139.75148149271888,35.585161471387046],[139.75146324701402,35.58519949748171],[139.7514111613135,35.58520207611147]]]}},{"type":"Feature","properties":{"height":14.1,"gml_id":"bldg_1298a11a-5dc0-4156-9f53-028f6d69eef3"},"geometry":{"type":"Polygon","coordinates":[[[139.75617875002652,35.58991703516713],[139.75617656738638,35.588626430222156],[139.7561758883334,35.58818402979271],[139.75617433211045,35.58727570254394],[139.7561706685893,35.58603350050394],[139.7567100442047,35.586032222101004],[139.75672565750736,35.58991377848481],[139.75617875002652,35.58991703516713]]]}},{"type":"Feature","properties":{"height":20.5,"gml_id":"bldg_b8e12198-108d-4c8b-9175-cbedc6f5a89a"},"geometry":{"type":"Polygon","coordinates":[[[139.76134088262765,35.58710691484311],[139.76133973609353,35.5870317385895],[139.76157819739026,35.58703260189594],[139.76157879433708,35.58710561449452],[139.76134088262765,35.58710691484311]]]}},{"type":"Feature","properties":{"height":2.8,"gml_id":"bldg_b7db8260-0fda-40d2-8d08-2760d55afd36"},"geometry":{"type":"Polygon","coordinates":[[[139.7513744268187,35.58508342874951],[139.75134333536724,35.58505798852063],[139.75135518456764,35.58501653282634],[139.7514013155509,35.58500998407487],[139.75143030704734,35.585038757990105],[139.75141791065437,35.585075796528656],[139.7513744268187,35.58508342874951]]]}},{"type":"Feature","properties":{"height":9.6,"gml_id":"bldg_b182e729-66cd-4cc7-ac2f-f0554996c131"},"geometry":{"type":"Polygon","coordinates":[[[139.75881588495892,35.584142344441524],[139.7587641327564,35.58402423085076],[139.75892748856452,35.58397358375931],[139.75893916407696,35.583996215758674],[139.75894942913354,35.58399288696501],[139.75904302888534,35.58396238769927],[139.7590457883114,35.5839614880138],[139.75909281207373,35.58406229195873],[139.75881588495892,35.584142344441524]]]}},{"type":"Feature","properties":{"height":8.2,"gml_id":"bldg_35b366d9-7027-4066-87b8-5bb294aebc88"},"geometry":{"type":"Polygon","coordinates":[[[139.75105922760815,35.59020488676417],[139.75104710099265,35.59008517453308],[139.7510815339894,35.590082133326675],[139.75109619765203,35.5902029289477],[139.75105922760815,35.59020488676417]]]}},{"type":"Feature","properties":{"height":2.1,"gml_id":"bldg_4cdc4258-ce3d-4a06-a1c1-a939f203f57d"},"geometry":{"type":"Polygon","coordinates":[[[139.7511715650175,35.59161022272277],[139.7511593319102,35.59148636408716],[139.75119243950493,35.59148503457796],[139.7512026856427,35.59160952282577],[139.7511715650175,35.59161022272277]]]}},{"type":"Feature","properties":{"height":7.7,"gml_id":"bldg_41bc70b5-21ed-450c-b6f4-849f258ea462"},"geometry":{"type":"Polygon","coordinates":[[[139.75302211469585,35.588939764365705],[139.75302071560606,35.588904248849374],[139.75301996160655,35.58888576994652],[139.7530198545868,35.58888243474928],[139.7529692034477,35.58888267140311],[139.75296870294906,35.5888313822406],[139.75308821441854,35.58882947881999],[139.75308825480286,35.588789006642415],[139.753143651487,35.58878823226465],[139.7531479145093,35.58893966784675],[139.75302211469585,35.588939764365705]]]}},{"type":"Feature","properties":{"height":3.4,"gml_id":"bldg_e8fa8691-f8e3-48c7-9844-ebcae609617f"},"geometry":{"type":"Polygon","coordinates":[[[139.75124777880885,35.58992071843426],[139.7512460386656,35.58989574887845],[139.7514004291872,35.589887741463315],[139.75140272178047,35.58991208042283],[139.75124777880885,35.58992071843426]]]}},{"type":"Feature","properties":{"height":3.2,"gml_id":"bldg_527edce6-107d-4b09-91e9-0e504b5c2e4a"},"geometry":{"type":"Polygon","coordinates":[[[139.75220251005211,35.58579779646662],[139.75216654763818,35.585787406317664],[139.75220105649538,35.585707296348716],[139.752237018878,35.58571768648746],[139.75220251005211,35.58579779646662]]]}},{"type":"Feature","properties":{"height":7.6,"gml_id":"bldg_9709c89a-7c3b-43f9-85b3-1f37ee6228ab"},"geometry":{"type":"Polygon","coordinates":[[[139.75363202258023,35.588939808666275],[139.75363316626007,35.58878792598335],[139.75367807947708,35.58878732470433],[139.75367847677356,35.58883185340586],[139.7538005235242,35.58883274524919],[139.7538004780605,35.58887871587449],[139.75375093096534,35.588878412754156],[139.75375103632058,35.588883460581926],[139.75375134953208,35.588901488496575],[139.75375197399308,35.58893952737226],[139.75363202258023,35.588939808666275]]]}},{"type":"Feature","properties":{"height":4.4,"gml_id":"bldg_54da008e-6e1e-4b37-87de-15d8d8f33e48"},"geometry":{"type":"Polygon","coordinates":[[[139.75624233073458,35.59116450277802],[139.75624212705114,35.59114674536183],[139.75627721975277,35.59114649738747],[139.75627742344395,35.591164254803594],[139.75624233073458,35.59116450277802]]]}},{"type":"Feature","properties":{"height":2.9,"gml_id":"bldg_5507206b-498a-40a0-97d1-10b4158fff43"},"geometry":{"type":"Polygon","coordinates":[[[139.75747210290893,35.5871970241234],[139.75744694360986,35.58719691814713],[139.75744721499714,35.587143195731706],[139.75747237427942,35.587143301707904],[139.75747210290893,35.5871970241234]]]}},{"type":"Feature","properties":{"height":6.1,"gml_id":"bldg_8a877d3b-6968-4efb-a65b-a827c8daf2e3"},"geometry":{"type":"Polygon","coordinates":[[[139.75043156046357,35.58815443602484],[139.75036488241525,35.58818053032314],[139.7503044070908,35.588077280041084],[139.750371085073,35.588051185775704],[139.75043156046357,35.58815443602484]]]}},{"type":"Feature","properties":{"height":20.8,"gml_id":"bldg_1868b3cd-1530-4e6b-bb29-90686e9fd30b"},"geometry":{"type":"Polygon","coordinates":[[[139.75410802408013,35.58753549347638],[139.75415152593516,35.587510643819996],[139.75432292061632,35.58771167514267],[139.75427941879386,35.58773643472152],[139.75410802408013,35.58753549347638]]]}},{"type":"Feature","properties":{"height":8.2,"gml_id":"bldg_37e4ca50-f392-4d6f-b957-f2173e225b06"},"geometry":{"type":"Polygon","coordinates":[[[139.75293717047654,35.58615433612925],[139.75291025362506,35.58614656625459],[139.7529321529173,35.58609592298246],[139.75295906975398,35.586103692852284],[139.75293717047654,35.58615433612925]]]}},{"type":"Feature","properties":{"height":40.2,"gml_id":"bldg_d7cde350-1db5-4581-babf-a850ec857686"},"geometry":{"type":"Polygon","coordinates":[[[139.76146673080692,35.589519187766456],[139.7608420305561,35.58952007559869],[139.76083829259665,35.5877907653146],[139.76146297941438,35.58778987748574],[139.76146673080692,35.589519187766456]]]}},{"type":"Feature","properties":{"height":37.2,"gml_id":"bldg_bc8e8e80-2f13-4c16-8497-6245087ed61b"},"geometry":{"type":"Polygon","coordinates":[[[139.75611973037593,35.59058717727172],[139.7563404370613,35.590586236800696],[139.75633757405367,35.591040803489086],[139.7561181934779,35.59103849981729],[139.75611925062233,35.590742034932006],[139.75611973037593,35.59058717727172]]]}},{"type":"Feature","properties":{"height":8.9,"gml_id":"bldg_a210fa6d-7f61-4e64-bf8e-22dcad7ec2a6"},"geometry":{"type":"Polygon","coordinates":[[[139.76248453602338,35.58735123706997],[139.7624718429249,35.587605149949454],[139.76239460102732,35.58760258063325],[139.76240729436924,35.58734866776208],[139.76248453602338,35.58735123706997]]]}},{"type":"Feature","properties":{"height":26.3,"gml_id":"bldg_545faba6-3f6d-4325-9423-2987af18fe56"},"geometry":{"type":"Polygon","coordinates":[[[139.76134088262765,35.58710691484311],[139.76157879433708,35.58710561449452],[139.7615757646845,35.58740928952993],[139.76133884779512,35.58740770603206],[139.76134037095585,35.587185425232455],[139.76134088262765,35.58710691484311]]]}},{"type":"Feature","properties":{"height":3.0,"gml_id":"bldg_297555ed-cb30-4a2f-8fd0-a1ba4717c458"},"geometry":{"type":"Polygon","coordinates":[[[139.7617735697417,35.58783738503075],[139.76177305304617,35.58779799417294],[139.76180935827173,35.58779756502956],[139.7618099853341,35.587836955952746],[139.7617735697417,35.58783738503075]]]}},{"type":"Feature","properties":{"height":4.6,"gml_id":"bldg_98817776-b270-4d98-9da3-c86646af2e4b"},"geometry":{"type":"Polygon","coordinates":[[[139.75601594705336,35.589837428659855],[139.75601601502623,35.58988150644283],[139.75594340341843,35.589881549979566],[139.7559433355721,35.589837382058136],[139.75601594705336,35.589837428659855]]]}},{"type":"Feature","properties":{"height":3.9,"gml_id":"bldg_2195f583-bfcc-404a-b842-9083f41c216b"},"geometry":{"type":"Polygon","coordinates":[[[139.75672221095138,35.59086735168516],[139.75668126982438,35.590867415792815],[139.75668123353591,35.590789716372164],[139.75672217453746,35.59078974240293],[139.75672221095138,35.59086735168516]]]}},{"type":"Feature","properties":{"height":11.4,"gml_id":"bldg_89127cd3-2a05-4091-b07c-f1b392d8dd3b"},"geometry":{"type":"Polygon","coordinates":[[[139.75689837725878,35.59070656628935],[139.75689384842974,35.5904789636644],[139.75697164809498,35.59047793131879],[139.7569761771442,35.59070553394113],[139.75689837725878,35.59070656628935]]]}},{"type":"Feature","properties":{"height":24.8,"gml_id":"bldg_f30d61e7-cfc7-49cb-8fde-57926d87957d"},"geometry":{"type":"Polygon","coordinates":[[[139.7571656538179,35.587209720671986],[139.7571657780273,35.58707856913433],[139.75741328862088,35.587078725290446],[139.7574131648151,35.58720987682886],[139.7571656538179,35.587209720671986]]]}},{"type":"Feature","properties":{"height":19.6,"gml_id":"bldg_68819bcb-5b76-4f09-b174-cd4855ec11f0"},"geometry":{"type":"Polygon","coordinates":[[[139.75611895842536,35.59035678272713],[139.75610174343404,35.59035677169723],[139.75610158943596,35.59005751170821],[139.75615599310663,35.59005745641847],[139.75615597044145,35.590081072697075],[139.75618753123715,35.59008100276388],[139.7561877081246,35.59035673661305],[139.7561761211112,35.59035672919596],[139.75611895842536,35.59035678272713]]]}},{"type":"Feature","properties":{"height":26.7,"gml_id":"bldg_7bbc7abe-8e3b-4fc5-85ae-99f9ff4b2d26"},"geometry":{"type":"Polygon","coordinates":[[[139.76179154419637,35.5871070930397],[139.76182453834747,35.587107022480474],[139.76182559403927,35.587408987313545],[139.76160357234005,35.587409486359086],[139.76160240713384,35.587107521459394],[139.76164577400317,35.58710745712172],[139.76179154419637,35.5871070930397]]]}},{"type":"Feature","properties":{"height":24.8,"gml_id":"bldg_febc37f1-e589-4743-a1bb-1ae69ecd9c7b"},"geometry":{"type":"Polygon","coordinates":[[[139.7558786343816,35.58792595273672],[139.75588344462014,35.58751447330915],[139.75602899027496,35.58751889339635],[139.7560293723908,35.58792496784691],[139.7558786343816,35.58792595273672]]]}},{"type":"Feature","properties":{"height":20.2,"gml_id":"bldg_f3b4978f-16ef-49e1-9ec7-da45fea36944"},"geometry":{"type":"Polygon","coordinates":[[[139.7558661609788,35.58850283144608],[139.7558643580081,35.58796884951373],[139.75602922027943,35.587968414532845],[139.7560276056621,35.58850014080784],[139.7558661609788,35.58850283144608]]]}},{"type":"Feature","properties":{"height":2.4,"gml_id":"bldg_00ae9955-a44f-4125-8d61-2e68a4f8df98"},"geometry":{"type":"Polygon","coordinates":[[[139.7620271361719,35.58773081125215],[139.76199337076173,35.58772925891607],[139.7619953823883,35.587700686182416],[139.76202914770658,35.58770232865644],[139.7620271361719,35.58773081125215]]]}},{"type":"Feature","properties":{"height":12.3,"gml_id":"bldg_10c044ff-5fa4-419a-9f91-ba7bf1b28b4f"},"geometry":{"type":"Polygon","coordinates":[[[139.75397856053345,35.58577094574414],[139.75385842789146,35.585736073098616],[139.7533099449806,35.58557670573317],[139.75342850636247,35.5853044757066],[139.75398173118887,35.58546519773948],[139.75399268031924,35.58543996614174],[139.75343813185603,35.585278882726804],[139.7535572453408,35.585005390985195],[139.75412591228448,35.585170629512405],[139.75413429613744,35.58517306876355],[139.7541381667465,35.5851644180016],[139.7542310510491,35.58519143043427],[139.75397856053345,35.58577094574414]]]}},{"type":"Feature","properties":{"height":52.1,"gml_id":"bldg_6ab46e0b-1397-4d85-8a3e-14b87fb9399a"},"geometry":{"type":"Polygon","coordinates":[[[139.75433560080404,35.586598382029415],[139.75431447194404,35.58665182035362],[139.7544017342835,35.58667477272762],[139.75436025078636,35.58677984712956],[139.75448094003644,35.586811564784156],[139.75433229528653,35.5871550756703],[139.7531846760134,35.58682107572478],[139.75320513666793,35.58677457782635],[139.75322836236106,35.58672168192318],[139.75337424051366,35.58639006883299],[139.7533487576043,35.58638275070063],[139.75322432213704,35.586346522492185],[139.7531291201839,35.58631887677603],[139.7531075849697,35.586225839431634],[139.75312760529818,35.586178169447095],[139.75304056590593,35.58615386421915],[139.75324119482121,35.58569212760029],[139.7542623783789,35.585988095839646],[139.75406673166293,35.586438209539104],[139.75409188361405,35.5864455273021],[139.75421808482722,35.58648211632794],[139.7543130667436,35.58650967090076],[139.75433560080404,35.586598382029415]]]}},{"type":"Feature","properties":{"height":7.7,"gml_id":"bldg_665896e0-6f13-45f1-9dbf-58696be3087a"},"geometry":{"type":"Polygon","coordinates":[[[139.76051152271265,35.58416366198336],[139.7605111011675,35.58414175804528],[139.76049432863584,35.5841420183267],[139.76049211034757,35.584032768983796],[139.76057266233107,35.58403173597221],[139.76057488154413,35.584140083928126],[139.7605542468918,35.584140432025144],[139.76055466771464,35.584163147210205],[139.76051152271265,35.58416366198336]]]}},{"type":"Feature","properties":{"height":2.9,"gml_id":"bldg_c0375ccb-1401-43e4-93dc-a9dde110b951"},"geometry":{"type":"Polygon","coordinates":[[[139.757498849886,35.59136450602924],[139.75747446167523,35.591364490681656],[139.7574743756412,35.59133871101509],[139.75746753370194,35.59133870670854],[139.75746754934968,35.591322121233425],[139.75747450164138,35.59132212560942],[139.7574744157774,35.59129616566576],[139.75746845667217,35.591296161914926],[139.75746847300002,35.591278855332064],[139.7574748735191,35.59127885936072],[139.7574748129101,35.5912261282963],[139.75746741921185,35.59122612364247],[139.75746743545486,35.59120890719787],[139.7574738360534,35.59120882108812],[139.7574737746797,35.59115690126917],[139.75746649134146,35.59115689668475],[139.75746650869016,35.59113850844003],[139.757473460966,35.591138512816066],[139.7574733745072,35.59111318384082],[139.75746697400135,35.59111317981209],[139.75746699058453,35.59109560281333],[139.75747438435582,35.591095517328704],[139.75747429781174,35.591070278491735],[139.75746701448134,35.59107027390736],[139.75746703114953,35.59105260677002],[139.75747299023672,35.5910526105209],[139.75747292996897,35.59099951890065],[139.75746564664496,35.5909995143162],[139.75746555219465,35.59098265835532],[139.7574730562239,35.59098266307869],[139.75747297044558,35.59095661299511],[139.7574656871255,35.59095660841066],[139.75746559199487,35.59094047355731],[139.7574725443386,35.59094038779492],[139.75747248466635,35.590886665204486],[139.75746464958638,35.5908866602727],[139.7574646659148,35.59086935368865],[139.75747261134632,35.5908693586899],[139.75747252973494,35.590838891821335],[139.75749824210936,35.59083881786387],[139.757498849886,35.59136450602924]]]}},{"type":"Feature","properties":{"height":3.8,"gml_id":"bldg_ccde2acd-da04-4516-9871-8ed218479f1b"},"geometry":{"type":"Polygon","coordinates":[[[139.75750000946022,35.59083701620562],[139.75746988278948,35.59083726766204],[139.75746847867023,35.59068799739939],[139.75749860520008,35.5906878360817],[139.75750000946022,35.59083701620562]]]}},{"type":"Feature","properties":{"height":2.9,"gml_id":"bldg_5fb7fac2-b405-4a9c-bc80-22b96aae86c6"},"geometry":{"type":"Polygon","coordinates":[[[139.75747152427297,35.59061796168989],[139.7574959124273,35.59061779676087],[139.75749640264615,35.59068305735454],[139.75747212482497,35.5906832223531],[139.75747152427297,35.59061796168989]]]}},{"type":"Feature","properties":{"height":4.2,"gml_id":"bldg_e77f5321-dc87-4865-ae8a-e2dbfe9c0100"},"geometry":{"type":"Polygon","coordinates":[[[139.75272088364014,35.58979434696417],[139.75271971413738,35.58975008816603],[139.75279685130664,35.58974878765604],[139.75279802094207,35.58979295631503],[139.75272088364014,35.58979434696417]]]}},{"type":"Feature","properties":{"height":16.9,"gml_id":"bldg_75c566ba-2db7-4c51-b7f1-82e57261ed82"},"geometry":{"type":"Polygon","coordinates":[[[139.7501978604099,35.588988777673045],[139.75026550989932,35.58898440752769],[139.75027992453414,35.589131253133644],[139.7502122748288,35.58913571342528],[139.7501978604099,35.588988777673045]]]}},{"type":"Feature","properties":{"height":9.1,"gml_id":"bldg_b9ea61a6-2d87-4895-8cb5-2a4a494dded7"},"geometry":{"type":"Polygon","coordinates":[[[139.75394398086095,35.58469484843542],[139.75383017765688,35.584956265505035],[139.75357215476834,35.584881189863744],[139.75368606895924,35.58461986324688],[139.75394398086095,35.58469484843542]]]}},{"type":"Feature","properties":{"height":41.1,"gml_id":"bldg_c1d424c1-a2d1-4562-ad04-011a48fb3de4"},"geometry":{"type":"Polygon","coordinates":[[[139.76138948333787,35.589890872988505],[139.76151660878693,35.58989085866549],[139.76151853722388,35.590202829257166],[139.76136194665006,35.59020345696036],[139.76136608879617,35.590877244868516],[139.76127405379378,35.59087764057076],[139.76127588484593,35.59117410723268],[139.7610083864815,35.59117520894775],[139.7610076545554,35.59125281776511],[139.76100301961682,35.59125290512216],[139.76090314801144,35.5912544676383],[139.7609015641545,35.59117514479827],[139.7608101905249,35.591175991236106],[139.76080289219607,35.589969122215315],[139.7613513439216,35.58996683699646],[139.7613509666581,35.589895176640745],[139.76135085953362,35.58989157103559],[139.76138948333787,35.589890872988505]]]}},{"type":"Feature","properties":{"height":28.2,"gml_id":"bldg_81becb22-84af-4699-9345-052fbe3634a8"},"geometry":{"type":"Polygon","coordinates":[[[139.7574656677016,35.58618133861175],[139.75746504356593,35.58649204590455],[139.75735988276125,35.58649188952702],[139.7572916881866,35.58649184652341],[139.75721433487914,35.58649170755898],[139.7571962379371,35.58649169612893],[139.7570588557494,35.58649151913096],[139.75705980533687,35.58595564586467],[139.7574659904471,35.58595617263174],[139.75746571344666,35.58613284408299],[139.7574656677016,35.58618133861175]]]}},{"type":"Feature","properties":{"height":4.0,"gml_id":"bldg_29c74811-5b53-431f-a9ca-b5480e86cfa0"},"geometry":{"type":"Polygon","coordinates":[[[139.76138948333787,35.589890872988505],[139.76135085953362,35.58989157103559],[139.7613511289708,35.5898371275245],[139.76138831793347,35.589836699036425],[139.76138842231774,35.58984336934997],[139.761389059349,35.589871402813024],[139.76138948333787,35.589890872988505]]]}},{"type":"Feature","properties":{"height":9.5,"gml_id":"bldg_9f4cf9aa-1069-4581-9224-2d7a74dd8a44"},"geometry":{"type":"Polygon","coordinates":[[[139.7574656677016,35.58618133861175],[139.75746571344666,35.58613284408299],[139.75771873982328,35.58613156086452],[139.75771755821273,35.586097307461465],[139.7577317251205,35.586052066778954],[139.75776187913328,35.586020807599766],[139.7578009630642,35.58599820731338],[139.7578488612422,35.58598994456966],[139.75790115458756,35.586001605184975],[139.75794427718645,35.58602605972106],[139.75797193895576,35.58606366480928],[139.75797841402064,35.586101436924366],[139.75796922027877,35.586138748549885],[139.75793740822766,35.586173071455036],[139.75789876893433,35.586192156658534],[139.75789799194138,35.58619702365572],[139.7580267666632,35.58619710418086],[139.75802602445768,35.58675406999315],[139.75788226203167,35.58684979738906],[139.75774251109564,35.58690370283045],[139.7573707496164,35.586903288830754],[139.75737100299315,35.586751856188336],[139.75736570631003,35.5867518528501],[139.75733819382344,35.586789873984614],[139.75729536071077,35.58680913662532],[139.75724404138157,35.58681721671083],[139.75719858651027,35.58680835442726],[139.75715469282315,35.5867822766458],[139.75712945516347,35.58674854886589],[139.7571194512902,35.58670870129099],[139.75713162905785,35.58666697483052],[139.75716311316708,35.58662994777668],[139.75714833908208,35.58661677820722],[139.7571968055595,35.586591479892064],[139.7571962379371,35.58649169612893],[139.75721433487914,35.58649170755898],[139.7572174257547,35.58660708688917],[139.75726344606275,35.586601347073405],[139.7572936753586,35.58660758570968],[139.7572916881866,35.58649184652341],[139.75735988276125,35.58649188952702],[139.75736446404701,35.58666513875848],[139.75737118953714,35.58667118228177],[139.7573712428319,35.58661475556712],[139.75766509781317,35.586615030542376],[139.75766571200225,35.586196787920414],[139.757799010942,35.58619687152902],[139.75779901568265,35.58619182377137],[139.75772145179866,35.58618122892506],[139.7574656677016,35.58618133861175]]]}},{"type":"Feature","properties":{"height":16.0,"gml_id":"bldg_4fd2c9a1-d1cf-49e4-b48c-8ae8eacb8ab3"},"geometry":{"type":"Polygon","coordinates":[[[139.76255217776415,35.58772949823181],[139.76252075126624,35.58845536557301],[139.7623487200453,35.588450396897564],[139.76238025844273,35.58772452966735],[139.76255217776415,35.58772949823181]]]}},{"type":"Feature","properties":{"height":45.4,"gml_id":"bldg_17d80b2a-6007-49df-baea-6a6e2f7a3d48"},"geometry":{"type":"Polygon","coordinates":[[[139.7543551370971,35.5835593720408],[139.7543622986954,35.58357028350601],[139.75449520870737,35.583512411378216],[139.75451143568145,35.58350575173269],[139.7546343230636,35.583541436784564],[139.7546535136025,35.58355082372918],[139.75468075355693,35.58356598479512],[139.75470379792444,35.58358375713797],[139.75472264652822,35.58360432103727],[139.75473950561596,35.58362830890385],[139.7547521706114,35.5836533756972],[139.7547596495657,35.58367834897],[139.7547623786526,35.58370854718595],[139.75475992107224,35.58373928285249],[139.75475228254265,35.583764696962916],[139.75474100284904,35.583789928421446],[139.75472520056118,35.58381362457297],[139.75470487585227,35.583835605138624],[139.7546803601032,35.58385550977789],[139.75465320068028,35.583870725478484],[139.75461986297432,35.5838849456137],[139.75458619943234,35.583893847348506],[139.7545487878187,35.58389905094094],[139.7545129259578,35.58389920777276],[139.75447927529973,35.58389494924838],[139.75444496691534,35.58388627349201],[139.75441055217473,35.58387354141857],[139.75438243251526,35.583855224864585],[139.75435321598263,35.583830237327746],[139.7543315015877,35.58380651664165],[139.7543157473476,35.58378117736381],[139.7543052908427,35.58375457961672],[139.75430023975466,35.58372942763084],[139.7542999353834,35.58370229570749],[139.7543055903495,35.58367435644377],[139.7543551370971,35.5835593720408]]]}},{"type":"Feature","properties":{"height":46.5,"gml_id":"bldg_807bc5f2-425e-4644-a300-a7509d7e89dc"},"geometry":{"type":"Polygon","coordinates":[[[139.7535956246801,35.58324546000964],[139.75365476783634,35.58335745128944],[139.75366150107448,35.583355112135976],[139.75361283656403,35.58346973628618],[139.75360576245774,35.58348199045965],[139.7535899669561,35.583498565516905],[139.75356688513745,35.58351883143384],[139.7535418209754,35.583535220073415],[139.75351256447857,35.58355088482261],[139.75348132787795,35.5835604188268],[139.75344623212308,35.583567065829456],[139.75341180361625,35.5835684852244],[139.75337561230532,35.583567199281596],[139.75334030696817,35.58356266892562],[139.75331030312918,35.58355309431642],[139.75328471490727,35.58354162972123],[139.75326166637936,35.58352836403536],[139.75324148812632,35.583513748172976],[139.75321955220184,35.58349128907907],[139.7532035746347,35.58346901421947],[139.75319134658366,35.58344890517759],[139.75318254572835,35.58342221829407],[139.75317705130487,35.583399409569296],[139.75317652474135,35.58337417040518],[139.75317853516626,35.583349834314234],[139.75318749889615,35.58332379021287],[139.7532003230024,35.58329937117238],[139.75321424693735,35.58327855840639],[139.75323236272305,35.58325892022653],[139.75325411864358,35.583240456264406],[139.7532736617786,35.583227939977746],[139.75329530070135,35.583216146188526],[139.75332554482318,35.58320589046415],[139.75334728950378,35.5831986938056],[139.75337156874642,35.58319483395363],[139.75340014857403,35.583193771246094],[139.75343148481875,35.583194873686004],[139.75345410229212,35.58319768297401],[139.7535853724565,35.58323571825574],[139.75359087520593,35.58325023421471],[139.7535956246801,35.58324546000964]]]}},{"type":"Feature","properties":{"height":8.0,"gml_id":"bldg_e5c4308f-f42a-4d79-ad17-eaece40a4b43"},"geometry":{"type":"Polygon","coordinates":[[[139.75409294649307,35.585030712743325],[139.75417314500524,35.58505357050519],[139.75415920894275,35.585086642216964],[139.75407889961227,35.58506423506604],[139.75409294649307,35.585030712743325]]]}},{"type":"Feature","properties":{"height":7.0,"gml_id":"bldg_533ead27-ee40-499f-b20a-d58caace91bf"},"geometry":{"type":"Polygon","coordinates":[[[139.75427624350684,35.58501695176157],[139.75430577395315,35.584947474267466],[139.75434471532134,35.58495813614755],[139.75431606740062,35.58502788464542],[139.75427624350684,35.58501695176157]]]}},{"type":"Feature","properties":{"height":11.9,"gml_id":"bldg_66e57276-2120-49bd-aa3c-da01f6159e49"},"geometry":{"type":"Polygon","coordinates":[[[139.75289680709022,35.58591012378248],[139.75286724273246,35.58590163102248],[139.75290805510073,35.58580710288662],[139.7529378401206,35.58581559578392],[139.75289680709022,35.58591012378248]]]}},{"type":"Feature","properties":{"height":26.2,"gml_id":"bldg_c2f59cff-82dc-4fa4-abd9-dadad9c01f23"},"geometry":{"type":"Polygon","coordinates":[[[139.75636680500386,35.58598080469691],[139.75636686719653,35.5859158148167],[139.75670827995214,35.585915040818904],[139.75670837011768,35.585936223443866],[139.75670844611372,35.58597227892632],[139.75670843778374,35.58598102236377],[139.75636680500386,35.58598080469691]]]}},{"type":"Feature","properties":{"height":10.0,"gml_id":"bldg_4a8e4580-b824-420e-bffe-45641e16906b"},"geometry":{"type":"Polygon","coordinates":[[[139.7576568730863,35.58738138350366],[139.75765701243944,35.58711601565116],[139.7578401902285,35.58711613052166],[139.75783994113132,35.587381498305994],[139.7576568730863,35.58738138350366]]]}},{"type":"Feature","properties":{"height":9.3,"gml_id":"bldg_7cdcb527-276d-49bc-ae2a-7528bdfcc8a7"},"geometry":{"type":"Polygon","coordinates":[[[139.76116094036843,35.58706732653606],[139.761160113264,35.587251208724055],[139.76054006778585,35.58724930349326],[139.7605408963079,35.58706542131111],[139.76116094036843,35.58706732653606]]]}},{"type":"Feature","properties":{"height":8.9,"gml_id":"bldg_9316cfd6-7e34-4e4b-9f40-3e399dbbea02"},"geometry":{"type":"Polygon","coordinates":[[[139.75829825610427,35.58745939380077],[139.7581617537833,35.58746057068512],[139.7581571140042,35.58711191181668],[139.75829361573346,35.5871107349368],[139.75829825610427,35.58745939380077]]]}},{"type":"Feature","properties":{"height":7.2,"gml_id":"bldg_e2f2a692-0ae1-4deb-a090-26d46d9b6f4a"},"geometry":{"type":"Polygon","coordinates":[[[139.75757515652487,35.587326527921824],[139.75757610494543,35.587256851406515],[139.75763878224726,35.5872574316162],[139.75763783396582,35.58732701799356],[139.75757515652487,35.587326527921824]]]}},{"type":"Feature","properties":{"height":7.6,"gml_id":"bldg_130e13a7-b627-4238-97f3-20d44827ba3c"},"geometry":{"type":"Polygon","coordinates":[[[139.7602383107462,35.58404226017377],[139.76023749713164,35.5839661826877],[139.76030646246676,35.58396568365867],[139.76030585834573,35.5839018651511],[139.76048218874325,35.58390061977416],[139.76048249030214,35.58393315999768],[139.76064160698516,35.58393208425971],[139.76064251918774,35.584021592457084],[139.76038475420933,35.5840234197816],[139.76038495871052,35.58404126735145],[139.76035604845728,35.58404143012863],[139.76025177277836,35.58404217819805],[139.7602383107462,35.58404226017377]]]}},{"type":"Feature","properties":{"height":11.4,"gml_id":"bldg_5e5771c6-4d2b-4079-86ad-216e4c072146"},"geometry":{"type":"Polygon","coordinates":[[[139.76047882904055,35.58419879628653],[139.76044815469595,35.58419733552443],[139.76045106006933,35.58415713545918],[139.76048173439867,35.58415859622053],[139.76047882904055,35.58419879628653]]]}},{"type":"Feature","properties":{"height":2.4,"gml_id":"bldg_13951fb0-ba43-41a9-8752-4a8616d6a59a"},"geometry":{"type":"Polygon","coordinates":[[[139.76209954336372,35.586339745474504],[139.76209999744546,35.58632541370813],[139.76213961129739,35.58632624836029],[139.7621391572227,35.58634058012682],[139.76209954336372,35.586339745474504]]]}},{"type":"Feature","properties":{"height":2.9,"gml_id":"bldg_1c8c32d5-adeb-40dd-8bb6-48218320b5c6"},"geometry":{"type":"Polygon","coordinates":[[[139.7621471018087,35.58634103551208],[139.7621472247612,35.58632679368854],[139.76219003899612,35.5863272696599],[139.76218991605117,35.58634151148348],[139.7621471018087,35.58634103551208]]]}},{"type":"Feature","properties":{"height":2.7,"gml_id":"bldg_453af304-c8f8-4706-89fb-bdaa348b79db"},"geometry":{"type":"Polygon","coordinates":[[[139.76218767131581,35.58638423584678],[139.76216758886645,35.58638341274392],[139.76216971640636,35.586348440229955],[139.76218979884703,35.58634926333246],[139.76218767131581,35.58638423584678]]]}},{"type":"Feature","properties":{"height":2.6,"gml_id":"bldg_7dff6853-3ded-4cb7-8aec-56f9513da9c3"},"geometry":{"type":"Polygon","coordinates":[[[139.76215846733785,35.58646597429895],[139.76216080098095,35.586447497267784],[139.7621835308212,35.58644940359752],[139.76218119710353,35.58646797076768],[139.76215846733785,35.58646597429895]]]}},{"type":"Feature","properties":{"height":8.7,"gml_id":"bldg_3ea36e45-d5bf-4403-9667-e0018a6ebce2"},"geometry":{"type":"Polygon","coordinates":[[[139.76181293143364,35.58539266985933],[139.7617313853914,35.58539325241526],[139.7617311784219,35.5853778385922],[139.76171727478462,35.58537792047063],[139.7617151328997,35.585180966359694],[139.7616807048876,35.58518121631428],[139.76168060578436,35.585168596851325],[139.76166306070454,35.585168766697365],[139.7616626511302,35.58513307156797],[139.7616821823383,35.585132993041256],[139.76168207689116,35.58512749452392],[139.76170558061068,35.585127328216196],[139.76170568292872,35.5851363421371],[139.7617614077363,35.58513592454591],[139.76176130364738,35.58512889367322],[139.76181559371955,35.58512874562083],[139.7618158998291,35.58515677890733],[139.76181027245477,35.585156505152455],[139.76181293143364,35.58539266985933]]]}},{"type":"Feature","properties":{"height":8.7,"gml_id":"bldg_e6e6eec0-d692-429d-8c62-b8b10eb80fd9"},"geometry":{"type":"Polygon","coordinates":[[[139.7587978785059,35.58606949656446],[139.7589364739599,35.586069492051585],[139.75893657550404,35.58619830015098],[139.7587979798281,35.58619830466373],[139.7587978785059,35.58606949656446]]]}},{"type":"Feature","properties":{"height":8.7,"gml_id":"bldg_f3b3d4e0-02ce-4c60-8b71-d4a953159350"},"geometry":{"type":"Polygon","coordinates":[[[139.75617433211045,35.58727570254394],[139.7561758883334,35.58818402979271],[139.75611475530133,35.58818335967275],[139.75611088003157,35.587277554817575],[139.75617433211045,35.58727570254394]]]}},{"type":"Feature","properties":{"height":8.1,"gml_id":"bldg_9ce2cb9e-3225-4266-b2a7-1b44f8bc259d"},"geometry":{"type":"Polygon","coordinates":[[[139.75285252908458,35.58494669297052],[139.75270233148987,35.58529470784356],[139.75256157147956,35.58525387095597],[139.7527180576463,35.58490748295713],[139.75285252908458,35.58494669297052]]]}},{"type":"Feature","properties":{"height":22.5,"gml_id":"bldg_4219276a-b44d-44d3-a452-481a5c7621c8"},"geometry":{"type":"Polygon","coordinates":[[[139.76118658831103,35.58590761891663],[139.76116076724963,35.585907603458246],[139.76116092798787,35.58585144721329],[139.7611867489504,35.58585155281016],[139.76118658831103,35.58590761891663]]]}},{"type":"Feature","properties":{"height":16.6,"gml_id":"bldg_467cbb02-8fc0-49ea-b9b9-fde34acc8cae"},"geometry":{"type":"Polygon","coordinates":[[[139.7612019766644,35.585851652062544],[139.76123044577756,35.585851939511954],[139.76122880460363,35.585959383728344],[139.76120033545243,35.585959096278515],[139.7612019766644,35.585851652062544]]]}},{"type":"Feature","properties":{"height":13.3,"gml_id":"bldg_18c72bdf-4cf1-47c8-acd4-a7aedb7114a6"},"geometry":{"type":"Polygon","coordinates":[[[139.75719961740438,35.59131438064836],[139.75719750966553,35.5910929090052],[139.75726162523202,35.59109276921295],[139.7572658299554,35.59131415204008],[139.75719961740438,35.59131438064836]]]}},{"type":"Feature","properties":{"height":2.1,"gml_id":"bldg_e0870247-bb8a-437c-8714-b9e360c5d46e"},"geometry":{"type":"Polygon","coordinates":[[[139.7529091563218,35.58426438154364],[139.752919001282,35.58424005068786],[139.75298783745671,35.58425866514522],[139.75297799251504,35.58428299600658],[139.7529091563218,35.58426438154364]]]}},{"type":"Feature","properties":{"height":7.9,"gml_id":"bldg_81853907-4c7b-4910-91ea-f002b9de8586"},"geometry":{"type":"Polygon","coordinates":[[[139.75281924942288,35.58887031248444],[139.7528181738944,35.58884236881885],[139.75286286707785,35.58884113672685],[139.75286405297228,35.58886908046574],[139.75281924942288,35.58887031248444]]]}},{"type":"Feature","properties":{"height":3.1,"gml_id":"bldg_c5c71c9a-d93c-4c0b-9091-407ba9f5097b"},"geometry":{"type":"Polygon","coordinates":[[[139.75134537147497,35.58847288960619],[139.75136875867395,35.58847975604203],[139.75134099697348,35.5885423834473],[139.75131760975867,35.588535517006115],[139.75134537147497,35.58847288960619]]]}},{"type":"Feature","properties":{"height":49.2,"gml_id":"bldg_a5b44c36-c820-41bf-a35d-973552fd00dd"},"geometry":{"type":"Polygon","coordinates":[[[139.75322432213704,35.586346522492185],[139.7533487576043,35.58638275070063],[139.75334918240867,35.58639942661917],[139.7533479515586,35.58641655213185],[139.75334396041634,35.58643529830704],[139.7533025961449,35.586530186768584],[139.75329386507698,35.586543882034285],[139.75327950306448,35.58656081854819],[139.7532596220648,35.58657937388832],[139.75324029746042,35.586593242389014],[139.75321722373306,35.58660440423745],[139.75319083948844,35.58661565401885],[139.7531693166307,35.58662077760486],[139.75313830470438,35.586625083626735],[139.7531069661384,35.586624972633125],[139.7530777266013,35.58662242928759],[139.75305058672544,35.58661682262202],[139.7530260976201,35.58660878397503],[139.7530012824295,35.586595787484214],[139.75298242519173,35.58658360620735],[139.7529632398002,35.58656854027437],[139.75294670590392,35.58655032125663],[139.75293282521503,35.58652723652341],[139.7529232451015,35.586507129230576],[139.7529169776616,35.58648477068274],[139.75291435267278,35.58646142304048],[139.75291591907356,35.58643988096609],[139.75292134852305,35.58641744008312],[139.75296127714398,35.586324083149385],[139.75296735865678,35.586311648080795],[139.75297774504895,35.586297863803225],[139.7529985092693,35.58627885840451],[139.75302070627902,35.58626156658983],[139.7530437827247,35.58624761048422],[139.75306784832583,35.58623762113034],[139.7531075849697,35.586225839431634],[139.7531291201839,35.58631887677603],[139.75306783732034,35.58635921806422],[139.75303123217964,35.58643959729216],[139.7530274458162,35.58647420798239],[139.7530439655876,35.5865065787361],[139.75308499037897,35.586531033610434],[139.75313607854955,35.58653368163206],[139.7531773629761,35.58651910664505],[139.75319956791716,35.58649388260885],[139.75323728266918,35.58640719436744],[139.75322432213704,35.586346522492185]]]}},{"type":"Feature","properties":{"height":48.4,"gml_id":"bldg_c76ef931-a538-4b59-b7f6-ec6d6546bd24"},"geometry":{"type":"Polygon","coordinates":[[[139.75433560080404,35.586598382029415],[139.7543130667436,35.58650967090076],[139.75437512391807,35.58646689574582],[139.75440962927735,35.58638840764446],[139.75441176408242,35.58634946917682],[139.7543913811178,35.586317636910756],[139.75435090485058,35.58629615741255],[139.75430555438732,35.58629396436081],[139.75426548223564,35.58631043344039],[139.75423952180407,35.58633980158424],[139.75420446341144,35.58641946107586],[139.75421808482722,35.58648211632794],[139.75409188361405,35.5864455273021],[139.75409024350503,35.586430202665845],[139.7540906975047,35.58641740328646],[139.75409357931758,35.58640442522602],[139.75413627314552,35.58630304738637],[139.75414688295896,35.58628628858163],[139.7541568270484,35.586273225020314],[139.75417505123173,35.58625602052167],[139.75418719932279,35.58624593297834],[139.75420519659198,35.58623503802661],[139.75422517965598,35.58622459506841],[139.75424438807107,35.586216405063084],[139.75426392459838,35.58621118984306],[139.75428379198638,35.58620615511401],[139.75430365706904,35.58620346398323],[139.75432616852555,35.586202757632634],[139.75435121530256,35.58620475709662],[139.75437736413315,35.586208199494564],[139.75440019946524,35.58621479456728],[139.7544188404718,35.58622255869118],[139.75443990628307,35.586233208833896],[139.7544571087222,35.58624511838489],[139.75447375686898,35.58625964158955],[139.7544868757766,35.586272269573115],[139.75449822701717,35.58628705972497],[139.75450792190935,35.58630302059404],[139.75451662120932,35.586321504691455],[139.7545210171573,35.5863398056973],[139.75452397727113,35.586359457842775],[139.7545245130194,35.586375773275606],[139.75452317233785,35.58639262831298],[139.75451874255558,35.58640885036034],[139.7544823536148,35.58649526945519],[139.75447594013156,35.58650887618428],[139.75446798319894,35.586521039685906],[139.75445881253248,35.586533112254145],[139.7544468822973,35.58654608440135],[139.75443307748068,35.58655770324164],[139.75441607303043,35.58656886929255],[139.75439597920433,35.586579672763506],[139.75437754252968,35.58658849426803],[139.75435359034256,35.58659541924566],[139.75433560080404,35.586598382029415]]]}},{"type":"Feature","properties":{"height":2.8,"gml_id":"bldg_3a48cb63-dbca-4889-8b24-9739b01ce7ac"},"geometry":{"type":"Polygon","coordinates":[[[139.75117007084452,35.58832034595391],[139.75119595325128,35.588261052431314],[139.75126920369135,35.588282375024264],[139.75124332133169,35.58834166856243],[139.75117007084452,35.58832034595391]]]}},{"type":"Feature","properties":{"height":6.7,"gml_id":"bldg_52d9d863-397e-41f9-8de8-7bd112eb867d"},"geometry":{"type":"Polygon","coordinates":[[[139.7508012885795,35.587561127392924],[139.7508758626464,35.58758227085612],[139.75083427121555,35.587680042728586],[139.750759697069,35.587658899239884],[139.7508012885795,35.587561127392924]]]}},{"type":"Feature","properties":{"height":5.3,"gml_id":"bldg_30726d65-c109-447d-8235-f7ee2d881d34"},"geometry":{"type":"Polygon","coordinates":[[[139.76063420333267,35.58382175012478],[139.760634199748,35.58382571622189],[139.76055055900437,35.58382602630076],[139.7605505658557,35.583818454660836],[139.76056204158476,35.58381846158966],[139.76056185490438,35.58378087367234],[139.76054993780673,35.58378086647699],[139.76054983472244,35.583772844077515],[139.76063391678474,35.5837725342653],[139.7606339136074,35.58377604966958],[139.76063420333267,35.58382175012478]]]}},{"type":"Feature","properties":{"height":6.4,"gml_id":"bldg_3223323e-0224-45d7-bf55-87bcd506eb7b"},"geometry":{"type":"Polygon","coordinates":[[[139.75651757607773,35.59114016084378],[139.75651732437217,35.591172610545975],[139.75628050583083,35.59117209882433],[139.75628152691132,35.59114298473932],[139.7561212932428,35.59114315261088],[139.75612231645772,35.591111875204305],[139.75640846251022,35.591112779283925],[139.7564085463916,35.59114045185931],[139.75651757607773,35.59114016084378]]]}},{"type":"Feature","properties":{"height":5.2,"gml_id":"bldg_3dc55227-b3ff-4d98-bc0c-50b41b3e3664"},"geometry":{"type":"Polygon","coordinates":[[[139.7606878193573,35.583711723194575],[139.76067703534133,35.58367890623634],[139.76067118600338,35.58368016465106],[139.7606558906279,35.58363328334599],[139.76065909115354,35.58363265430535],[139.76065248863756,35.58361263955006],[139.7607123064884,35.58359960550387],[139.76072749195384,35.583646036042744],[139.76073245837924,35.58364495737075],[139.76073862060198,35.5836638000543],[139.76076433572288,35.58365813680571],[139.7607631253619,35.58365435025486],[139.76082217066028,35.583641495966376],[139.76082305080647,35.58364438093178],[139.76085461524738,35.583637459241785],[139.7608661694599,35.58367280052887],[139.7606878193573,35.583711723194575]]]}},{"type":"Feature","properties":{"height":44.5,"gml_id":"bldg_20aacff8-d7fe-4ae2-9475-dba816f38eab"},"geometry":{"type":"Polygon","coordinates":[[[139.75796247890185,35.58508989168653],[139.7579632621389,35.585431607595886],[139.7575757270001,35.58543226603118],[139.75757599223817,35.58550212360763],[139.7576068891613,35.585502052884365],[139.75760769100205,35.5858224059381],[139.75653457093577,35.58582425084534],[139.75653377164792,35.585505700560624],[139.75655661332559,35.58550562497379],[139.75655645931863,35.58543576746653],[139.75616826208218,35.5854364209548],[139.75616737776917,35.58509299234062],[139.75796247890185,35.58508989168653]]]}},{"type":"Feature","properties":{"height":37.5,"gml_id":"bldg_57cbad9a-6533-46a9-9b87-2e65ffbac0e9"},"geometry":{"type":"Polygon","coordinates":[[[139.76122511106755,35.586386728550494],[139.76122610397343,35.58675620718016],[139.75888816460804,35.58676046457715],[139.75888857702577,35.58631490984053],[139.75898163143623,35.58628044420143],[139.75905418988557,35.58621495818867],[139.75908030172488,35.58613916772874],[139.7590800112954,35.58609517992058],[139.7590568384118,35.5860952557814],[139.75905619368314,35.58595698279343],[139.7588820663561,35.585957506333315],[139.758881324599,35.58580517166159],[139.75888050862795,35.58561380693002],[139.7588790457359,35.58528687334471],[139.7612186005208,35.585279191798286],[139.76122139961052,35.585726371043194],[139.76112956133488,35.58576002789677],[139.76105712172966,35.58581839428768],[139.76103166761513,35.58590121638555],[139.76103184244465,35.58595223493159],[139.76105038073382,35.58595215591177],[139.76105070951635,35.58607744874531],[139.7612242851188,35.586077192158335],[139.76122487086295,35.586285412639945],[139.76122511106755,35.586386728550494]]]}},{"type":"Feature","properties":{"height":19.1,"gml_id":"bldg_c8e08dde-20a8-49c9-bb7b-a397e253604b"},"geometry":{"type":"Polygon","coordinates":[[[139.75611973037593,35.59058717727172],[139.75611925062233,35.590742034932006],[139.75609166167044,35.590742738362266],[139.75609352120875,35.59053010279769],[139.75610168731197,35.59053010803071],[139.75610127351715,35.59050135357875],[139.75609310784978,35.59050089765342],[139.75609306381742,35.590431851520954],[139.75610034717633,35.59043176604982],[139.75610050150732,35.59038597578148],[139.75609288735467,35.5903857906251],[139.75609290752777,35.59036478836317],[139.7561189506358,35.590364895188856],[139.75611895842536,35.59035678272713],[139.7561761211112,35.59035672919596],[139.7561762017988,35.59038764675955],[139.75612058411323,35.59038761114201],[139.75611973037593,35.59058717727172]]]}},{"type":"Feature","properties":{"height":3.3,"gml_id":"bldg_3b27584d-ac24-4582-bdc3-f6eba528f929"},"geometry":{"type":"Polygon","coordinates":[[[139.7559470772584,35.590880106846164],[139.7559464388945,35.59074075229667],[139.75599179416525,35.590740601132715],[139.7559924326077,35.590879955682055],[139.7559470772584,35.590880106846164]]]}},{"type":"Feature","properties":{"height":3.1,"gml_id":"bldg_18f7ff54-cda5-4915-b3d1-6c0b943b7b8a"},"geometry":{"type":"Polygon","coordinates":[[[139.7606878193573,35.583711723194575],[139.7608661694599,35.58367280052887],[139.76087145132402,35.58368902865623],[139.7606931012694,35.58372786119105],[139.7606878193573,35.583711723194575]]]}},{"type":"Feature","properties":{"height":2.9,"gml_id":"bldg_e0d5fd95-685d-414d-9ce2-1ed0674b483c"},"geometry":{"type":"Polygon","coordinates":[[[139.76063420333267,35.58382175012478],[139.7606339136074,35.58377604966958],[139.7606589616612,35.583775974635735],[139.76065925140074,35.5838216750909],[139.76063420333267,35.58382175012478]]]}},{"type":"Feature","properties":{"height":20.3,"gml_id":"bldg_e6794a56-0525-4887-926d-38c431208dc6"},"geometry":{"type":"Polygon","coordinates":[[[139.75888050862795,35.58561380693002],[139.758881324599,35.58580517166159],[139.75881511775572,35.58580413922356],[139.75881131942634,35.585616197914234],[139.75888050862795,35.58561380693002]]]}},{"type":"Feature","properties":{"height":2.2,"gml_id":"bldg_6c65814c-52cd-4148-b26f-31b2d3677b70"},"geometry":{"type":"Polygon","coordinates":[[[139.75419394330905,35.59161540003494],[139.7541920889335,35.59159340502356],[139.75434747535095,35.5915856649069],[139.75434844693507,35.591607659337434],[139.75419394330905,35.59161540003494]]]}},{"type":"Feature","properties":{"height":3.8,"gml_id":"bldg_afa64b2e-e953-4566-bf14-5d02ba923d3e"},"geometry":{"type":"Polygon","coordinates":[[[139.761389059349,35.589871402813024],[139.76138842231774,35.58984336934997],[139.76146224865013,35.58984233173335],[139.76146288570715,35.58987036519607],[139.761389059349,35.589871402813024]]]}},{"type":"Feature","properties":{"height":2.9,"gml_id":"bldg_83ab5c68-5d65-423b-98bc-48a95739d3a4"},"geometry":{"type":"Polygon","coordinates":[[[139.75411641232577,35.59067042714518],[139.75411478091846,35.5906461788129],[139.7542679584548,35.590638437344545],[139.75427025317776,35.59066151430926],[139.75411641232577,35.59067042714518]]]}},{"type":"Feature","properties":{"height":1.8,"gml_id":"bldg_3a6f481a-d6a1-41b6-af3c-bedf3f52843c"},"geometry":{"type":"Polygon","coordinates":[[[139.75449040783414,35.59144892824943],[139.75447938574018,35.59132281727381],[139.754510839144,35.59132022383165],[139.75452274341217,35.59144705648932],[139.75449040783414,35.59144892824943]]]}},{"type":"Feature","properties":{"height":5.7,"gml_id":"bldg_e5aed6c1-4b76-4ea7-92e8-292bc6a55a83"},"geometry":{"type":"Polygon","coordinates":[[[139.7607578676401,35.58336680487664],[139.76075766883204,35.58334255746628],[139.76117785620056,35.583341006958875],[139.76117805513528,35.583365254368694],[139.7607578676401,35.58336680487664]]]}},{"type":"Feature","properties":{"height":3.4,"gml_id":"bldg_4fc60ccb-a9f4-4daa-9a1c-56a45ad52624"},"geometry":{"type":"Polygon","coordinates":[[[139.76059356693702,35.583366795977035],[139.7605931479818,35.583342007601814],[139.76071783667408,35.58334073070396],[139.7607182555863,35.58336560921738],[139.76059356693702,35.583366795977035]]]}},{"type":"Feature","properties":{"height":3.5,"gml_id":"bldg_f74f52ce-2bf9-443d-9019-bce915980f59"},"geometry":{"type":"Polygon","coordinates":[[[139.76032962845161,35.58336465335984],[139.760329651931,35.58333878358817],[139.76048468377343,35.58333878724602],[139.76048466034388,35.583364657017775],[139.76032962845161,35.58336465335984]]]}},{"type":"Feature","properties":{"height":4.4,"gml_id":"bldg_d1722445-2b3b-41eb-9dbc-34e43ee65a97"},"geometry":{"type":"Polygon","coordinates":[[[139.7601414944204,35.583363818159164],[139.7601416283032,35.58333794845461],[139.7602961078562,35.58333858299004],[139.76029597402305,35.583364452694816],[139.7601414944204,35.583363818159164]]]}},{"type":"Feature","properties":{"height":19.5,"gml_id":"bldg_91d18737-0231-4c9a-8d2a-7474add58316"},"geometry":{"type":"Polygon","coordinates":[[[139.7613509666581,35.589895176640745],[139.7613513439216,35.58996683699646],[139.76080289219607,35.589969122215315],[139.7608101905249,35.591175991236106],[139.76071462435038,35.591175843555014],[139.76071247112833,35.589894252789385],[139.7613509666581,35.589895176640745]]]}},{"type":"Feature","properties":{"height":10.2,"gml_id":"bldg_4c180bc8-aac7-4519-98aa-773186be4b7d"},"geometry":{"type":"Polygon","coordinates":[[[139.75617656738638,35.588626430222156],[139.75617875002652,35.58991703516713],[139.75609664768984,35.58991752341301],[139.75608872772744,35.58862736548339],[139.75617656738638,35.588626430222156]]]}},{"type":"Feature","properties":{"height":4.2,"gml_id":"bldg_1cc8806b-8e07-403a-a997-21c9b3501403"},"geometry":{"type":"Polygon","coordinates":[[[139.7611967032028,35.585087634170506],[139.76119660894534,35.585069696532415],[139.7614904595995,35.585068519958064],[139.76149055384198,35.585086547734555],[139.7611967032028,35.585087634170506]]]}},{"type":"Feature","properties":{"height":2.6,"gml_id":"bldg_1e070bb5-8d3e-4026-879f-3e201cb3a689"},"geometry":{"type":"Polygon","coordinates":[[[139.75914063596107,35.58509017194775],[139.75914065325574,35.585071423129584],[139.75979687679433,35.58507155485545],[139.75979685973502,35.58509021353535],[139.75914063596107,35.58509017194775]]]}},{"type":"Feature","properties":{"height":17.0,"gml_id":"bldg_76f13432-547b-4638-8cd6-ea8c59ff4eab"},"geometry":{"type":"Polygon","coordinates":[[[139.75317421837298,35.587459880781104],[139.75309605385138,35.58760828697907],[139.75286566650848,35.58813877905606],[139.7528371186676,35.588216369284545],[139.7528320102861,35.588248635473136],[139.7528323039806,35.58828595302815],[139.75284131818935,35.588320391973475],[139.75285563135878,35.58835267113108],[139.75287689666683,35.588384864789205],[139.75292033095306,35.58842843069261],[139.75294414940188,35.58844557290478],[139.7529882680101,35.58846696515771],[139.75304453233412,35.58848115440215],[139.75317826773062,35.58848998685291],[139.7533777812273,35.588489308122846],[139.75361172169931,35.588491986964684],[139.75385162662846,35.58848682723238],[139.75400369719918,35.58847845439472],[139.75407774830626,35.58847210327412],[139.75411664624494,35.588528555575145],[139.75407944461693,35.58854241245482],[139.75398044251108,35.5885607355783],[139.75383850919613,35.588584078071186],[139.75368355502277,35.58860687096156],[139.7535731959825,35.58861581183613],[139.75349020902883,35.58861945257105],[139.75335535921354,35.5886213462136],[139.75313532377257,35.58861849584989],[139.7530563112907,35.58862024602115],[139.75297465976985,35.58861261997269],[139.75291132998615,35.588601400553635],[139.75284006575095,35.588579449316015],[139.75280035751123,35.58856166549791],[139.7527535976361,35.588533150465786],[139.75272272755555,35.588505277013475],[139.75268282959405,35.588456665647264],[139.75265706079875,35.5884037370755],[139.7526488362905,35.58835217232173],[139.75265285852706,35.58830268895197],[139.75267335602985,35.58822013576105],[139.75271474694586,35.58810027918256],[139.75277094756157,35.58795744715629],[139.75283674410073,35.58781885802144],[139.75290108009543,35.58770604749987],[139.75297490733934,35.58759180105307],[139.75304903968396,35.58750333439006],[139.75310880588466,35.58743558998783],[139.75317421837298,35.587459880781104]]]}},{"type":"Feature","properties":{"height":2.8,"gml_id":"bldg_4aa8a248-8b4b-4f8e-9818-f767ec1dba4a"},"geometry":{"type":"Polygon","coordinates":[[[139.7517122446247,35.5887303038683],[139.75172032480097,35.58870606207251],[139.75177250866764,35.588717725267976],[139.75176442850594,35.588741967067236],[139.7517122446247,35.5887303038683]]]}},{"type":"Feature","properties":{"height":24.7,"gml_id":"bldg_9415e63d-5e19-4e12-b84a-d4d9f42e1d68"},"geometry":{"type":"Polygon","coordinates":[[[139.76179154419637,35.5871070930397],[139.76164577400317,35.58710745712172],[139.76164580967676,35.58706743561712],[139.761791358059,35.58706824320479],[139.76179154419637,35.5871070930397]]]}},{"type":"Feature","properties":{"height":3.0,"gml_id":"bldg_cd4aa8fe-d633-468d-a751-0cff8b90cd14"},"geometry":{"type":"Polygon","coordinates":[[[139.75179572287917,35.58889531389668],[139.75182275116654,35.58890281367696],[139.7518052731123,35.588944896552626],[139.75177824490385,35.588937306629994],[139.75179572287917,35.58889531389668]]]}},{"type":"Feature","properties":{"height":3.2,"gml_id":"bldg_5d9548bb-142a-44ef-8dd9-5dae5b6ff427"},"geometry":{"type":"Polygon","coordinates":[[[139.75214735212586,35.58578270618347],[139.75210885267336,35.58577141292257],[139.75214446604295,35.585690312189485],[139.75218307580778,35.585701605513414],[139.75214735212586,35.58578270618347]]]}},{"type":"Feature","properties":{"height":3.8,"gml_id":"bldg_e36adf1f-4618-40ae-a3af-f031b3933e04"},"geometry":{"type":"Polygon","coordinates":[[[139.75208929197572,35.585909762465526],[139.75205299903382,35.58589883122858],[139.75208960581494,35.585817550906214],[139.7521258998286,35.585828482133],[139.75208929197572,35.585909762465526]]]}},{"type":"Feature","properties":{"height":3.0,"gml_id":"bldg_a7758ada-fc4a-4271-9244-3b9f523aa5ec"},"geometry":{"type":"Polygon","coordinates":[[[139.75214621370097,35.58592665673468],[139.7521102513278,35.58591617643056],[139.7521461964362,35.585834444952425],[139.75218204843122,35.585844925171635],[139.75214621370097,35.58592665673468]]]}},{"type":"Feature","properties":{"height":2.2,"gml_id":"bldg_707e990a-b1ec-4627-b69f-50fa286e0d98"},"geometry":{"type":"Polygon","coordinates":[[[139.75441276600142,35.590501071017044],[139.75440273405553,35.590378295788206],[139.75443517955753,35.59037642412298],[139.75444388838153,35.59049811682095],[139.75441276600142,35.590501071017044]]]}},{"type":"Feature","properties":{"height":8.0,"gml_id":"bldg_8993e21f-1991-4160-8445-b40d41503414"},"geometry":{"type":"Polygon","coordinates":[[[139.75276550497156,35.59074650996453],[139.75276343562882,35.59071919661238],[139.75291584132063,35.590711095792706],[139.7529181313309,35.590738499428035],[139.75276550497156,35.59074650996453]]]}},{"type":"Feature","properties":{"height":12.3,"gml_id":"bldg_e31eed9d-80fb-4cd0-85fc-13203f67b491"},"geometry":{"type":"Polygon","coordinates":[[[139.7507672081708,35.5896938720715],[139.75076589903722,35.589679178595084],[139.75076557242488,35.58967485172212],[139.75079040300582,35.58967342651346],[139.75079072924942,35.5896781139402],[139.75079203875757,35.589692446862514],[139.7507672081708,35.5896938720715]]]}},{"type":"Feature","properties":{"height":14.5,"gml_id":"bldg_ed3228f5-5070-4447-813c-5b54091c09a8"},"geometry":{"type":"Polygon","coordinates":[[[139.75322310193826,35.58890086813414],[139.75355084776223,35.58889621804657],[139.7535508432016,35.58890081510904],[139.75349796759258,35.58891862752767],[139.75342633944192,35.58892930654753],[139.75336696986426,35.5889302586964],[139.75329381534874,35.58892227794735],[139.75322321076231,35.58890240056163],[139.75322310193826,35.58890086813414]]]}},{"type":"Feature","properties":{"height":6.8,"gml_id":"bldg_6120b14e-2543-4974-a87c-483b0072084e"},"geometry":{"type":"Polygon","coordinates":[[[139.7526084295418,35.5855124198263],[139.75251884081868,35.58571994895946],[139.75257309999685,35.58586087193492],[139.75247333661096,35.586090568294985],[139.75240174413295,35.58606816587744],[139.75251798244315,35.58580548990134],[139.7524685666627,35.58567646844278],[139.75254808910202,35.58549372071133],[139.7526084295418,35.5855124198263]]]}},{"type":"Feature","properties":{"height":18.4,"gml_id":"bldg_8c649dd7-b9f2-4e03-a1c8-cb47e3e7a59e"},"geometry":{"type":"Polygon","coordinates":[[[139.76134088262765,35.58710691484311],[139.76134037095585,35.587185425232455],[139.76130704597006,35.58718522504571],[139.76130755759365,35.587106804795084],[139.76134088262765,35.58710691484311]]]}},{"type":"Feature","properties":{"height":21.4,"gml_id":"bldg_e4474945-4d96-4715-9ef5-030b58ed906e"},"geometry":{"type":"Polygon","coordinates":[[[139.76146297941438,35.58778987748574],[139.76083829259665,35.5877907653146],[139.7608420305561,35.58952007559869],[139.76146673080692,35.589519187766456],[139.76153581116847,35.58951877824436],[139.76153630095888,35.58958818520777],[139.76071583406576,35.58959184004333],[139.7605488709048,35.58959327168781],[139.76054491692042,35.58847537110536],[139.76054356218353,35.588021432531704],[139.76054262181344,35.58771928751344],[139.76055509132075,35.587719204904836],[139.76071090453806,35.58771866791705],[139.76153168360895,35.58771474287317],[139.76153161665306,35.58778973811653],[139.76146297941438,35.58778987748574]]]}},{"type":"Feature","properties":{"height":8.4,"gml_id":"bldg_dcd81fde-1917-4417-9a4e-283b992aeb81"},"geometry":{"type":"Polygon","coordinates":[[[139.7554490484051,35.58974530264401],[139.75544666003998,35.58959071352374],[139.75545162585547,35.58959071673263],[139.75546486820465,35.5895905450117],[139.75550647113946,35.589590121190064],[139.7555205963001,35.58958995003306],[139.75557014462618,35.589589441180195],[139.755572974461,35.5897442108601],[139.75552077759957,35.589744718004184],[139.75550687320234,35.5897447991652],[139.75546615300087,35.589745223557216],[139.75545224860346,35.589745304711926],[139.7554490484051,35.58974530264401]]]}},{"type":"Feature","properties":{"height":2.1,"gml_id":"bldg_d98d33c8-7ff8-412c-9f31-971857950cf6"},"geometry":{"type":"Polygon","coordinates":[[[139.75730504160933,35.5903423033376],[139.7572732614559,35.59034084107009],[139.75728791624155,35.59013082756207],[139.75731969631227,35.590132289825675],[139.75730504160933,35.5903423033376]]]}},{"type":"Feature","properties":{"height":2.0,"gml_id":"bldg_360db715-4de6-4b54-bf48-ba953fa0546b"},"geometry":{"type":"Polygon","coordinates":[[[139.7573013678472,35.590376283242065],[139.75727047101225,35.59037428069992],[139.7572733683981,35.590344446678365],[139.75730437548896,35.590346539427834],[139.7573013678472,35.590376283242065]]]}},{"type":"Feature","properties":{"height":6.8,"gml_id":"bldg_50bccd3b-d554-4a5f-b3b7-a353c0947fbd"},"geometry":{"type":"Polygon","coordinates":[[[139.75813918506495,35.587640202762344],[139.7581385189828,35.58752644748169],[139.75825228884102,35.587526067712375],[139.7582521882539,35.58751561157643],[139.75836639957495,35.587515141835816],[139.75836705623277,35.58763935318285],[139.75813918506495,35.587640202762344]]]}},{"type":"Feature","properties":{"height":8.9,"gml_id":"bldg_cf14de12-f2ca-4a81-8f12-2842176b56d9"},"geometry":{"type":"Polygon","coordinates":[[[139.75235233308118,35.59097545529108],[139.75233453824245,35.590784079279985],[139.75238044839242,35.59078086513862],[139.75239813207915,35.59097314245353],[139.75235233308118,35.59097545529108]]]}},{"type":"Feature","properties":{"height":12.9,"gml_id":"bldg_b48b4fcc-f5d8-4299-be9e-10ebaeaebb4c"},"geometry":{"type":"Polygon","coordinates":[[[139.75428601152802,35.585856509008174],[139.75402666099322,35.58578161375544],[139.75416015270238,35.58547306698788],[139.75441950236768,35.5855479619561],[139.75428601152802,35.585856509008174]]]}},{"type":"Feature","properties":{"height":8.5,"gml_id":"bldg_2ce4f469-a58d-43ec-be30-c39213aaa983"},"geometry":{"type":"Polygon","coordinates":[[[139.7523345495917,35.590772811973864],[139.75231675247804,35.59058377955356],[139.75236244199024,35.590580384993544],[139.752380348384,35.5907705892813],[139.7523345495917,35.590772811973864]]]}},{"type":"Feature","properties":{"height":8.9,"gml_id":"bldg_46ec5cfc-d185-4cad-8d36-a848fbac4df3"},"geometry":{"type":"Polygon","coordinates":[[[139.75264320219028,35.59154775945317],[139.7526337257648,35.591423812671486],[139.75266683276763,35.59142302358785],[139.75267631041945,35.59154579856732],[139.75264320219028,35.59154775945317]]]}},{"type":"Feature","properties":{"height":4.3,"gml_id":"bldg_7b247933-f6bf-489f-be95-a7804e88d35e"},"geometry":{"type":"Polygon","coordinates":[[[139.76119848466342,35.58334732900965],[139.76135439878357,35.58334787290865],[139.76135427271166,35.583365449865695],[139.7611983584766,35.583364996105075],[139.76119848466342,35.58334732900965]]]}},{"type":"Feature","properties":{"height":6.1,"gml_id":"bldg_bce05bb2-9cb9-47fd-b544-1fb1dc03ad3d"},"geometry":{"type":"Polygon","coordinates":[[[139.7613619034722,35.58334634503322],[139.7615121901843,35.58334679522927],[139.76151206310055,35.58336554398805],[139.76136177635345,35.583365093791805],[139.7613619034722,35.58334634503322]]]}},{"type":"Feature","properties":{"height":9.4,"gml_id":"bldg_c2de1f4b-35e8-407c-90db-b4ba188fabe1"},"geometry":{"type":"Polygon","coordinates":[[[139.7525677852041,35.59060377850716],[139.75255544427063,35.59047541299324],[139.75258888483793,35.59047173972173],[139.75260144589646,35.59060073634936],[139.7525677852041,35.59060377850716]]]}},{"type":"Feature","properties":{"height":8.1,"gml_id":"bldg_2a325eeb-4ee4-4383-8e6d-4f4ec6bf21ca"},"geometry":{"type":"Polygon","coordinates":[[[139.75417314500524,35.58505357050519],[139.75409294649307,35.585030712743325],[139.7538762892608,35.58496909559197],[139.75398666924514,35.58471010996812],[139.7543615162919,35.58481671969354],[139.75430577395315,35.584947474267466],[139.75427624350684,35.58501695176157],[139.75425113736696,35.585075705657445],[139.75417314500524,35.58505357050519]]]}},{"type":"Feature","properties":{"height":35.3,"gml_id":"bldg_e0db1bdd-9441-4f9b-856c-6d5db7ab1b72"},"geometry":{"type":"Polygon","coordinates":[[[139.76122511106755,35.586386728550494],[139.76122487086295,35.586285412639945],[139.7612914092572,35.58628635381408],[139.76129341509883,35.58638767077985],[139.76122511106755,35.586386728550494]]]}}]}