{"type":"FeatureCollection","crs":{"type":"name","properties":{"name":"urn:ogc:def:crs:OGC:1.3:CRS84"}},"features":[{"type":"Feature","properties":{"height":24.8,"gml_id":"bldg_c353b520-9a82-4a82-a93f-cf8df715ecaa"},"geometry":{"type":"Polygon","coordinates":[[[139.76764460561162,35.59105398640395],[139.76735228905645,35.59144529829201],[139.76730154678026,35.59142021199679],[139.76727838191914,35.59140866157394],[139.7671209715126,35.5913299744192],[139.7664285671374,35.590984812231994],[139.76672088650645,35.5905935025574],[139.7671214134932,35.590793199802526],[139.76712450211926,35.59079473385409],[139.7675745596702,35.59101906460144],[139.76764460561162,35.59105398640395]]]}},{"type":"Feature","properties":{"height":20.1,"gml_id":"bldg_8c7dbdd8-b4dd-4cb3-a20e-6876319df15e"},"geometry":{"type":"Polygon","coordinates":[[[139.76735228905645,35.59144529829201],[139.76732378693538,35.59148278030517],[139.7672733760769,35.591457243487206],[139.76730154678026,35.59142021199679],[139.76735228905645,35.59144529829201]]]}},{"type":"Feature","properties":{"height":16.8,"gml_id":"bldg_ee3fabd1-5587-48da-bf8a-b3ff02c5d595"},"geometry":{"type":"Polygon","coordinates":[[[139.76727838191914,35.59140866157394],[139.76721641078458,35.59148470449627],[139.76712397287918,35.591437511311184],[139.7671208842284,35.59143597725975],[139.76637278102763,35.59105400763171],[139.7664285671374,35.590984812231994],[139.7671209715126,35.5913299744192],[139.76727838191914,35.59140866157394]]]}},{"type":"Feature","properties":{"height":14.6,"gml_id":"bldg_df4e0fae-5bff-42ab-83ca-04207822858a"},"geometry":{"type":"Polygon","coordinates":[[[139.7703966886875,35.58896955913052],[139.77047489852677,35.588865219503894],[139.77165983022917,35.589456960237264],[139.77158173170093,35.589561300680025],[139.7703966886875,35.58896955913052]]]}},{"type":"Feature","properties":{"height":3.3,"gml_id":"bldg_ea0e09c0-59bd-4e2e-a553-60aca7268136"},"geometry":{"type":"Polygon","coordinates":[[[139.7685585610656,35.58707170939738],[139.76858304062108,35.58709371636303],[139.76852728165704,35.58713487972489],[139.7685029124524,35.58711287280744],[139.7685585610656,35.58707170939738]]]}},{"type":"Feature","properties":{"height":2.9,"gml_id":"bldg_7e8ed3da-8049-4ef2-8b98-38f872feb861"},"geometry":{"type":"Polygon","coordinates":[[[139.76851392016326,35.587146500416225],[139.76848289525736,35.58716766629264],[139.76846161478474,35.587146922968834],[139.7684926397609,35.58712566695928],[139.76851392016326,35.587146500416225]]]}},{"type":"Feature","properties":{"height":2.6,"gml_id":"bldg_3d1c4d3b-f48e-458d-a94f-91190c3b2e06"},"geometry":{"type":"Polygon","coordinates":[[[139.77090826269702,35.58471970095123],[139.77092480224874,35.58473539363456],[139.77089002452297,35.58475998346397],[139.77087348497298,35.58474429077593],[139.77090826269702,35.58471970095123]]]}},{"type":"Feature","properties":{"height":2.9,"gml_id":"bldg_88c5f63f-82e4-47fb-adf7-101e23e20c55"},"geometry":{"type":"Polygon","coordinates":[[[139.77086426187364,35.584827303657555],[139.77084295416202,35.584841624651695],[139.7708040324481,35.584802935002486],[139.7708253401564,35.58478861401514],[139.77086426187364,35.584827303657555]]]}},{"type":"Feature","properties":{"height":2.7,"gml_id":"bldg_2bda7fa6-c96f-4124-9417-8de2417cc131"},"geometry":{"type":"Polygon","coordinates":[[[139.77068595296814,35.5849579120982],[139.77066585891666,35.584972323830065],[139.77062373756831,35.58493318176687],[139.77064383161758,35.58491877004191],[139.77068595296814,35.5849579120982]]]}},{"type":"Feature","properties":{"height":2.6,"gml_id":"bldg_eea1012f-a971-4e3d-b683-0934e56c2ea0"},"geometry":{"type":"Polygon","coordinates":[[[139.7696850012717,35.58525015789176],[139.76966656172323,35.585265111161505],[139.76962928941384,35.58523417392705],[139.76964772896216,35.58521922066292],[139.7696850012717,35.58525015789176]]]}},{"type":"Feature","properties":{"height":4.9,"gml_id":"bldg_52d58631-21ab-4aca-b655-c8f7da4d8fd4"},"geometry":{"type":"Polygon","coordinates":[[[139.7734568062479,35.59106765037199],[139.7734433300941,35.59108513054898],[139.77339986739025,35.59106284473004],[139.77341334361688,35.59104527441935],[139.7734568062479,35.59106765037199]]]}},{"type":"Feature","properties":{"height":8.6,"gml_id":"bldg_8c050eb0-0926-46e7-b531-4a97cd2e48b5"},"geometry":{"type":"Polygon","coordinates":[[[139.7746605893765,35.59145773092578],[139.77471839525904,35.591484710467995],[139.77470558084255,35.591503002353434],[139.7746973071096,35.59149912237245],[139.7746710154082,35.59153669733834],[139.7746214831684,35.59151368789885],[139.7746605893765,35.59145773092578]]]}},{"type":"Feature","properties":{"height":5.8,"gml_id":"bldg_6c33115e-7e99-4b84-86ce-d4ec909c7bf4"},"geometry":{"type":"Polygon","coordinates":[[[139.76773587148924,35.58509704905986],[139.7677154450302,35.585112451643],[139.7676880991757,35.5850881894682],[139.76770852563382,35.58507278688961],[139.76773587148924,35.58509704905986]]]}},{"type":"Feature","properties":{"height":2.5,"gml_id":"bldg_ef9ce2d6-e5d0-41f9-a619-72fddc92a958"},"geometry":{"type":"Polygon","coordinates":[[[139.77348198509986,35.59104314520092],[139.7734643349839,35.59103448313695],[139.77347582335344,35.591018894879184],[139.7734934734001,35.59102764707998],[139.77348198509986,35.59104314520092]]]}},{"type":"Feature","properties":{"height":16.2,"gml_id":"bldg_b11b7a3e-64f1-4134-a202-dafbfc598a88"},"geometry":{"type":"Polygon","coordinates":[[[139.76941956395157,35.590874934101286],[139.76944879667832,35.5908886506546],[139.7694081408151,35.59094631775022],[139.76939468272352,35.59094000091518],[139.76938131491522,35.590958922911696],[139.76936565061695,35.59095152324055],[139.76941956395157,35.590874934101286]]]}},{"type":"Feature","properties":{"height":3.4,"gml_id":"bldg_31993464-9b32-45be-bcb1-20e47bd887bd"},"geometry":{"type":"Polygon","coordinates":[[[139.76792987684308,35.58928111667325],[139.76792214332409,35.58929210937864],[139.76791442168184,35.5892884996461],[139.76790978158368,35.58929507724111],[139.76783300652576,35.589259070264],[139.76784538022824,35.58924140983337],[139.76792987684308,35.58928111667325]]]}},{"type":"Feature","properties":{"height":9.5,"gml_id":"bldg_f469300c-49c6-4160-9484-c6c647516193"},"geometry":{"type":"Polygon","coordinates":[[[139.76879756751828,35.58598089031849],[139.7687753748415,35.585997103380635],[139.7687182571819,35.585944972667974],[139.76874044985578,35.5859287596162],[139.76879756751828,35.58598089031849]]]}},{"type":"Feature","properties":{"height":7.9,"gml_id":"bldg_7dd91e34-b827-472c-a1b8-92c122d91b7d"},"geometry":{"type":"Polygon","coordinates":[[[139.76873374355435,35.58589783848455],[139.7687013935099,35.585920896622135],[139.76868231792008,35.58590303895041],[139.76871466796283,35.58587998081787],[139.76873374355435,35.58589783848455]]]}},{"type":"Feature","properties":{"height":2.6,"gml_id":"bldg_911204ea-6ec5-44b6-8f2f-635b4e942964"},"geometry":{"type":"Polygon","coordinates":[[[139.76874136187314,35.58589234411315],[139.76872206471953,35.58587556799201],[139.7687506620951,35.58585358950117],[139.76876995917706,35.58587045575633],[139.76874136187314,35.58589234411315]]]}},{"type":"Feature","properties":{"height":6.1,"gml_id":"bldg_d0c66e9a-86f1-4da6-9a4b-182f8396301e"},"geometry":{"type":"Polygon","coordinates":[[[139.76801522610464,35.5904449415687],[139.7679853978514,35.59048557787457],[139.76789207671985,35.59043973687012],[139.76792190492984,35.59039919072555],[139.76801522610464,35.5904449415687]]]}},{"type":"Feature","properties":{"height":3.1,"gml_id":"bldg_ea346446-d922-48b8-8090-7d03f67a2a5d"},"geometry":{"type":"Polygon","coordinates":[[[139.77465796890004,35.59051190615128],[139.77461297590827,35.590469519130835],[139.77465846470272,35.59043736182963],[139.77468625450922,35.590463515528484],[139.7746536836251,35.59048657513864],[139.77467088681473,35.59050280844806],[139.77465796890004,35.59051190615128]]]}},{"type":"Feature","properties":{"height":8.1,"gml_id":"bldg_1d77870e-47b6-4dbe-b621-8df65876a1aa"},"geometry":{"type":"Polygon","coordinates":[[[139.7699735946694,35.591362605583356],[139.76977183579334,35.591263256847114],[139.76994914303862,35.591023040940236],[139.77015090153196,35.59112238938323],[139.7699735946694,35.591362605583356]]]}},{"type":"Feature","properties":{"height":11.8,"gml_id":"bldg_81fc4a80-dc91-4361-b2b4-e2812d0b58eb"},"geometry":{"type":"Polygon","coordinates":[[[139.76830973425143,35.5848778724956],[139.76819858800764,35.58477712765835],[139.76866948792983,35.584430347544654],[139.7687807445578,35.58453118215128],[139.76830973425143,35.5848778724956]]]}},{"type":"Feature","properties":{"height":6.3,"gml_id":"bldg_5e041472-4c08-4d28-826a-253497cbbacc"},"geometry":{"type":"Polygon","coordinates":[[[139.76793885887415,35.58515620014585],[139.767815470555,35.58504787667469],[139.76795249378873,35.58494366070959],[139.76807588220612,35.58505189390383],[139.76793885887415,35.58515620014585]]]}},{"type":"Feature","properties":{"height":23.8,"gml_id":"bldg_ae607c90-de28-49ab-9474-b3cfdad2b704"},"geometry":{"type":"Polygon","coordinates":[[[139.77016866570918,35.586489547588194],[139.77014947824918,35.586473042170276],[139.77026243180194,35.58638593731529],[139.77028150898792,35.58640235251919],[139.77016866570918,35.586489547588194]]]}},{"type":"Feature","properties":{"height":3.2,"gml_id":"bldg_7a7e8c7b-eaae-4089-bb78-6f69c61c9fe0"},"geometry":{"type":"Polygon","coordinates":[[[139.77260088754045,35.58889767772327],[139.77260003074005,35.588863244364966],[139.77263721940187,35.58886254198988],[139.77263807615014,35.58889706548646],[139.77260088754045,35.58889767772327]]]}},{"type":"Feature","properties":{"height":6.7,"gml_id":"bldg_47f1dd3d-ece6-42dc-a4b6-b8f39aff0f0c"},"geometry":{"type":"Polygon","coordinates":[[[139.76973386668237,35.58680750814595],[139.76970530660316,35.58678225426994],[139.76982124066757,35.586694880990954],[139.76984980075224,35.58672013483988],[139.76973386668237,35.58680750814595]]]}},{"type":"Feature","properties":{"height":8.1,"gml_id":"bldg_6a84f018-7877-452f-b9dc-053d2892b45f"},"geometry":{"type":"Polygon","coordinates":[[[139.77459357226803,35.590444270887794],[139.7743870186213,35.590257403010135],[139.7744636446368,35.59020083346341],[139.7746701983167,35.59038770121155],[139.77459357226803,35.590444270887794]]]}},{"type":"Feature","properties":{"height":2.8,"gml_id":"bldg_375b075c-783e-4ff6-bfb3-b6a6a36710fe"},"geometry":{"type":"Polygon","coordinates":[[[139.77318820193898,35.58856436944364],[139.77308498468895,35.588470303378095],[139.77313555263365,35.588433371835904],[139.7732386595455,35.58852743780373],[139.77318820193898,35.58856436944364]]]}},{"type":"Feature","properties":{"height":5.0,"gml_id":"bldg_8ca945a3-75c3-4fca-b4b9-51344ad7e1d3"},"geometry":{"type":"Polygon","coordinates":[[[139.7725328023974,35.58933400410626],[139.7724477821312,35.58925409843675],[139.77253290857416,35.589193568305994],[139.77261803928027,35.58927338383335],[139.7725328023974,35.58933400410626]]]}},{"type":"Feature","properties":{"height":3.7,"gml_id":"bldg_ae7d58ac-c4fe-48f1-98f3-81306bff1e10"},"geometry":{"type":"Polygon","coordinates":[[[139.77244316376775,35.5892324628527],[139.77241570439398,35.58920865240106],[139.77247720569582,35.58916136073259],[139.7725046650717,35.589185171170406],[139.77244316376775,35.5892324628527]]]}},{"type":"Feature","properties":{"height":3.6,"gml_id":"bldg_d7be3e47-0e00-4ea0-b9ad-b975b6ade795"},"geometry":{"type":"Polygon","coordinates":[[[139.77209812543686,35.58904894624226],[139.7720959423767,35.58901748677964],[139.77215376820482,35.589014811989145],[139.77215595128752,35.58904627145076],[139.77209812543686,35.58904894624226]]]}},{"type":"Feature","properties":{"height":5.4,"gml_id":"bldg_9e996781-6bb1-41d7-859e-1c03017d1488"},"geometry":{"type":"Polygon","coordinates":[[[139.7704773273793,35.5916873679797],[139.77042834964288,35.591662283921586],[139.77045044919893,35.5916256090809],[139.77046401911113,35.5916303033626],[139.77054996771807,35.59151127519398],[139.7705787617037,35.59152210681109],[139.7705740098626,35.5915305773568],[139.77059188034303,35.591539420234966],[139.77052391832655,35.591659990162356],[139.77051707896342,35.591656651473116],[139.77050679622124,35.59168197503425],[139.7704773273793,35.5916873679797]]]}},{"type":"Feature","properties":{"height":4.8,"gml_id":"bldg_ad5c38b4-8358-4dfb-a15b-a4a180e42553"},"geometry":{"type":"Polygon","coordinates":[[[139.77069065024813,35.588419145989334],[139.77068373542193,35.58837136895983],[139.77072324367444,35.588367513531274],[139.77073026887365,35.588415290615885],[139.77069065024813,35.588419145989334]]]}},{"type":"Feature","properties":{"height":3.9,"gml_id":"bldg_0f789309-3fa1-4c25-8a2f-d6ad94d5a050"},"geometry":{"type":"Polygon","coordinates":[[[139.76897104840555,35.587201820054204],[139.76892980719245,35.58716556231773],[139.76895840475413,35.58714385419836],[139.76899964604112,35.58718002178662],[139.76897104840555,35.587201820054204]]]}},{"type":"Feature","properties":{"height":6.7,"gml_id":"bldg_3c6396ea-5834-41b4-9752-d517b7919200"},"geometry":{"type":"Polygon","coordinates":[[[139.77392809288324,35.59141167188632],[139.77363541399836,35.5911412920024],[139.77368421644442,35.59110607200446],[139.77375512524262,35.591171637779645],[139.77379641960437,35.591141822335906],[139.77401807939657,35.59134663619848],[139.77392809288324,35.59141167188632]]]}},{"type":"Feature","properties":{"height":5.3,"gml_id":"bldg_4d50a842-2621-4fcf-b4c8-036d69f35019"},"geometry":{"type":"Polygon","coordinates":[[[139.77343888260626,35.59098173945713],[139.7733079403475,35.59091839707351],[139.77336980179177,35.59083315682493],[139.77350063360737,35.59089649908737],[139.77343888260626,35.59098173945713]]]}},{"type":"Feature","properties":{"height":31.4,"gml_id":"bldg_a5f2cc46-2f43-45f8-937f-1fbceb3c79d2"},"geometry":{"type":"Polygon","coordinates":[[[139.76970089462327,35.5867798181991],[139.76896784114342,35.5861077162264],[139.76936698315117,35.58580785733451],[139.76923212503212,35.585688081634416],[139.76938471462293,35.58557341625182],[139.76952089607303,35.585694274147244],[139.7702602356755,35.58637214496222],[139.7700287051872,35.5865405827385],[139.77005108951943,35.58656114609023],[139.76999765074513,35.58660005789007],[139.7699755971028,35.58657994539528],[139.76970089462327,35.5867798181991]]]}},{"type":"Feature","properties":{"height":21.9,"gml_id":"bldg_5e6db3d4-60ad-40f0-83bc-d8a423beb649"},"geometry":{"type":"Polygon","coordinates":[[[139.76957768982555,35.591305609543525],[139.76940053064075,35.59121862217187],[139.76967471479753,35.59085722170879],[139.76981767555156,35.590929498086446],[139.76979513996955,35.590959231919506],[139.7698279018927,35.590975744535235],[139.76957768982555,35.591305609543525]]]}},{"type":"Feature","properties":{"height":3.1,"gml_id":"bldg_3218ba96-b813-4d9c-a8cc-749d1b83ec7c"},"geometry":{"type":"Polygon","coordinates":[[[139.77351657199483,35.59112933479522],[139.77350784386647,35.59114303151786],[139.773451250445,35.59111884629029],[139.77345997858038,35.59110514957172],[139.77351657199483,35.59112933479522]]]}},{"type":"Feature","properties":{"height":2.9,"gml_id":"bldg_30bacdd1-cf22-4b6e-bee1-211a4c885e48"},"geometry":{"type":"Polygon","coordinates":[[[139.77243607444038,35.58751919568556],[139.77239428139697,35.58748077553104],[139.77242950198638,35.58745519397855],[139.7724379930245,35.58746286004742],[139.77246449128202,35.587443583777635],[139.7724979037098,35.5874742477612],[139.77243607444038,35.58751919568556]]]}},{"type":"Feature","properties":{"height":2.5,"gml_id":"bldg_3eac598c-32b3-44eb-a431-8b1fe5702987"},"geometry":{"type":"Polygon","coordinates":[[[139.77250849431127,35.58747803892617],[139.77249669498917,35.587467486758186],[139.77251811481494,35.587451362763254],[139.77253002455421,35.5874618248463],[139.77250849431127,35.58747803892617]]]}},{"type":"Feature","properties":{"height":5.5,"gml_id":"bldg_9e94d27f-1463-4991-bcc1-8103a2c0e465"},"geometry":{"type":"Polygon","coordinates":[[[139.77193692874656,35.586413302644644],[139.77196000457297,35.58639591764929],[139.77197114206623,35.58640583856453],[139.77199708855755,35.58638629169734],[139.77205012959007,35.58643346115866],[139.77200110733614,35.58647030290605],[139.77193692874656,35.586413302644644]]]}},{"type":"Feature","properties":{"height":2.8,"gml_id":"bldg_407fbf5c-e2bd-41b3-994b-a8d2e03e92f9"},"geometry":{"type":"Polygon","coordinates":[[[139.77196288515304,35.58638077583319],[139.77194480033938,35.586364902232134],[139.77196368069278,35.586350489672476],[139.77198176550695,35.58636636327073],[139.77196288515304,35.58638077583319]]]}},{"type":"Feature","properties":{"height":2.3,"gml_id":"bldg_5e42e20c-dbf2-418b-8027-8bb618ee35c0"},"geometry":{"type":"Polygon","coordinates":[[[139.77193058394178,35.586340827987506],[139.7719459305044,35.58632992903528],[139.77196147836023,35.586344449265674],[139.77194613179694,35.58635534821986],[139.77193058394178,35.586340827987506]]]}},{"type":"Feature","properties":{"height":5.6,"gml_id":"bldg_bc50698f-c617-464d-a789-362b7fb4433b"},"geometry":{"type":"Polygon","coordinates":[[[139.77036077357596,35.58635723452514],[139.77032179917367,35.58638515711863],[139.77029698923448,35.58636197852897],[139.77028705241696,35.58636909428017],[139.77027128423558,35.58635448358012],[139.7703203057977,35.586319445307346],[139.77036077357596,35.58635723452514]]]}},{"type":"Feature","properties":{"height":2.7,"gml_id":"bldg_2b5d98f2-545d-40db-9e9d-8dcc20e06074"},"geometry":{"type":"Polygon","coordinates":[[[139.7702792880187,35.5862794924619],[139.7702976164916,35.58626562070597],[139.77034084262425,35.58630377192766],[139.7703225141501,35.58631764369008],[139.7702792880187,35.5862794924619]]]}},{"type":"Feature","properties":{"height":2.8,"gml_id":"bldg_55520b2e-8ec8-4d62-b743-0053ce8cf6a3"},"geometry":{"type":"Polygon","coordinates":[[[139.77194208944846,35.59006076212478],[139.7719210183164,35.59005272906074],[139.77194267637321,35.59001470073171],[139.7719637475656,35.59002264455491],[139.77194208944846,35.59006076212478]]]}},{"type":"Feature","properties":{"height":3.6,"gml_id":"bldg_7d028fdb-d94f-4972-853c-438ab3c473d4"},"geometry":{"type":"Polygon","coordinates":[[[139.76824867087413,35.587794003102815],[139.76821171920685,35.58777514418357],[139.76824596357866,35.58773045395216],[139.76828291523347,35.58774931286101],[139.76824867087413,35.587794003102815]]]}},{"type":"Feature","properties":{"height":2.6,"gml_id":"bldg_4148f619-d69a-44a4-9291-fd005fe9c0e8"},"geometry":{"type":"Polygon","coordinates":[[[139.77277570070618,35.59107208741827],[139.77276080854747,35.5910646885763],[139.7728275298284,35.59097467370923],[139.77286018229952,35.59099082489195],[139.77284582170984,35.591010287605954],[139.77282795109855,35.591001445061075],[139.77277570070618,35.59107208741827]]]}},{"type":"Feature","properties":{"height":3.0,"gml_id":"bldg_215329f7-44b6-4ee3-aa20-515034f932ed"},"geometry":{"type":"Polygon","coordinates":[[[139.77283879837702,35.591104749248636],[139.77281927271346,35.591095545317806],[139.772868542726,35.59102598310907],[139.77285398128868,35.59101903513708],[139.77287088326003,35.590995247048106],[139.772904970343,35.591011398938335],[139.77283879837702,35.591104749248636]]]}},{"type":"Feature","properties":{"height":4.8,"gml_id":"bldg_cdbbe424-bc87-4c0a-a034-159d1accbd28"},"geometry":{"type":"Polygon","coordinates":[[[139.77285291819643,35.58920454593584],[139.77281344029504,35.589167659453906],[139.77291071173568,35.58909812129812],[139.77295029999854,35.58913500780393],[139.77285291819643,35.58920454593584]]]}},{"type":"Feature","properties":{"height":7.2,"gml_id":"bldg_1ce7b1a1-9dc3-4aa2-bb52-d17458b57aec"},"geometry":{"type":"Polygon","coordinates":[[[139.77041868458505,35.59160332829198],[139.77030369665493,35.59160173585798],[139.77030529891337,35.591528634364494],[139.77014605964598,35.59152629752281],[139.77014892318235,35.59139307430445],[139.77042314982117,35.59139700357162],[139.77041868458505,35.59160332829198]]]}},{"type":"Feature","properties":{"height":15.5,"gml_id":"bldg_18c51b88-c2a1-4f2a-9b07-ad90b43c41de"},"geometry":{"type":"Polygon","coordinates":[[[139.76883733897455,35.590876156300496],[139.7687988392172,35.590859279789136],[139.76884557581144,35.59078800523548],[139.76888418589763,35.5908048817911],[139.76883733897455,35.590876156300496]]]}},{"type":"Feature","properties":{"height":5.2,"gml_id":"bldg_5f960fcc-57d0-4e13-bb49-6807935fc900"},"geometry":{"type":"Polygon","coordinates":[[[139.76907665288314,35.590653011008655],[139.76898189151362,35.59061320936209],[139.76900100700962,35.590582662607304],[139.76909587870554,35.59062246429781],[139.76907665288314,35.590653011008655]]]}},{"type":"Feature","properties":{"height":8.6,"gml_id":"bldg_38ec424a-33f6-4546-be58-2aceced54ad3"},"geometry":{"type":"Polygon","coordinates":[[[139.77290820301695,35.588765328511485],[139.77274469046293,35.58887629712242],[139.77270598617673,35.58883814905255],[139.77286949870646,35.588727180493386],[139.77290820301695,35.588765328511485]]]}},{"type":"Feature","properties":{"height":3.3,"gml_id":"bldg_371b3972-e309-4c10-b901-d735cce127bd"},"geometry":{"type":"Polygon","coordinates":[[[139.77313368959395,35.58885837419244],[139.77316754048982,35.588894085961435],[139.773140381438,35.58891119872575],[139.77313409644896,35.58890452533403],[139.77308827942792,35.58893325663925],[139.77290147807958,35.5887567619773],[139.77295800425765,35.58872109543852],[139.77310498496473,35.58887638756242],[139.77313368959395,35.58885837419244]]]}},{"type":"Feature","properties":{"height":17.6,"gml_id":"bldg_42440918-50f8-431d-bc55-931faad71629"},"geometry":{"type":"Polygon","coordinates":[[[139.77065129433802,35.5913421379471],[139.7690847826825,35.59056035294061],[139.76910643602474,35.590530077937174],[139.76907819651757,35.59051654210668],[139.76911664210672,35.59046293017427],[139.76912513609665,35.590466900794716],[139.7691516502388,35.590429958121156],[139.769175697981,35.59044141851727],[139.76924794892867,35.59034068208283],[139.76926981588966,35.5903191505997],[139.76929233203248,35.590313844392455],[139.76932753791763,35.59030953644444],[139.7693585476802,35.59030865152295],[139.7693703553949,35.59030865778985],[139.7695583233092,35.5904004282797],[139.76957860810631,35.59042576793741],[139.7695913847906,35.590456331655595],[139.76959246059542,35.590491305972506],[139.76957853128258,35.59052266681187],[139.76955710132768,35.59054978717008],[139.76957530125023,35.59056025286802],[139.76963738386462,35.590479070882566],[139.77049041049986,35.59090289931575],[139.77042512612445,35.59098669408106],[139.77044873287173,35.59099806385361],[139.77046154888,35.59097887103529],[139.77049898664333,35.59094310556679],[139.77053420341701,35.590926538433884],[139.77056411221565,35.59092123584133],[139.77058982313187,35.59092305199913],[139.770625016984,35.590934427768765],[139.77077890280952,35.59100788049029],[139.7708076867636,35.5910314215794],[139.77082378001177,35.591055046218784],[139.7708322555127,35.59108299355465],[139.77082693682226,35.5911109337367],[139.77071646434226,35.591263571038695],[139.77074216653105,35.5912767446122],[139.77070791810095,35.591326483281115],[139.7706769215858,35.59130988168464],[139.77065129433802,35.5913421379471]]]}},{"type":"Feature","properties":{"height":49.2,"gml_id":"bldg_b4993bc0-40ad-472a-a11d-e0ff83582e77"},"geometry":{"type":"Polygon","coordinates":[[[139.77374000164986,35.590434026768705],[139.77417391941495,35.59011911623024],[139.7743345944131,35.59026666162817],[139.7742928589597,35.590296927737555],[139.77431656879756,35.590318662735505],[139.7743445028568,35.590298395241],[139.77435366125238,35.59029957152392],[139.77436182508782,35.59030264022868],[139.77436568570593,35.59030498571934],[139.7743689942975,35.59030769149396],[139.77437186121497,35.59031075760654],[139.77437417610585,35.59031418400311],[139.77437681941103,35.590321216101536],[139.77437703509358,35.59032806673537],[139.7743767031769,35.59032923837389],[139.77441177169746,35.59036143497819],[139.77441960593654,35.59036252047022],[139.7744277697809,35.59036558917048],[139.77443163047,35.59036784452053],[139.77443493906634,35.5903705502933],[139.77443780592256,35.590373706542785],[139.77444012088407,35.590377042799574],[139.77444276413104,35.59038416503498],[139.7744429805455,35.59039002414514],[139.77447606409106,35.590420416989964],[139.77448323628687,35.59042141201601],[139.77449140013962,35.59042448071194],[139.7744952607674,35.59042682619842],[139.77449856936832,35.59042953196944],[139.77450143629508,35.59043259807888],[139.77450375119497,35.590436024472915],[139.77450639451547,35.59044305656836],[139.7745066112644,35.590448464985876],[139.77454046673395,35.59047966943627],[139.7745487423972,35.5904807551352],[139.7745570166112,35.59048382388048],[139.77456076689097,35.590486169311035],[139.7745641858493,35.59048887513404],[139.77456705278067,35.590491941241886],[139.77456925733233,35.59049536758085],[139.77457190066048,35.59050239967478],[139.77457211668946,35.59050879961558],[139.77460277428267,35.59053684764059],[139.774611491298,35.590538023688794],[139.7746197655203,35.590541092429746],[139.7746235158046,35.59054343785833],[139.77462693476747,35.59054614367953],[139.77462980163745,35.590549299924355],[139.77463200625917,35.59055263612365],[139.7746346495289,35.590559758354644],[139.7746348653656,35.590566428710765],[139.7746653023627,35.59059438647364],[139.77467081928322,35.590595380682785],[139.77467986604964,35.59059835965707],[139.77468780810457,35.59060296058663],[139.77469155780213,35.590606117259526],[139.77469486575973,35.59060972441002],[139.77469773197743,35.59061378203815],[139.7746999357493,35.59061829003657],[139.77470136678812,35.59062315821316],[139.77470191604155,35.59062811609929],[139.77470169055178,35.590633163747064],[139.7747004731205,35.59063803063522],[139.77469848341565,35.590642626732084],[139.7746958319215,35.59064677181433],[139.77469273927818,35.590650556127756],[139.7746892056829,35.59065370925688],[139.77468147735988,35.590658663115185],[139.7746725363368,35.590661993889306],[139.7746673489581,35.59066307302677],[139.77466183091494,35.590663611171884],[139.7746560925604,35.590663608378335],[139.7746538856983,35.59066333688835],[139.77462573062078,35.59068396489976],[139.77462583781505,35.59068829160118],[139.774624288398,35.59069442026616],[139.7746209737272,35.59070000724008],[139.77461567289888,35.59070532283073],[139.77460827615207,35.59070955573763],[139.7746039712646,35.59071108599497],[139.77459944600005,35.590712165452125],[139.77459470049018,35.5907126138321],[139.77458995537535,35.590712521380944],[139.77458741758468,35.59071206945138],[139.7745520856363,35.590738012120035],[139.774552193222,35.59074179799054],[139.77455053351107,35.5907478364622],[139.77454732918605,35.59075342348785],[139.77454202834934,35.59075873907519],[139.77453463152784,35.590763062116025],[139.7745303266361,35.590764592370704],[139.77452569108036,35.590765581632745],[139.77452094556693,35.59076603000982],[139.77451631073623,35.590766027748096],[139.77451443499706,35.5907656662786],[139.77447821971455,35.59079223946394],[139.77447821806524,35.590794492926214],[139.77447666870083,35.5908005314507],[139.7744733540154,35.59080611842043],[139.77446805317035,35.590811434004465],[139.77446065634,35.59081575704071],[139.77445635144403,35.590817287292744],[139.77445171588437,35.59081827655191],[139.7744470806546,35.59081881511848],[139.7744421148273,35.59081872255366],[139.774407555654,35.59084412472589],[139.77440766349724,35.59084755004247],[139.77440600377332,35.59085358851204],[139.774402799434,35.59085917553373],[139.77439738822753,35.59086449106064],[139.77438999138855,35.59086881409252],[139.77438568648836,35.590870344341994],[139.77438116127803,35.59087133365242],[139.77437641575756,35.59087178202379],[139.7743716706336,35.59087168956403],[139.77437023623955,35.59087141844673],[139.774336229118,35.59089637017575],[139.77433633768572,35.590898803968976],[139.77433478830866,35.59090484249151],[139.77433147360907,35.590910429457224],[139.77432617274775,35.59091574503491],[139.7743187759002,35.59092006806236],[139.77431447099596,35.590921598309286],[139.7743098354285,35.590922587562986],[139.77430508990466,35.590923035931546],[139.77430001371778,35.59092294330681],[139.77426302542275,35.59095005687921],[139.77426313365729,35.59095294136493],[139.77426158427366,35.59095897988647],[139.77425826956676,35.59096456685012],[139.774252968697,35.59096988242454],[139.77424557184057,35.590974205447445],[139.77424126693202,35.59097573569172],[139.77423663136057,35.590976724942614],[139.77423199612022,35.59097726350087],[139.7742262578096,35.59097717054834],[139.7741909256945,35.59100302297127],[139.77419026151873,35.59100581693948],[139.7741882717756,35.5910104130276],[139.7741856201767,35.59101464823681],[139.77418252756155,35.5910183423984],[139.77417888351033,35.59102158559666],[139.77417115518682,35.59102644928339],[139.77416232445523,35.59102978007356],[139.774157137046,35.59103085918898],[139.77415161890787,35.59103148744918],[139.77414588059347,35.59103139449281],[139.77414003232374,35.59103076065108],[139.77413418465133,35.591029315562665],[139.77410782783068,35.591005325767625],[139.7741065093653,35.590997483068456],[139.77410750878667,35.59098901053866],[139.77408666587093,35.59097016134392],[139.77408313462882,35.59097006946949],[139.77407430755318,35.59096844263641],[139.7740669163342,35.59096510387686],[139.77406129136781,35.5909609547388],[139.774056991307,35.59095590486685],[139.77405401655025,35.59094941343027],[139.77405313910577,35.59094211177851],[139.77405347156122,35.59094021903308],[139.7740200567691,35.59091000618889],[139.7740188428827,35.59091000559151],[139.7740100158815,35.590908288615225],[139.77400262460418,35.59090503999018],[139.77399699964533,35.590900890849085],[139.77399269965827,35.590895750836324],[139.7739897248424,35.590889349536575],[139.77398884753745,35.59088186760729],[139.77395234503342,35.59084876879098],[139.7739455040655,35.590847503481044],[139.77393811279637,35.59084425485202],[139.77393248784514,35.590840105707876],[139.77392818786544,35.59083496569278],[139.77392521305694,35.5908285643914],[139.7739246648204,35.59082378677945],[139.77388694921757,35.59078969582132],[139.77387801181257,35.590788068919416],[139.77387062055166,35.59078482028623],[139.77386510602784,35.59078058105486],[139.77386080598893,35.590775531175794],[139.77385783118802,35.59076912987268],[139.77385706344973,35.59076272965866],[139.77381923761783,35.59072854848609],[139.7738117346773,35.59072710256463],[139.77380434342464,35.59072385392735],[139.77379871848873,35.590719704776895],[139.77379441852403,35.59071456475693],[139.77379144373066,35.59070816345212],[139.7737907855503,35.59070284495403],[139.77378295575897,35.59069572014223],[139.77373823873958,35.59072814790858],[139.77367527000843,35.59067033796241],[139.77370673751727,35.59064754848727],[139.7735918281626,35.59054193937047],[139.77369252453747,35.590468346063915],[139.77374000164986,35.590434026768705]]]}},{"type":"Feature","properties":{"height":24.1,"gml_id":"bldg_4a016104-3096-4388-9b93-e94a68c8a1da"},"geometry":{"type":"Polygon","coordinates":[[[139.77362348861425,35.589367540078015],[139.77420497040865,35.589911902975174],[139.77386004942645,35.59015718049936],[139.77370544307777,35.590012071209564],[139.77328661914834,35.58961912966998],[139.77350148314875,35.589458068810806],[139.77362348861425,35.589367540078015]]]}},{"type":"Feature","properties":{"height":27.7,"gml_id":"bldg_a53e0295-5cea-4dd9-90d9-8b82589afd4a"},"geometry":{"type":"Polygon","coordinates":[[[139.77316326207264,35.58915530534174],[139.77332059948276,35.58903829381078],[139.7736582684364,35.589341687540696],[139.77362348861425,35.589367540078015],[139.77350148314875,35.589458068810806],[139.77316326207264,35.58915530534174]]]}},{"type":"Feature","properties":{"height":26.1,"gml_id":"bldg_326e8e63-02b3-47c2-8ab8-ae8c6e6ce7ee"},"geometry":{"type":"Polygon","coordinates":[[[139.77112324656738,35.59024179112284],[139.77120785446613,35.590283749180095],[139.77091588763267,35.590676962860776],[139.77083006601134,35.59063446314062],[139.76963927292906,35.59004460417164],[139.76956878558985,35.59000968328897],[139.7698607565776,35.58961647283221],[139.7699368694268,35.58965419080009],[139.77112324656738,35.59024179112284]]]}},{"type":"Feature","properties":{"height":19.4,"gml_id":"bldg_a6b0b7a3-fdcf-4d7e-925c-304ae98886d7"},"geometry":{"type":"Polygon","coordinates":[[[139.76914134217998,35.59090137710452],[139.7691117789453,35.59088702933096],[139.76893020807182,35.59079877697254],[139.7690162677609,35.59068056118793],[139.76941779772642,35.59087565427282],[139.76933173841795,35.59099387034071],[139.76914134217998,35.59090137710452]]]}},{"type":"Feature","properties":{"height":32.9,"gml_id":"bldg_0695e078-2455-4c98-8d13-51ce72fa7558"},"geometry":{"type":"Polygon","coordinates":[[[139.7674574805654,35.58979942641714],[139.76781187660148,35.589323958529704],[139.76864535664117,35.5897384150561],[139.76829096362587,35.59021397550331],[139.76821452018297,35.59017598590548],[139.7674574805654,35.58979942641714]]]}},{"type":"Feature","properties":{"height":26.1,"gml_id":"bldg_4de74847-178e-4b20-a122-7b7333d9b5b4"},"geometry":{"type":"Polygon","coordinates":[[[139.7703966886875,35.58896955913052],[139.77166060250445,35.589601092159505],[139.7713656604447,35.58999484628543],[139.77128226643043,35.589953159377615],[139.7701133251034,35.58936908514343],[139.7700254097658,35.5893251415271],[139.77032024557104,35.588931390583525],[139.7703966886875,35.58896955913052]]]}},{"type":"Feature","properties":{"height":34.7,"gml_id":"bldg_698bedeb-ae2c-4410-aeec-51242168a0e7"},"geometry":{"type":"Polygon","coordinates":[[[139.77467624975623,35.588899426707805],[139.77483538115212,35.58904309475846],[139.77476736872418,35.58909299848613],[139.7747475187105,35.589074961129285],[139.7743632925912,35.589354834219904],[139.77422169702552,35.5892250554913],[139.77361683305347,35.588670946068504],[139.77354305900772,35.58860330557769],[139.77359307467387,35.5885669144017],[139.7736399416156,35.58860984357498],[139.77369536733818,35.588569488939335],[139.77364971337107,35.58852773218922],[139.77389669944654,35.588347847537484],[139.77393728067557,35.588385094767645],[139.77399082914997,35.58834609114778],[139.77395046841556,35.58830911445971],[139.77399971086757,35.588273263563444],[139.77407238229463,35.58833982157363],[139.77429910912915,35.58854743179797],[139.77434327276032,35.58851527395594],[139.7744752732719,35.58863621429288],[139.7744258091843,35.58867332721274],[139.77467624975623,35.588899426707805]]]}},{"type":"Feature","properties":{"height":33.6,"gml_id":"bldg_0435b657-ebe3-43c7-a447-a123f3bdaa4a"},"geometry":{"type":"Polygon","coordinates":[[[139.77102750761506,35.58719010096251],[139.7710741518276,35.587232850749956],[139.77063835991706,35.58754991263247],[139.77052522318507,35.587446104235234],[139.77049688389104,35.58742012955569],[139.77020654518859,35.58715379863463],[139.77017478778657,35.58712466723779],[139.76992502983524,35.586895584117556],[139.77036071058657,35.58657861485982],[139.77038585179417,35.58660161333142],[139.77102750761506,35.58719010096251]]]}},{"type":"Feature","properties":{"height":36.3,"gml_id":"bldg_22b5f80f-1435-490e-9879-e08a27961c65"},"geometry":{"type":"Polygon","coordinates":[[[139.7754841837472,35.58958676306318],[139.77550226933568,35.58960353751114],[139.77545335818118,35.58963884834115],[139.77542589894492,35.58961341608274],[139.77506960829618,35.5898703194912],[139.77509662649126,35.58989521078534],[139.77504694219087,35.589930971767664],[139.77503029021898,35.58991555002386],[139.77477797482877,35.58968214916811],[139.77474087717707,35.58970890228581],[139.77464515659912,35.58962024952932],[139.77468324793114,35.58959277581591],[139.7744223331113,35.589351257550106],[139.77489654002912,35.58900932246984],[139.77491219935175,35.589023752229146],[139.77493339781824,35.5890084389488],[139.77498180933574,35.58905317111699],[139.77493930203863,35.58908379763724],[139.77510780522869,35.58923972870679],[139.77514379844501,35.58921378618762],[139.77529432709383,35.58935303268315],[139.7752601003943,35.58937771415819],[139.77541062942134,35.589517140782185],[139.7754550137147,35.589485162921136],[139.77550541070877,35.589531878877104],[139.77546014314382,35.589564487302155],[139.7754841837472,35.58958676306318]]]}},{"type":"Feature","properties":{"height":34.6,"gml_id":"bldg_ef6557c8-fd15-4c96-9cb3-a4b6c9320a73"},"geometry":{"type":"Polygon","coordinates":[[[139.77265193569204,35.58924870294224],[139.7725943726919,35.58919540206686],[139.77247990847968,35.589089521674865],[139.77256481606608,35.58902628725284],[139.7725551122875,35.589016907950864],[139.77263416584844,35.58896070133394],[139.77264409012665,35.58897035115634],[139.7727299882357,35.588910271964615],[139.77276593556766,35.58894607503866],[139.77286099130157,35.5890345486855],[139.77289881193337,35.589074048339576],[139.77281699784263,35.58913268748384],[139.77282857654558,35.589143509922565],[139.77275250438555,35.58919710414598],[139.77273916081717,35.58918528928878],[139.77265193569204,35.58924870294224]]]}},{"type":"Feature","properties":{"height":36.6,"gml_id":"bldg_0fc20468-e065-42cd-886e-e1d2801f2a8a"},"geometry":{"type":"Polygon","coordinates":[[[139.77358974526481,35.59037482150688],[139.773488606228,35.59045012714095],[139.77254253101432,35.589602531731295],[139.7727894159094,35.589418142405336],[139.7735562770185,35.590120163561544],[139.7737247812295,35.59027402335178],[139.77363236504775,35.590342933586],[139.77358974526481,35.59037482150688]]]}},{"type":"Feature","properties":{"height":36.1,"gml_id":"bldg_03b0579b-d392-44e6-ac89-bc2c83385319"},"geometry":{"type":"Polygon","coordinates":[[[139.77161693179858,35.59215208008253],[139.77161472262281,35.592154783106324],[139.77157357584974,35.59213439072719],[139.77153325443717,35.59218881371352],[139.77096558494995,35.591907920137416],[139.77098314972469,35.59188422279855],[139.77101690532112,35.59190091587991],[139.77104264491052,35.591866135722626],[139.771905845385,35.590702169426],[139.77192539803772,35.59067576880219],[139.7718936284308,35.59065997836967],[139.77191384381442,35.59063276683868],[139.77252077874823,35.59093305560541],[139.77247747603622,35.590991443509665],[139.77161693179858,35.59215208008253]]]}},{"type":"Feature","properties":{"height":33.9,"gml_id":"bldg_ae44fa62-adfa-4263-bced-7143f39d40d6"},"geometry":{"type":"Polygon","coordinates":[[[139.76882875070518,35.585073752146535],[139.76888550133611,35.58503240888332],[139.7693048390072,35.58541608199025],[139.76870266063196,35.585854555296464],[139.76828332355396,35.58547088012314],[139.7682949166452,35.5854625034894],[139.76882875070518,35.585073752146535]]]}},{"type":"Feature","properties":{"height":27.6,"gml_id":"bldg_e2b9bd6a-ca68-4fce-bf2c-705d70eec47a"},"geometry":{"type":"Polygon","coordinates":[[[139.77361683305347,35.588670946068504],[139.77422169702552,35.5892250554913],[139.7741056515423,35.589315407484],[139.77349692583184,35.588760754738814],[139.77361683305347,35.588670946068504]]]}},{"type":"Feature","properties":{"height":24.2,"gml_id":"bldg_59ce1aff-e1d4-4f66-b22a-c39db2397fbd"},"geometry":{"type":"Polygon","coordinates":[[[139.77286099130157,35.5890345486855],[139.77276593556766,35.58894607503866],[139.77283792254474,35.58889509277202],[139.77292889112553,35.58898915290466],[139.77286099130157,35.5890345486855]]]}},{"type":"Feature","properties":{"height":18.8,"gml_id":"bldg_c4d7dbf3-93b7-495d-aed8-7d00214e1e03"},"geometry":{"type":"Polygon","coordinates":[[[139.76963927292906,35.59004460417164],[139.77083006601134,35.59063446314062],[139.77075681988447,35.59073997734443],[139.76956624584054,35.59015092902426],[139.76963927292906,35.59004460417164]]]}},{"type":"Feature","properties":{"height":16.1,"gml_id":"bldg_209091ee-5404-4cfd-822c-640519897646"},"geometry":{"type":"Polygon","coordinates":[[[139.7701133251034,35.58936908514343],[139.77128226643043,35.589953159377615],[139.7712304545445,35.590026685735715],[139.77005952655807,35.58944215927019],[139.7701133251034,35.58936908514343]]]}},{"type":"Feature","properties":{"height":19.8,"gml_id":"bldg_c27c81a3-a8ed-4168-9b66-b35e94f087cb"},"geometry":{"type":"Polygon","coordinates":[[[139.77112324656738,35.59024179112284],[139.7699368694268,35.58965419080009],[139.76999839950219,35.58957264777111],[139.77118157344594,35.590163130277055],[139.77112324656738,35.59024179112284]]]}},{"type":"Feature","properties":{"height":16.2,"gml_id":"bldg_37e755af-61cd-4e40-8edd-abcc2cf5d653"},"geometry":{"type":"Polygon","coordinates":[[[139.7691117789453,35.59088702933096],[139.76914134217998,35.59090137710452],[139.76911383268168,35.59094084312099],[139.7690840483707,35.59092694591552],[139.7691117789453,35.59088702933096]]]}},{"type":"Feature","properties":{"height":20.6,"gml_id":"bldg_88cb2d0c-5ec7-41d0-848a-214ff6c4b999"},"geometry":{"type":"Polygon","coordinates":[[[139.7674574805654,35.58979942641714],[139.76821452018297,35.59017598590548],[139.76817552368317,35.590227974761106],[139.76741925533588,35.58985249711513],[139.7674574805654,35.58979942641714]]]}},{"type":"Feature","properties":{"height":6.6,"gml_id":"bldg_f464438d-147e-4e9e-a519-a974d9c53bb1"},"geometry":{"type":"Polygon","coordinates":[[[139.771905845385,35.590702169426],[139.77104264491052,35.591866135722626],[139.77097105049126,35.59183292772896],[139.77183656733317,35.590671216584006],[139.771905845385,35.590702169426]]]}},{"type":"Feature","properties":{"height":10.1,"gml_id":"bldg_57a0e634-ea8a-4050-a34a-4428683ee1bc"},"geometry":{"type":"Polygon","coordinates":[[[139.77049688389104,35.58742012955569],[139.77052522318507,35.587446104235234],[139.7704985048218,35.58746402788511],[139.77050490081396,35.58746943953357],[139.77044218835172,35.58751348458852],[139.77037194594678,35.587449990362536],[139.77043554224326,35.587404593726305],[139.77047148985346,35.587437873612934],[139.77049688389104,35.58742012955569]]]}},{"type":"Feature","properties":{"height":22.2,"gml_id":"bldg_4bea8cc1-487f-4c63-ad9d-1541d275b4eb"},"geometry":{"type":"Polygon","coordinates":[[[139.77102750761506,35.58719010096251],[139.77038585179417,35.58660161333142],[139.77048290385386,35.5865291024169],[139.77112345305,35.587121825480445],[139.77102750761506,35.58719010096251]]]}},{"type":"Feature","properties":{"height":28.9,"gml_id":"bldg_0c3ba6ed-7c71-4254-8d79-16dfda72439d"},"geometry":{"type":"Polygon","coordinates":[[[139.7744223331113,35.589351257550106],[139.77468324793114,35.58959277581591],[139.77464515659912,35.58962024952932],[139.77474087717707,35.58970890228581],[139.77477797482877,35.58968214916811],[139.77503029021898,35.58991555002386],[139.7749056413101,35.59000021988657],[139.77429768093165,35.58944070413337],[139.7744223331113,35.589351257550106]]]}},{"type":"Feature","properties":{"height":29.8,"gml_id":"bldg_60319c52-558f-43c5-a7ac-f86117d803ca"},"geometry":{"type":"Polygon","coordinates":[[[139.77467624975623,35.588899426707805],[139.7744258091843,35.58867332721274],[139.7744752732719,35.58863621429288],[139.77434327276032,35.58851527395594],[139.77429910912915,35.58854743179797],[139.77407238229463,35.58833982157363],[139.77416888065693,35.58826829896345],[139.77477396053408,35.588830067535184],[139.77467624975623,35.588899426707805]]]}},{"type":"Feature","properties":{"height":16.7,"gml_id":"bldg_2f45cf79-9a15-4af8-b430-af0a08318178"},"geometry":{"type":"Polygon","coordinates":[[[139.77017478778657,35.58712466723779],[139.77020654518859,35.58715379863463],[139.77018093160737,35.587170100299254],[139.77018567403073,35.58717334777268],[139.77011821643845,35.58721766059086],[139.77004896647514,35.58715569905008],[139.7701188548997,35.58710733130917],[139.77015160342492,35.58713898712048],[139.77017478778657,35.58712466723779]]]}},{"type":"Feature","properties":{"height":30.1,"gml_id":"bldg_f546b110-1d33-45a6-8856-4cbef8ba2424"},"geometry":{"type":"Polygon","coordinates":[[[139.77161693179858,35.59215208008253],[139.77247747603622,35.590991443509665],[139.77261283053724,35.591056591787854],[139.7717418054069,35.59221515077405],[139.77161693179858,35.59215208008253]]]}},{"type":"Feature","properties":{"height":27.5,"gml_id":"bldg_82d7b970-5392-480f-aab8-9b20894bcc30"},"geometry":{"type":"Polygon","coordinates":[[[139.76882875070518,35.585073752146535],[139.7682949166452,35.5854625034894],[139.76826646849736,35.58543643808028],[139.76880019224853,35.58504759666403],[139.76882875070518,35.585073752146535]]]}},{"type":"Feature","properties":{"height":32.7,"gml_id":"bldg_e5d6de07-f99c-42d0-8e99-ef2904b1ba65"},"geometry":{"type":"Polygon","coordinates":[[[139.7735562770185,35.590120163561544],[139.7727894159094,35.589418142405336],[139.77256831508728,35.589214948997125],[139.7725943726919,35.58919540206686],[139.77265193569204,35.58924870294224],[139.77281889102304,35.58940310407103],[139.77316326207264,35.58915530534174],[139.77350148314875,35.589458068810806],[139.77328661914834,35.58961912966998],[139.77370544307777,35.590012071209564],[139.7735562770185,35.590120163561544]]]}},{"type":"Feature","properties":{"height":24.6,"gml_id":"bldg_7ff3aa1e-223d-4ee8-beb3-e7a8a5a71c40"},"geometry":{"type":"Polygon","coordinates":[[[139.77374000164986,35.590434026768705],[139.77369252453747,35.590468346063915],[139.77358974526481,35.59037482150688],[139.77363236504775,35.590342933586],[139.77374000164986,35.590434026768705]]]}},{"type":"Feature","properties":{"height":5.0,"gml_id":"bldg_dc0f27d7-00ca-4ef4-9070-091d4baae95b"},"geometry":{"type":"Polygon","coordinates":[[[139.76271279499016,35.59118027591386],[139.76264857003468,35.59117924674112],[139.7626494870133,35.591140397580574],[139.76271371193778,35.59114142675277],[139.76271279499016,35.59118027591386]]]}},{"type":"Feature","properties":{"height":10.3,"gml_id":"bldg_f305882b-2479-4b49-bc42-f173e7bbce52"},"geometry":{"type":"Polygon","coordinates":[[[139.76476125697278,35.58578459321875],[139.76461108010884,35.58577936978857],[139.7646280158946,35.58545920715219],[139.76477819216188,35.58546443056088],[139.76476125697278,35.58578459321875]]]}},{"type":"Feature","properties":{"height":3.6,"gml_id":"bldg_51baca99-e1cd-4b33-b475-4dd02cd50f34"},"geometry":{"type":"Polygon","coordinates":[[[139.76373256324467,35.58940730350731],[139.76369372094075,35.58940574871575],[139.76369551091352,35.58937762652598],[139.7637343531259,35.58937927145544],[139.76373256324467,35.58940730350731]]]}},{"type":"Feature","properties":{"height":7.1,"gml_id":"bldg_3ec65807-5b20-49d4-b945-6d3445ea8c35"},"geometry":{"type":"Polygon","coordinates":[[[139.76542465591368,35.5904928155636],[139.76536859680928,35.59049269382634],[139.76536874677709,35.59044582187882],[139.7654248058488,35.59044594361594],[139.76542465591368,35.5904928155636]]]}},{"type":"Feature","properties":{"height":2.4,"gml_id":"bldg_f201a8d7-619e-4125-860c-f7011d19a30e"},"geometry":{"type":"Polygon","coordinates":[[[139.76689105809234,35.58991674628571],[139.76685740142412,35.58991591648047],[139.76685808059892,35.5898952751311],[139.76689184768486,35.589896014858475],[139.76689105809234,35.58991674628571]]]}},{"type":"Feature","properties":{"height":4.2,"gml_id":"bldg_b52100d2-71bf-4893-8dcc-38d26429e1db"},"geometry":{"type":"Polygon","coordinates":[[[139.7661627906821,35.58509374894303],[139.7661614261886,35.585142062474354],[139.76612192314604,35.58514131934451],[139.7661231772426,35.58509309589069],[139.7661627906821,35.58509374894303]]]}},{"type":"Feature","properties":{"height":2.7,"gml_id":"bldg_f0e60db2-5a86-496b-99aa-0d7c805af095"},"geometry":{"type":"Polygon","coordinates":[[[139.76475420777894,35.58589879480456],[139.7647534179069,35.58591925581535],[139.76470696313217,35.585917967434575],[139.7647078633624,35.585897506486916],[139.76475420777894,35.58589879480456]]]}},{"type":"Feature","properties":{"height":2.2,"gml_id":"bldg_cab083de-2938-45d1-9ebb-90ab47a22ef8"},"geometry":{"type":"Polygon","coordinates":[[[139.76464022147462,35.58589692712437],[139.7646392100339,35.58591837953263],[139.7645988242386,35.585917184707455],[139.76459983576711,35.58589564216099],[139.76464022147462,35.58589692712437]]]}},{"type":"Feature","properties":{"height":8.4,"gml_id":"bldg_dc67b449-f72d-4eb5-a3fb-973e90a2e32b"},"geometry":{"type":"Polygon","coordinates":[[[139.76352556834934,35.58620131569821],[139.76352815326646,35.586147234043366],[139.7635984421928,35.586149528194746],[139.76359585732283,35.586203609851125],[139.76352556834934,35.58620131569821]]]}},{"type":"Feature","properties":{"height":13.1,"gml_id":"bldg_43f46366-dfcc-4e81-a69a-7c8b6f460ea2"},"geometry":{"type":"Polygon","coordinates":[[[139.76266925281033,35.5853491872937],[139.76264273240602,35.58589396940636],[139.76248262422516,35.58588882763793],[139.76250914571216,35.58534404556126],[139.76266925281033,35.5853491872937]]]}},{"type":"Feature","properties":{"height":16.5,"gml_id":"bldg_4794796a-3817-4aea-b7ef-41b409e6d9cb"},"geometry":{"type":"Polygon","coordinates":[[[139.76262251224844,35.5863009332665],[139.76257831959387,35.5872401513045],[139.76240927068898,35.587234823912326],[139.76245346531456,35.58629560593774],[139.76262251224844,35.5863009332665]]]}},{"type":"Feature","properties":{"height":3.1,"gml_id":"bldg_6d8e31d3-7b15-4ef5-8563-7ea71521c027"},"geometry":{"type":"Polygon","coordinates":[[[139.76702818659828,35.587421065594974],[139.76702872005964,35.587443239976594],[139.7669725518363,35.587444200589275],[139.76697190804194,35.58742202614665],[139.76702818659828,35.587421065594974]]]}},{"type":"Feature","properties":{"height":2.7,"gml_id":"bldg_24a3476f-10c4-4894-a1a3-e76e9415516d"},"geometry":{"type":"Polygon","coordinates":[[[139.7661172834183,35.58844841107418],[139.76611682265658,35.58847157642557],[139.76606871060804,35.58847091861499],[139.7660692817335,35.5884477533254],[139.7661172834183,35.58844841107418]]]}},{"type":"Feature","properties":{"height":34.2,"gml_id":"bldg_e1a04628-b241-4bf1-9b30-928c316d1075"},"geometry":{"type":"Polygon","coordinates":[[[139.76425808001483,35.586938350199894],[139.76358332097354,35.58691722974095],[139.76360224289556,35.58660220636004],[139.76427280602036,35.58662341444725],[139.76425808001483,35.586938350199894]]]}},{"type":"Feature","properties":{"height":40.4,"gml_id":"bldg_f960cc4d-1784-4f04-9b28-4ea28be12bea"},"geometry":{"type":"Polygon","coordinates":[[[139.7642692814827,35.58661575064844],[139.7636042398548,35.58658985852984],[139.76362197108188,35.58624797314139],[139.76428899667516,35.58627323532845],[139.7642692814827,35.58661575064844]]]}},{"type":"Feature","properties":{"height":35.0,"gml_id":"bldg_a61aeaaa-9364-403b-898d-317f45d57cc9"},"geometry":{"type":"Polygon","coordinates":[[[139.76480378811172,35.590778924363505],[139.763880047317,35.590749370992334],[139.76389770337943,35.590366472728014],[139.76417600496922,35.59037537617409],[139.76417948767823,35.59030353776837],[139.7648256943067,35.59032427811365],[139.76480378811172,35.590778924363505]]]}},{"type":"Feature","properties":{"height":11.8,"gml_id":"bldg_c929bfbc-5f07-4ac4-8db3-b97eccb1e0b5"},"geometry":{"type":"Polygon","coordinates":[[[139.76326602109341,35.587860976790964],[139.76311407652,35.58785385755789],[139.76312383734273,35.587670070715184],[139.76327567357657,35.5876744857161],[139.76326602109341,35.587860976790964]]]}},{"type":"Feature","properties":{"height":34.8,"gml_id":"bldg_c6fcfae0-1248-4af9-87c8-1c00e844e0ea"},"geometry":{"type":"Polygon","coordinates":[[[139.76568015950807,35.589006033991616],[139.7647684679622,35.58897532239335],[139.76478530137922,35.58864587557609],[139.76487391011992,35.588648810371375],[139.76487267577997,35.58867287666314],[139.76560637389835,35.58869762858123],[139.7656079451426,35.588666351387225],[139.76569721603815,35.588669285949315],[139.76568015950807,35.589006033991616]]]}},{"type":"Feature","properties":{"height":28.9,"gml_id":"bldg_615935b6-e59b-424c-9db6-30cc196aeede"},"geometry":{"type":"Polygon","coordinates":[[[139.76572960639209,35.58676278333826],[139.76506301475575,35.58674095463495],[139.7650899657207,35.58618995273878],[139.7655139067009,35.58620380294834],[139.765491451311,35.58666142390148],[139.76573420913388,35.58666940235114],[139.76572960639209,35.58676278333826]]]}},{"type":"Feature","properties":{"height":19.6,"gml_id":"bldg_41393721-bbec-4e12-9fa6-50c23ee421a1"},"geometry":{"type":"Polygon","coordinates":[[[139.7650769505669,35.59086371943925],[139.76481895109995,35.590856091555224],[139.76482525374874,35.590711873508724],[139.76508336310667,35.59071950144142],[139.7650769505669,35.59086371943925]]]}},{"type":"Feature","properties":{"height":19.7,"gml_id":"bldg_19e504bc-3870-4f3e-9dd0-182b59082707"},"geometry":{"type":"Polygon","coordinates":[[[139.7667949917849,35.58972262502602],[139.7666907106578,35.589721125194835],[139.7666955308911,35.5894973138727],[139.76679970137675,35.58949881363855],[139.7667949917849,35.58972262502602]]]}},{"type":"Feature","properties":{"height":5.6,"gml_id":"bldg_865c4089-3b87-46eb-99db-80d3e2e01814"},"geometry":{"type":"Polygon","coordinates":[[[139.76646788713086,35.58337840041463],[139.76637332344043,35.583378077504044],[139.7663399148993,35.58334759208332],[139.76633882626007,35.58332983416801],[139.76636564018318,35.583329127959246],[139.76636717042513,35.58334661570377],[139.76638382237698,35.58335843311453],[139.76645697951562,35.583358744141904],[139.76647773372642,35.58334703763308],[139.7664774138608,35.58333360679969],[139.76650025484057,35.583333619466366],[139.76649957390947,35.58335633402374],[139.76646788713086,35.58337840041463]]]}},{"type":"Feature","properties":{"height":30.5,"gml_id":"bldg_4c2aee9e-5942-4695-9c8e-b3a4ae317ed3"},"geometry":{"type":"Polygon","coordinates":[[[139.76491994177547,35.590705888012366],[139.76480760440958,35.590703480593056],[139.76482243103607,35.590398279987404],[139.76493222948315,35.590401136644516],[139.76491994177547,35.590705888012366]]]}},{"type":"Feature","properties":{"height":12.2,"gml_id":"bldg_ad67065a-c174-4944-aff0-740e2346f601"},"geometry":{"type":"Polygon","coordinates":[[[139.76321076598032,35.591495532249816],[139.76321492180855,35.59141339685438],[139.76379271901746,35.59143248042747],[139.76378867517676,35.59151468441279],[139.76321076598032,35.591495532249816]]]}},{"type":"Feature","properties":{"height":2.8,"gml_id":"bldg_b25d9c98-6ddb-448a-a646-ed15fb255533"},"geometry":{"type":"Polygon","coordinates":[[[139.76537080612454,35.588270239240465],[139.765372148602,35.588248606743896],[139.7654198180472,35.588250526522856],[139.7654184755825,35.58827215901996],[139.76537080612454,35.588270239240465]]]}},{"type":"Feature","properties":{"height":3.2,"gml_id":"bldg_69a5e110-6768-4a6a-bf83-b28b0d798f64"},"geometry":{"type":"Polygon","coordinates":[[[139.7654171446877,35.58828009046298],[139.7654162442296,35.588301002100565],[139.7653704500902,35.58829980448607],[139.7653712402105,35.58827889278661],[139.7654171446877,35.58828009046298]]]}},{"type":"Feature","properties":{"height":6.1,"gml_id":"bldg_840a501f-af63-40fd-8b28-f7c9de755511"},"geometry":{"type":"Polygon","coordinates":[[[139.76498527724718,35.588491040971945],[139.76498067214905,35.58858604439422],[139.7648129444515,35.588580721122106],[139.76481754982427,35.58848562756787],[139.76498527724718,35.588491040971945]]]}},{"type":"Feature","properties":{"height":3.5,"gml_id":"bldg_fefdb28b-cc85-4c78-a834-e9237d18968f"},"geometry":{"type":"Polygon","coordinates":[[[139.76466980843438,35.591308682296386],[139.7646710407987,35.59128704975596],[139.76474508581916,35.59128988621001],[139.7647438534747,35.59131151875121],[139.76466980843438,35.591308682296386]]]}},{"type":"Feature","properties":{"height":3.3,"gml_id":"bldg_1a3ebb06-8acc-4849-8618-e2f1dfb5b3c7"},"geometry":{"type":"Polygon","coordinates":[[[139.76373753705855,35.591310671450536],[139.76373922552108,35.59127236355878],[139.76379881508336,35.59127411058422],[139.76379701621738,35.591312508551624],[139.76373753705855,35.591310671450536]]]}},{"type":"Feature","properties":{"height":4.5,"gml_id":"bldg_480866fc-2dd8-46b0-b381-898530528f89"},"geometry":{"type":"Polygon","coordinates":[[[139.76465385221988,35.58867167050948],[139.76469379869067,35.58867205381929],[139.76469368149333,35.58868007608348],[139.76474631809114,35.588680646879205],[139.7647457363583,35.588715800582435],[139.7646531532452,35.58871484647638],[139.76465385221988,35.58867167050948]]]}},{"type":"Feature","properties":{"height":19.1,"gml_id":"bldg_6ecbe48e-12a8-4c13-b7d8-4a3f49b1289f"},"geometry":{"type":"Polygon","coordinates":[[[139.76418260104384,35.58591280025963],[139.76409885035343,35.58591013816284],[139.76413841845593,35.585066103060655],[139.76422205800102,35.58506867492752],[139.76418260104384,35.58591280025963]]]}},{"type":"Feature","properties":{"height":19.1,"gml_id":"bldg_f00a35c4-2ac9-46e2-8545-460adc5edd1a"},"geometry":{"type":"Polygon","coordinates":[[[139.76432119476863,35.58591450218715],[139.76423667164664,35.58591183974384],[139.76427700971462,35.58506897683885],[139.76436087127195,35.58507001638033],[139.76432119476863,35.58591450218715]]]}},{"type":"Feature","properties":{"height":29.3,"gml_id":"bldg_201e5bfc-904f-45e6-b149-3a1b4bfd2dcb"},"geometry":{"type":"Polygon","coordinates":[[[139.76349863492229,35.585576008692264],[139.7634962657655,35.58563576920809],[139.76340026705446,35.58563300939017],[139.76340150147328,35.58560930365598],[139.76337159840963,35.585608475055515],[139.76337416749448,35.585572691524405],[139.76349863492229,35.585576008692264]]]}},{"type":"Feature","properties":{"height":10.3,"gml_id":"bldg_f5f9990e-9498-49eb-93ab-493baf13ac38"},"geometry":{"type":"Polygon","coordinates":[[[139.76323052313538,35.58630227995043],[139.76322157531166,35.58644000650131],[139.76291459735066,35.586430903825836],[139.76291831417265,35.58634482365059],[139.7629888244996,35.586346487316725],[139.7629930628582,35.586294840381626],[139.76323052313538,35.58630227995043]]]}},{"type":"Feature","properties":{"height":31.7,"gml_id":"bldg_e712a4fe-14ba-4038-a5ec-98f7391180d8"},"geometry":{"type":"Polygon","coordinates":[[[139.76689477203766,35.587692038801805],[139.76689896522058,35.58769213125166],[139.76688662428182,35.58833796723816],[139.76620875260855,35.58832929887994],[139.76621429306272,35.5880373431759],[139.7662210989894,35.587683462967846],[139.76639500699983,35.58768572300148],[139.76689477203766,35.587692038801805]]]}},{"type":"Feature","properties":{"height":33.5,"gml_id":"bldg_f3ca2763-a5fb-4a9b-b92f-ecf95505e677"},"geometry":{"type":"Polygon","coordinates":[[[139.76467218632305,35.58800672883669],[139.76389214850087,35.58798149385091],[139.76388045178982,35.58798112655725],[139.76378963668105,35.587978370035806],[139.76381743374998,35.58735273429604],[139.7639224827869,35.587355859548545],[139.7639149546876,35.58751197521259],[139.763956996347,35.587513351497286],[139.76469498796348,35.58753721004765],[139.76467218632305,35.58800672883669]]]}},{"type":"Feature","properties":{"height":31.6,"gml_id":"bldg_7a43ebec-b434-488a-9d03-4a6a4eacef8b"},"geometry":{"type":"Polygon","coordinates":[[[139.76455692988586,35.588712357866704],[139.76473624438913,35.588717958505775],[139.7647245580225,35.588964030088164],[139.76377667078233,35.5889350931497],[139.76378858152484,35.58868812040362],[139.76397429599965,35.58869399628447],[139.76455692988586,35.588712357866704]]]}},{"type":"Feature","properties":{"height":26.8,"gml_id":"bldg_6dabcf50-6010-45bf-8d86-8be8cec2b27e"},"geometry":{"type":"Polygon","coordinates":[[[139.7638379185718,35.58918679529338],[139.76377656517448,35.589184776854],[139.76378504588902,35.58894843848736],[139.7647177053632,35.588976825860634],[139.7647039839671,35.58927986382981],[139.76462514195714,35.58921077278833],[139.76455507087283,35.589208659636775],[139.7638379185718,35.58918679529338]]]}},{"type":"Feature","properties":{"height":33.3,"gml_id":"bldg_8fd0bc95-6b5a-46f9-8d32-9bba3fa7070f"},"geometry":{"type":"Polygon","coordinates":[[[139.7632859872934,35.58786901072815],[139.7632918058346,35.58777671222239],[139.76374643063397,35.587792028693286],[139.76372320749547,35.588232071728804],[139.76327200002967,35.58821792895777],[139.7632859872934,35.58786901072815]]]}},{"type":"Feature","properties":{"height":34.0,"gml_id":"bldg_00bfd67c-d4c9-4dd9-8ce2-b638a1b384fe"},"geometry":{"type":"Polygon","coordinates":[[[139.76331218521253,35.58731016684658],[139.76377022817817,35.58732548521314],[139.76374832902863,35.58776606988328],[139.76329039335755,35.58775138246552],[139.7632947741318,35.58766277880341],[139.76331218521253,35.58731016684658]]]}},{"type":"Feature","properties":{"height":32.4,"gml_id":"bldg_a2771e23-10e6-4ab4-8b42-be1c342e562c"},"geometry":{"type":"Polygon","coordinates":[[[139.7653585864914,35.58823570928246],[139.76535701333034,35.588269149799686],[139.76493328173075,35.588255839987305],[139.76493429228023,35.588235379108504],[139.76478797252716,35.58823078905705],[139.7648281780905,35.58740856794691],[139.76569516279258,35.58743682027066],[139.7657157790962,35.587459276341775],[139.7657008372023,35.58777502335588],[139.7653626263896,35.587764377029124],[139.7652629838605,35.587761256085166],[139.76524455580505,35.58815199633762],[139.76534353672045,35.588155116923666],[139.76536229568,35.588155668335354],[139.76536072168403,35.588190100376735],[139.7653585864914,35.58823570928246]]]}},{"type":"Feature","properties":{"height":36.0,"gml_id":"bldg_9aaf75a0-ad75-429c-8a1b-c90121d04d81"},"geometry":{"type":"Polygon","coordinates":[[[139.76428998386626,35.59103588644988],[139.76427585916522,35.59103524738808],[139.76393179022753,35.59101981634672],[139.76393000107777,35.59104703714767],[139.76390373796252,35.59104585022078],[139.76390552564243,35.59102034205114],[139.7638565303514,35.59101842090897],[139.76386856468037,35.59075621490227],[139.76430742207486,35.5907760270963],[139.76428998386626,35.59103588644988]]]}},{"type":"Feature","properties":{"height":35.7,"gml_id":"bldg_f2579570-e8ee-4e36-86a6-60ed8e4d4e6d"},"geometry":{"type":"Polygon","coordinates":[[[139.76613461220686,35.59200934325918],[139.76542753565082,35.59165641526638],[139.7653434811029,35.59161445347393],[139.76546732797547,35.59144893883622],[139.76554586706652,35.591488103147675],[139.76555382167794,35.591477291000395],[139.76549469676348,35.591447782443545],[139.76553325379206,35.59139624491239],[139.7655935920453,35.59142638510209],[139.76576085592586,35.59120284534962],[139.76647234233135,35.59155793718283],[139.76613461220686,35.59200934325918]]]}},{"type":"Feature","properties":{"height":31.8,"gml_id":"bldg_9ba053dd-c90e-4215-88cd-1b12fe7f6466"},"geometry":{"type":"Polygon","coordinates":[[[139.76291459735066,35.586430903825836],[139.76322157531166,35.58644000650131],[139.76323052313538,35.58630227995043],[139.7632373443296,35.58619898509892],[139.76356738166422,35.586210714320615],[139.7635179895354,35.587050687145314],[139.76294640825097,35.58702601729744],[139.7629492129397,35.58697346814676],[139.76296570096096,35.5866684488311],[139.7628918810337,35.5866655212771],[139.762880736335,35.586665064070466],[139.7628930802113,35.58643026028281],[139.76291459735066,35.586430903825836]]]}},{"type":"Feature","properties":{"height":25.0,"gml_id":"bldg_fcab25cb-24f4-48c9-9691-5803623e086f"},"geometry":{"type":"Polygon","coordinates":[[[139.76672740000762,35.59045703643291],[139.76622727765832,35.59112279253131],[139.76587517692593,35.59094628503873],[139.76592732195817,35.59087681741645],[139.76595147912238,35.590888999624205],[139.76599898393505,35.590825839072195],[139.7663993477886,35.590292712441574],[139.76672740000762,35.59045703643291]]]}},{"type":"Feature","properties":{"height":32.9,"gml_id":"bldg_2e2a4bc9-3c87-4a84-adfe-eeadf25b808c"},"geometry":{"type":"Polygon","coordinates":[[[139.76355767158148,35.58862678287298],[139.76373908317697,35.58863157496256],[139.76373001113424,35.58891352310112],[139.7627730709785,35.58889043204738],[139.762786649221,35.58863300430469],[139.76282670545964,35.58863401926739],[139.76282783211573,35.58860760933148],[139.7629477799404,35.58861083428668],[139.76355767158148,35.58862678287298]]]}},{"type":"Feature","properties":{"height":34.2,"gml_id":"bldg_a461f115-3ace-451d-8233-698f5cf0686f"},"geometry":{"type":"Polygon","coordinates":[[[139.76303968819752,35.589257451705684],[139.76303351456434,35.589376791530725],[139.76284779905805,35.58937037336826],[139.76285577413066,35.58921047226301],[139.76287104683325,35.58890806638135],[139.7637297761563,35.58893001831924],[139.76371350501373,35.589242248834644],[139.76352370693198,35.58923564907832],[139.76304170815817,35.58921896372702],[139.76303968819752,35.589257451705684]]]}},{"type":"Feature","properties":{"height":35.0,"gml_id":"bldg_fb10ada0-3df5-4e36-8fc7-44ce5905daa8"},"geometry":{"type":"Polygon","coordinates":[[[139.7650170349022,35.58682953480512],[139.7643217534496,35.58680660407483],[139.7643466852314,35.58629994938159],[139.76440527784604,35.586301875813184],[139.7649841421715,35.58632086414249],[139.76504196238818,35.58632278982658],[139.7650170349022,35.58682953480512]]]}},{"type":"Feature","properties":{"height":32.5,"gml_id":"bldg_15aec3bb-ec34-432d-990a-563272e6d5bd"},"geometry":{"type":"Polygon","coordinates":[[[139.76669179978555,35.58947216315745],[139.76635479030912,35.58946782997581],[139.76637024231252,35.588669301192716],[139.76637197427019,35.5885771805553],[139.7663727802691,35.58853688907008],[139.76681152754108,35.58854254033338],[139.7667935426586,35.589473481309234],[139.76669179978555,35.58947216315745]]]}},{"type":"Feature","properties":{"height":35.0,"gml_id":"bldg_82cd2377-8e0f-4802-b68d-6a67358d493d"},"geometry":{"type":"Polygon","coordinates":[[[139.76567533041379,35.589237056368304],[139.76475701519382,35.589206340964786],[139.76476801703,35.588986499316434],[139.76568644009473,35.589017214696405],[139.76567533041379,35.589237056368304]]]}},{"type":"Feature","properties":{"height":32.7,"gml_id":"bldg_ff13a665-c082-4e87-acbb-c0468c82f44f"},"geometry":{"type":"Polygon","coordinates":[[[139.76546276751137,35.58704593892487],[139.76545951302856,35.58711038617275],[139.76505620206,35.587096908013706],[139.76507348874742,35.58675159691938],[139.7654252670269,35.58676342350321],[139.765421899362,35.586831205816694],[139.7654735406375,35.58683294753506],[139.76546276751137,35.58704593892487]]]}},{"type":"Feature","properties":{"height":34.5,"gml_id":"bldg_e5ff7379-1db7-44b8-9b17-faa8a7a54b6e"},"geometry":{"type":"Polygon","coordinates":[[[139.76481349022637,35.585608762525574],[139.76485291600287,35.58505380157176],[139.76567760288216,35.58509284661295],[139.76565884181642,35.585357933709446],[139.76577017620858,35.58536322420645],[139.7657495185957,35.585653188494625],[139.76565021107012,35.585648445564225],[139.76481349022637,35.585608762525574]]]}},{"type":"Feature","properties":{"height":32.8,"gml_id":"bldg_9bca90f6-5b20-4117-ac17-e1d26c970dfb"},"geometry":{"type":"Polygon","coordinates":[[[139.76349863492229,35.585576008692264],[139.76337416749448,35.585572691524405],[139.76297218646224,35.58556182118422],[139.7629972323557,35.585060124359565],[139.76352566085708,35.58507764803265],[139.76349863492229,35.585576008692264]]]}},{"type":"Feature","properties":{"height":31.9,"gml_id":"bldg_8b9d6f0e-2848-4004-8c89-945aac5e0443"},"geometry":{"type":"Polygon","coordinates":[[[139.76376459232586,35.5903963219586],[139.76289922886696,35.59037130167885],[139.76280123825788,35.59036845008028],[139.76282507495068,35.58986440938427],[139.76291225007014,35.58986770533727],[139.76370201886454,35.589890608687256],[139.76378643595368,35.58989309116779],[139.76378271903283,35.58998016284323],[139.76376459232586,35.5903963219586]]]}},{"type":"Feature","properties":{"height":21.2,"gml_id":"bldg_5e03e1cb-8d90-4149-b820-8590ed0ba10d"},"geometry":{"type":"Polygon","coordinates":[[[139.76436990022412,35.591912799605666],[139.76380534010823,35.5918958897601],[139.76383888745184,35.591257998903146],[139.764398036302,35.59127427452644],[139.76436990022412,35.591912799605666]]]}},{"type":"Feature","properties":{"height":39.6,"gml_id":"bldg_f2e62313-7eb9-462b-9412-a3d7ca41b517"},"geometry":{"type":"Polygon","coordinates":[[[139.7650006417531,35.59027876733354],[139.76391403095084,35.59024398387803],[139.76393212269846,35.5898673955245],[139.7640266916756,35.58987042451314],[139.7647562083081,35.58989373698636],[139.76501861806858,35.589902178750854],[139.7650150236309,35.58997654100155],[139.7650006417531,35.59027876733354]]]}},{"type":"Feature","properties":{"height":30.5,"gml_id":"bldg_88632423-0648-4b02-90ad-4138491ab148"},"geometry":{"type":"Polygon","coordinates":[[[139.76478159955258,35.59117615218222],[139.76426957478162,35.591157020918494],[139.76427304977827,35.59109410622778],[139.76431001705367,35.591095479481844],[139.7643280602711,35.59077351503567],[139.76480311546905,35.59079127295803],[139.76479908053042,35.59086428286295],[139.76478159955258,35.59117615218222]]]}},{"type":"Feature","properties":{"height":12.2,"gml_id":"bldg_c26c8acf-80d5-4512-88f4-35066b775f23"},"geometry":{"type":"Polygon","coordinates":[[[139.76566135608925,35.590762823428506],[139.7657006853805,35.590711015855746],[139.76594854369614,35.590836357088705],[139.76586546613444,35.59094591904913],[139.76561760761115,35.590820577647385],[139.76566135608925,35.590762823428506]]]}},{"type":"Feature","properties":{"height":20.0,"gml_id":"bldg_ee3dcdaa-eec0-4dbd-b19e-626ade5ada27"},"geometry":{"type":"Polygon","coordinates":[[[139.76637197427019,35.5885771805553],[139.76637024231252,35.588669301192716],[139.76635479030912,35.58946782997581],[139.76669179978555,35.58947216315745],[139.76669006929382,35.58956293170872],[139.76631443680947,35.58955812635942],[139.766315590353,35.589498094734566],[139.76624551799478,35.589497154365986],[139.76626121742532,35.588667888493326],[139.76626171310386,35.58860280873514],[139.7662894328529,35.58857659383875],[139.76637197427019,35.5885771805553]]]}},{"type":"Feature","properties":{"height":26.8,"gml_id":"bldg_3950a9c8-7461-4407-bd67-d1829f754e71"},"geometry":{"type":"Polygon","coordinates":[[[139.7665493236527,35.591480370608],[139.76648557921314,35.591564704913324],[139.76647234233135,35.59155793718283],[139.76576085592586,35.59120284534962],[139.76578040973203,35.591177617527315],[139.76584569955267,35.591093284455106],[139.7665553105442,35.59144693253838],[139.76653553523371,35.59147333216321],[139.7665493236527,35.591480370608]]]}},{"type":"Feature","properties":{"height":10.7,"gml_id":"bldg_5a63c77f-5698-4b27-91ee-87ba13bd305b"},"geometry":{"type":"Polygon","coordinates":[[[139.7628918810337,35.5866655212771],[139.76296570096096,35.5866684488311],[139.7629492129397,35.58697346814676],[139.7628761648524,35.586970901588145],[139.7628918810337,35.5866655212771]]]}},{"type":"Feature","properties":{"height":30.3,"gml_id":"bldg_ae65528f-6b19-4023-b8fe-44d4f15d80f3"},"geometry":{"type":"Polygon","coordinates":[[[139.7638565303514,35.59101842090897],[139.76390552564243,35.59102034205114],[139.76390373796252,35.59104585022078],[139.76393000107777,35.59104703714767],[139.76393179022753,35.59101981634672],[139.76427585916522,35.59103524738808],[139.76428998386626,35.59103588644988],[139.76428607257958,35.591092851749885],[139.7642727198014,35.59109284409952],[139.76427126306478,35.59111862287954],[139.76385292403958,35.59110522221853],[139.7638565303514,35.59101842090897]]]}},{"type":"Feature","properties":{"height":31.0,"gml_id":"bldg_7bd54a89-deed-4e96-8e17-94dd61f14d86"},"geometry":{"type":"Polygon","coordinates":[[[139.76287104683325,35.58890806638135],[139.76285577413066,35.58921047226301],[139.76279861431402,35.589208185362295],[139.76281223173595,35.58890604893501],[139.76287104683325,35.58890806638135]]]}},{"type":"Feature","properties":{"height":30.8,"gml_id":"bldg_1f48395e-b28d-47c8-b515-8933df064bb2"},"geometry":{"type":"Polygon","coordinates":[[[139.76534353672045,35.588155116923666],[139.76524455580505,35.58815199633762],[139.7652629838605,35.587761256085166],[139.7653626263896,35.587764377029124],[139.76534353672045,35.588155116923666]]]}},{"type":"Feature","properties":{"height":4.5,"gml_id":"bldg_90728e9d-87b3-4fc1-ac9a-fdde6de2bb31"},"geometry":{"type":"Polygon","coordinates":[[[139.7653585864914,35.58823570928246],[139.76536072168403,35.588190100376735],[139.76539404664132,35.588190840274216],[139.76539279418841,35.58823653981668],[139.7653585864914,35.58823570928246]]]}},{"type":"Feature","properties":{"height":19.8,"gml_id":"bldg_5ed994f7-70e5-40cb-ba04-75fa7d5233d7"},"geometry":{"type":"Polygon","coordinates":[[[139.76455692988586,35.588712357866704],[139.76397429599965,35.58869399628447],[139.76397753673555,35.58864694582656],[139.7645578530044,35.58866521593209],[139.76455692988586,35.588712357866704]]]}},{"type":"Feature","properties":{"height":26.8,"gml_id":"bldg_6a86e0ba-b626-40ed-a1d9-0c943bd831de"},"geometry":{"type":"Polygon","coordinates":[[[139.76469498796348,35.58753721004765],[139.763956996347,35.587513351497286],[139.76396038409217,35.58742375571122],[139.76469737751978,35.587452571293596],[139.76469498796348,35.58753721004765]]]}},{"type":"Feature","properties":{"height":30.2,"gml_id":"bldg_a8531e40-d2cb-4c60-bff8-9c08be762272"},"geometry":{"type":"Polygon","coordinates":[[[139.76303968819752,35.589257451705684],[139.76304170815817,35.58921896372702],[139.76352370693198,35.58923564907832],[139.76351992197615,35.589273685350044],[139.76303968819752,35.589257451705684]]]}},{"type":"Feature","properties":{"height":31.1,"gml_id":"bldg_be8206be-ec37-4b09-9abf-3fdd83ee5298"},"geometry":{"type":"Polygon","coordinates":[[[139.76355767158148,35.58862678287298],[139.7629477799404,35.58861083428668],[139.76294925022898,35.58857000238217],[139.7635558332477,35.588583425166135],[139.76355767158148,35.58862678287298]]]}},{"type":"Feature","properties":{"height":22.9,"gml_id":"bldg_b52372f3-c45c-4b76-ac05-0a320d76b64f"},"geometry":{"type":"Polygon","coordinates":[[[139.76289922886696,35.59037130167885],[139.76376459232586,35.5903963219586],[139.7637629542784,35.59050394640906],[139.76289858575737,35.59047559157349],[139.76289922886696,35.59037130167885]]]}},{"type":"Feature","properties":{"height":25.0,"gml_id":"bldg_6f21daad-de5d-4ff3-830d-9cea69872663"},"geometry":{"type":"Polygon","coordinates":[[[139.76478159955258,35.59117615218222],[139.76479908053042,35.59086428286295],[139.7649127409789,35.59086831353464],[139.7648953717919,35.59117901113324],[139.76478159955258,35.59117615218222]]]}},{"type":"Feature","properties":{"height":31.4,"gml_id":"bldg_20b99f3c-e6cd-4f7d-89f1-b00b4e1a9d1f"},"geometry":{"type":"Polygon","coordinates":[[[139.7643217534496,35.58680660407483],[139.7650170349022,35.58682953480512],[139.76501366689038,35.58689731710607],[139.7643162863891,35.58687654848022],[139.7643217534496,35.58680660407483]]]}},{"type":"Feature","properties":{"height":18.8,"gml_id":"bldg_5e9e68b4-88e8-4452-ac18-e2e195b64a10"},"geometry":{"type":"Polygon","coordinates":[[[139.76689477203766,35.587692038801805],[139.76639500699983,35.58768572300148],[139.76639376324135,35.587589093767626],[139.76689518008018,35.58759883574896],[139.76689477203766,35.587692038801805]]]}},{"type":"Feature","properties":{"height":18.2,"gml_id":"bldg_fa5e1866-b57e-4c24-9247-f6abc8721aa2"},"geometry":{"type":"Polygon","coordinates":[[[139.76672740000762,35.59045703643291],[139.7663993477886,35.590292712441574],[139.7664544746056,35.59021946042095],[139.7667824162864,35.590383784203084],[139.76672740000762,35.59045703643291]]]}},{"type":"Feature","properties":{"height":30.4,"gml_id":"bldg_484eaf15-e905-4767-9c10-277bc0e83ce3"},"geometry":{"type":"Polygon","coordinates":[[[139.76370201886454,35.589890608687256],[139.76291225007014,35.58986770533727],[139.76292126069143,35.58965931031488],[139.76371224154366,35.58968194389],[139.76370201886454,35.589890608687256]]]}},{"type":"Feature","properties":{"height":9.8,"gml_id":"bldg_1bb7e5fe-85f7-475b-b270-cef405212ec2"},"geometry":{"type":"Polygon","coordinates":[[[139.76331218521253,35.58731016684658],[139.7632947741318,35.58766277880341],[139.76318652531094,35.58765883989449],[139.76318730726575,35.58764793358333],[139.763126396061,35.587646365763305],[139.76313136400304,35.587517380370194],[139.76319690967412,35.587519041023135],[139.76320103981453,35.5874648701479],[139.7631296466583,35.587462124428654],[139.7631362585582,35.58734602980426],[139.76320963780418,35.58734886681367],[139.76321287484518,35.58730650356946],[139.76331218521253,35.58731016684658]]]}},{"type":"Feature","properties":{"height":30.2,"gml_id":"bldg_e9d01c18-457b-4712-ae59-229d203a1834"},"geometry":{"type":"Polygon","coordinates":[[[139.76388045178982,35.58798112655725],[139.76389214850087,35.58798149385091],[139.76467218632305,35.58800672883669],[139.764666257845,35.588100379422166],[139.76387849753897,35.58807180482146],[139.76388045178982,35.58798112655725]]]}},{"type":"Feature","properties":{"height":13.5,"gml_id":"bldg_1135f2d1-aff2-4b11-b7d5-7c6c664e8e9b"},"geometry":{"type":"Polygon","coordinates":[[[139.76436990022412,35.591912799605666],[139.764398036302,35.59127427452644],[139.76452846938906,35.59128029819988],[139.7645001172619,35.59191458667653],[139.76436990022412,35.591912799605666]]]}},{"type":"Feature","properties":{"height":22.7,"gml_id":"bldg_5531742b-38e7-48cf-b0e6-4a46de9b6ee8"},"geometry":{"type":"Polygon","coordinates":[[[139.7638379185718,35.58918679529338],[139.76455507087283,35.589208659636775],[139.76455169288596,35.589287528932545],[139.76383630542117,35.58926575572512],[139.7638379185718,35.58918679529338]]]}},{"type":"Feature","properties":{"height":32.4,"gml_id":"bldg_b85d82fd-0a96-4a71-a2c0-3b92ac5afec8"},"geometry":{"type":"Polygon","coordinates":[[[139.7650006417531,35.59027876733354],[139.7650150236309,35.58997654100155],[139.76512581337767,35.58998093039909],[139.7651084525528,35.59028297478105],[139.7650006417531,35.59027876733354]]]}},{"type":"Feature","properties":{"height":11.4,"gml_id":"bldg_93464627-3316-47dd-aa08-23def59dd5dc"},"geometry":{"type":"Polygon","coordinates":[[[139.76481349022637,35.585608762525574],[139.76565021107012,35.585648445564225],[139.76564383615207,35.58574966762642],[139.76480744529707,35.58570998473123],[139.76481349022637,35.585608762525574]]]}},{"type":"Feature","properties":{"height":31.0,"gml_id":"bldg_2552b6a4-2ec7-4db9-893d-d66faaf54a72"},"geometry":{"type":"Polygon","coordinates":[[[139.76475701519382,35.589206340964786],[139.76567533041379,35.589237056368304],[139.76567535635957,35.58933738057919],[139.76564181007043,35.589336820912145],[139.7656341861478,35.58947941579933],[139.76529718104965,35.58946994176631],[139.76529862422862,35.58932932645971],[139.76475560227834,35.58931036003726],[139.76475701519382,35.589206340964786]]]}},{"type":"Feature","properties":{"height":11.2,"gml_id":"bldg_129e6730-5e79-4e65-913f-9d3064d97ae5"},"geometry":{"type":"Polygon","coordinates":[[[139.7632859872934,35.58786901072815],[139.76327200002967,35.58821792895777],[139.7631609900715,35.588215881330505],[139.76317208493276,35.58802073781322],[139.76309285648267,35.58801798751093],[139.7630987290223,35.587864124411595],[139.7632859872934,35.58786901072815]]]}},{"type":"Feature","properties":{"height":29.1,"gml_id":"bldg_eb94d1bf-e648-4a33-8923-2987444fe4da"},"geometry":{"type":"Polygon","coordinates":[[[139.7647562083081,35.58989373698636],[139.7640266916756,35.58987042451314],[139.76403096000806,35.58978344328403],[139.7647562819473,35.589807384314454],[139.7647562083081,35.58989373698636]]]}},{"type":"Feature","properties":{"height":30.4,"gml_id":"bldg_2141c97b-894c-4b97-b66b-fd997664a3db"},"geometry":{"type":"Polygon","coordinates":[[[139.7649841421715,35.58632086414249],[139.76440527784604,35.586301875813184],[139.76440965244393,35.5862189508159],[139.76498674863203,35.5862402817248],[139.7649841421715,35.58632086414249]]]}},{"type":"Feature","properties":{"height":3.6,"gml_id":"bldg_743b0513-70d8-40fb-a11f-db8a8f2dad8f"},"geometry":{"type":"Polygon","coordinates":[[[139.7657006853805,35.590711015855746],[139.76566135608925,35.590762823428506],[139.76563035984856,35.59074739233418],[139.76566858539468,35.59069585456733],[139.7657006853805,35.590711015855746]]]}},{"type":"Feature","properties":{"height":13.8,"gml_id":"bldg_505aabec-5863-4cc4-9999-5c12dcfcc0ee"},"geometry":{"type":"Polygon","coordinates":[[[139.76546276751137,35.58704593892487],[139.7654735406375,35.58683294753506],[139.76556303087204,35.58683507107263],[139.76555181704643,35.587047521391206],[139.76546276751137,35.58704593892487]]]}},{"type":"Feature","properties":{"height":7.5,"gml_id":"bldg_07be5d7b-4379-4907-a892-20ffdd5a925d"},"geometry":{"type":"Polygon","coordinates":[[[139.7662210989894,35.587683462967846],[139.76621429306272,35.5880373431759],[139.76617191928867,35.588036868879065],[139.76617263400195,35.587973862423404],[139.76614604005547,35.58797357718629],[139.76615047699622,35.587681891268595],[139.7662210989894,35.587683462967846]]]}},{"type":"Feature","properties":{"height":9.6,"gml_id":"bldg_98cb36d1-3fd1-4a22-9e8f-33b5fca92350"},"geometry":{"type":"Polygon","coordinates":[[[139.7663993477886,35.590292712441574],[139.76599898393505,35.590825839072195],[139.76595147912238,35.590888999624205],[139.76592732195817,35.59087681741645],[139.76597482678258,35.59081365687386],[139.76588172780595,35.59076700319322],[139.766282202495,35.590233877008814],[139.7663993477886,35.590292712441574]]]}},{"type":"Feature","properties":{"height":8.5,"gml_id":"bldg_e55d0ad8-6755-4166-b6e5-3b24d368c930"},"geometry":{"type":"Polygon","coordinates":[[[139.76274253190635,35.59162413534599],[139.76274062082834,35.591664065583956],[139.76270917040165,35.5916634161894],[139.7627104196072,35.59162321514859],[139.76274253190635,35.59162413534599]]]}},{"type":"Feature","properties":{"height":29.2,"gml_id":"bldg_1cc0eb9a-3f87-4e5f-8e5b-334a4dd3da86"},"geometry":{"type":"Polygon","coordinates":[[[139.76576085592586,35.59120284534962],[139.7655935920453,35.59142638510209],[139.76553325379206,35.59139624491239],[139.7654765555899,35.59136808978903],[139.7656614966575,35.59112031286335],[139.7657166503306,35.59114783516335],[139.7657431650494,35.59111233636267],[139.76578243448844,35.59113191843594],[139.7657571350333,35.59116579633467],[139.76578040973203,35.591177617527315],[139.76576085592586,35.59120284534962]]]}},{"type":"Feature","properties":{"height":30.8,"gml_id":"bldg_525156d1-0d9c-472b-b989-69fde3b7aa6d"},"geometry":{"type":"Polygon","coordinates":[[[139.76725306100104,35.58757478521253],[139.7672513462222,35.58764725568045],[139.76715655777508,35.5876457614573],[139.76715827263925,35.58757329099082],[139.76725306100104,35.58757478521253]]]}},{"type":"Feature","properties":{"height":30.3,"gml_id":"bldg_00f6e318-1065-43c4-97f0-c882fd6cdf04"},"geometry":{"type":"Polygon","coordinates":[[[139.76745520187376,35.58773155669496],[139.7674343432664,35.58773479028082],[139.76743572727892,35.58766177879904],[139.7674541505877,35.58766782815418],[139.76746804738153,35.587676579190024],[139.76747928827697,35.587694522906915],[139.76747927654125,35.5877088549325],[139.7674723137831,35.58772201135866],[139.76745520187376,35.58773155669496]]]}},{"type":"Feature","properties":{"height":36.4,"gml_id":"bldg_6bc02eee-1f57-4424-a961-1b51b56176e8"},"geometry":{"type":"Polygon","coordinates":[[[139.7674343432664,35.58773479028082],[139.76741959596518,35.58849446999879],[139.76712639911173,35.58849061362074],[139.76712330931247,35.58849061192346],[139.76694310966545,35.58848825933607],[139.76696246994976,35.5874928698654],[139.7671241289493,35.587495031962675],[139.76712721871033,35.58749503365989],[139.76715944013307,35.58749550204733],[139.76715827263925,35.58757329099082],[139.76715655777508,35.5876457614573],[139.7672513462222,35.58764725568045],[139.76743595816902,35.58764933980307],[139.76743572727892,35.58766177879904],[139.7674343432664,35.58773479028082]]]}},{"type":"Feature","properties":{"height":30.7,"gml_id":"bldg_01695c59-7ae5-441a-a2d4-115703c4a279"},"geometry":{"type":"Polygon","coordinates":[[[139.76745645330155,35.58849394931802],[139.76741959596518,35.58849446999879],[139.7674343432664,35.58773479028082],[139.76745520187376,35.58773155669496],[139.7674723137831,35.58772201135866],[139.76747927654125,35.5877088549325],[139.76746445478022,35.58829051097097],[139.76779185969792,35.588293934440166],[139.7677906133074,35.58833386514318],[139.76745901582248,35.588329357716496],[139.76745645330155,35.58849394931802]]]}},{"type":"Feature","properties":{"height":34.3,"gml_id":"bldg_bf2af407-1cb6-4993-9dd4-572436232206"},"geometry":{"type":"Polygon","coordinates":[[[139.7677906133074,35.58833386514318],[139.76778981801976,35.588497285911785],[139.76745645330155,35.58849394931802],[139.76745901582248,35.588329357716496],[139.7677906133074,35.58833386514318]]]}},{"type":"Feature","properties":{"height":22.2,"gml_id":"bldg_24d2cc4f-fc7d-4cd9-9ccf-b47e4f80748b"},"geometry":{"type":"Polygon","coordinates":[[[139.76726273765232,35.58909371533122],[139.767259135626,35.58931419223367],[139.76719160178803,35.58931289325264],[139.76720263350776,35.588646054337545],[139.76727005688005,35.588646812420386],[139.76726273765232,35.58909371533122]]]}},{"type":"Feature","properties":{"height":10.9,"gml_id":"bldg_6d79169c-4d90-47d0-8c62-5ca1c37edefd"},"geometry":{"type":"Polygon","coordinates":[[[139.7673850053063,35.58909504423299],[139.76738140361513,35.58931552113943],[139.76734752612126,35.58931514204298],[139.767259135626,35.58931419223367],[139.76726273765232,35.58909371533122],[139.7673850053063,35.58909504423299]]]}},{"type":"Feature","properties":{"height":18.6,"gml_id":"bldg_6f10e8fa-5b71-4908-9abb-733f0fb1604c"},"geometry":{"type":"Polygon","coordinates":[[[139.7672709646883,35.58942236496696],[139.76718941503825,35.589422410379754],[139.76719160178803,35.58931289325264],[139.767259135626,35.58931419223367],[139.76734752612126,35.58931514204298],[139.7672709646883,35.58942236496696]]]}},{"type":"Feature","properties":{"height":29.3,"gml_id":"bldg_5e39eb8d-bde6-4b2b-a134-846653df3600"},"geometry":{"type":"Polygon","coordinates":[[[139.76718941503825,35.589422410379754],[139.7671874539526,35.589525888346614],[139.76712554741383,35.58952513324789],[139.7671224575748,35.58952513155056],[139.76706408235611,35.58952428822158],[139.7668524305471,35.589521557646286],[139.76687145744847,35.58853067510574],[139.7671232736171,35.58853396854814],[139.76712636341804,35.58853397024542],[139.76720647672724,35.588535005749435],[139.76720263350776,35.588646054337545],[139.76719160178803,35.58931289325264],[139.76718941503825,35.589422410379754]]]}},{"type":"Feature","properties":{"height":20.0,"gml_id":"bldg_e78610e1-6550-4ffa-98c0-4a2b86cbe141"},"geometry":{"type":"Polygon","coordinates":[[[139.76706408235611,35.58952428822158],[139.76706061641232,35.58971285613534],[139.7668489639581,35.58971030583051],[139.7668524305471,35.589521557646286],[139.76706408235611,35.58952428822158]]]}},{"type":"Feature","properties":{"height":10.2,"gml_id":"bldg_73b65562-46b2-4776-b31b-fb5a3ce41558"},"geometry":{"type":"Polygon","coordinates":[[[139.7676075915245,35.59097482460743],[139.7675745596702,35.59101906460144],[139.76712450211926,35.59079473385409],[139.7671214134932,35.590793199802526],[139.76672088650645,35.5905935025574],[139.76675402900761,35.5905492628555],[139.76712146351676,35.59073244646758],[139.76712455214053,35.59073398051915],[139.7676075915245,35.59097482460743]]]}}]}