{"type":"FeatureCollection","crs":{"type":"name","properties":{"name":"urn:ogc:def:crs:OGC:1.3:CRS84"}},"features":[{"type":"Feature","properties":{"height":2.4,"gml_id":"bldg_6d397392-a940-4249-ac33-891356fa4f92"},"geometry":{"type":"Polygon","coordinates":[[[139.77078043128893,35.5944335946982],[139.77076443518095,35.59442610490203],[139.7707760356886,35.59440952544597],[139.7707920317944,35.59441701524062],[139.77078043128893,35.5944335946982]]]}},{"type":"Feature","properties":{"height":1.6,"gml_id":"bldg_b2e121e5-91d5-4696-9223-9e8b17f8df20"},"geometry":{"type":"Polygon","coordinates":[[[139.77244660834947,35.595322221669846],[139.77246315699895,35.595329170690135],[139.7724564170238,35.59533980362343],[139.77243986837271,35.595332854602226],[139.77244660834947,35.595322221669846]]]}},{"type":"Feature","properties":{"height":1.8,"gml_id":"bldg_49608aeb-ee7e-4634-a3e3-2a97266e8538"},"geometry":{"type":"Polygon","coordinates":[[[139.7724808074713,35.5953384638643],[139.77249900974473,35.595347757314414],[139.772492602488,35.595356227094754],[139.7724744002134,35.595346933643704],[139.7724808074713,35.5953384638643]]]}},{"type":"Feature","properties":{"height":11.2,"gml_id":"bldg_7d94e0da-6259-4815-8578-043862f86995"},"geometry":{"type":"Polygon","coordinates":[[[139.77229558889843,35.59596663519515],[139.77216806251477,35.59590076947556],[139.77228074048568,35.59575516287871],[139.77240826673102,35.595821028480515],[139.77229558889843,35.59596663519515]]]}},{"type":"Feature","properties":{"height":15.4,"gml_id":"bldg_d45a2526-76ac-4592-a64f-417b864df6f5"},"geometry":{"type":"Polygon","coordinates":[[[139.7657371194113,35.60000989909431],[139.7654366094043,35.59986010044862],[139.7655161624264,35.59975369181156],[139.76552289296876,35.59975576878175],[139.76559018299685,35.59966386547321],[139.76574816132126,35.59974102249215],[139.76568076081577,35.599833196240915],[139.76581877162985,35.59990051687084],[139.7657371194113,35.60000989909431]]]}},{"type":"Feature","properties":{"height":17.6,"gml_id":"bldg_dc77f927-e76b-476d-877d-a57964880aa1"},"geometry":{"type":"Polygon","coordinates":[[[139.76615579468964,35.598620199212355],[139.7659497245793,35.59851318002296],[139.76610230084455,35.59831721420652],[139.7663083706566,35.598424233138175],[139.76615579468964,35.598620199212355]]]}},{"type":"Feature","properties":{"height":6.4,"gml_id":"bldg_adcfa437-70a2-4932-9a5d-52bd6130db40"},"geometry":{"type":"Polygon","coordinates":[[[139.76831777599367,35.59540434449852],[139.7682636105792,35.59537826525372],[139.76832327165152,35.59529546021321],[139.76837743710246,35.595321449293095],[139.76831777599367,35.59540434449852]]]}},{"type":"Feature","properties":{"height":3.6,"gml_id":"bldg_b87f7420-4326-402f-8696-21ffc11231d0"},"geometry":{"type":"Polygon","coordinates":[[[139.77035259910025,35.59609038709082],[139.77032534940335,35.596078474573154],[139.77035529265672,35.59603306044904],[139.77038254227207,35.5960450630984],[139.77035259910025,35.59609038709082]]]}},{"type":"Feature","properties":{"height":4.8,"gml_id":"bldg_c217631c-f8d2-4075-a599-1105be43a985"},"geometry":{"type":"Polygon","coordinates":[[[139.77025552069287,35.59604094045383],[139.77022716763616,35.59602875692108],[139.7702553438892,35.59598496438817],[139.77028369700545,35.59599705777595],[139.77025552069287,35.59604094045383]]]}},{"type":"Feature","properties":{"height":7.2,"gml_id":"bldg_5c828891-eaec-4cc5-b5c7-dd99710a5efc"},"geometry":{"type":"Polygon","coordinates":[[[139.77155644939282,35.594604086256595],[139.77131705842135,35.59449156064404],[139.7713389333265,35.59446047412722],[139.7715783241669,35.59457308983529],[139.77155644939282,35.594604086256595]]]}},{"type":"Feature","properties":{"height":2.9,"gml_id":"bldg_b6d57c2a-1818-476f-81c3-893c965e4fc1"},"geometry":{"type":"Polygon","coordinates":[[[139.76837868528162,35.59527908489305],[139.7683450401962,35.59526112920295],[139.7683870190951,35.59520869125215],[139.768420664168,35.595226646930655],[139.76837868528162,35.59527908489305]]]}},{"type":"Feature","properties":{"height":3.8,"gml_id":"bldg_c2ac3589-8388-4c6d-a953-8612b9234933"},"geometry":{"type":"Polygon","coordinates":[[[139.76844130083313,35.59522728901314],[139.7683778706421,35.59519462472298],[139.76844415555027,35.59510866834381],[139.76850758577322,35.59514124246112],[139.76844130083313,35.59522728901314]]]}},{"type":"Feature","properties":{"height":13.0,"gml_id":"bldg_f7f8981e-6657-4024-ab75-848bbc5c64ab"},"geometry":{"type":"Polygon","coordinates":[[[139.7678003161721,35.592405968479184],[139.76921958492505,35.593113057048534],[139.76919053000515,35.593152161691584],[139.76776496460698,35.59245237057716],[139.7678003161721,35.592405968479184]]]}},{"type":"Feature","properties":{"height":3.3,"gml_id":"bldg_731b93f6-f748-4a53-8ac9-aa9fe7346992"},"geometry":{"type":"Polygon","coordinates":[[[139.76406518190547,35.59566130366673],[139.76403683038916,35.59564857784766],[139.76405196902118,35.59562614207839],[139.76408032045438,35.59563895803235],[139.76406518190547,35.59566130366673]]]}},{"type":"Feature","properties":{"height":13.0,"gml_id":"bldg_eb1e1389-6ca4-41b5-954c-953a85ca516e"},"geometry":{"type":"Polygon","coordinates":[[[139.76401888270732,35.595729061157385],[139.76401846123954,35.59570589533492],[139.7640516799486,35.59570546374346],[139.76405210142596,35.59572862956581],[139.76401888270732,35.595729061157385]]]}},{"type":"Feature","properties":{"height":3.8,"gml_id":"bldg_b8c89f20-fc00-4098-839a-563529b9ce8e"},"geometry":{"type":"Polygon","coordinates":[[[139.76408021335556,35.595635172156115],[139.76405726900805,35.59562299027944],[139.7640738409083,35.5956021778232],[139.7640967852524,35.595614359696754],[139.76408021335556,35.595635172156115]]]}},{"type":"Feature","properties":{"height":4.4,"gml_id":"bldg_ecf27294-62f7-4de4-9ab9-fa6dea8b4b5b"},"geometry":{"type":"Polygon","coordinates":[[[139.76298474446054,35.5970651247745],[139.7629343273028,35.59704436349692],[139.7629565455129,35.59700381418287],[139.76301082389048,35.59702620019603],[139.76298474446054,35.5970651247745]]]}},{"type":"Feature","properties":{"height":58.9,"gml_id":"bldg_e09b8da1-271c-457e-a71b-640e33748064"},"geometry":{"type":"Polygon","coordinates":[[[139.7676616242618,35.59548322044076],[139.76716719710464,35.5952345284384],[139.76760480486573,35.59465391567375],[139.7680993401705,35.59490260596221],[139.7676616242618,35.59548322044076]]]}},{"type":"Feature","properties":{"height":11.4,"gml_id":"bldg_6fe34df1-e3dc-4523-b8ec-4d28efb88130"},"geometry":{"type":"Polygon","coordinates":[[[139.769636176863,35.59520683405627],[139.76921145663943,35.595002625507874],[139.7694711967632,35.594642299717975],[139.76960633431895,35.59470736108151],[139.76966058002427,35.59463203399768],[139.76995005091558,35.59477118009132],[139.769636176863,35.59520683405627]]]}},{"type":"Feature","properties":{"height":7.6,"gml_id":"bldg_f52a648e-4afb-452c-bdfa-1cb8df825699"},"geometry":{"type":"Polygon","coordinates":[[[139.7687963692013,35.59558668140027],[139.7686294635023,35.5955014110735],[139.76875286470317,35.59534021957259],[139.76891977019898,35.59542548973056],[139.7687963692013,35.59558668140027]]]}},{"type":"Feature","properties":{"height":8.3,"gml_id":"bldg_ba788dad-4fb8-4080-8089-e673bdc1d69c"},"geometry":{"type":"Polygon","coordinates":[[[139.76522414689984,35.59635314576851],[139.76501863089265,35.596251713846726],[139.76513154897873,35.59609908328727],[139.7653370647389,35.59620051501883],[139.76522414689984,35.59635314576851]]]}},{"type":"Feature","properties":{"height":5.9,"gml_id":"bldg_c3938e9f-1e2e-401c-93b4-92422237a8b7"},"geometry":{"type":"Polygon","coordinates":[[[139.76537168197814,35.59937629113254],[139.7653136537548,35.59934822535522],[139.7653571896098,35.599287947336286],[139.76541532714222,35.59931592301616],[139.76537168197814,35.59937629113254]]]}},{"type":"Feature","properties":{"height":7.6,"gml_id":"bldg_3328f0b9-22e4-4aa3-899b-c1b830509362"},"geometry":{"type":"Polygon","coordinates":[[[139.76420602675134,35.595631458571255],[139.76409968968997,35.59557361878784],[139.76414233352133,35.595521362978666],[139.7642486705444,35.59557920272493],[139.76420602675134,35.595631458571255]]]}},{"type":"Feature","properties":{"height":24.8,"gml_id":"bldg_331a6e4a-433e-4199-bb74-ace4ed099a1f"},"geometry":{"type":"Polygon","coordinates":[[[139.76911277660307,35.59516473204821],[139.7691330748391,35.59517456795433],[139.7692201338078,35.59505427946017],[139.7694618376888,35.595171046959955],[139.7692347996337,35.595484518100236],[139.76912867460607,35.59543326297049],[139.76911596922366,35.59545083319916],[139.7690557361243,35.59542177650829],[139.76907054072265,35.59540123283633],[139.76899265702198,35.5953636035479],[139.7690822573336,35.595239981391266],[139.76906449634083,35.59523140876811],[139.76911277660307,35.59516473204821]]]}},{"type":"Feature","properties":{"height":5.4,"gml_id":"bldg_05bff8c3-3b7e-4b3d-bcdb-1f6efa72e2c1"},"geometry":{"type":"Polygon","coordinates":[[[139.76911277660307,35.59516473204821],[139.76906449634083,35.59523140876811],[139.76897613121082,35.595190619032266],[139.76902937847342,35.59512295347462],[139.76911277660307,35.59516473204821]]]}},{"type":"Feature","properties":{"height":35.4,"gml_id":"bldg_be2bafd1-2160-4a8d-8e6a-658e18180c65"},"geometry":{"type":"Polygon","coordinates":[[[139.76585583976708,35.59373804369681],[139.76503225860495,35.59333087496798],[139.76522383610356,35.59307228594059],[139.76556778379347,35.593242300723276],[139.76567793435794,35.593093634109884],[139.76572382354982,35.59311628462058],[139.76573354589416,35.59310321999396],[139.7657816413251,35.593126953381855],[139.7657714770301,35.593140648733936],[139.76582288174825,35.593166096591496],[139.76571306280087,35.59331431282932],[139.76604741551603,35.59347954351436],[139.76585583976708,35.59373804369681]]]}},{"type":"Feature","properties":{"height":33.3,"gml_id":"bldg_031debb1-8bed-4e3d-8277-f62a398c7be8"},"geometry":{"type":"Polygon","coordinates":[[[139.7663000783172,35.59288296754941],[139.76508479857918,35.59227871815987],[139.76523085415587,35.59208274954569],[139.7653041026535,35.59198444980951],[139.76651948995487,35.5925886970754],[139.7663000783172,35.59288296754941]]]}},{"type":"Feature","properties":{"height":3.2,"gml_id":"bldg_138af660-d99d-4ab8-84c6-895a5f499c39"},"geometry":{"type":"Polygon","coordinates":[[[139.7653816327765,35.592956907611686],[139.7653915764024,35.59294321216769],[139.7654060271094,35.592950251114985],[139.76539608348511,35.592963946560154],[139.7653816327765,35.592956907611686]]]}},{"type":"Feature","properties":{"height":2.5,"gml_id":"bldg_ae351453-c0a0-4861-9752-f49cc05bed6d"},"geometry":{"type":"Polygon","coordinates":[[[139.76273635155093,35.59175041576927],[139.76273163332735,35.59184532884779],[139.76270536973203,35.591844412075005],[139.76271008790735,35.591749589135986],[139.76273635155093,35.59175041576927]]]}},{"type":"Feature","properties":{"height":29.6,"gml_id":"bldg_677d19c0-281f-4cfb-b79f-21f2a2eeb930"},"geometry":{"type":"Polygon","coordinates":[[[139.76378867517676,35.59151468441279],[139.7637705924329,35.591879644779645],[139.76273163332735,35.59184532884779],[139.76273635155093,35.59175041576927],[139.76274062082834,35.591664065583956],[139.76274253190635,35.59162413534599],[139.76274972085758,35.59148027850166],[139.76321076598032,35.591495532249816],[139.76378867517676,35.59151468441279]]]}},{"type":"Feature","properties":{"height":4.8,"gml_id":"bldg_1d4418ea-d589-42aa-af21-762e6e47a1cb"},"geometry":{"type":"Polygon","coordinates":[[[139.76677209666235,35.5935187054623],[139.7667424869792,35.59355979225198],[139.7667072970858,35.5935429169083],[139.76673690678066,35.59350183012716],[139.76677209666235,35.5935187054623]]]}},{"type":"Feature","properties":{"height":6.9,"gml_id":"bldg_fcc6f1bf-386a-415b-b966-7ce93992f1d9"},"geometry":{"type":"Polygon","coordinates":[[[139.76535046397998,35.59431933309575],[139.76535351932722,35.594360347820846],[139.7652023225694,35.59436765379739],[139.765199267299,35.594326639068605],[139.76535046397998,35.59431933309575]]]}},{"type":"Feature","properties":{"height":8.1,"gml_id":"bldg_4f6189cb-8e59-49e4-8b45-257dbdf1c84d"},"geometry":{"type":"Polygon","coordinates":[[[139.76516426002237,35.59214184275305],[139.7651375633672,35.59213092089201],[139.76515580709247,35.5920894675041],[139.76518967145924,35.59210670310888],[139.76516426002237,35.59214184275305]]]}},{"type":"Feature","properties":{"height":2.9,"gml_id":"bldg_eb668ad9-33a0-4d8e-a4b8-d0cca28da171"},"geometry":{"type":"Polygon","coordinates":[[[139.76305456164374,35.59307284329029],[139.76301637924732,35.5930718294961],[139.7630170569136,35.59305407261033],[139.76305534965783,35.59305508646863],[139.76305456164374,35.59307284329029]]]}},{"type":"Feature","properties":{"height":2.7,"gml_id":"bldg_fabef089-7059-44aa-a72e-3caef3a35ae4"},"geometry":{"type":"Polygon","coordinates":[[[139.76254866646602,35.592972313238725],[139.7625482541636,35.59293923217285],[139.7625813612221,35.59293898119721],[139.76258177361746,35.592971972124545],[139.76254866646602,35.592972313238725]]]}},{"type":"Feature","properties":{"height":2.5,"gml_id":"bldg_29132b85-9125-474e-87fe-1bfbc226e416"},"geometry":{"type":"Polygon","coordinates":[[[139.7625795024866,35.59304471254746],[139.76255533495197,35.593044157526364],[139.7625559026017,35.5930261301631],[139.76258007021022,35.59302659504566],[139.7625795024866,35.59304471254746]]]}},{"type":"Feature","properties":{"height":6.6,"gml_id":"bldg_643ecc51-637a-4acc-8cd2-3cc60837fca3"},"geometry":{"type":"Polygon","coordinates":[[[139.7627696692618,35.59301859373795],[139.7626956213751,35.59301728842279],[139.76269836438914,35.59290975481873],[139.76278642723452,35.59291124861349],[139.7627840307497,35.593001295556626],[139.7627701260325,35.593001107139564],[139.7627696692618,35.59301859373795]]]}},{"type":"Feature","properties":{"height":3.2,"gml_id":"bldg_99952f8a-60dd-43b9-a097-8172109cde28"},"geometry":{"type":"Polygon","coordinates":[[[139.7625654483974,35.59396655049044],[139.76248091711074,35.593963616394525],[139.76248226546727,35.593936305231],[139.76256679672525,35.593939239325955],[139.7625654483974,35.59396655049044]]]}},{"type":"Feature","properties":{"height":4.1,"gml_id":"bldg_e0d95d44-b497-41ab-9280-9185be786271"},"geometry":{"type":"Polygon","coordinates":[[[139.76496448496064,35.59295874488338],[139.76477497649097,35.59286092711277],[139.7648629165533,35.59274740260979],[139.76505231450693,35.592845220181296],[139.76496448496064,35.59295874488338]]]}},{"type":"Feature","properties":{"height":2.9,"gml_id":"bldg_35795ace-a2d4-4458-8ba0-6fe242d46e04"},"geometry":{"type":"Polygon","coordinates":[[[139.76528649984488,35.59309431512686],[139.76524149424972,35.59307094384099],[139.7652706599657,35.593033552844204],[139.76531566554846,35.59305692411932],[139.76528649984488,35.59309431512686]]]}},{"type":"Feature","properties":{"height":4.6,"gml_id":"bldg_2a3f7cd6-a77c-4067-b7a2-fdda035cd760"},"geometry":{"type":"Polygon","coordinates":[[[139.7653713924172,35.59423560626406],[139.76534348171265,35.5942239626597],[139.76537022434817,35.5941813422481],[139.76539813496564,35.594193075984776],[139.7653713924172,35.59423560626406]]]}},{"type":"Feature","properties":{"height":5.3,"gml_id":"bldg_2c945980-2112-4580-b082-f2ff9dc7723d"},"geometry":{"type":"Polygon","coordinates":[[[139.76271512732603,35.59191724970101],[139.7626843392453,35.59191624013405],[139.76268580094043,35.59188541362381],[139.76271669936398,35.59188642325505],[139.76271512732603,35.59191724970101]]]}},{"type":"Feature","properties":{"height":7.0,"gml_id":"bldg_594b9139-1493-46f7-b694-0bdb21516630"},"geometry":{"type":"Polygon","coordinates":[[[139.76361876827073,35.592361257186276],[139.7635141547548,35.59235741081238],[139.76352222883386,35.59220940808072],[139.76362695251277,35.5922132545113],[139.76361876827073,35.592361257186276]]]}},{"type":"Feature","properties":{"height":13.9,"gml_id":"bldg_7aae6bec-9a23-4519-9fbd-06cd0f4fa5b3"},"geometry":{"type":"Polygon","coordinates":[[[139.7670877147214,35.59392387152784],[139.76703711549965,35.59399117714349],[139.76660634831003,35.59377532819037],[139.76693115586684,35.5933428428892],[139.76693192918205,35.593341851791955],[139.76711923747033,35.59343578900182],[139.76712232619778,35.59343732305286],[139.76736534238412,35.59355905312167],[139.7671997359278,35.593779531214444],[139.7672113186931,35.59378530643206],[139.76712194170634,35.59390424014912],[139.76711884828444,35.59390838481937],[139.7671018346068,35.593931000227464],[139.7670877147214,35.59392387152784]]]}},{"type":"Feature","properties":{"height":3.3,"gml_id":"bldg_3f24d6f7-560a-4b0a-903b-a144479a4130"},"geometry":{"type":"Polygon","coordinates":[[[139.76717351696183,35.596003503000794],[139.76720398077484,35.59599820155232],[139.7672189424815,35.596055718086426],[139.76718847864768,35.59606101953859],[139.76717351696183,35.596003503000794]]]}},{"type":"Feature","properties":{"height":2.8,"gml_id":"bldg_00202442-4e8f-45f0-8252-0fbe99b78c99"},"geometry":{"type":"Polygon","coordinates":[[[139.77208849852252,35.59516889498353],[139.77210230762617,35.59515024333959],[139.77214555207655,35.59517171825531],[139.77213174297924,35.595190369904145],[139.77208849852252,35.59516889498353]]]}},{"type":"Feature","properties":{"height":2.9,"gml_id":"bldg_ef823af7-f51c-4de4-bf81-6ad03d72f40f"},"geometry":{"type":"Polygon","coordinates":[[[139.772159874557,35.595203544401116],[139.77217390402558,35.59518534355321],[139.77221780984698,35.59520790043998],[139.7722037803844,35.59522610129294],[139.772159874557,35.595203544401116]]]}},{"type":"Feature","properties":{"height":1.2,"gml_id":"bldg_fca171aa-a882-4473-93e3-15bdc73c3a2d"},"geometry":{"type":"Polygon","coordinates":[[[139.77257068708204,35.59527622354043],[139.772586021508,35.59528353248554],[139.77257453201494,35.59529957133878],[139.772559197587,35.59529226239221],[139.77257068708204,35.59527622354043]]]}},{"type":"Feature","properties":{"height":5.0,"gml_id":"bldg_263d360d-c638-497e-aa0c-e1a11e25c5d3"},"geometry":{"type":"Polygon","coordinates":[[[139.76812641125966,35.59486169775171],[139.76811006010803,35.594883953103206],[139.76809097557796,35.594874658512225],[139.76809285372445,35.594872135652075],[139.7680704598277,35.59486112663562],[139.76808493283977,35.59484139414948],[139.76812641125966,35.59486169775171]]]}},{"type":"Feature","properties":{"height":8.5,"gml_id":"bldg_9af03e3e-1f7a-41cd-bc45-3ecb7febf0d6"},"geometry":{"type":"Polygon","coordinates":[[[139.76335174358155,35.593081579371805],[139.76325065936354,35.593079086895635],[139.76325190156516,35.59304663776405],[139.7631696879136,35.59304460688376],[139.763173530552,35.592940859725545],[139.76335671778847,35.59294538301082],[139.76335174358155,35.593081579371805]]]}},{"type":"Feature","properties":{"height":8.6,"gml_id":"bldg_f0210cd7-e676-483d-85cf-34ef6f98ec4c"},"geometry":{"type":"Polygon","coordinates":[[[139.76297455241388,35.59307387827074],[139.76283771484734,35.59306902097021],[139.7628391793503,35.59303494948025],[139.762844341472,35.59293715224435],[139.76302476812367,35.59294356732774],[139.76301971791716,35.59303983228246],[139.76297645954574,35.593038364821744],[139.76297455241388,35.59307387827074]]]}},{"type":"Feature","properties":{"height":5.2,"gml_id":"bldg_50707b73-5b44-48fd-855a-f34c99a78447"},"geometry":{"type":"Polygon","coordinates":[[[139.76318555058447,35.59307742652523],[139.76306151440278,35.59307248679043],[139.76306296912168,35.59304950232545],[139.76318689491174,35.593054441994475],[139.76318555058447,35.59307742652523]]]}},{"type":"Feature","properties":{"height":2.7,"gml_id":"bldg_543ce56a-10b2-4e22-86f5-5c7afdf55928"},"geometry":{"type":"Polygon","coordinates":[[[139.7627848614018,35.593060787441814],[139.76274921863234,35.593058152556864],[139.76275244349117,35.59303021151572],[139.76278797581313,35.59303293647355],[139.7627848614018,35.593060787441814]]]}},{"type":"Feature","properties":{"height":4.2,"gml_id":"bldg_31717bb8-005d-4971-8867-231560e7671f"},"geometry":{"type":"Polygon","coordinates":[[[139.76276749741206,35.59272690432682],[139.76262845285785,35.59272258632749],[139.76263520053394,35.592578909534545],[139.76277424484007,35.592583227525886],[139.76276749741206,35.59272690432682]]]}},{"type":"Feature","properties":{"height":4.0,"gml_id":"bldg_4d8640d8-6e35-4d7d-ac4d-6b51fb679de9"},"geometry":{"type":"Polygon","coordinates":[[[139.76265985001655,35.59190540915642],[139.76261604247077,35.591901687781885],[139.76261904273542,35.59187816339367],[139.76266285026853,35.59188188476712],[139.76265985001655,35.59190540915642]]]}},{"type":"Feature","properties":{"height":7.1,"gml_id":"bldg_ccc6c952-178e-4e8d-816e-b56e13d81ef6"},"geometry":{"type":"Polygon","coordinates":[[[139.76412363234283,35.59237470837827],[139.76401339214107,35.5923691465751],[139.764022993569,35.59224052446476],[139.76413334395025,35.59224608632245],[139.76412363234283,35.59237470837827]]]}},{"type":"Feature","properties":{"height":7.2,"gml_id":"bldg_26e62201-aed6-4657-8d5e-b0ffb3af037b"},"geometry":{"type":"Polygon","coordinates":[[[139.76480560188295,35.59214686739277],[139.76460288262444,35.592143416835206],[139.7646077949891,35.59194790923172],[139.76481051375498,35.59195135978059],[139.76480560188295,35.59214686739277]]]}},{"type":"Feature","properties":{"height":15.6,"gml_id":"bldg_91dc9c13-8f2a-40f1-b9cb-bd2efd4ea902"},"geometry":{"type":"Polygon","coordinates":[[[139.76578904619112,35.59377072654812],[139.7657129288967,35.59373598055281],[139.7657406627207,35.593695343657934],[139.7658167799887,35.59373008963595],[139.76578904619112,35.59377072654812]]]}},{"type":"Feature","properties":{"height":9.2,"gml_id":"bldg_e8626287-3d21-4eba-8c53-74d720deb6ab"},"geometry":{"type":"Polygon","coordinates":[[[139.76557293669617,35.59367532887163],[139.76545390728685,35.59362090839058],[139.76548561884414,35.59357459506987],[139.76560475848754,35.593629105720446],[139.76557293669617,35.59367532887163]]]}},{"type":"Feature","properties":{"height":4.0,"gml_id":"bldg_99155244-95a5-4723-8027-4d6d03657587"},"geometry":{"type":"Polygon","coordinates":[[[139.7649706899479,35.59422726717895],[139.76488354439365,35.594183590698115],[139.76498342077394,35.59405078327912],[139.7650705662387,35.5940944596886],[139.7649706899479,35.59422726717895]]]}},{"type":"Feature","properties":{"height":3.1,"gml_id":"bldg_0b3f31f8-87b2-43f2-a841-844b1a4588ba"},"geometry":{"type":"Polygon","coordinates":[[[139.7650405286997,35.59424821889738],[139.764993646371,35.59422493659813],[139.76502259320793,35.5941860131908],[139.76506947559812,35.59420920624187],[139.7650405286997,35.59424821889738]]]}},{"type":"Feature","properties":{"height":4.1,"gml_id":"bldg_cb137754-4d1b-4d9d-bb4e-201d14c7ee11"},"geometry":{"type":"Polygon","coordinates":[[[139.76536955392763,35.59432168746253],[139.7653677071771,35.59428698311177],[139.76540556108762,35.5942856523759],[139.76540740785447,35.5943203567261],[139.76536955392763,35.59432168746253]]]}},{"type":"Feature","properties":{"height":32.6,"gml_id":"bldg_695c1a55-0b3c-44af-92e8-1593aa6bca98"},"geometry":{"type":"Polygon","coordinates":[[[139.77260130470546,35.594905752783745],[139.77258065772492,35.59493343201135],[139.77252493311218,35.594905714274596],[139.77241793971254,35.59485249567766],[139.77245284842203,35.59480582159346],[139.77211571996645,35.59463808341851],[139.77207760730465,35.59468926270108],[139.77192007520952,35.59461085220511],[139.77209605584684,35.59437495924447],[139.77248756208428,35.59385019106991],[139.77267421666275,35.59394312778922],[139.7726389769761,35.59399034260863],[139.7729194010519,35.594129927722655],[139.77295585689149,35.59408109093904],[139.77315023475924,35.59417781660279],[139.7730027576801,35.59437541653468],[139.77293205728407,35.594470206791236],[139.77315555993434,35.59458127904967],[139.77302034527543,35.59476257004985],[139.77279265038473,35.59464924197644],[139.77260130470546,35.594905752783745]]]}},{"type":"Feature","properties":{"height":7.7,"gml_id":"bldg_cde55070-52fc-4ccf-8116-d889884134c5"},"geometry":{"type":"Polygon","coordinates":[[[139.76588825720054,35.59666521795427],[139.76608924941812,35.59676799793972],[139.76607024645477,35.596792865541715],[139.7658692541994,35.59669008552497],[139.76588825720054,35.59666521795427]]]}},{"type":"Feature","properties":{"height":9.5,"gml_id":"bldg_891d9042-d1c6-4061-a72d-fb25c4996ab7"},"geometry":{"type":"Polygon","coordinates":[[[139.76588825720054,35.59666521795427],[139.76600216407093,35.59651664337187],[139.76620315606328,35.59661942316964],[139.76608924941812,35.59676799793972],[139.76588825720054,35.59666521795427]]]}},{"type":"Feature","properties":{"height":15.3,"gml_id":"bldg_7f38ec12-7ab1-4e53-8c4f-7940fa905d78"},"geometry":{"type":"Polygon","coordinates":[[[139.76455001561516,35.59898841015627],[139.76471030742007,35.59906773318497],[139.7646677680485,35.59912512711139],[139.7645074761713,35.59904580402679],[139.76455001561516,35.59898841015627]]]}},{"type":"Feature","properties":{"height":29.3,"gml_id":"bldg_9120625e-7539-4611-8577-9869fd6f9df1"},"geometry":{"type":"Polygon","coordinates":[[[139.76626075832345,35.59570094455267],[139.76571570264943,35.595424275500015],[139.7657469688607,35.59538328004343],[139.76629202436487,35.595659948956374],[139.76626075832345,35.59570094455267]]]}},{"type":"Feature","properties":{"height":2.7,"gml_id":"bldg_178a1eff-7a8b-4ddf-b0fb-636aee04e298"},"geometry":{"type":"Polygon","coordinates":[[[139.76515113931373,35.59421051350627],[139.76509366836493,35.59418046486996],[139.76513222505218,35.594131180952886],[139.76518969598024,35.59416122957104],[139.76515113931373,35.59421051350627]]]}},{"type":"Feature","properties":{"height":2.4,"gml_id":"bldg_50445012-7ed2-47f8-92f1-af41ca011352"},"geometry":{"type":"Polygon","coordinates":[[[139.76508832467493,35.59423526603219],[139.76508647200345,35.594207682612236],[139.7651252090495,35.59420599191062],[139.76512706181072,35.59423348519157],[139.76508832467493,35.59423526603219]]]}},{"type":"Feature","properties":{"height":8.1,"gml_id":"bldg_aed2e8ee-a158-4943-8d64-a2516bba0a11"},"geometry":{"type":"Polygon","coordinates":[[[139.76281482208006,35.59966759158679],[139.76274510215518,35.599632306661675],[139.76282465708798,35.59952752229121],[139.76289437695706,35.599562807170855],[139.76281482208006,35.59966759158679]]]}},{"type":"Feature","properties":{"height":4.0,"gml_id":"bldg_d494a2d9-dba5-4f8c-b5d2-254f0b7db694"},"geometry":{"type":"Polygon","coordinates":[[[139.7653124293691,35.59949091373411],[139.76522913795395,35.59945048469551],[139.7652607392145,35.599406965707914],[139.76534403060052,35.59944739472494],[139.7653124293691,35.59949091373411]]]}},{"type":"Feature","properties":{"height":5.4,"gml_id":"bldg_51f352d7-07c5-4223-b75f-bff59277be61"},"geometry":{"type":"Polygon","coordinates":[[[139.7652497818019,35.594231120841336],[139.76524803783002,35.59420543039303],[139.7652893133302,35.594203470657284],[139.76529116759679,35.594229251305734],[139.7652497818019,35.594231120841336]]]}},{"type":"Feature","properties":{"height":3.3,"gml_id":"bldg_e4aae6a6-be24-4c6a-8c27-127ea4cb756e"},"geometry":{"type":"Polygon","coordinates":[[[139.76271793567415,35.599651219807036],[139.76267546064852,35.59963343764938],[139.76269435964204,35.59960325236972],[139.76273683473508,35.59962094438247],[139.76271793567415,35.599651219807036]]]}},{"type":"Feature","properties":{"height":5.1,"gml_id":"bldg_6fc941b3-ec3e-4156-92b9-47cb711cdae5"},"geometry":{"type":"Polygon","coordinates":[[[139.76402140987446,35.59510187928738],[139.76401424609568,35.595090788137476],[139.76403787162806,35.59508070621705],[139.7640450354092,35.59509179736557],[139.76402140987446,35.59510187928738]]]}},{"type":"Feature","properties":{"height":9.8,"gml_id":"bldg_4298db63-4d89-4748-829b-c49fc39b686d"},"geometry":{"type":"Polygon","coordinates":[[[139.76416166528043,35.59511466938981],[139.76415960312383,35.59507437631765],[139.76421743294603,35.59507242644994],[139.7642194952091,35.59511262938276],[139.76416166528043,35.59511466938981]]]}},{"type":"Feature","properties":{"height":18.9,"gml_id":"bldg_cb790364-c5f7-4fff-a2ed-6f09ac0370bc"},"geometry":{"type":"Polygon","coordinates":[[[139.77396064816935,35.59350290109019],[139.77372412991875,35.593385604313625],[139.77393666749768,35.59309969982762],[139.77375619082213,35.59301019336739],[139.7737233823565,35.59305425486636],[139.77344682128052,35.592917107257946],[139.7734811764358,35.59287088327762],[139.773289558944,35.59277587213452],[139.77332038011969,35.59273316183954],[139.77397719627808,35.5930617714906],[139.77398382463966,35.59305231021343],[139.77421493959775,35.59316311386514],[139.77420963692302,35.59317068289694],[139.7742342388501,35.593180970750815],[139.77419325206395,35.59324152370904],[139.77416754834948,35.59322880156688],[139.77396064816935,35.59350290109019]]]}},{"type":"Feature","properties":{"height":18.9,"gml_id":"bldg_5916a598-3f69-4bbd-90e6-da3b4c67b86f"},"geometry":{"type":"Polygon","coordinates":[[[139.76580029851493,35.59955644830559],[139.76576306355756,35.59960627396215],[139.7657146336942,35.59958190943396],[139.76575142781599,35.59953136243785],[139.76580029851493,35.59955644830559]]]}},{"type":"Feature","properties":{"height":12.5,"gml_id":"bldg_9aed28e8-a244-43c5-99b8-5c861facd79f"},"geometry":{"type":"Polygon","coordinates":[[[139.77352418933737,35.59246068433956],[139.7737186736631,35.59255831054881],[139.77375799898095,35.59250604966563],[139.77401558378287,35.59263534518177],[139.77398244447883,35.59267949672981],[139.7741897264646,35.59278352831043],[139.77440159555678,35.59250185915575],[139.77462410111207,35.59261355920747],[139.7744189689111,35.5928888322087],[139.7744446693881,35.59290588094395],[139.77440611998392,35.59295381577964],[139.77438140867338,35.5929422659681],[139.77437069388657,35.59295623219278],[139.7741411309267,35.592836415749076],[139.77415394442397,35.59281983655877],[139.77349579948222,35.59249897910943],[139.77352418933737,35.59246068433956]]]}},{"type":"Feature","properties":{"height":17.3,"gml_id":"bldg_09de623e-84ea-47b7-a419-b2896a67e2d3"},"geometry":{"type":"Polygon","coordinates":[[[139.76320560405463,35.593619531006745],[139.7632057071003,35.59362791394484],[139.7630536391518,35.59362322830333],[139.7630886104011,35.5935105755967],[139.7631201666366,35.593517264231984],[139.76314256805694,35.593518449080634],[139.76317093213086,35.593515761441985],[139.7632174059678,35.59350019453158],[139.7632437946886,35.59348479620133],[139.76326135532682,35.59346885190204],[139.76327362040365,35.59345110175238],[139.76328257830647,35.593429293447755],[139.76328690051574,35.59340829369454],[139.76328647824906,35.59338629966046],[139.76328285367643,35.593366557227064],[139.7632759152652,35.59335041840639],[139.76326610758483,35.593334277917236],[139.76325133472602,35.59331714301687],[139.76323666837962,35.5933044249621],[139.76321791758775,35.59329314674508],[139.76319673659847,35.59328457126532],[139.7631726848495,35.59327770674181],[139.76314995455053,35.59327408796827],[139.7631274418972,35.59327398471794],[139.76309841435074,35.59327829445251],[139.76307125931783,35.593286661503335],[139.76304664066788,35.59329710321225],[139.7630270960495,35.59331025203051],[139.7630118540707,35.593324845571814],[139.76299826246822,35.59334511879845],[139.76298798195276,35.593364943263715],[139.76298454378306,35.59338450130669],[139.7629843059562,35.593404061217576],[139.76298903221078,35.59342587748781],[139.76299596946697,35.59344327826276],[139.76300798369016,35.5934600510305],[139.7630228678259,35.59347610436345],[139.763041726311,35.593491709320176],[139.76306577291297,35.59350326106738],[139.7630876171894,35.59351057501782],[139.76284870337238,35.59350043016008],[139.76285679720323,35.59333142524788],[139.7628679428256,35.593331882457285],[139.76287634951606,35.59330953302932],[139.76288508355967,35.59329142030057],[139.76289955882336,35.59327024621815],[139.76291822533705,35.593251688598635],[139.7629449525991,35.593227727375336],[139.76297366208055,35.59320854464271],[139.76300733593135,35.59319125770811],[139.76304321224643,35.59317929021899],[139.76307709827677,35.59317173834456],[139.7630771036324,35.593165608930946],[139.76321923887787,35.59317001834932],[139.76321934208164,35.59317822101117],[139.76324096690684,35.5931840024523],[139.7632635825078,35.59319257875848],[139.76328796138222,35.59320395037813],[139.7633134406883,35.59321892817138],[139.7633397982262,35.59323922463962],[139.76336096847234,35.593260149059866],[139.76338213316188,35.59328747330518],[139.7633983308786,35.59331587632633],[139.7634107746002,35.59334644049082],[139.7634200447922,35.59334617545327],[139.76341497661312,35.593463622950104],[139.7634057072699,35.593462896464494],[139.7633956429276,35.59348803925978],[139.76338679979688,35.59350479988452],[139.76337254784252,35.59352308972307],[139.7633536588523,35.5935437204679],[139.7633306885295,35.59356218551577],[139.76330462773046,35.593581189594396],[139.76327448661695,35.59359685617195],[139.7632392713487,35.59360990577516],[139.76320560405463,35.593619531006745]]]}},{"type":"Feature","properties":{"height":30.5,"gml_id":"bldg_24ae96a3-f588-4597-820c-590c5de36217"},"geometry":{"type":"Polygon","coordinates":[[[139.7726047470095,35.5929928529222],[139.77209217168362,35.59367890797584],[139.77197898848885,35.59362224344536],[139.77251906817133,35.592903031783834],[139.77257687430404,35.592930102485454],[139.77254969795385,35.59296812722546],[139.7726047470095,35.5929928529222]]]}},{"type":"Feature","properties":{"height":7.4,"gml_id":"bldg_988c81d7-18f6-47fb-9c6d-ce7d2079b3dd"},"geometry":{"type":"Polygon","coordinates":[[[139.76763733328968,35.593741912382676],[139.7675859577191,35.59381462611635],[139.76739566895083,35.593719966898604],[139.76744759538397,35.59364851548478],[139.76763733328968,35.593741912382676]]]}},{"type":"Feature","properties":{"height":4.2,"gml_id":"bldg_cca6596b-0891-4548-8be3-2bd034a72cd1"},"geometry":{"type":"Polygon","coordinates":[[[139.764206779648,35.59437069243794],[139.76420554447517,35.5943953896686],[139.76417045161662,35.59439419773501],[139.76417168579223,35.59437067230417],[139.76417280914387,35.59434768764043],[139.7642079019822,35.59434887957331],[139.764206779648,35.59437069243794]]]}},{"type":"Feature","properties":{"height":32.9,"gml_id":"bldg_59be5611-f717-4d00-9c66-91c08f41f0cc"},"geometry":{"type":"Polygon","coordinates":[[[139.7720147312007,35.593783970066404],[139.77190298200512,35.5937280273029],[139.77141746414014,35.59437461253738],[139.77135699972558,35.594455194995156],[139.77125036095134,35.59440183853027],[139.77125798345418,35.59439174694817],[139.77122356503207,35.594374512768304],[139.77086504077917,35.59419486177876],[139.77202188319606,35.59265399764563],[139.77251906817133,35.592903031783834],[139.77197898848885,35.59362224344536],[139.77209217168362,35.59367890797584],[139.772263932452,35.59376489710101],[139.77218538887942,35.593869508048456],[139.7720147312007,35.593783970066404]]]}},{"type":"Feature","properties":{"height":8.3,"gml_id":"bldg_3bd465b4-9d02-4a73-9cd7-c4ca5f6ca64c"},"geometry":{"type":"Polygon","coordinates":[[[139.7651748825615,35.59445164733082],[139.76493826801695,35.59445935533125],[139.76493403911962,35.59437110737517],[139.76493219593002,35.59433243692768],[139.76516881010164,35.59432472893858],[139.76517108818888,35.59437124167496],[139.7651748825615,35.59445164733082]]]}},{"type":"Feature","properties":{"height":19.5,"gml_id":"bldg_792f73b4-2b4e-4c79-94df-b0c28d7998b4"},"geometry":{"type":"Polygon","coordinates":[[[139.7635267534302,35.594370300479355],[139.76352125267283,35.59447765220243],[139.76280273095577,35.59445397813011],[139.76280677761775,35.5943698813126],[139.76284870337238,35.59350043016008],[139.7630876171894,35.59351057501782],[139.7630886104011,35.5935105755967],[139.7630536391518,35.59362322830333],[139.7632057071003,35.59362791394484],[139.7635642475806,35.59363902878997],[139.7635267534302,35.594370300479355]]]}},{"type":"Feature","properties":{"height":28.9,"gml_id":"bldg_f2ab8ec9-7888-45d4-820f-8770207cad69"},"geometry":{"type":"Polygon","coordinates":[[[139.77156688895147,35.594374689209765],[139.77146691454217,35.59450651050939],[139.77135699972558,35.594455194995156],[139.77141746414014,35.59437461253738],[139.77190298200512,35.5937280273029],[139.7720147312007,35.593783970066404],[139.77156688895147,35.594374689209765]]]}},{"type":"Feature","properties":{"height":12.3,"gml_id":"bldg_5411ca9a-731f-4e26-8a26-87ffb740a9e1"},"geometry":{"type":"Polygon","coordinates":[[[139.77330999452795,35.594375569940624],[139.77315555993434,35.59458127904967],[139.77293205728407,35.594470206791236],[139.7730027576801,35.59437541653468],[139.77315023475924,35.59417781660279],[139.77295585689149,35.59408109093904],[139.7729194010519,35.594129927722655],[139.7726389769761,35.59399034260863],[139.77267421666275,35.59394312778922],[139.77248756208428,35.59385019106991],[139.77251529150357,35.59381090469009],[139.77317464923246,35.59414240437222],[139.77318105928762,35.59412996846241],[139.7734093059873,35.594242034147136],[139.77340367262926,35.594248881869866],[139.77343158484828,35.59426007291656],[139.7733878388307,35.59431945241792],[139.77336290861552,35.59430510799859],[139.77330999452795,35.594375569940624]]]}},{"type":"Feature","properties":{"height":11.8,"gml_id":"bldg_d87562d0-644e-4fdf-a816-ba0f646046d2"},"geometry":{"type":"Polygon","coordinates":[[[139.7700426234731,35.594373898389435],[139.76987701662378,35.594602041903315],[139.76944656372532,35.59439359463779],[139.76946103653037,35.59437359156912],[139.76962089041425,35.5941644647947],[139.76962541986788,35.59415842791155],[139.7700426234731,35.594373898389435]]]}},{"type":"Feature","properties":{"height":11.8,"gml_id":"bldg_88243bec-3b61-413e-974f-a133a3fa312f"},"geometry":{"type":"Polygon","coordinates":[[[139.76843525844325,35.59437304357231],[139.76826247272336,35.59460244293792],[139.76779749927866,35.59437269846362],[139.76712183147887,35.59403809571925],[139.76711874272834,35.59403656166832],[139.76705498160425,35.59400551898689],[139.76711884145521,35.59391667755511],[139.7671219350259,35.59391235260801],[139.7672957260894,35.59367033601631],[139.76739566895083,35.593719966898604],[139.7675859577191,35.59381462611635],[139.76850938892548,35.59427357059939],[139.76843525844325,35.59437304357231]]]}},{"type":"Feature","properties":{"height":33.7,"gml_id":"bldg_def55d91-9cab-4977-a2ed-8220e0c4cb9f"},"geometry":{"type":"Polygon","coordinates":[[[139.76682806684542,35.59909884641887],[139.7667213366952,35.599241206134906],[139.76649849249557,35.59912976183958],[139.76646457285685,35.599175082635654],[139.7663270054055,35.59910632076977],[139.76642633348544,35.598973782376014],[139.7663335556722,35.598927399696],[139.7663753197746,35.598871717377804],[139.76632236703904,35.598845187256444],[139.76637849435605,35.598770403581405],[139.7663915119134,35.59877690077769],[139.76659977891177,35.598499119591175],[139.766584885948,35.59849171999436],[139.7666202413785,35.59844468732421],[139.7666421946938,35.59845560622178],[139.76684758741655,35.598181608813825],[139.76682044923757,35.59816807307789],[139.7668542576632,35.59812302252761],[139.7669997667695,35.59819575426369],[139.76711544432175,35.59804141078324],[139.76716516238673,35.59797500608168],[139.76729963971445,35.598042232957],[139.76713855332397,35.59825712469171],[139.76727236921636,35.598323990677606],[139.76711503863885,35.59853392681701],[139.76674910922517,35.5990222753228],[139.76668733077727,35.59899132370439],[139.76666700130502,35.59901835397901],[139.76682806684542,35.59909884641887]]]}},{"type":"Feature","properties":{"height":8.2,"gml_id":"bldg_fc1de497-b20d-480a-9bba-d1bb73bfa89c"},"geometry":{"type":"Polygon","coordinates":[[[139.76282477591258,35.599517877553424],[139.7629058766851,35.599412012371],[139.7627984293064,35.59935714539144],[139.76273841764663,35.59932655333874],[139.7627662635304,35.59928790027822],[139.7628256133783,35.5993180412381],[139.76282152466158,35.59932398797956],[139.76300586410073,35.59941576643556],[139.76290122559914,35.59955596065633],[139.76282477591258,35.599517877553424]]]}},{"type":"Feature","properties":{"height":18.6,"gml_id":"bldg_733df6f8-bf03-4430-8026-fc81057951b9"},"geometry":{"type":"Polygon","coordinates":[[[139.76395577045056,35.598782553982616],[139.76370981277432,35.59911403129488],[139.76368719772566,35.59910284106685],[139.76363117741388,35.59917834465187],[139.7636522479959,35.59918881289015],[139.7633099366239,35.5996497624719],[139.76318483635356,35.59958785478624],[139.76320428335376,35.59956181611101],[139.76307256320922,35.599497831272735],[139.76294449602563,35.59967370666775],[139.76286230879342,35.59963381747034],[139.76310452017566,35.599301167937085],[139.76331997157018,35.599405853829],[139.7638292369994,35.598719834886786],[139.76395577045056,35.598782553982616]]]}},{"type":"Feature","properties":{"height":16.6,"gml_id":"bldg_f8e5fd38-4dc7-4320-928d-f69dda5bfb37"},"geometry":{"type":"Polygon","coordinates":[[[139.77272606220325,35.59353374490287],[139.77291062055625,35.593625328129335],[139.77294740661313,35.59357586054027],[139.77323555228912,35.59371878392018],[139.7731940161288,35.59377473919634],[139.77337228761874,35.59386307359027],[139.7735873685348,35.59357365560867],[139.77382168079637,35.59368986989911],[139.77361775863824,35.593962978758874],[139.77364478645566,35.59397615236496],[139.7735991661443,35.59403354797125],[139.77357478689692,35.59402037566836],[139.7735676070213,35.59402929581711],[139.7733449918922,35.59391326713865],[139.77335648224343,35.59389560571594],[139.77269722859737,35.593574112439356],[139.77272606220325,35.59353374490287]]]}},{"type":"Feature","properties":{"height":31.5,"gml_id":"bldg_0d6e2def-8c36-41d2-9562-2c3a5fc04224"},"geometry":{"type":"Polygon","coordinates":[[[139.7710390570966,35.593078586785424],[139.77102381207405,35.59309904034141],[139.77097229595225,35.593072873535476],[139.77139428393326,35.592518739417606],[139.77143785777713,35.592540304903636],[139.7710390570966,35.593078586785424]]]}},{"type":"Feature","properties":{"height":14.6,"gml_id":"bldg_4c1cd578-8e21-4133-bc7c-aa270db071c9"},"geometry":{"type":"Polygon","coordinates":[[[139.774760853972,35.59243163611787],[139.77453636306,35.592318943823344],[139.77475419465327,35.592029344746116],[139.77454150847524,35.59192260733256],[139.77450428280306,35.59197198506952],[139.7742632464338,35.5918509914386],[139.77429859259718,35.591806480333986],[139.77409318761732,35.591704342756124],[139.7741245606558,35.5916603705796],[139.77477817316182,35.591986089915515],[139.7747856839817,35.59197689943672],[139.77501668438052,35.59209076622339],[139.77500895319338,35.59209950591726],[139.77503730774816,35.59210871376279],[139.77499312175254,35.592169355595416],[139.77496708777755,35.592155822215204],[139.774760853972,35.59243163611787]]]}},{"type":"Feature","properties":{"height":10.1,"gml_id":"bldg_29cbd299-b668-41bd-80b8-a6297e297ae5"},"geometry":{"type":"Polygon","coordinates":[[[139.7695195130251,35.592721744768866],[139.7680940711476,35.592011591637245],[139.76815174116823,35.59193166998842],[139.76957717870982,35.59264614909231],[139.7695195130251,35.592721744768866]]]}},{"type":"Feature","properties":{"height":13.2,"gml_id":"bldg_e4f50242-93b8-4c7a-a7cf-80c99ad27305"},"geometry":{"type":"Polygon","coordinates":[[[139.77279616422376,35.5951123751563],[139.7727717845776,35.5950994731084],[139.77276891286567,35.59510262651134],[139.7725434244777,35.594989389220466],[139.7725529246107,35.59497713518139],[139.77241061464937,35.594905656540895],[139.771895437739,35.59464689503402],[139.77192007520952,35.59461085220511],[139.77207760730465,35.59468926270108],[139.77211571996645,35.59463808341851],[139.77245284842203,35.59480582159346],[139.77241793971254,35.59485249567766],[139.77252493311218,35.594905714274596],[139.77258065772492,35.59493343201135],[139.77260130470546,35.594905752783745],[139.77279265038473,35.59464924197644],[139.77302034527543,35.59476257004985],[139.77291193269602,35.59490590891422],[139.77281398997755,35.59503540586529],[139.772841900963,35.59504848995421],[139.77279616422376,35.5951123751563]]]}},{"type":"Feature","properties":{"height":19.7,"gml_id":"bldg_c584e275-c783-4148-8176-9ef3530bead8"},"geometry":{"type":"Polygon","coordinates":[[[139.76392021670472,35.59995198896923],[139.7642619736576,35.59949148805013],[139.76428304448137,35.599501866039425],[139.7643405006993,35.59942456020951],[139.76432130485452,35.59941562551809],[139.76456781337566,35.59908342618072],[139.76469357357684,35.599148307378925],[139.76446563033386,35.599452935234055],[139.7646749036165,35.599557434894784],[139.76448563171292,35.59980998480692],[139.76427657875067,35.599705484947926],[139.7640454281639,35.60001425650582],[139.76392021670472,35.59995198896923]]]}},{"type":"Feature","properties":{"height":31.6,"gml_id":"bldg_7959f364-1800-44be-9eb4-7dc537bd9036"},"geometry":{"type":"Polygon","coordinates":[[[139.76609242063253,35.59944195562047],[139.765946023717,35.59963666290464],[139.76591336935593,35.59962023945458],[139.76587989124653,35.599664839222044],[139.76576306355756,35.59960627396215],[139.76580029851493,35.59955644830559],[139.76580637533758,35.599548429394275],[139.7659610589369,35.599342820164594],[139.76604556296377,35.59938523241985],[139.7660273325254,35.599409379328144],[139.76609242063253,35.59944195562047]]]}},{"type":"Feature","properties":{"height":32.3,"gml_id":"bldg_3c713bdf-9258-431b-a167-86b43b8c64e6"},"geometry":{"type":"Polygon","coordinates":[[[139.77382168079637,35.59368986989911],[139.7735873685348,35.59357365560867],[139.77337228761874,35.59386307359027],[139.7731940161288,35.59377473919634],[139.77323555228912,35.59371878392018],[139.77294740661313,35.59357586054027],[139.77291062055625,35.593625328129335],[139.77272606220325,35.59353374490287],[139.773289558944,35.59277587213452],[139.7734811764358,35.59287088327762],[139.77344682128052,35.592917107257946],[139.7737233823565,35.59305425486636],[139.77375619082213,35.59301019336739],[139.77393666749768,35.59309969982762],[139.77372412991875,35.593385604313625],[139.77396064816935,35.59350290109019],[139.77382168079637,35.59368986989911]]]}},{"type":"Feature","properties":{"height":2.4,"gml_id":"bldg_f591b053-9074-46b8-89e5-5ab7adba3002"},"geometry":{"type":"Polygon","coordinates":[[[139.77251741619176,35.592752679945534],[139.77253440431096,35.59276152208888],[139.77251385794236,35.592788192716185],[139.77249675946393,35.59277935051429],[139.77251741619176,35.592752679945534]]]}},{"type":"Feature","properties":{"height":2.5,"gml_id":"bldg_214147e4-fd08-43b4-b7ac-99a8db5fade5"},"geometry":{"type":"Polygon","coordinates":[[[139.77248939447207,35.592741218213874],[139.77250572113266,35.5927491586424],[139.77248804571545,35.592773577251975],[139.77247171905168,35.59276563682107],[139.77248939447207,35.592741218213874]]]}},{"type":"Feature","properties":{"height":6.8,"gml_id":"bldg_d0f751e7-4bd9-4885-9763-c3c5cdaf90a7"},"geometry":{"type":"Polygon","coordinates":[[[139.77284433102653,35.5928452364185],[139.77278291100308,35.59292768229639],[139.77254816151864,35.592810834783535],[139.7725790925718,35.59276929653441],[139.7724862077272,35.592723279044854],[139.77251746943674,35.59268228180882],[139.77284433102653,35.5928452364185]]]}},{"type":"Feature","properties":{"height":5.0,"gml_id":"bldg_1ecbfa83-d448-45ad-b89a-693bf47c0813"},"geometry":{"type":"Polygon","coordinates":[[[139.76972186961797,35.593604217375834],[139.76966807016154,35.59367440684301],[139.76964148716854,35.59365789745622],[139.76963076946393,35.59367438713322],[139.76961311968665,35.593665093539805],[139.76958439088443,35.59357124419118],[139.76960880320252,35.5935416916801],[139.76972186961797,35.593604217375834]]]}},{"type":"Feature","properties":{"height":25.8,"gml_id":"bldg_2798f000-7e5d-4d91-b236-0b08482ccded"},"geometry":{"type":"Polygon","coordinates":[[[139.76996604406472,35.59212183825734],[139.77004679225726,35.59216208245634],[139.76979856214865,35.5924940220828],[139.76971649005304,35.59245305591283],[139.76829513350393,35.5917438988089],[139.76821526915262,35.59170401446575],[139.7684635033481,35.591372078060935],[139.76854623560766,35.59141331586101],[139.76996604406472,35.59212183825734]]]}},{"type":"Feature","properties":{"height":33.7,"gml_id":"bldg_324816eb-bc92-4b74-8307-94cdb247c507"},"geometry":{"type":"Polygon","coordinates":[[[139.7712127783322,35.593195045237614],[139.77117113158573,35.59324982796364],[139.7711658291068,35.59325676589197],[139.770215596502,35.592774121226974],[139.77064068115777,35.59221602524966],[139.77110167406803,35.59245017356619],[139.77114552985412,35.59239241742612],[139.77139428393326,35.592518739417606],[139.77097229595225,35.593072873535476],[139.77102381207405,35.59309904034141],[139.77107841702056,35.59312674107504],[139.7712127783322,35.593195045237614]]]}},{"type":"Feature","properties":{"height":32.2,"gml_id":"bldg_77cc9952-6eaa-4212-8be1-d2ef4d66e903"},"geometry":{"type":"Polygon","coordinates":[[[139.77462410111207,35.59261355920747],[139.77440159555678,35.59250185915575],[139.7741897264646,35.59278352831043],[139.77398244447883,35.59267949672981],[139.77401558378287,35.59263534518177],[139.77375799898095,35.59250604966563],[139.7737186736631,35.59255831054881],[139.77352418933737,35.59246068433956],[139.77409318761732,35.591704342756124],[139.77429859259718,35.591806480333986],[139.7742632464338,35.5918509914386],[139.77450428280306,35.59197198506952],[139.77454150847524,35.59192260733256],[139.77475419465327,35.592029344746116],[139.77453636306,35.592318943823344],[139.774760853972,35.59243163611787],[139.77462410111207,35.59261355920747]]]}},{"type":"Feature","properties":{"height":9.6,"gml_id":"bldg_6b44f4b2-8745-4110-931f-f5e7c2f65371"},"geometry":{"type":"Polygon","coordinates":[[[139.76829513350393,35.5917438988089],[139.76971649005304,35.59245305591283],[139.7696663300981,35.592527033130864],[139.76823989681452,35.59181733187087],[139.76829513350393,35.5917438988089]]]}},{"type":"Feature","properties":{"height":13.3,"gml_id":"bldg_02dbbc15-cae0-4821-9876-5adf3ee8ddff"},"geometry":{"type":"Polygon","coordinates":[[[139.764028673732,35.59218013493861],[139.7641390258148,35.59218362360663],[139.76413767518142,35.59221426992004],[139.7640278754535,35.59221006046043],[139.764028673732,35.59218013493861]]]}},{"type":"Feature","properties":{"height":12.2,"gml_id":"bldg_2723d4e4-03dc-4df2-93f6-9cf72d20ee85"},"geometry":{"type":"Polygon","coordinates":[[[139.7641706968571,35.59218463330873],[139.764449887688,35.59219344649495],[139.7644479841619,35.59222553471181],[139.76437195066222,35.5922241391534],[139.76437137770495,35.592248836773514],[139.7642402785273,35.592245606841715],[139.7642410745585,35.592218205195216],[139.76416879430528,35.59221545958277],[139.7641706968571,35.59218463330873]]]}},{"type":"Feature","properties":{"height":19.1,"gml_id":"bldg_3db98ff8-a499-4e17-bf81-f6c5de7ad613"},"geometry":{"type":"Polygon","coordinates":[[[139.7661452016734,35.59201484761146],[139.76608598613905,35.59209296466567],[139.76607495569903,35.592086919231164],[139.76606236159046,35.592103227270755],[139.76535539602483,35.59174894684435],[139.76542753565082,35.59165641526638],[139.76613461220686,35.59200934325918],[139.7661452016734,35.59201484761146]]]}},{"type":"Feature","properties":{"height":43.4,"gml_id":"bldg_478b7e58-1c67-43f2-a4dd-ef5f22ccb23f"},"geometry":{"type":"Polygon","coordinates":[[[139.76681162988328,35.59215403057062],[139.7667692712474,35.59213264435955],[139.76697508728114,35.59186044944135],[139.76707447510609,35.59191107182156],[139.76687009344718,35.59218380852931],[139.76681162988328,35.59215403057062]]]}},{"type":"Feature","properties":{"height":30.0,"gml_id":"bldg_a879782e-39a1-427d-a6a0-27e7f77484f4"},"geometry":{"type":"Polygon","coordinates":[[[139.76313522777306,35.592192958366944],[139.7634209304042,35.5922006960673],[139.7634167842529,35.59227316501259],[139.76313240751512,35.592263264750784],[139.76313522777306,35.592192958366944]]]}},{"type":"Feature","properties":{"height":39.5,"gml_id":"bldg_c49e9b9c-3d2f-4fdd-8c33-4d8bb34f894d"},"geometry":{"type":"Polygon","coordinates":[[[139.76626075832345,35.59570094455267],[139.76578844790242,35.596322005041344],[139.7652455903685,35.596052996889014],[139.7652708917328,35.59601893885032],[139.76537132354042,35.59588378786544],[139.76540336445453,35.59584062961556],[139.76560875675068,35.59556420046015],[139.7653309874225,35.59542649277841],[139.7654358378597,35.59528530494289],[139.76571570264943,35.595424275500015],[139.76626075832345,35.59570094455267]]]}},{"type":"Feature","properties":{"height":3.4,"gml_id":"bldg_032f0b29-ca69-46ea-922c-49a2bbd4a398"},"geometry":{"type":"Polygon","coordinates":[[[139.7673755358533,35.59283686917022],[139.76733405822324,35.59281710613473],[139.76735317176355,35.592790345468586],[139.76739464938453,35.59281010849756],[139.7673755358533,35.59283686917022]]]}},{"type":"Feature","properties":{"height":5.6,"gml_id":"bldg_33d75d1b-b314-446d-a406-7c7feaed1c46"},"geometry":{"type":"Polygon","coordinates":[[[139.76967802430582,35.59406480183543],[139.76949578506853,35.5939745669723],[139.76951522873725,35.59394843711235],[139.76955875605213,35.59388987014484],[139.7697408848822,35.59398001471723],[139.76967802430582,35.59406480183543]]]}},{"type":"Feature","properties":{"height":6.1,"gml_id":"bldg_aa943e69-49c5-4a1f-8935-cf7c86ca9aaf"},"geometry":{"type":"Polygon","coordinates":[[[139.76364988014245,35.59211618860855],[139.76372447821026,35.592118395039904],[139.7637234578607,35.59214976264765],[139.7636477558234,35.592148006269845],[139.76364988014245,35.59211618860855]]]}},{"type":"Feature","properties":{"height":11.1,"gml_id":"bldg_cc49e3b6-5d79-4995-a84a-2ba06581b14b"},"geometry":{"type":"Polygon","coordinates":[[[139.76310115386335,35.592289747260004],[139.76298373973907,35.59228535213484],[139.76270333674904,35.592274371518116],[139.76270228577096,35.59221451894153],[139.76310584097521,35.592229988169],[139.76310115386335,35.592289747260004]]]}},{"type":"Feature","properties":{"height":7.8,"gml_id":"bldg_75fd0342-687e-4b68-8878-6c93cf0507f1"},"geometry":{"type":"Polygon","coordinates":[[[139.762718766497,35.591920136265244],[139.76270576307013,35.59215043250866],[139.76263557920097,35.592148228036194],[139.76264990716368,35.591917842438676],[139.762718766497,35.591920136265244]]]}},{"type":"Feature","properties":{"height":10.9,"gml_id":"bldg_f0e76ad7-d399-484d-bb66-cb8dcecb23e4"},"geometry":{"type":"Polygon","coordinates":[[[139.76388912171612,35.59212552082055],[139.76388229091378,35.59236807957653],[139.76380758131933,35.59236695484042],[139.76381253639065,35.59212430486832],[139.76388912171612,35.59212552082055]]]}},{"type":"Feature","properties":{"height":4.6,"gml_id":"bldg_361ab7e9-f2e6-41a8-a369-20b0b443f803"},"geometry":{"type":"Polygon","coordinates":[[[139.76273610745815,35.599569384800276],[139.76267421969436,35.5995385212024],[139.7626957663984,35.59950950927343],[139.76275776451325,35.59954037292499],[139.76273610745815,35.599569384800276]]]}},{"type":"Feature","properties":{"height":15.0,"gml_id":"bldg_c2ce412f-0699-4199-b476-faaee09446e6"},"geometry":{"type":"Polygon","coordinates":[[[139.76996604406472,35.59212183825734],[139.76854623560766,35.59141331586101],[139.7685815856839,35.591367634632704],[139.77000017960123,35.592076336256504],[139.76996604406472,35.59212183825734]]]}},{"type":"Feature","properties":{"height":16.9,"gml_id":"bldg_ca1a6610-49ec-45cf-ac0a-e2859570a1b1"},"geometry":{"type":"Polygon","coordinates":[[[139.7648701115249,35.59181447326539],[139.76454589832136,35.591804463564756],[139.7645524713816,35.591731815682394],[139.7648699529798,35.59174146098761],[139.7648701115249,35.59181447326539]]]}},{"type":"Feature","properties":{"height":51.5,"gml_id":"bldg_962ba68b-6c9d-403a-ad55-81d7bdbaa0d0"},"geometry":{"type":"Polygon","coordinates":[[[139.7666274134235,35.592327896053824],[139.76668950120094,35.592245724092315],[139.76672766809645,35.59226503482919],[139.7667794814386,35.5921964680552],[139.7668113609262,35.59221235003068],[139.76669911392727,35.592364622084276],[139.7666274134235,35.592327896053824]]]}},{"type":"Feature","properties":{"height":5.3,"gml_id":"bldg_55eb736c-d6c3-454a-94ab-6127c5d19a08"},"geometry":{"type":"Polygon","coordinates":[[[139.7626709165054,35.59952968570383],[139.7625421778854,35.599464349958126],[139.76256725970865,35.59943146417767],[139.76269599829646,35.59949679989689],[139.7626709165054,35.59952968570383]]]}},{"type":"Feature","properties":{"height":6.7,"gml_id":"bldg_70e9150f-b4fc-4fd7-9221-5971d2647f11"},"geometry":{"type":"Polygon","coordinates":[[[139.77279196264683,35.593071007042084],[139.77256195627257,35.592956505541906],[139.77258802673714,35.59292154495037],[139.77281814333702,35.59303613659525],[139.77279196264683,35.593071007042084]]]}},{"type":"Feature","properties":{"height":30.1,"gml_id":"bldg_c9ae983a-6dd5-4121-ad9d-2f1e0515e66f"},"geometry":{"type":"Polygon","coordinates":[[[139.77202641822598,35.59264029890141],[139.77213014512276,35.59250514387643],[139.77214117641918,35.59251073806454],[139.77217409506167,35.592467758710484],[139.77248804517498,35.59262845427649],[139.77245932438262,35.59266584724885],[139.77247918070273,35.592676042926165],[139.77241301233343,35.592762181898344],[139.77232178347626,35.592715444011155],[139.77227991715887,35.592770046737044],[139.77202641822598,35.59264029890141]]]}},{"type":"Feature","properties":{"height":2.8,"gml_id":"bldg_5d6efb15-62df-4595-89e7-ff56014e85f1"},"geometry":{"type":"Polygon","coordinates":[[[139.76541933987448,35.59926905331418],[139.7653788526931,35.59924929018357],[139.76540813308864,35.5992093753828],[139.7654486202572,35.59922913850368],[139.76541933987448,35.59926905331418]]]}},{"type":"Feature","properties":{"height":12.2,"gml_id":"bldg_2da27748-1909-4e7b-ab22-d8d5e51f4303"},"geometry":{"type":"Polygon","coordinates":[[[139.7654310884458,35.593983252199465],[139.76547826465497,35.593919821285866],[139.76550330552396,35.59393200407526],[139.7654586670178,35.59399606739704],[139.7654310884458,35.593983252199465]]]}},{"type":"Feature","properties":{"height":10.3,"gml_id":"bldg_b7a3bb3e-bf91-4d4a-849d-8c9f84d56593"},"geometry":{"type":"Polygon","coordinates":[[[139.76495867442347,35.59382208794133],[139.76521459580533,35.59394914782847],[139.76519382614444,35.593975636798056],[139.7651763970715,35.593966883511214],[139.76516557118626,35.593979677051315],[139.76494572137443,35.59387057509022],[139.76495654988614,35.59385471686307],[139.76493879017673,35.59384551266176],[139.76495867442347,35.59382208794133]]]}},{"type":"Feature","properties":{"height":14.7,"gml_id":"bldg_78c9e48b-9257-43c2-9860-47b05aab5cb0"},"geometry":{"type":"Polygon","coordinates":[[[139.7654310884458,35.593983252199465],[139.76539120406574,35.594036862111594],[139.76521459580533,35.59394914782847],[139.76495867442347,35.59382208794133],[139.76484042132313,35.59376343078797],[139.76496582015125,35.59359485290089],[139.7655166021674,35.59386828365828],[139.76547826465497,35.593919821285866],[139.7654310884458,35.593983252199465]]]}},{"type":"Feature","properties":{"height":14.9,"gml_id":"bldg_041b567a-bafa-4039-80b5-ede5510d7231"},"geometry":{"type":"Polygon","coordinates":[[[139.764028673732,35.59218013493861],[139.76404081135453,35.59192568093558],[139.76460172917814,35.591943579124674],[139.76458970383695,35.59219785297145],[139.764449887688,35.59219344649495],[139.7641706968571,35.59218463330873],[139.7641390258148,35.59218362360663],[139.764028673732,35.59218013493861]]]}},{"type":"Feature","properties":{"height":29.9,"gml_id":"bldg_99dd0a6d-128a-4e00-b5c1-73e3b6ceb661"},"geometry":{"type":"Polygon","coordinates":[[[139.77266223528514,35.592710027288355],[139.7737180650792,35.59129528949906],[139.77381558611398,35.59133824362976],[139.7727589849785,35.592752981876146],[139.77266223528514,35.592710027288355]]]}},{"type":"Feature","properties":{"height":43.4,"gml_id":"bldg_a09b4c9b-b604-499e-b313-e051d32893eb"},"geometry":{"type":"Polygon","coordinates":[[[139.76313522777306,35.592192958366944],[139.76314651040673,35.59190983991508],[139.76349864162938,35.591922123022215],[139.76348835577815,35.59220253792992],[139.7634209304042,35.5922006960673],[139.76313522777306,35.592192958366944]]]}},{"type":"Feature","properties":{"height":48.5,"gml_id":"bldg_421fcf47-19b6-4afa-96af-0d8b10eb5fcd"},"geometry":{"type":"Polygon","coordinates":[[[139.7666274134235,35.592327896053824],[139.76660100964602,35.5923626748967],[139.76649511292695,35.592309254226876],[139.76648505943697,35.59232267928708],[139.76617266472294,35.592165304073696],[139.76618360100997,35.592151969669565],[139.76608068314735,35.59210008264816],[139.76608598613905,35.59209296466567],[139.7661452016734,35.59201484761146],[139.76648557921314,35.591564704913324],[139.7665493236527,35.591480370608],[139.76706556627266,35.59174088542809],[139.76697508728114,35.59186044944135],[139.7667692712474,35.59213264435955],[139.76681162988328,35.59215403057062],[139.7667794814386,35.5921964680552],[139.76672766809645,35.59226503482919],[139.76668950120094,35.592245724092315],[139.7666274134235,35.592327896053824]]]}},{"type":"Feature","properties":{"height":22.0,"gml_id":"bldg_23e00a4c-abc3-461c-a7dd-f4c903da0ca7"},"geometry":{"type":"Polygon","coordinates":[[[139.76388912171612,35.59212552082055],[139.76399870185477,35.5921282880643],[139.7639895539216,35.592370845493406],[139.76388229091378,35.59236807957653],[139.76388912171612,35.59212552082055]]]}},{"type":"Feature","properties":{"height":30.0,"gml_id":"bldg_4bb4b7d7-bc5f-4b71-946f-992932b2ad4e"},"geometry":{"type":"Polygon","coordinates":[[[139.7648701115249,35.59181447326539],[139.7648652773256,35.59191894104311],[139.76454095334685,35.591908931266175],[139.76454589832136,35.591804463564756],[139.7648701115249,35.59181447326539]]]}},{"type":"Feature","properties":{"height":7.0,"gml_id":"bldg_dcaf13cb-84b9-4692-893d-b5e43d7511d5"},"geometry":{"type":"Polygon","coordinates":[[[139.76310115386335,35.592289747260004],[139.76309700277378,35.59236753436131],[139.76298036102315,35.59236313968295],[139.76298373973907,35.59228535213484],[139.76310115386335,35.592289747260004]]]}},{"type":"Feature","properties":{"height":14.4,"gml_id":"bldg_729763bb-f7d3-499a-85b7-483e66cace1a"},"geometry":{"type":"Polygon","coordinates":[[[139.76364988014245,35.59211618860855],[139.76351966459868,35.59211232743437],[139.76352325713884,35.591914745925514],[139.76402205222422,35.59192431807148],[139.76401492597637,35.59212604393414],[139.76372447821026,35.592118395039904],[139.76364988014245,35.59211618860855]]]}},{"type":"Feature","properties":{"height":41.5,"gml_id":"bldg_e4bacb2c-bddc-44c5-952c-c2a524db6bcf"},"geometry":{"type":"Polygon","coordinates":[[[139.76392021670472,35.59995198896923],[139.7633099366239,35.5996497624719],[139.7636522479959,35.59918881289015],[139.76363117741388,35.59917834465187],[139.76368719772566,35.59910284106685],[139.76370981277432,35.59911403129488],[139.76395577045056,35.598782553982616],[139.7641691237938,35.59888822867985],[139.76426657788528,35.59875695292521],[139.7642887867634,35.598727039702716],[139.7643011618529,35.59871037118813],[139.76463409973306,35.5988751541541],[139.76455001561516,35.59898841015627],[139.7645074761713,35.59904580402679],[139.76450327745982,35.59905148034765],[139.76456781337566,35.59908342618072],[139.76432130485452,35.59941562551809],[139.7643405006993,35.59942456020951],[139.76428304448137,35.599501866039425],[139.7642619736576,35.59949148805013],[139.76392021670472,35.59995198896923]]]}},{"type":"Feature","properties":{"height":6.6,"gml_id":"bldg_157783e0-f5b5-436e-a889-3ffa1bfc79ed"},"geometry":{"type":"Polygon","coordinates":[[[139.76974325706146,35.5936318110367],[139.7697954019244,35.59356053900138],[139.7699094671286,35.593616214523166],[139.76985732233055,35.59368748660724],[139.76974325706146,35.5936318110367]]]}},{"type":"Feature","properties":{"height":5.0,"gml_id":"bldg_6570af39-d18f-47b9-ba3b-b2a43e7963d9"},"geometry":{"type":"Polygon","coordinates":[[[139.7724828216232,35.592677126426395],[139.77250311950846,35.59268714204569],[139.77248091535603,35.59271705681678],[139.772460617466,35.59270704119378],[139.7724828216232,35.592677126426395]]]}},{"type":"Feature","properties":{"height":27.3,"gml_id":"bldg_fe9b1078-852e-4473-af03-76c36537b009"},"geometry":{"type":"Polygon","coordinates":[[[139.77250292048186,35.59265847790404],[139.77251562468254,35.59264090730896],[139.77253790842002,35.59265164503247],[139.77252520415436,35.59266930576833],[139.77250292048186,35.59265847790404]]]}},{"type":"Feature","properties":{"height":3.5,"gml_id":"bldg_ceb92893-2fb5-44be-8466-0f5193700327"},"geometry":{"type":"Polygon","coordinates":[[[139.77088172737015,35.59430790406773],[139.77090680347305,35.594275917902515],[139.77095622382222,35.594301723093025],[139.77093114773092,35.59433370926839],[139.77088172737015,35.59430790406773]]]}},{"type":"Feature","properties":{"height":13.4,"gml_id":"bldg_27b6ed77-3c6f-41c3-9dac-ab0e94c4c4ef"},"geometry":{"type":"Polygon","coordinates":[[[139.76310584097521,35.592229988169],[139.76270228577096,35.59221451894153],[139.76270576307013,35.59215043250866],[139.762718766497,35.591920136265244],[139.7627203415415,35.59188588455798],[139.7631262130199,35.59190081424321],[139.76310584097521,35.592229988169]]]}},{"type":"Feature","properties":{"height":18.2,"gml_id":"bldg_fdb1c49e-782d-4198-9208-c65aa1cb0e83"},"geometry":{"type":"Polygon","coordinates":[[[139.76609242063253,35.59944195562047],[139.7661629128386,35.599479131947504],[139.7660310982094,35.599657171859356],[139.76601828126712,35.59967456140936],[139.76595617150448,35.59964360923429],[139.76592269461844,35.599686766800005],[139.76587989124653,35.599664839222044],[139.76591336935593,35.59962023945458],[139.765946023717,35.59963666290464],[139.76609242063253,35.59944195562047]]]}},{"type":"Feature","properties":{"height":22.1,"gml_id":"bldg_3f1b5ae2-0a6f-47dc-8a5b-9324500e109a"},"geometry":{"type":"Polygon","coordinates":[[[139.7652708917328,35.59601893885032],[139.7651830793155,35.59597832692832],[139.76531522100848,35.59580010774055],[139.76540336445453,35.59584062961556],[139.76537132354042,35.59588378786544],[139.7652708917328,35.59601893885032]]]}},{"type":"Feature","properties":{"height":6.0,"gml_id":"bldg_64d6041b-f30d-4208-91b1-5d220d99863f"},"geometry":{"type":"Polygon","coordinates":[[[139.7636278378538,35.592210370591474],[139.76352631338,35.59220778795362],[139.7635298142793,35.592115758576085],[139.76363133863705,35.5921183412109],[139.7636278378538,35.592210370591474]]]}},{"type":"Feature","properties":{"height":11.1,"gml_id":"bldg_2cf16e0a-eb89-40cc-9954-0186a93d402c"},"geometry":{"type":"Polygon","coordinates":[[[139.7712127783322,35.593195045237614],[139.7712213605804,35.593228130485045],[139.77120324491344,35.59325038535347],[139.77117113158573,35.59324982796364],[139.7712127783322,35.593195045237614]]]}},{"type":"Feature","properties":{"height":12.3,"gml_id":"bldg_d4543d9c-407e-4f0e-bb3e-304694530f0b"},"geometry":{"type":"Polygon","coordinates":[[[139.77107841702056,35.59312674107504],[139.77102381207405,35.59309904034141],[139.7710390570966,35.593078586785424],[139.77107137885295,35.593094918553426],[139.77107841702056,35.59312674107504]]]}},{"type":"Feature","properties":{"height":2.7,"gml_id":"bldg_4b27df4c-c6f9-47b8-ae7a-9a8cd8522fde"},"geometry":{"type":"Polygon","coordinates":[[[139.7668382496954,35.59666168962454],[139.76681574526074,35.59665050004019],[139.7668846871443,35.5965579659019],[139.7669071914882,35.596569245611924],[139.7668382496954,35.59666168962454]]]}},{"type":"Feature","properties":{"height":24.9,"gml_id":"bldg_bee3e185-01c4-4a0e-870b-7a3c08944b02"},"geometry":{"type":"Polygon","coordinates":[[[139.7695195130251,35.592721744768866],[139.76958007448115,35.592751883075636],[139.76928577251172,35.59314599278716],[139.76921958492505,35.593113057048534],[139.7678003161721,35.592405968479184],[139.76774019691905,35.59237600979451],[139.76803450363374,35.59198190381166],[139.7680940711476,35.592011591637245],[139.7695195130251,35.592721744768866]]]}},{"type":"Feature","properties":{"height":31.9,"gml_id":"bldg_dea009fd-ab65-4211-b534-20abb5d8b933"},"geometry":{"type":"Polygon","coordinates":[[[139.77266223528514,35.592710027288355],[139.7726049821497,35.59268151468948],[139.7725971388582,35.59269214707952],[139.77255058624255,35.592668958017846],[139.7725596445407,35.592656884027555],[139.77216582368328,35.59246081384862],[139.77322165899332,35.59104599021629],[139.7736228664641,35.591245756328114],[139.77363059885724,35.59123548436776],[139.77367262812237,35.59125641731565],[139.77366379099067,35.591268311225015],[139.7737180650792,35.59129528949906],[139.77266223528514,35.592710027288355]]]}},{"type":"Feature","properties":{"height":2.9,"gml_id":"bldg_278dc3b9-c8d7-4fb8-b2bb-8711c163d64c"},"geometry":{"type":"Polygon","coordinates":[[[139.766761625817,35.59670175892499],[139.7667833575804,35.59671312836956],[139.7667382827002,35.59677043151219],[139.7667165509277,35.59675906205961],[139.766761625817,35.59670175892499]]]}},{"type":"Feature","properties":{"height":2.6,"gml_id":"bldg_efb39106-7f57-48e8-b2b7-63ffce16ec93"},"geometry":{"type":"Polygon","coordinates":[[[139.76663566991368,35.59674234171536],[139.76665036239564,35.596724953128664],[139.76668367595747,35.59674372035015],[139.76666898347924,35.59676110894083],[139.76663566991368,35.59674234171536]]]}},{"type":"Feature","properties":{"height":2.6,"gml_id":"bldg_d9ffda62-b7d8-4a3d-ae22-a020852edf8f"},"geometry":{"type":"Polygon","coordinates":[[[139.76619623651916,35.59671181120683],[139.7661752765397,35.596701433609255],[139.7662431146146,35.59661007102368],[139.76628889553518,35.5966328113853],[139.76627585833432,35.59665029098762],[139.76625103729958,35.596638018347655],[139.76619623651916,35.59671181120683]]]}},{"type":"Feature","properties":{"height":5.8,"gml_id":"bldg_5deb8f71-6c93-432f-aa24-e6d93d22c90f"},"geometry":{"type":"Polygon","coordinates":[[[139.76426657788528,35.59875695292521],[139.76420976372447,35.59872978869366],[139.76423131035486,35.598699965240186],[139.7642887867634,35.598727039702716],[139.76426657788528,35.59875695292521]]]}},{"type":"Feature","properties":{"height":2.6,"gml_id":"bldg_2ffb7b34-2dfc-4544-a709-25d253b183b6"},"geometry":{"type":"Polygon","coordinates":[[[139.7652803995855,35.5986065478615],[139.76532805824144,35.59862847839573],[139.76529446634825,35.59867722431017],[139.7652468076726,35.5986552937628],[139.7652803995855,35.5986065478615]]]}},{"type":"Feature","properties":{"height":11.4,"gml_id":"bldg_6daaea5f-ad86-4cc4-8b78-4a7a6bdeb19d"},"geometry":{"type":"Polygon","coordinates":[[[139.76282477591258,35.599517877553424],[139.7628009097659,35.59954896133086],[139.76255622979764,35.59942397621421],[139.76266108660496,35.599287027400194],[139.76273841764663,35.59932655333874],[139.7627984293064,35.59935714539144],[139.7629058766851,35.599412012371],[139.76282477591258,35.599517877553424]]]}},{"type":"Feature","properties":{"height":2.8,"gml_id":"bldg_7ad8e413-d7ad-4495-b0cc-6f7828b14607"},"geometry":{"type":"Polygon","coordinates":[[[139.76511806987668,35.59871822770325],[139.7651124585233,35.59869794338697],[139.76516963608321,35.598687339409324],[139.76517535789068,35.59870753364704],[139.76511806987668,35.59871822770325]]]}},{"type":"Feature","properties":{"height":2.5,"gml_id":"bldg_453da29d-debf-4dd1-b2d3-2f670d274cc6"},"geometry":{"type":"Polygon","coordinates":[[[139.76264143096546,35.591768297694216],[139.76268490919784,35.59176994568098],[139.76268098747124,35.5918374571198],[139.76263750928166,35.59183571899314],[139.76264143096546,35.591768297694216]]]}},{"type":"Feature","properties":{"height":2.4,"gml_id":"bldg_b7a95390-bbd3-4771-91ed-c4555fe9ace0"},"geometry":{"type":"Polygon","coordinates":[[[139.76261521631406,35.591837238269214],[139.76259138036434,35.591836503173006],[139.76259431087908,35.59176682783132],[139.7626181468082,35.59176756292694],[139.76261521631406,35.591837238269214]]]}},{"type":"Feature","properties":{"height":3.8,"gml_id":"bldg_5d43ed26-850c-4760-beb3-e79b19c083ae"},"geometry":{"type":"Polygon","coordinates":[[[139.7625958137117,35.591940165050424],[139.76259682609316,35.59191835212767],[139.76264736734234,35.591919733857615],[139.76264646525004,35.59194163698397],[139.7625958137117,35.591940165050424]]]}},{"type":"Feature","properties":{"height":6.6,"gml_id":"bldg_2b0d8666-794f-4ba3-8c3f-c08c75ba5027"},"geometry":{"type":"Polygon","coordinates":[[[139.77284433102653,35.5928452364185],[139.77251746943674,35.59268228180882],[139.77252829534146,35.592667684835014],[139.77285515689397,35.59283063941569],[139.77284433102653,35.5928452364185]]]}},{"type":"Feature","properties":{"height":22.9,"gml_id":"bldg_c8919a43-b435-42de-9682-f941d6e7ffa6"},"geometry":{"type":"Polygon","coordinates":[[[139.76618562913401,35.59289489225868],[139.7651359271575,35.592368615181314],[139.76516896350594,35.59232131116029],[139.76622297092024,35.59284524675062],[139.76618562913401,35.59289489225868]]]}},{"type":"Feature","properties":{"height":7.8,"gml_id":"bldg_8812c7a8-dee8-46cd-b70c-4fc203db6f36"},"geometry":{"type":"Polygon","coordinates":[[[139.76361738119596,35.593070105457755],[139.76347027999518,35.59306578376889],[139.76347422085587,35.59297555743087],[139.7636213218918,35.59297987911479],[139.76361738119596,35.593070105457755]]]}},{"type":"Feature","properties":{"height":13.2,"gml_id":"bldg_c2ade6f3-cd22-415f-8577-ddbce9ccd83d"},"geometry":{"type":"Polygon","coordinates":[[[139.76643425602893,35.59820652869453],[139.76657303625572,35.598275020704115],[139.76643569995474,35.598460719801146],[139.7662969195249,35.598392227635294],[139.76643425602893,35.59820652869453]]]}},{"type":"Feature","properties":{"height":16.6,"gml_id":"bldg_e7dc9fb6-9bf1-4608-9c63-f449fe1072b6"},"geometry":{"type":"Polygon","coordinates":[[[139.7662410893169,35.59811123515166],[139.76642565121685,35.598202287412434],[139.76628831470026,35.59838798634353],[139.76610375253017,35.59829693387494],[139.7662410893169,35.59811123515166]]]}},{"type":"Feature","properties":{"height":2.9,"gml_id":"bldg_ca16a520-2222-4843-b1e8-407654c13c43"},"geometry":{"type":"Polygon","coordinates":[[[139.765704686144,35.599074604989134],[139.76568755992602,35.59909803135975],[139.76563593050426,35.599072853756525],[139.76565305673196,35.59904942739316],[139.765704686144,35.599074604989134]]]}},{"type":"Feature","properties":{"height":2.9,"gml_id":"bldg_11aab341-8d39-43f3-bdba-7e67ddb7d22a"},"geometry":{"type":"Polygon","coordinates":[[[139.76564370482174,35.59901489913546],[139.76561155042987,35.599060400960354],[139.76555352174242,35.599033056404025],[139.76558578652052,35.59898755465646],[139.76564370482174,35.59901489913546]]]}},{"type":"Feature","properties":{"height":6.5,"gml_id":"bldg_ab87aa47-efaf-424c-b3a6-403d47997107"},"geometry":{"type":"Polygon","coordinates":[[[139.76463107466972,35.5981532339659],[139.76450136214143,35.598323791953874],[139.76444499089658,35.598295185869894],[139.7645747034981,35.59812462794185],[139.76463107466972,35.5981532339659]]]}},{"type":"Feature","properties":{"height":6.6,"gml_id":"bldg_830d4e6d-efb9-4107-a4e8-97d3a0e7eef7"},"geometry":{"type":"Polygon","coordinates":[[[139.7662726547293,35.59546325608756],[139.76637237801503,35.595513428513],[139.76629791326738,35.595612178855475],[139.76619807954611,35.595562006307674],[139.7662726547293,35.59546325608756]]]}},{"type":"Feature","properties":{"height":7.8,"gml_id":"bldg_42dbfb30-30d5-4eee-9654-fa2055e37c87"},"geometry":{"type":"Polygon","coordinates":[[[139.76271978115503,35.59566548050261],[139.76266292906436,35.595558993675816],[139.76271989254298,35.59553865577615],[139.7627768550546,35.59564514264112],[139.76271978115503,35.59566548050261]]]}},{"type":"Feature","properties":{"height":5.2,"gml_id":"bldg_6ab784c4-6489-4883-a8a7-8839cb8a80d7"},"geometry":{"type":"Polygon","coordinates":[[[139.77231076242995,35.5957498599151],[139.77228594047608,35.59573794906922],[139.7723216244237,35.595688300854],[139.77234644636758,35.59570021169264],[139.77231076242995,35.5957498599151]]]}},{"type":"Feature","properties":{"height":2.3,"gml_id":"bldg_a9616de6-a691-4b32-8577-06da53bcb180"},"geometry":{"type":"Polygon","coordinates":[[[139.7707551601172,35.594432499917644],[139.77073916380127,35.59442528053341],[139.77074899711099,35.59441059306992],[139.77076499342485,35.59441781245287],[139.7707551601172,35.594432499917644]]]}},{"type":"Feature","properties":{"height":41.4,"gml_id":"bldg_c86d191b-5e2e-4684-872e-94f948fffb72"},"geometry":{"type":"Polygon","coordinates":[[[139.76651267355845,35.59401856002824],[139.76655084933793,35.59402813586595],[139.7671185172132,35.59431040221268],[139.7671216059742,35.59431193626355],[139.76724328116592,35.59437239582058],[139.76744658831694,35.59447346311938],[139.76747460386568,35.59449231646948],[139.76750744294017,35.59455056385765],[139.7675080734315,35.59458923360268],[139.76749789035034,35.59462600453321],[139.7672910166724,35.59490295984868],[139.7671209317432,35.5951306635308],[139.76711783827395,35.59513480820014],[139.76703762912612,35.595242028864895],[139.7670009708952,35.595264993999635],[139.76696167071708,35.59527984520751],[139.76692227043984,35.59528225724101],[139.76688530201312,35.59527989326447],[139.76684767881213,35.59526860520861],[139.76611526092745,35.594902309824406],[139.7659418980892,35.59481560707761],[139.7659092648851,35.59477628845759],[139.7658990304149,35.5947418498401],[139.765895414137,35.59471138101722],[139.7659091320779,35.594671457354494],[139.7661347346074,35.59437178282719],[139.76635790495817,35.5940752613566],[139.76639457078397,35.59404274173911],[139.76643497748714,35.594023744957376],[139.76648155497517,35.594015838617],[139.76651267355845,35.59401856002824]]]}}]}